{"type":"FeatureCollection","features":[{"type":"Feature","properties":{"id":"area-13106001001","name":"台東一丁目"},"geometry":{"type":"Polygon","coordinates":[[[139.77569,35.70262],[139.78093,35.70223],[139.78054,35.70019],[139.77549,35.70057],[139.77569,35.70262]]]}},{"type":"Feature","properties":{"id":"area-13106001002","name":"台東二丁目"},"geometry":{"type":"Polygon","coordinates":[[[139.77586,35.70422],[139.78131,35.70383],[139.78093,35.70223],[139.77569,35.70262],[139.77586,35.70422]]]}},{"type":"Feature","properties":{"id":"area-13106001003","name":"台東三丁目"},"geometry":{"type":"Polygon","coordinates":[[[139.77602,35.70587],[139.78166,35.70538],[139.78132,35.70383],[139.77586,35.70422],[139.77602,35.70587]]]}},{"type":"Feature","properties":{"id":"area-13106001004","name":"台東四丁目"},"geometry":{"type":"Polygon","coordinates":[[[139.78196,35.70703],[139.78166,35.70538],[139.77602,35.70587],[139.77619,35.70766],[139.78196,35.70703]]]}},{"type":"Feature","properties":{"id":"area-131060020","name":"秋葉原"},"geometry":{"type":"Polygon","coordinates":[[[139.77569,35.70262],[139.77559,35.70159],[139.77338,35.70174],[139.77371,35.70278],[139.77569,35.70262]]]}},{"type":"Feature","properties":{"id":"area-13106003001","name":"東上野一丁目"},"geometry":{"type":"Polygon","coordinates":[[[139.77638,35.70888],[139.77867,35.70886],[139.78213,35.70856],[139.78196,35.70703],[139.77628,35.70764],[139.77638,35.70888]]]}},{"type":"Feature","properties":{"id":"area-13106003002","name":"東上野二丁目"},"geometry":{"type":"Polygon","coordinates":[[[139.78243,35.70946],[139.78213,35.70856],[139.77867,35.70886],[139.77638,35.70888],[139.77649,35.70981],[139.77662,35.71038],[139.77665,35.71112],[139.77685,35.71106],[139.77862,35.71017],[139.78243,35.70946]]]}},{"type":"Feature","properties":{"id":"area-13106003003","name":"東上野三丁目"},"geometry":{"type":"Polygon","coordinates":[[[139.78304,35.7112],[139.78243,35.70946],[139.77862,35.71017],[139.77685,35.71106],[139.77665,35.71112],[139.77764,35.71189],[139.77784,35.71212],[139.78304,35.7112]]]}},{"type":"Feature","properties":{"id":"area-13106003004","name":"東上野四丁目"},"geometry":{"type":"Polygon","coordinates":[[[139.7826,35.71572],[139.78088,35.71305],[139.78066,35.71162],[139.77784,35.71212],[139.77803,35.71219],[139.77912,35.71375],[139.77922,35.71371],[139.77982,35.71458],[139.77975,35.71463],[139.78084,35.71619],[139.7826,35.71572]]]}},{"type":"Feature","properties":{"id":"area-13106003005","name":"東上野五丁目"},"geometry":{"type":"Polygon","coordinates":[[[139.78306,35.71128],[139.78304,35.7112],[139.78066,35.71162],[139.78088,35.71305],[139.7826,35.71572],[139.78298,35.71563],[139.78306,35.71128]]]}},{"type":"Feature","properties":{"id":"area-13106003006","name":"東上野六丁目"},"geometry":{"type":"Polygon","coordinates":[[[139.78298,35.71563],[139.78544,35.71518],[139.78501,35.71086],[139.78304,35.7112],[139.78306,35.71128],[139.78306,35.71188],[139.78298,35.71563]]]}},{"type":"Feature","properties":{"id":"area-13106004001","name":"上野一丁目"},"geometry":{"type":"Polygon","coordinates":[[[139.77307,35.70799],[139.77286,35.70713],[139.77206,35.70575],[139.772,35.70508],[139.76994,35.70522],[139.77009,35.70736],[139.77234,35.70721],[139.77244,35.70805],[139.77307,35.70799]]]}},{"type":"Feature","properties":{"id":"area-13106004002","name":"上野二丁目"},"geometry":{"type":"Polygon","coordinates":[[[139.77339,35.71041],[139.77344,35.70994],[139.77347,35.70998],[139.77356,35.71],[139.77342,35.70957],[139.77339,35.70929],[139.77307,35.70799],[139.77244,35.70805],[139.77247,35.7081],[139.77246,35.70832],[139.77157,35.70831],[139.77152,35.7089],[139.77148,35.70912],[139.77146,35.70913],[139.76981,35.7088],[139.76978,35.70925],[139.77275,35.70982],[139.77285,35.70989],[139.77287,35.70995],[139.77287,35.7101],[139.77273,35.7122],[139.77265,35.7124],[139.77273,35.71242],[139.77298,35.71205],[139.77339,35.71041]]]}},{"type":"Feature","properties":{"id":"area-13106004003","name":"上野三丁目"},"geometry":{"type":"Polygon","coordinates":[[[139.77444,35.70693],[139.7743,35.70575],[139.77407,35.70431],[139.77374,35.70278],[139.77372,35.7028],[139.77302,35.70286],[139.77325,35.70499],[139.772,35.70508],[139.77206,35.70575],[139.77286,35.70713],[139.77307,35.70799],[139.77463,35.7078],[139.77444,35.70693]]]}},{"type":"Feature","properties":{"id":"area-13106004004","name":"上野四丁目"},"geometry":{"type":"Polygon","coordinates":[[[139.77464,35.71152],[139.77453,35.71088],[139.77452,35.71065],[139.77457,35.7102],[139.77476,35.70918],[139.77478,35.70868],[139.77475,35.70838],[139.77463,35.7078],[139.77307,35.70799],[139.77339,35.70929],[139.77342,35.70957],[139.77356,35.71],[139.77387,35.71056],[139.77393,35.71077],[139.77435,35.71153],[139.77435,35.71143],[139.77461,35.71159],[139.77464,35.71152]]]}},{"type":"Feature","properties":{"id":"area-13106004005","name":"上野五丁目"},"geometry":{"type":"Polygon","coordinates":[[[139.77619,35.70766],[139.77569,35.70262],[139.77374,35.70278],[139.77398,35.70386],[139.7743,35.70575],[139.77442,35.70693],[139.77464,35.70782],[139.77619,35.70766]]]}},{"type":"Feature","properties":{"id":"area-13106004006","name":"上野六丁目"},"geometry":{"type":"Polygon","coordinates":[[[139.77527,35.7115],[139.7761,35.71139],[139.77631,35.71142],[139.77642,35.7114],[139.77653,35.71087],[139.77663,35.71069],[139.77662,35.71038],[139.77649,35.70981],[139.77628,35.70764],[139.77464,35.70782],[139.77475,35.70838],[139.77478,35.70868],[139.77476,35.70918],[139.77457,35.7102],[139.77452,35.71065],[139.77453,35.71088],[139.77464,35.71152],[139.77527,35.7115]]]}},{"type":"Feature","properties":{"id":"area-13106004007","name":"上野七丁目"},"geometry":{"type":"Polygon","coordinates":[[[139.78041,35.71915],[139.78046,35.71882],[139.78049,35.71892],[139.78048,35.71861],[139.78052,35.71814],[139.78067,35.71814],[139.78054,35.71799],[139.7806,35.71733],[139.78076,35.71738],[139.78078,35.71725],[139.78094,35.71717],[139.78098,35.71725],[139.78159,35.71697],[139.78095,35.71616],[139.78084,35.71619],[139.77975,35.71463],[139.77982,35.71458],[139.77922,35.71371],[139.77912,35.71375],[139.77803,35.71219],[139.77784,35.71212],[139.77764,35.71189],[139.77665,35.71112],[139.77663,35.71069],[139.77653,35.71087],[139.77642,35.7114],[139.77631,35.71142],[139.7761,35.71139],[139.77527,35.7115],[139.77464,35.71152],[139.77461,35.71159],[139.77435,35.71143],[139.77435,35.71153],[139.77455,35.71165],[139.775,35.71258],[139.7751,35.71264],[139.77556,35.71326],[139.77577,35.71375],[139.77675,35.71503],[139.77694,35.71494],[139.77848,35.71666],[139.77878,35.71704],[139.77875,35.71709],[139.77887,35.71722],[139.77883,35.71727],[139.77899,35.71746],[139.77917,35.7175],[139.77938,35.71781],[139.77947,35.7181],[139.77955,35.71863],[139.77957,35.71904],[139.77949,35.71941],[139.77923,35.72001],[139.77968,35.72058],[139.7798,35.72048],[139.77997,35.72025],[139.78021,35.71988],[139.78035,35.71951],[139.78033,35.7195],[139.78043,35.71918],[139.78041,35.71915]]]}},{"type":"Feature","properties":{"id":"area-13106005001","name":"池之端一丁目"},"geometry":{"type":"Polygon","coordinates":[[[139.76778,35.7127],[139.76792,35.71242],[139.76849,35.71255],[139.76864,35.71186],[139.76875,35.71038],[139.76878,35.71037],[139.76901,35.70984],[139.76902,35.70971],[139.76966,35.70924],[139.76978,35.70925],[139.76981,35.7088],[139.76916,35.7087],[139.76915,35.70876],[139.76908,35.70882],[139.76881,35.70896],[139.76877,35.70894],[139.76866,35.70878],[139.76856,35.70872],[139.7683,35.70869],[139.76816,35.70863],[139.76809,35.70865],[139.76808,35.70869],[139.76803,35.70869],[139.76798,35.70876],[139.76782,35.70869],[139.7669,35.70865],[139.76692,35.70917],[139.76717,35.70917],[139.76717,35.70942],[139.76686,35.70942],[139.76687,35.71029],[139.76672,35.7103],[139.76674,35.71037],[139.76728,35.71037],[139.76805,35.71025],[139.76808,35.71028],[139.76808,35.71105],[139.76781,35.71106],[139.76781,35.71102],[139.76695,35.7111],[139.76695,35.71133],[139.76675,35.71137],[139.76684,35.71142],[139.76759,35.71148],[139.76765,35.71215],[139.76778,35.7127]]]}},{"type":"Feature","properties":{"id":"area-13106005002","name":"池之端二丁目"},"geometry":{"type":"Polygon","coordinates":[[[139.7649,35.7175],[139.76594,35.7165],[139.766,35.7165],[139.76632,35.71666],[139.76636,35.71663],[139.76676,35.71679],[139.76774,35.71561],[139.7678,35.71541],[139.76792,35.7147],[139.76779,35.71451],[139.76826,35.71303],[139.76835,35.71296],[139.76849,35.71255],[139.76792,35.71242],[139.76778,35.7127],[139.76752,35.71291],[139.76736,35.713],[139.76691,35.71316],[139.76659,35.71319],[139.76563,35.71353],[139.76574,35.71393],[139.76557,35.71425],[139.76585,35.71465],[139.76591,35.71479],[139.76593,35.71496],[139.76603,35.71498],[139.76598,35.71551],[139.76593,35.71572],[139.76542,35.71653],[139.76532,35.71676],[139.76467,35.71686],[139.76443,35.71723],[139.7649,35.7175]]]}},{"type":"Feature","properties":{"id":"area-13106005003","name":"池之端三丁目"},"geometry":{"type":"Polygon","coordinates":[[[139.76975,35.7157],[139.76995,35.71489],[139.7701,35.71473],[139.77039,35.71463],[139.77023,35.71439],[139.76984,35.7144],[139.76962,35.71451],[139.76938,35.71479],[139.76929,35.71513],[139.76924,35.71523],[139.76913,35.71531],[139.76885,35.71538],[139.76777,35.71551],[139.76774,35.71561],[139.76795,35.71558],[139.76819,35.71565],[139.76861,35.71567],[139.76874,35.71572],[139.76829,35.71658],[139.7697,35.71735],[139.76981,35.71717],[139.76985,35.71677],[139.76974,35.71622],[139.76975,35.7157]]]}},{"type":"Feature","properties":{"id":"area-13106005004","name":"池之端四丁目"},"geometry":{"type":"Polygon","coordinates":[[[139.77026,35.71738],[139.76981,35.71717],[139.7697,35.71735],[139.76829,35.71658],[139.76789,35.71731],[139.76735,35.71791],[139.76686,35.7184],[139.76713,35.71861],[139.76713,35.71867],[139.76762,35.71901],[139.76918,35.72019],[139.76938,35.72019],[139.76955,35.72031],[139.76991,35.71948],[139.76986,35.7194],[139.76909,35.71891],[139.77033,35.71769],[139.7704,35.71748],[139.77026,35.71738]]]}},{"type":"Feature","properties":{"id":"area-131060060","name":"上野公園"},"geometry":{"type":"Polygon","coordinates":[[[139.77366,35.72131],[139.7745,35.71995],[139.77541,35.72119],[139.77547,35.72122],[139.77632,35.72077],[139.77644,35.72045],[139.77798,35.71954],[139.77813,35.71933],[139.77852,35.71911],[139.77923,35.72001],[139.77949,35.71941],[139.77957,35.71904],[139.77955,35.71863],[139.77943,35.71792],[139.77917,35.7175],[139.77899,35.71746],[139.77883,35.71727],[139.77887,35.71722],[139.77875,35.71709],[139.77878,35.71704],[139.77829,35.71644],[139.77694,35.71494],[139.77675,35.71503],[139.77577,35.71375],[139.77565,35.71343],[139.77545,35.71309],[139.7751,35.71264],[139.775,35.71258],[139.77455,35.71165],[139.77435,35.71153],[139.77393,35.71077],[139.77387,35.71056],[139.77356,35.71],[139.77347,35.70998],[139.77344,35.70994],[139.77338,35.71052],[139.77298,35.71205],[139.77273,35.71242],[139.77265,35.7124],[139.77273,35.7122],[139.77287,35.7101],[139.77287,35.70995],[139.77285,35.70989],[139.77275,35.70982],[139.76966,35.70924],[139.76902,35.70971],[139.76901,35.70984],[139.76878,35.71037],[139.76875,35.71038],[139.76867,35.71156],[139.76857,35.71228],[139.76835,35.71296],[139.76826,35.71303],[139.76779,35.71451],[139.76792,35.7147],[139.76777,35.71551],[139.76885,35.71538],[139.76913,35.71531],[139.76924,35.71523],[139.76929,35.71513],[139.76938,35.71479],[139.76962,35.71451],[139.76984,35.7144],[139.77023,35.71439],[139.77039,35.71463],[139.7701,35.71473],[139.77003,35.71478],[139.76991,35.715],[139.76975,35.7157],[139.76974,35.71622],[139.76985,35.71672],[139.76981,35.71717],[139.77026,35.71738],[139.7704,35.71748],[139.77037,35.7176],[139.77033,35.71769],[139.76909,35.71891],[139.76986,35.7194],[139.76991,35.71948],[139.76987,35.71959],[139.77067,35.71983],[139.77125,35.71995],[139.77127,35.72001],[139.77209,35.72065],[139.77366,35.72131]]]}},{"type":"Feature","properties":{"id":"area-13106007001","name":"北上野一丁目"},"geometry":{"type":"Polygon","coordinates":[[[139.78294,35.71661],[139.78296,35.71565],[139.78095,35.71616],[139.78387,35.71986],[139.78403,35.7198],[139.78389,35.71958],[139.78378,35.71909],[139.78294,35.71661]]]}},{"type":"Feature","properties":{"id":"area-13106007002","name":"北上野二丁目"},"geometry":{"type":"Polygon","coordinates":[[[139.78544,35.71518],[139.78296,35.71565],[139.78294,35.71661],[139.78378,35.71909],[139.78389,35.71958],[139.78403,35.7198],[139.78592,35.71919],[139.78553,35.71746],[139.78543,35.71637],[139.78544,35.71518]]]}},{"type":"Feature","properties":{"id":"area-13106008001","name":"下谷一丁目"},"geometry":{"type":"Polygon","coordinates":[[[139.78387,35.71986],[139.78159,35.71697],[139.78098,35.71725],[139.78094,35.71717],[139.78078,35.71725],[139.78076,35.71738],[139.7806,35.71733],[139.78054,35.71799],[139.78067,35.71814],[139.78052,35.71814],[139.78048,35.71861],[139.78049,35.71892],[139.78132,35.72065],[139.78137,35.72072],[139.78154,35.72061],[139.78387,35.71986]]]}},{"type":"Feature","properties":{"id":"area-13106008002","name":"下谷二丁目"},"geometry":{"type":"Polygon","coordinates":[[[139.78505,35.72309],[139.78583,35.72263],[139.78603,35.72262],[139.78387,35.71986],[139.78154,35.72061],[139.78137,35.72072],[139.7833,35.72282],[139.78422,35.72364],[139.78505,35.72309]]]}},{"type":"Feature","properties":{"id":"area-13106008003","name":"下谷三丁目"},"geometry":{"type":"Polygon","coordinates":[[[139.79016,35.72833],[139.78743,35.72448],[139.78599,35.72262],[139.78583,35.72263],[139.78545,35.72284],[139.78422,35.72364],[139.78595,35.72496],[139.78928,35.72778],[139.79005,35.72841],[139.79016,35.72833]]]}},{"type":"Feature","properties":{"id":"area-13106009001","name":"入谷一丁目"},"geometry":{"type":"Polygon","coordinates":[[[139.78715,35.72265],[139.78723,35.72119],[139.78784,35.71858],[139.78387,35.71986],[139.78603,35.72262],[139.78715,35.72265]]]}},{"type":"Feature","properties":{"id":"area-13106009002","name":"入谷二丁目"},"geometry":{"type":"Polygon","coordinates":[[[139.78937,35.7227],[139.78933,35.7206],[139.78954,35.71914],[139.7894,35.71849],[139.78936,35.7181],[139.78784,35.71858],[139.78723,35.72119],[139.78715,35.72265],[139.78937,35.7227]]]}},{"type":"Feature","properties":{"id":"area-13106010001","name":"根岸一丁目"},"geometry":{"type":"Polygon","coordinates":[[[139.77623,35.72366],[139.77668,35.72363],[139.77692,35.72356],[139.77898,35.72282],[139.77935,35.72261],[139.78085,35.72108],[139.78137,35.72072],[139.78132,35.72065],[139.78046,35.71882],[139.78041,35.71915],[139.78043,35.71918],[139.78036,35.71934],[139.78033,35.7195],[139.78035,35.71951],[139.78021,35.71988],[139.7798,35.72048],[139.77968,35.72058],[139.77933,35.72014],[139.77916,35.72031],[139.77899,35.72023],[139.77877,35.72048],[139.77845,35.7207],[139.77846,35.72089],[139.77568,35.72356],[139.77623,35.72366]]]}},{"type":"Feature","properties":{"id":"area-13106010002","name":"根岸二丁目"},"geometry":{"type":"Polygon","coordinates":[[[139.7741,35.72662],[139.77598,35.72579],[139.77678,35.72526],[139.77708,35.72521],[139.77817,35.72493],[139.77895,35.72491],[139.77863,35.72406],[139.77818,35.72312],[139.77668,35.72363],[139.77623,35.72366],[139.77568,35.72356],[139.77356,35.72555],[139.77298,35.72597],[139.77328,35.72619],[139.77349,35.72603],[139.7741,35.72662]]]}},{"type":"Feature","properties":{"id":"area-13106010003","name":"根岸三丁目"},"geometry":{"type":"Polygon","coordinates":[[[139.78013,35.7248],[139.78187,35.72478],[139.78232,35.72473],[139.78263,35.72467],[139.78277,35.72462],[139.78386,35.72397],[139.78387,35.72391],[139.78422,35.72364],[139.7833,35.72282],[139.78137,35.72072],[139.78085,35.72108],[139.77935,35.72261],[139.77898,35.72282],[139.77818,35.72312],[139.77863,35.72406],[139.77895,35.72491],[139.77936,35.72485],[139.78013,35.7248]]]}},{"type":"Feature","properties":{"id":"area-13106010004","name":"根岸四丁目"},"geometry":{"type":"Polygon","coordinates":[[[139.78361,35.72747],[139.78622,35.72518],[139.78422,35.72364],[139.78387,35.72391],[139.78386,35.72397],[139.78277,35.72462],[139.78232,35.72473],[139.78127,35.72479],[139.78128,35.72531],[139.78177,35.72538],[139.78188,35.72547],[139.78214,35.72553],[139.78216,35.72577],[139.78226,35.72586],[139.78224,35.72624],[139.7823,35.72647],[139.78265,35.72645],[139.78267,35.72655],[139.78299,35.72665],[139.78305,35.7269],[139.78323,35.72702],[139.78332,35.72717],[139.78361,35.72747]]]}},{"type":"Feature","properties":{"id":"area-13106010005","name":"根岸五丁目"},"geometry":{"type":"Polygon","coordinates":[[[139.78928,35.72778],[139.78622,35.72518],[139.78361,35.72747],[139.78372,35.72758],[139.78426,35.72772],[139.78585,35.72756],[139.78627,35.72762],[139.78683,35.72777],[139.78796,35.72783],[139.78838,35.72799],[139.78905,35.72832],[139.78967,35.7287],[139.78986,35.72895],[139.79002,35.72929],[139.79059,35.72993],[139.791,35.73048],[139.79148,35.73126],[139.79165,35.73128],[139.79213,35.73106],[139.79177,35.73003],[139.79073,35.72894],[139.78928,35.72778]]]}},{"type":"Feature","properties":{"id":"area-13106011001","name":"竜泉一丁目"},"geometry":{"type":"Polygon","coordinates":[[[139.7911,35.72275],[139.78671,35.72263],[139.78599,35.72262],[139.78755,35.72464],[139.79102,35.72474],[139.7911,35.72275]]]}},{"type":"Feature","properties":{"id":"area-13106011002","name":"竜泉二丁目"},"geometry":{"type":"Polygon","coordinates":[[[139.78755,35.72464],[139.79016,35.72833],[139.79005,35.72841],[139.79073,35.72894],[139.79101,35.72474],[139.78755,35.72464]]]}},{"type":"Feature","properties":{"id":"area-13106011003","name":"竜泉三丁目"},"geometry":{"type":"Polygon","coordinates":[[[139.79469,35.72757],[139.79593,35.72615],[139.79109,35.72333],[139.79088,35.72672],[139.79332,35.72681],[139.79333,35.72677],[139.79469,35.72757]]]}},{"type":"Feature","properties":{"id":"area-13106012001","name":"三ノ輪一丁目"},"geometry":{"type":"Polygon","coordinates":[[[139.79469,35.72757],[139.79333,35.72677],[139.79332,35.72681],[139.79088,35.72672],[139.79073,35.72894],[139.79177,35.73003],[139.79367,35.7287],[139.79469,35.72757]]]}},{"type":"Feature","properties":{"id":"area-13106012002","name":"三ノ輪二丁目"},"geometry":{"type":"Polygon","coordinates":[[[139.7924,35.73037],[139.79269,35.73008],[139.79313,35.73037],[139.79426,35.73033],[139.7943,35.72978],[139.79508,35.72979],[139.79519,35.72877],[139.79367,35.7287],[139.79177,35.73003],[139.79213,35.73106],[139.7925,35.73086],[139.7924,35.73037]]]}},{"type":"Feature","properties":{"id":"area-13106013001","name":"上野桜木一丁目"},"geometry":{"type":"Polygon","coordinates":[[[139.77568,35.72355],[139.77846,35.72089],[139.77845,35.7207],[139.77877,35.72048],[139.77899,35.72023],[139.77916,35.72031],[139.77933,35.72014],[139.77852,35.71911],[139.77813,35.71933],[139.77798,35.71954],[139.77644,35.72045],[139.77632,35.72077],[139.77547,35.72122],[139.77541,35.72119],[139.7745,35.71995],[139.77366,35.72131],[139.77209,35.72065],[139.77127,35.72001],[139.77125,35.71995],[139.77067,35.71983],[139.76987,35.71959],[139.76991,35.71948],[139.76955,35.72031],[139.76949,35.72027],[139.76938,35.72068],[139.77183,35.72141],[139.77332,35.72194],[139.77356,35.72206],[139.7739,35.72235],[139.77558,35.72353],[139.77568,35.72355]]]}},{"type":"Feature","properties":{"id":"area-13106013002","name":"上野桜木二丁目"},"geometry":{"type":"Polygon","coordinates":[[[139.77542,35.72344],[139.7739,35.72235],[139.77356,35.72206],[139.77332,35.72194],[139.77183,35.72141],[139.77084,35.72111],[139.77035,35.7224],[139.77146,35.7227],[139.77157,35.72243],[139.77243,35.7227],[139.77236,35.72279],[139.77271,35.72295],[139.77261,35.72313],[139.77321,35.72341],[139.77294,35.72383],[139.77379,35.72429],[139.77435,35.72479],[139.77568,35.72355],[139.77558,35.72353],[139.77542,35.72344]]]}},{"type":"Feature","properties":{"id":"area-13106014001","name":"谷中一丁目"},"geometry":{"type":"Polygon","coordinates":[[[139.76893,35.7218],[139.76906,35.7214],[139.76912,35.72141],[139.76939,35.72066],[139.76949,35.72027],[139.76938,35.72019],[139.76918,35.72019],[139.76762,35.71901],[139.76713,35.71867],[139.76713,35.71861],[139.76686,35.7184],[139.76667,35.71858],[139.76613,35.71928],[139.76536,35.72001],[139.76707,35.72155],[139.76745,35.72147],[139.76893,35.7218]]]}},{"type":"Feature","properties":{"id":"area-13106014002","name":"谷中二丁目"},"geometry":{"type":"Polygon","coordinates":[[[139.76664,35.72117],[139.76536,35.72001],[139.76357,35.72151],[139.76354,35.72178],[139.76342,35.72192],[139.76343,35.72199],[139.76354,35.72208],[139.76357,35.72217],[139.76348,35.72236],[139.76349,35.72242],[139.76367,35.72257],[139.7637,35.72263],[139.76374,35.72291],[139.76381,35.72304],[139.76378,35.72325],[139.76386,35.72342],[139.76393,35.72375],[139.76402,35.72388],[139.76403,35.7241],[139.76423,35.72437],[139.7643,35.72455],[139.76427,35.72459],[139.76459,35.72455],[139.76573,35.72406],[139.76564,35.72393],[139.76549,35.7233],[139.76537,35.723],[139.76664,35.72117]]]}},{"type":"Feature","properties":{"id":"area-13106014003","name":"谷中三丁目"},"geometry":{"type":"Polygon","coordinates":[[[139.76578,35.72813],[139.76581,35.7277],[139.76669,35.72765],[139.76668,35.7275],[139.76674,35.72746],[139.76627,35.72663],[139.76615,35.7263],[139.76607,35.72581],[139.76608,35.72507],[139.76605,35.72476],[139.76573,35.72406],[139.76459,35.72455],[139.76426,35.7246],[139.76412,35.72498],[139.76413,35.7251],[139.76448,35.72645],[139.76459,35.72668],[139.76479,35.72724],[139.76482,35.72762],[139.76438,35.72879],[139.76383,35.72967],[139.76256,35.73126],[139.76221,35.73162],[139.76257,35.73163],[139.76281,35.73155],[139.76393,35.73092],[139.76431,35.73082],[139.76447,35.73074],[139.76476,35.73056],[139.76509,35.73026],[139.76545,35.72967],[139.76556,35.72954],[139.76563,35.72923],[139.76561,35.72907],[139.76565,35.72887],[139.76558,35.72883],[139.76553,35.72867],[139.76554,35.72854],[139.76578,35.72813]]]}},{"type":"Feature","properties":{"id":"area-13106014004","name":"谷中四丁目"},"geometry":{"type":"Polygon","coordinates":[[[139.76893,35.7218],[139.76745,35.72147],[139.76707,35.72155],[139.76664,35.72117],[139.76537,35.723],[139.76549,35.7233],[139.76564,35.72393],[139.76573,35.72406],[139.76666,35.72379],[139.76836,35.7236],[139.76893,35.7218]]]}},{"type":"Feature","properties":{"id":"area-13106014005","name":"谷中五丁目"},"geometry":{"type":"Polygon","coordinates":[[[139.76834,35.72766],[139.76828,35.72635],[139.76835,35.72595],[139.76866,35.72516],[139.7692,35.72355],[139.76912,35.72352],[139.76731,35.72373],[139.76699,35.72374],[139.76645,35.72384],[139.76573,35.72406],[139.76605,35.72476],[139.76608,35.72507],[139.76607,35.72581],[139.76615,35.7263],[139.76627,35.72663],[139.76674,35.72746],[139.76718,35.72733],[139.76834,35.72766]]]}},{"type":"Feature","properties":{"id":"area-13106014006","name":"谷中六丁目"},"geometry":{"type":"Polygon","coordinates":[[[139.76836,35.7236],[139.76912,35.72352],[139.76931,35.72356],[139.76978,35.72314],[139.77009,35.72283],[139.7702,35.7228],[139.77084,35.72111],[139.76938,35.72068],[139.76938,35.72066],[139.76912,35.72141],[139.76906,35.7214],[139.76836,35.7236]]]}},{"type":"Feature","properties":{"id":"area-13106014007","name":"谷中七丁目"},"geometry":{"type":"Polygon","coordinates":[[[139.7701,35.72805],[139.77096,35.72731],[139.77119,35.7275],[139.77147,35.72726],[139.77158,35.72731],[139.7719,35.72703],[139.77195,35.72704],[139.77219,35.72683],[139.77225,35.72686],[139.77251,35.72664],[139.77246,35.72658],[139.7728,35.72633],[139.7726,35.72619],[139.77285,35.72598],[139.77295,35.72595],[139.77298,35.72597],[139.77356,35.72555],[139.77435,35.72479],[139.77379,35.72429],[139.77294,35.72383],[139.77321,35.72341],[139.77261,35.72313],[139.77271,35.72295],[139.77236,35.72279],[139.77243,35.7227],[139.77157,35.72243],[139.77146,35.7227],[139.77035,35.7224],[139.7702,35.7228],[139.77009,35.72283],[139.76978,35.72314],[139.76931,35.72356],[139.7692,35.72355],[139.76866,35.72516],[139.76835,35.72595],[139.76828,35.72635],[139.76834,35.72766],[139.76997,35.72807],[139.7701,35.72805]]]}},{"type":"Feature","properties":{"id":"area-13106015001","name":"柳橋一丁目"},"geometry":{"type":"Polygon","coordinates":[[[139.78935,35.69572],[139.78895,35.69478],[139.78744,35.69521],[139.78542,35.69585],[139.78569,35.69637],[139.78701,35.69851],[139.78922,35.69755],[139.78919,35.69749],[139.79034,35.697],[139.78997,35.69657],[139.78935,35.69572]]]}},{"type":"Feature","properties":{"id":"area-13106015002","name":"柳橋二丁目"},"geometry":{"type":"Polygon","coordinates":[[[139.79181,35.69862],[139.79034,35.697],[139.78919,35.69749],[139.78922,35.69755],[139.78701,35.69851],[139.78822,35.7003],[139.79181,35.69862]]]}},{"type":"Feature","properties":{"id":"area-13106016001","name":"浅草橋一丁目"},"geometry":{"type":"Polygon","coordinates":[[[139.78569,35.69637],[139.78542,35.69585],[139.78312,35.6966],[139.78273,35.69664],[139.78297,35.69896],[139.78463,35.69882],[139.78682,35.69849],[139.78695,35.69843],[139.78569,35.69637]]]}},{"type":"Feature","properties":{"id":"area-13106016002","name":"浅草橋二丁目"},"geometry":{"type":"Polygon","coordinates":[[[139.78787,35.69981],[139.78695,35.69843],[139.78682,35.69849],[139.78463,35.69882],[139.78297,35.69896],[139.78375,35.70081],[139.78512,35.70065],[139.78787,35.69981]]]}},{"type":"Feature","properties":{"id":"area-13106016003","name":"浅草橋三丁目"},"geometry":{"type":"Polygon","coordinates":[[[139.78577,35.70169],[139.78801,35.70176],[139.78912,35.70158],[139.78787,35.69981],[139.78512,35.70065],[139.78375,35.70081],[139.78402,35.70189],[139.78577,35.70169]]]}},{"type":"Feature","properties":{"id":"area-13106016004","name":"浅草橋四丁目"},"geometry":{"type":"Polygon","coordinates":[[[139.78297,35.69896],[139.78283,35.69764],[139.78017,35.69789],[139.78038,35.69915],[139.78297,35.69896]]]}},{"type":"Feature","properties":{"id":"area-13106016005","name":"浅草橋五丁目"},"geometry":{"type":"Polygon","coordinates":[[[139.78093,35.70223],[139.78402,35.70189],[139.78375,35.70081],[139.78297,35.69896],[139.78038,35.69915],[139.78054,35.70019],[139.78093,35.70223]]]}},{"type":"Feature","properties":{"id":"area-13106017001","name":"鳥越一丁目"},"geometry":{"type":"Polygon","coordinates":[[[139.78131,35.70383],[139.78439,35.70341],[139.78402,35.70189],[139.78211,35.70212],[139.78093,35.70223],[139.78131,35.70383]]]}},{"type":"Feature","properties":{"id":"area-13106017002","name":"鳥越二丁目"},"geometry":{"type":"Polygon","coordinates":[[[139.78796,35.70285],[139.78801,35.70176],[139.78602,35.70169],[139.78402,35.70189],[139.78435,35.70324],[139.78479,35.70315],[139.78796,35.70285]]]}},{"type":"Feature","properties":{"id":"area-13106018001","name":"蔵前一丁目"},"geometry":{"type":"Polygon","coordinates":[[[139.79253,35.69953],[139.79181,35.69862],[139.78822,35.7003],[139.78912,35.70158],[139.79202,35.70141],[139.79249,35.70131],[139.79341,35.70095],[139.79253,35.69953]]]}},{"type":"Feature","properties":{"id":"area-13106018002","name":"蔵前二丁目"},"geometry":{"type":"Polygon","coordinates":[[[139.7939,35.70182],[139.79341,35.70095],[139.79249,35.70131],[139.79202,35.70141],[139.78916,35.70157],[139.78932,35.70183],[139.7896,35.70212],[139.79333,35.7052],[139.79514,35.70436],[139.79448,35.70313],[139.7939,35.70182]]]}},{"type":"Feature","properties":{"id":"area-13106018003","name":"蔵前三丁目"},"geometry":{"type":"Polygon","coordinates":[[[139.79333,35.7052],[139.7896,35.70212],[139.78948,35.70216],[139.78977,35.7025],[139.78995,35.70282],[139.79075,35.70609],[139.79333,35.7052]]]}},{"type":"Feature","properties":{"id":"area-13106018004","name":"蔵前四丁目"},"geometry":{"type":"Polygon","coordinates":[[[139.78932,35.70183],[139.78916,35.70157],[139.78801,35.70175],[139.78796,35.70285],[139.78801,35.70476],[139.78802,35.70638],[139.79075,35.70609],[139.78995,35.70282],[139.78977,35.7025],[139.78948,35.70216],[139.7896,35.70212],[139.78932,35.70183]]]}},{"type":"Feature","properties":{"id":"area-13106019001","name":"小島一丁目"},"geometry":{"type":"Polygon","coordinates":[[[139.78474,35.70474],[139.78441,35.70341],[139.78132,35.70383],[139.78161,35.70513],[139.78474,35.70474]]]}},{"type":"Feature","properties":{"id":"area-13106019002","name":"小島二丁目"},"geometry":{"type":"Polygon","coordinates":[[[139.78498,35.7067],[139.78474,35.70474],[139.78161,35.70513],[139.78196,35.70703],[139.78498,35.7067]]]}},{"type":"Feature","properties":{"id":"area-13106020001","name":"三筋一丁目"},"geometry":{"type":"Polygon","coordinates":[[[139.78801,35.70476],[139.78796,35.70285],[139.78479,35.70315],[139.78435,35.70324],[139.78474,35.70474],[139.78801,35.70476]]]}},{"type":"Feature","properties":{"id":"area-13106020002","name":"三筋二丁目"},"geometry":{"type":"Polygon","coordinates":[[[139.78802,35.70638],[139.78801,35.70476],[139.78474,35.70474],[139.78498,35.7067],[139.78802,35.70638]]]}},{"type":"Feature","properties":{"id":"area-13106021001","name":"寿一丁目"},"geometry":{"type":"Polygon","coordinates":[[[139.79115,35.7083],[139.79075,35.70609],[139.78802,35.70638],[139.78817,35.70866],[139.79115,35.7083]]]}},{"type":"Feature","properties":{"id":"area-13106021002","name":"寿二丁目"},"geometry":{"type":"Polygon","coordinates":[[[139.7914,35.70963],[139.79115,35.7083],[139.78817,35.70866],[139.78827,35.71027],[139.7914,35.70963]]]}},{"type":"Feature","properties":{"id":"area-13106021003","name":"寿三丁目"},"geometry":{"type":"Polygon","coordinates":[[[139.79393,35.70771],[139.79273,35.70541],[139.79075,35.70609],[139.79118,35.70842],[139.79235,35.70819],[139.79393,35.70771]]]}},{"type":"Feature","properties":{"id":"area-13106021004","name":"寿四丁目"},"geometry":{"type":"Polygon","coordinates":[[[139.79432,35.70908],[139.79393,35.70771],[139.79235,35.70819],[139.79118,35.70842],[139.7914,35.70963],[139.7935,35.7092],[139.79432,35.70908]]]}},{"type":"Feature","properties":{"id":"area-13106022001","name":"駒形一丁目"},"geometry":{"type":"Polygon","coordinates":[[[139.79335,35.70521],[139.79273,35.70541],[139.79393,35.70771],[139.79432,35.70908],[139.79617,35.70881],[139.79493,35.70701],[139.79381,35.70565],[139.79335,35.70521]]]}},{"type":"Feature","properties":{"id":"area-13106022002","name":"駒形二丁目"},"geometry":{"type":"Polygon","coordinates":[[[139.79674,35.70724],[139.79514,35.70436],[139.79333,35.7052],[139.79381,35.70565],[139.79493,35.70701],[139.79617,35.70881],[139.79741,35.70823],[139.79674,35.70724]]]}},{"type":"Feature","properties":{"id":"area-13106023001","name":"元浅草一丁目"},"geometry":{"type":"Polygon","coordinates":[[[139.78502,35.70903],[139.78498,35.7067],[139.78196,35.70703],[139.78213,35.70856],[139.78243,35.70944],[139.78502,35.70903]]]}},{"type":"Feature","properties":{"id":"area-13106023002","name":"元浅草二丁目"},"geometry":{"type":"Polygon","coordinates":[[[139.78509,35.71084],[139.78502,35.70903],[139.78243,35.70944],[139.78304,35.7112],[139.78509,35.71084]]]}},{"type":"Feature","properties":{"id":"area-13106023003","name":"元浅草三丁目"},"geometry":{"type":"Polygon","coordinates":[[[139.78817,35.70866],[139.78802,35.70638],[139.78498,35.7067],[139.78502,35.70903],[139.78817,35.70866]]]}},{"type":"Feature","properties":{"id":"area-13106023004","name":"元浅草四丁目"},"geometry":{"type":"Polygon","coordinates":[[[139.78827,35.71027],[139.78817,35.70866],[139.78502,35.70903],[139.78509,35.71084],[139.78827,35.71027]]]}},{"type":"Feature","properties":{"id":"area-13106024001","name":"松が谷一丁目"},"geometry":{"type":"Polygon","coordinates":[[[139.7884,35.71171],[139.78827,35.71027],[139.78501,35.71086],[139.7852,35.71266],[139.78852,35.71234],[139.7884,35.71171]]]}},{"type":"Feature","properties":{"id":"area-13106024002","name":"松が谷二丁目"},"geometry":{"type":"Polygon","coordinates":[[[139.78887,35.71389],[139.78852,35.71234],[139.7852,35.71266],[139.78544,35.71518],[139.78894,35.71449],[139.78887,35.71389]]]}},{"type":"Feature","properties":{"id":"area-13106024003","name":"松が谷三丁目"},"geometry":{"type":"Polygon","coordinates":[[[139.78909,35.7157],[139.78894,35.71449],[139.78544,35.71518],[139.78543,35.71637],[139.78553,35.71746],[139.78917,35.71672],[139.78903,35.71571],[139.78909,35.7157]]]}},{"type":"Feature","properties":{"id":"area-13106024004","name":"松が谷四丁目"},"geometry":{"type":"Polygon","coordinates":[[[139.78936,35.7181],[139.78917,35.71672],[139.78553,35.71746],[139.78592,35.71919],[139.78936,35.7181]]]}},{"type":"Feature","properties":{"id":"area-13106025001","name":"西浅草一丁目"},"geometry":{"type":"Polygon","coordinates":[[[139.79197,35.71126],[139.7914,35.70963],[139.78827,35.71027],[139.7884,35.71171],[139.78852,35.71234],[139.79204,35.71165],[139.79197,35.71126]]]}},{"type":"Feature","properties":{"id":"area-13106025002","name":"西浅草二丁目"},"geometry":{"type":"Polygon","coordinates":[[[139.79245,35.71379],[139.79204,35.71165],[139.78852,35.71234],[139.78887,35.71389],[139.78894,35.71449],[139.79245,35.71379]]]}},{"type":"Feature","properties":{"id":"area-13106025003","name":"西浅草三丁目"},"geometry":{"type":"Polygon","coordinates":[[[139.79257,35.715],[139.79245,35.71379],[139.78894,35.71449],[139.78909,35.7157],[139.78903,35.71571],[139.78909,35.7162],[139.78938,35.71816],[139.7927,35.71731],[139.79257,35.715]]]}},{"type":"Feature","properties":{"id":"area-13106026001","name":"雷門一丁目"},"geometry":{"type":"Polygon","coordinates":[[[139.79465,35.71111],[139.79432,35.70908],[139.7935,35.7092],[139.7914,35.70963],[139.79202,35.71146],[139.79465,35.71111]]]}},{"type":"Feature","properties":{"id":"area-13106026002","name":"雷門二丁目"},"geometry":{"type":"Polygon","coordinates":[[[139.79897,35.71006],[139.79741,35.70823],[139.79617,35.70881],[139.79432,35.70908],[139.79465,35.71111],[139.79769,35.71071],[139.79897,35.71006]]]}},{"type":"Feature","properties":{"id":"area-13106027001","name":"花川戸一丁目"},"geometry":{"type":"Polygon","coordinates":[[[139.80104,35.71203],[139.79897,35.71006],[139.79769,35.71071],[139.79785,35.71269],[139.79827,35.71428],[139.80106,35.71364],[139.80201,35.71284],[139.80107,35.71208],[139.80104,35.71203]]]}},{"type":"Feature","properties":{"id":"area-13106027002","name":"花川戸二丁目"},"geometry":{"type":"Polygon","coordinates":[[[139.79867,35.7158],[139.80201,35.71503],[139.80206,35.71495],[139.80342,35.71416],[139.80201,35.71284],[139.80106,35.71364],[139.79827,35.71428],[139.79867,35.7158]]]}},{"type":"Feature","properties":{"id":"area-13106028001","name":"浅草一丁目"},"geometry":{"type":"Polygon","coordinates":[[[139.79469,35.71284],[139.79669,35.71283],[139.79785,35.71269],[139.79769,35.71071],[139.79202,35.71146],[139.79244,35.71377],[139.7933,35.71359],[139.79442,35.71293],[139.79469,35.71284]]]}},{"type":"Feature","properties":{"id":"area-13106028002","name":"浅草二丁目"},"geometry":{"type":"Polygon","coordinates":[[[139.79867,35.7158],[139.79785,35.71269],[139.79669,35.71283],[139.79469,35.71284],[139.79442,35.71293],[139.7933,35.71359],[139.79244,35.71377],[139.79257,35.715],[139.79271,35.71729],[139.79867,35.7158]]]}},{"type":"Feature","properties":{"id":"area-13106028003","name":"浅草三丁目"},"geometry":{"type":"Polygon","coordinates":[[[139.79908,35.71734],[139.79864,35.71582],[139.79271,35.71729],[139.79269,35.7187],[139.79283,35.71865],[139.79507,35.71819],[139.79597,35.71798],[139.79908,35.71734]]]}},{"type":"Feature","properties":{"id":"area-13106028004","name":"浅草四丁目"},"geometry":{"type":"Polygon","coordinates":[[[139.7995,35.71883],[139.79908,35.71734],[139.79283,35.71865],[139.79269,35.7187],[139.79206,35.71979],[139.7925,35.72],[139.79316,35.72022],[139.79528,35.71982],[139.79762,35.71924],[139.79822,35.71906],[139.7995,35.71883]]]}},{"type":"Feature","properties":{"id":"area-13106028005","name":"浅草五丁目"},"geometry":{"type":"Polygon","coordinates":[[[139.80015,35.72076],[139.79993,35.72018],[139.7995,35.71883],[139.79822,35.71906],[139.79762,35.71924],[139.79528,35.71982],[139.79321,35.7202],[139.79334,35.72033],[139.79493,35.7213],[139.79839,35.72335],[139.79881,35.72289],[139.79878,35.72287],[139.79923,35.72205],[139.80022,35.72079],[139.80015,35.72076]]]}},{"type":"Feature","properties":{"id":"area-13106028006","name":"浅草六丁目"},"geometry":{"type":"Polygon","coordinates":[[[139.80022,35.72079],[139.80037,35.72076],[139.80073,35.72078],[139.80131,35.71984],[139.80131,35.71978],[139.8017,35.71931],[139.80178,35.7193],[139.80192,35.7192],[139.80192,35.71903],[139.80188,35.71899],[139.80181,35.71507],[139.79864,35.71582],[139.7995,35.71883],[139.79993,35.72018],[139.80015,35.72076],[139.80022,35.72079]]]}},{"type":"Feature","properties":{"id":"area-13106028007","name":"浅草七丁目"},"geometry":{"type":"Polygon","coordinates":[[[139.80228,35.71883],[139.80357,35.71717],[139.80544,35.71617],[139.80342,35.71416],[139.80206,35.71495],[139.80201,35.71503],[139.80181,35.71507],[139.80188,35.71899],[139.80192,35.71903],[139.80215,35.71894],[139.80228,35.71883]]]}},{"type":"Feature","properties":{"id":"area-13106029001","name":"千束一丁目"},"geometry":{"type":"Polygon","coordinates":[[[139.79269,35.7187],[139.79271,35.7173],[139.78938,35.71816],[139.7894,35.71849],[139.78954,35.71914],[139.79124,35.71923],[139.79114,35.72135],[139.79269,35.7187]]]}},{"type":"Feature","properties":{"id":"area-13106029002","name":"千束二丁目"},"geometry":{"type":"Polygon","coordinates":[[[139.79124,35.71923],[139.78952,35.71915],[139.78933,35.7206],[139.78937,35.7227],[139.7911,35.72275],[139.79113,35.7222],[139.7911,35.72219],[139.79111,35.72178],[139.79124,35.71923]]]}},{"type":"Feature","properties":{"id":"area-13106029003","name":"千束三丁目"},"geometry":{"type":"Polygon","coordinates":[[[139.79334,35.72033],[139.79321,35.7202],[139.79316,35.72022],[139.7925,35.72],[139.79206,35.71979],[139.79114,35.72135],[139.79109,35.72333],[139.79294,35.72441],[139.79541,35.72157],[139.79334,35.72033]]]}},{"type":"Feature","properties":{"id":"area-13106029004","name":"千束四丁目"},"geometry":{"type":"Polygon","coordinates":[[[139.79541,35.72158],[139.79294,35.72441],[139.79593,35.72615],[139.79839,35.72335],[139.79541,35.72158]]]}},{"type":"Feature","properties":{"id":"area-13106030001","name":"東浅草一丁目"},"geometry":{"type":"Polygon","coordinates":[[[139.79895,35.72295],[139.80154,35.72293],[139.80193,35.72009],[139.80192,35.7192],[139.80178,35.7193],[139.8017,35.71931],[139.80131,35.71978],[139.80131,35.71984],[139.80073,35.72078],[139.80037,35.72076],[139.80022,35.72079],[139.79923,35.72205],[139.79878,35.72287],[139.79895,35.72295]]]}},{"type":"Feature","properties":{"id":"area-13106030002","name":"東浅草二丁目"},"geometry":{"type":"Polygon","coordinates":[[[139.80121,35.72545],[139.80154,35.72293],[139.79895,35.72295],[139.79878,35.72287],[139.79881,35.72289],[139.79733,35.72455],[139.79832,35.72491],[139.79872,35.72509],[139.80086,35.72619],[139.80121,35.72545]]]}},{"type":"Feature","properties":{"id":"area-13106031001","name":"日本堤一丁目"},"geometry":{"type":"Polygon","coordinates":[[[139.79837,35.72493],[139.79733,35.72455],[139.79593,35.72615],[139.79999,35.72794],[139.80086,35.72619],[139.79872,35.72509],[139.79837,35.72493]]]}},{"type":"Feature","properties":{"id":"area-13106031002","name":"日本堤二丁目"},"geometry":{"type":"Polygon","coordinates":[[[139.79949,35.72892],[139.79999,35.72794],[139.79593,35.72615],[139.79367,35.7287],[139.79941,35.72894],[139.79949,35.72892]]]}},{"type":"Feature","properties":{"id":"area-13106032001","name":"今戸一丁目"},"geometry":{"type":"Polygon","coordinates":[[[139.80431,35.72068],[139.80581,35.71995],[139.80648,35.72059],[139.80806,35.71961],[139.80722,35.71815],[139.80697,35.71782],[139.80544,35.71617],[139.80357,35.71717],[139.80228,35.71883],[139.80215,35.71894],[139.80192,35.71903],[139.80193,35.72009],[139.80183,35.7208],[139.80431,35.72068]]]}},{"type":"Feature","properties":{"id":"area-13106032002","name":"今戸二丁目"},"geometry":{"type":"Polygon","coordinates":[[[139.80154,35.72293],[139.8045,35.72284],[139.80724,35.72254],[139.80727,35.72269],[139.80776,35.72261],[139.80782,35.7228],[139.80906,35.72261],[139.80895,35.72233],[139.80872,35.72133],[139.80855,35.72077],[139.80839,35.72032],[139.80806,35.71961],[139.80648,35.72059],[139.80581,35.71995],[139.80431,35.72068],[139.80183,35.7208],[139.80154,35.72293]]]}},{"type":"Feature","properties":{"id":"area-13106033001","name":"清川一丁目"},"geometry":{"type":"Polygon","coordinates":[[[139.80497,35.72626],[139.80486,35.72504],[139.80464,35.72414],[139.8045,35.72284],[139.80153,35.72293],[139.80121,35.72545],[139.80086,35.72619],[139.80497,35.72626]]]}},{"type":"Feature","properties":{"id":"area-13106033002","name":"清川二丁目"},"geometry":{"type":"Polygon","coordinates":[[[139.80497,35.72626],[139.80086,35.72619],[139.79949,35.72892],[139.80129,35.72906],[139.80153,35.72905],[139.80538,35.72849],[139.80509,35.72746],[139.80497,35.72626]]]}},{"type":"Feature","properties":{"id":"area-13106034001","name":"橋場一丁目"},"geometry":{"type":"Polygon","coordinates":[[[139.80807,35.72573],[139.80963,35.72539],[139.80948,35.7242],[139.80928,35.72334],[139.80906,35.72261],[139.80782,35.7228],[139.80776,35.72261],[139.80727,35.72269],[139.80724,35.72254],[139.8045,35.72284],[139.80464,35.72414],[139.80486,35.72504],[139.80497,35.72626],[139.80807,35.72573]]]}},{"type":"Feature","properties":{"id":"area-13106034002","name":"橋場二丁目"},"geometry":{"type":"Polygon","coordinates":[[[139.80976,35.72795],[139.80963,35.72539],[139.80807,35.72573],[139.80497,35.72626],[139.80509,35.72746],[139.80538,35.72849],[139.80976,35.72795]]]}}]}