{"type":"FeatureCollection","features":[{"type":"Feature","properties":{"id":"area-13108001001","name":"清澄一丁目"},"geometry":{"type":"Polygon","coordinates":[[[139.79407,35.67987],[139.79392,35.67972],[139.79067,35.68105],[139.79231,35.68284],[139.79268,35.68337],[139.79464,35.68348],[139.7948,35.68195],[139.7947,35.68105],[139.79407,35.67987]]]}},{"type":"Feature","properties":{"id":"area-13108001002","name":"清澄二丁目"},"geometry":{"type":"Polygon","coordinates":[[[139.79592,35.67929],[139.79574,35.67898],[139.79393,35.67972],[139.79407,35.67987],[139.7947,35.68103],[139.7948,35.68195],[139.79464,35.68348],[139.79687,35.68362],[139.7971,35.68125],[139.79665,35.67978],[139.79592,35.67929]]]}},{"type":"Feature","properties":{"id":"area-13108001003","name":"清澄三丁目"},"geometry":{"type":"Polygon","coordinates":[[[139.79788,35.67812],[139.79574,35.67898],[139.79592,35.67929],[139.79665,35.67978],[139.7971,35.68125],[139.79687,35.68362],[139.79854,35.68373],[139.79906,35.6796],[139.79788,35.67812]]]}},{"type":"Feature","properties":{"id":"area-13108002001","name":"常盤一丁目"},"geometry":{"type":"Polygon","coordinates":[[[139.7944,35.68599],[139.79635,35.68601],[139.79618,35.68525],[139.79628,35.68526],[139.79595,35.68357],[139.79268,35.68337],[139.79278,35.68358],[139.79303,35.68441],[139.79318,35.68509],[139.7932,35.68565],[139.79318,35.68585],[139.79308,35.68611],[139.79436,35.6862],[139.7944,35.68599]]]}},{"type":"Feature","properties":{"id":"area-13108002002","name":"常盤二丁目"},"geometry":{"type":"Polygon","coordinates":[[[139.79837,35.68612],[139.79854,35.68373],[139.79595,35.68357],[139.79628,35.68526],[139.79618,35.68525],[139.79635,35.68601],[139.79837,35.68612]]]}},{"type":"Feature","properties":{"id":"area-13108003001","name":"新大橋一丁目"},"geometry":{"type":"Polygon","coordinates":[[[139.79436,35.6862],[139.79308,35.68611],[139.79258,35.68682],[139.79185,35.68772],[139.79042,35.6892],[139.79161,35.68981],[139.79159,35.68984],[139.79264,35.69034],[139.79362,35.68902],[139.79381,35.68874],[139.79393,35.68848],[139.79418,35.68786],[139.79436,35.6862]]]}},{"type":"Feature","properties":{"id":"area-13108003002","name":"新大橋二丁目"},"geometry":{"type":"Polygon","coordinates":[[[139.79343,35.69071],[139.79349,35.69018],[139.79493,35.6903],[139.79518,35.68797],[139.7952,35.6875],[139.79516,35.68598],[139.7944,35.68599],[139.79418,35.68786],[139.79393,35.68848],[139.79381,35.68874],[139.79362,35.68902],[139.79242,35.69066],[139.79343,35.69071]]]}},{"type":"Feature","properties":{"id":"area-13108003003","name":"新大橋三丁目"},"geometry":{"type":"Polygon","coordinates":[[[139.7967,35.6887],[139.79664,35.68823],[139.79678,35.68823],[139.79675,35.68797],[139.79635,35.68601],[139.79516,35.68598],[139.7952,35.6875],[139.79518,35.68797],[139.79498,35.68981],[139.79636,35.68991],[139.7967,35.6887]]]}},{"type":"Feature","properties":{"id":"area-13108004001","name":"森下一丁目"},"geometry":{"type":"Polygon","coordinates":[[[139.79814,35.68928],[139.79837,35.68612],[139.79635,35.68601],[139.79675,35.68797],[139.79678,35.68823],[139.79664,35.68823],[139.7967,35.68857],[139.79792,35.68917],[139.79792,35.68921],[139.79801,35.68921],[139.79814,35.68928]]]}},{"type":"Feature","properties":{"id":"area-13108004002","name":"森下二丁目"},"geometry":{"type":"Polygon","coordinates":[[[139.80015,35.6889],[139.80022,35.68878],[139.80026,35.68879],[139.80042,35.68855],[139.80045,35.68856],[139.8005,35.6885],[139.80043,35.68847],[139.8006,35.68819],[139.80026,35.68817],[139.80045,35.68624],[139.79837,35.68612],[139.79814,35.68928],[139.79931,35.68983],[139.79957,35.68993],[139.80017,35.68891],[139.80015,35.6889]]]}},{"type":"Feature","properties":{"id":"area-13108004003","name":"森下三丁目"},"geometry":{"type":"Polygon","coordinates":[[[139.80363,35.68404],[139.80078,35.68387],[139.80048,35.68596],[139.80026,35.68817],[139.80337,35.6883],[139.80363,35.68404]]]}},{"type":"Feature","properties":{"id":"area-13108004004","name":"森下四丁目"},"geometry":{"type":"Polygon","coordinates":[[[139.80469,35.68835],[139.80483,35.68669],[139.80616,35.68675],[139.80638,35.68418],[139.80363,35.68404],[139.80337,35.6883],[139.80469,35.68835]]]}},{"type":"Feature","properties":{"id":"area-13108004005","name":"森下五丁目"},"geometry":{"type":"Polygon","coordinates":[[[139.80639,35.68418],[139.80616,35.68675],[139.80955,35.68691],[139.80983,35.68436],[139.80639,35.68418]]]}},{"type":"Feature","properties":{"id":"area-13108005001","name":"平野一丁目"},"geometry":{"type":"Polygon","coordinates":[[[139.80108,35.67831],[139.80031,35.67688],[139.79906,35.67744],[139.79788,35.67812],[139.79903,35.67954],[139.7996,35.67958],[139.8011,35.67866],[139.80108,35.67831]]]}},{"type":"Feature","properties":{"id":"area-13108005002","name":"平野二丁目"},"geometry":{"type":"Polygon","coordinates":[[[139.80365,35.67921],[139.80419,35.67891],[139.8044,35.67893],[139.80457,35.67587],[139.80284,35.67581],[139.80031,35.67688],[139.80108,35.67831],[139.80112,35.67919],[139.80266,35.67866],[139.80308,35.67947],[139.80365,35.67921]]]}},{"type":"Feature","properties":{"id":"area-13108005003","name":"平野三丁目"},"geometry":{"type":"Polygon","coordinates":[[[139.80697,35.67597],[139.80457,35.67587],[139.8044,35.67893],[139.80615,35.67921],[139.80678,35.67925],[139.80702,35.67625],[139.80697,35.67597]]]}},{"type":"Feature","properties":{"id":"area-13108005004","name":"平野四丁目"},"geometry":{"type":"Polygon","coordinates":[[[139.81085,35.67612],[139.80697,35.67597],[139.80702,35.67625],[139.80678,35.67925],[139.81043,35.67947],[139.81085,35.67637],[139.81085,35.67612]]]}},{"type":"Feature","properties":{"id":"area-13108006001","name":"三好一丁目"},"geometry":{"type":"Polygon","coordinates":[[[139.80118,35.6809],[139.8011,35.67866],[139.7996,35.67958],[139.79903,35.67954],[139.79906,35.6796],[139.79894,35.68064],[139.80118,35.6809]]]}},{"type":"Feature","properties":{"id":"area-13108006002","name":"三好二丁目"},"geometry":{"type":"Polygon","coordinates":[[[139.80377,35.68011],[139.80364,35.67921],[139.80308,35.67947],[139.80266,35.67866],[139.80112,35.67919],[139.80118,35.6809],[139.80374,35.68116],[139.80377,35.68011]]]}},{"type":"Feature","properties":{"id":"area-13108006003","name":"三好三丁目"},"geometry":{"type":"Polygon","coordinates":[[[139.80615,35.67921],[139.80419,35.67891],[139.80364,35.67921],[139.80374,35.67976],[139.80377,35.68011],[139.80374,35.68116],[139.80661,35.68133],[139.80677,35.67925],[139.80615,35.67921]]]}},{"type":"Feature","properties":{"id":"area-13108006004","name":"三好四丁目"},"geometry":{"type":"Polygon","coordinates":[[[139.80678,35.67925],[139.80661,35.68133],[139.81018,35.68151],[139.81043,35.67947],[139.80678,35.67925]]]}},{"type":"Feature","properties":{"id":"area-13108007001","name":"白河一丁目"},"geometry":{"type":"Polygon","coordinates":[[[139.80118,35.6809],[139.79894,35.68064],[139.79854,35.68373],[139.80077,35.68387],[139.80098,35.68219],[139.80118,35.6809]]]}},{"type":"Feature","properties":{"id":"area-13108007002","name":"白河二丁目"},"geometry":{"type":"Polygon","coordinates":[[[139.80374,35.68116],[139.80118,35.6809],[139.80098,35.68219],[139.80077,35.68387],[139.80363,35.68404],[139.80374,35.68116]]]}},{"type":"Feature","properties":{"id":"area-13108007003","name":"白河三丁目"},"geometry":{"type":"Polygon","coordinates":[[[139.80661,35.68133],[139.80374,35.68116],[139.80363,35.68404],[139.80639,35.68418],[139.80661,35.68133]]]}},{"type":"Feature","properties":{"id":"area-13108007004","name":"白河四丁目"},"geometry":{"type":"Polygon","coordinates":[[[139.81018,35.68151],[139.80661,35.68133],[139.80639,35.68418],[139.80983,35.68436],[139.81018,35.68151]]]}},{"type":"Feature","properties":{"id":"area-131080080","name":"高橋"},"geometry":{"type":"Polygon","coordinates":[[[139.80078,35.68387],[139.79854,35.68373],[139.79837,35.68612],[139.80045,35.68624],[139.80078,35.68387]]]}},{"type":"Feature","properties":{"id":"area-13108009001","name":"佐賀一丁目"},"geometry":{"type":"Polygon","coordinates":[[[139.79268,35.67734],[139.79182,35.67587],[139.79154,35.67599],[139.7906,35.67649],[139.79034,35.67611],[139.78983,35.67519],[139.78868,35.67607],[139.78756,35.6763],[139.78787,35.67714],[139.78906,35.67884],[139.79268,35.67734]]]}},{"type":"Feature","properties":{"id":"area-13108009002","name":"佐賀二丁目"},"geometry":{"type":"Polygon","coordinates":[[[139.7941,35.67965],[139.79268,35.67734],[139.78906,35.67884],[139.78968,35.67974],[139.79045,35.68076],[139.79069,35.68103],[139.7941,35.67965]]]}},{"type":"Feature","properties":{"id":"area-13108010001","name":"永代一丁目"},"geometry":{"type":"Polygon","coordinates":[[[139.79182,35.67587],[139.79094,35.67451],[139.79053,35.67403],[139.79001,35.67351],[139.78917,35.67284],[139.78881,35.67314],[139.78893,35.67325],[139.78874,35.67348],[139.78855,35.6739],[139.78833,35.6746],[139.78831,35.67521],[139.78834,35.67544],[139.78849,35.67598],[139.78752,35.67619],[139.78756,35.6763],[139.78868,35.67607],[139.78983,35.67519],[139.79034,35.67611],[139.7906,35.67649],[139.79154,35.67599],[139.79182,35.67587]]]}},{"type":"Feature","properties":{"id":"area-13108010002","name":"永代二丁目"},"geometry":{"type":"Polygon","coordinates":[[[139.79171,35.67571],[139.79343,35.675],[139.79348,35.675],[139.79357,35.67441],[139.79315,35.67334],[139.79227,35.67177],[139.79241,35.67144],[139.79184,35.67129],[139.79156,35.67131],[139.79108,35.67147],[139.79063,35.67171],[139.78917,35.67284],[139.79001,35.67351],[139.79053,35.67403],[139.79094,35.67451],[139.79171,35.67571]]]}},{"type":"Feature","properties":{"id":"area-13108011001","name":"福住一丁目"},"geometry":{"type":"Polygon","coordinates":[[[139.79472,35.67647],[139.79527,35.67494],[139.79356,35.67446],[139.79348,35.675],[139.79343,35.675],[139.79171,35.67571],[139.79268,35.67734],[139.79472,35.67647]]]}},{"type":"Feature","properties":{"id":"area-13108011002","name":"福住二丁目"},"geometry":{"type":"Polygon","coordinates":[[[139.79573,35.67898],[139.79431,35.67666],[139.79268,35.67734],[139.7941,35.67965],[139.79573,35.67898]]]}},{"type":"Feature","properties":{"id":"area-13108012001","name":"深川一丁目"},"geometry":{"type":"Polygon","coordinates":[[[139.79594,35.67414],[139.7958,35.67391],[139.79563,35.67394],[139.79553,35.67411],[139.79472,35.67647],[139.79431,35.67666],[139.79573,35.67898],[139.79788,35.67811],[139.79627,35.67607],[139.79594,35.67414]]]}},{"type":"Feature","properties":{"id":"area-13108012002","name":"深川二丁目"},"geometry":{"type":"Polygon","coordinates":[[[139.79943,35.67518],[139.79927,35.67313],[139.79917,35.67315],[139.7958,35.67391],[139.79594,35.67414],[139.79596,35.67424],[139.79627,35.67607],[139.79788,35.67812],[139.79906,35.67744],[139.80032,35.67688],[139.79943,35.67518]]]}},{"type":"Feature","properties":{"id":"area-131080130","name":"冬木"},"geometry":{"type":"Polygon","coordinates":[[[139.80032,35.67688],[139.80284,35.67581],[139.80369,35.67584],[139.80282,35.67258],[139.80146,35.67282],[139.79927,35.67313],[139.79943,35.67518],[139.80032,35.67688]]]}},{"type":"Feature","properties":{"id":"area-13108014001","name":"門前仲町一丁目"},"geometry":{"type":"Polygon","coordinates":[[[139.7946,35.672],[139.79406,35.67154],[139.7935,35.67171],[139.79324,35.67168],[139.79242,35.67144],[139.79227,35.67177],[139.79315,35.67334],[139.79352,35.67422],[139.79357,35.67446],[139.79527,35.67494],[139.79553,35.67411],[139.79563,35.67394],[139.79584,35.6739],[139.79554,35.6734],[139.7946,35.672]]]}},{"type":"Feature","properties":{"id":"area-13108014002","name":"門前仲町二丁目"},"geometry":{"type":"Polygon","coordinates":[[[139.79672,35.67248],[139.79629,35.67178],[139.796,35.6719],[139.79548,35.67106],[139.79406,35.67154],[139.7946,35.672],[139.79554,35.6734],[139.79584,35.6739],[139.79694,35.67365],[139.79656,35.67255],[139.79672,35.67248]]]}},{"type":"Feature","properties":{"id":"area-13108015001","name":"富岡一丁目"},"geometry":{"type":"Polygon","coordinates":[[[139.80087,35.67291],[139.80045,35.67115],[139.80063,35.67111],[139.8003,35.67003],[139.80043,35.66997],[139.80096,35.66986],[139.80072,35.66929],[139.79838,35.6699],[139.79794,35.67005],[139.79548,35.67106],[139.796,35.6719],[139.79629,35.67178],[139.79672,35.67248],[139.79656,35.67255],[139.79694,35.67365],[139.79917,35.67315],[139.80087,35.67291]]]}},{"type":"Feature","properties":{"id":"area-13108015002","name":"富岡二丁目"},"geometry":{"type":"Polygon","coordinates":[[[139.80199,35.66989],[139.80132,35.66916],[139.80072,35.66929],[139.80096,35.66986],[139.80043,35.66997],[139.8003,35.67003],[139.80063,35.67111],[139.80045,35.67115],[139.80087,35.67291],[139.80282,35.67258],[139.80224,35.67053],[139.80199,35.66989]]]}},{"type":"Feature","properties":{"id":"area-13108016001","name":"牡丹一丁目"},"geometry":{"type":"Polygon","coordinates":[[[139.79479,35.67023],[139.79441,35.66947],[139.79344,35.6699],[139.79313,35.67005],[139.79267,35.6704],[139.79328,35.67088],[139.79257,35.6712],[139.79242,35.67144],[139.79324,35.67168],[139.7935,35.67171],[139.79519,35.67116],[139.79479,35.67023]]]}},{"type":"Feature","properties":{"id":"area-13108016002","name":"牡丹二丁目"},"geometry":{"type":"Polygon","coordinates":[[[139.79716,35.66855],[139.79446,35.66956],[139.79479,35.67023],[139.79519,35.67116],[139.79795,35.67004],[139.79716,35.66855]]]}},{"type":"Feature","properties":{"id":"area-13108016003","name":"牡丹三丁目"},"geometry":{"type":"Polygon","coordinates":[[[139.80188,35.66773],[139.79987,35.6676],[139.79941,35.66764],[139.79852,35.66796],[139.79716,35.66855],[139.79794,35.67005],[139.7986,35.66983],[139.80149,35.66911],[139.80166,35.66869],[139.80188,35.66773]]]}},{"type":"Feature","properties":{"id":"area-13108017001","name":"古石場一丁目"},"geometry":{"type":"Polygon","coordinates":[[[139.79313,35.67005],[139.79441,35.66947],[139.79446,35.66956],[139.79715,35.66855],[139.79662,35.66756],[139.79307,35.66945],[139.79194,35.66982],[139.79267,35.6704],[139.79313,35.67005]]]}},{"type":"Feature","properties":{"id":"area-13108017002","name":"古石場二丁目"},"geometry":{"type":"Polygon","coordinates":[[[139.79941,35.66764],[139.79987,35.6676],[139.80044,35.66764],[139.80072,35.66542],[139.80053,35.66524],[139.79653,35.66745],[139.7966,35.6675],[139.79716,35.66855],[139.79852,35.66796],[139.79941,35.66764]]]}},{"type":"Feature","properties":{"id":"area-13108017003","name":"古石場三丁目"},"geometry":{"type":"Polygon","coordinates":[[[139.80178,35.66466],[139.80163,35.66463],[139.80053,35.66524],[139.80072,35.66542],[139.80044,35.66764],[139.80188,35.66773],[139.80243,35.665],[139.80219,35.66494],[139.802,35.6648],[139.80201,35.66476],[139.80187,35.66473],[139.80178,35.66466]]]}},{"type":"Feature","properties":{"id":"area-13108018001","name":"越中島一丁目"},"geometry":{"type":"Polygon","coordinates":[[[139.78881,35.67314],[139.78952,35.67256],[139.79063,35.67171],[139.79083,35.67159],[139.79129,35.67138],[139.79172,35.67128],[139.792,35.67132],[139.79241,35.67144],[139.79257,35.6712],[139.79328,35.67088],[139.79194,35.66982],[139.78887,35.66748],[139.7888,35.66796],[139.78899,35.66787],[139.78904,35.66775],[139.78941,35.66803],[139.78877,35.67002],[139.78852,35.67105],[139.78817,35.67281],[139.7882,35.67295],[139.78838,35.67311],[139.78851,35.67314],[139.78871,35.67307],[139.78881,35.67314]]]}},{"type":"Feature","properties":{"id":"area-13108018002","name":"越中島二丁目"},"geometry":{"type":"Polygon","coordinates":[[[139.79307,35.66945],[139.79662,35.66756],[139.7966,35.6675],[139.79487,35.66613],[139.79614,35.66507],[139.79435,35.66367],[139.79154,35.66604],[139.7916,35.66609],[139.79126,35.66638],[139.79136,35.6664],[139.79159,35.66621],[139.79168,35.66625],[139.79144,35.66643],[139.79149,35.66645],[139.79168,35.66627],[139.79181,35.66639],[139.79165,35.6665],[139.79168,35.66653],[139.79185,35.66639],[139.79198,35.66649],[139.79131,35.66704],[139.79093,35.66674],[139.79109,35.66659],[139.79112,35.66661],[139.79123,35.66652],[139.79117,35.66647],[139.7908,35.66677],[139.79073,35.66671],[139.78946,35.66777],[139.78908,35.66749],[139.78911,35.66718],[139.78896,35.66695],[139.78892,35.66697],[139.78887,35.66748],[139.79194,35.66982],[139.79307,35.66945]]]}},{"type":"Feature","properties":{"id":"area-13108018003","name":"越中島三丁目"},"geometry":{"type":"Polygon","coordinates":[[[139.80108,35.6642],[139.79872,35.66266],[139.79699,35.66149],[139.79687,35.6615],[139.79593,35.66231],[139.796,35.66237],[139.79578,35.66251],[139.79448,35.6636],[139.79443,35.66356],[139.79432,35.66365],[139.79614,35.66507],[139.79487,35.66613],[139.79653,35.66745],[139.80163,35.66463],[139.80146,35.66457],[139.80102,35.66425],[139.80108,35.6642]]]}},{"type":"Feature","properties":{"id":"area-13108019001","name":"塩浜一丁目"},"geometry":{"type":"Polygon","coordinates":[[[139.80239,35.66446],[139.80239,35.66437],[139.80254,35.66439],[139.80257,35.66421],[139.8024,35.66419],[139.8025,35.66382],[139.8028,35.66186],[139.80294,35.66187],[139.80298,35.66168],[139.80282,35.66166],[139.80299,35.66038],[139.80315,35.66044],[139.80317,35.66037],[139.80301,35.66032],[139.80303,35.66014],[139.80158,35.65915],[139.80176,35.65898],[139.80159,35.65887],[139.80141,35.65906],[139.8002,35.65827],[139.80007,35.65839],[139.79995,35.65832],[139.79954,35.65875],[139.79962,35.65881],[139.79719,35.66126],[139.79888,35.66241],[139.79867,35.66262],[139.79872,35.66266],[139.79879,35.6627],[139.799,35.66247],[139.80219,35.66459],[139.80239,35.66446]]]}},{"type":"Feature","properties":{"id":"area-13108019002","name":"塩浜二丁目"},"geometry":{"type":"Polygon","coordinates":[[[139.82022,35.66536],[139.82026,35.66229],[139.82023,35.66216],[139.82013,35.66207],[139.81996,35.66201],[139.81142,35.66115],[139.80939,35.66099],[139.80916,35.66093],[139.80908,35.66077],[139.80715,35.66058],[139.80727,35.66032],[139.80681,35.66028],[139.80671,35.66053],[139.80387,35.66026],[139.8039,35.65999],[139.80377,35.65997],[139.80373,35.66023],[139.80342,35.6602],[139.80334,35.66025],[139.80332,35.66042],[139.80317,35.66037],[139.80315,35.66044],[139.80331,35.66049],[139.80312,35.6617],[139.80298,35.66168],[139.80294,35.66187],[139.80309,35.66189],[139.80274,35.66423],[139.80257,35.66421],[139.80254,35.66439],[139.80273,35.6644],[139.80272,35.66463],[139.8028,35.66466],[139.80276,35.66486],[139.80297,35.66486],[139.803,35.66468],[139.80501,35.66464],[139.80501,35.66484],[139.80548,35.66483],[139.80549,35.66465],[139.80869,35.66458],[139.81394,35.66511],[139.81997,35.66552],[139.82022,35.66536]]]}},{"type":"Feature","properties":{"id":"area-13108020001","name":"枝川一丁目"},"geometry":{"type":"Polygon","coordinates":[[[139.80308,35.65957],[139.8033,35.65934],[139.80344,35.65943],[139.80744,35.65545],[139.80478,35.65369],[139.80055,35.65791],[139.80175,35.65873],[139.80161,35.65888],[139.80172,35.65895],[139.80186,35.6588],[139.80298,35.65955],[139.80308,35.65957]]]}},{"type":"Feature","properties":{"id":"area-13108020002","name":"枝川二丁目"},"geometry":{"type":"Polygon","coordinates":[[[139.80997,35.65713],[139.80744,35.65545],[139.80344,35.65943],[139.80358,35.65953],[139.80356,35.65956],[139.80365,35.65972],[139.80431,35.65977],[139.80436,35.6598],[139.807,35.66006],[139.80691,35.66029],[139.80701,35.6603],[139.80711,35.66007],[139.8075,35.65959],[139.80997,35.65713]]]}},{"type":"Feature","properties":{"id":"area-13108020003","name":"枝川三丁目"},"geometry":{"type":"Polygon","coordinates":[[[139.8139,35.66075],[139.81397,35.65978],[139.80997,35.65713],[139.8075,35.65959],[139.80711,35.66007],[139.80701,35.6603],[139.80713,35.66031],[139.80723,35.66009],[139.81112,35.66048],[139.81111,35.66053],[139.81194,35.66061],[139.81194,35.66056],[139.8139,35.66075]]]}},{"type":"Feature","properties":{"id":"area-13108021001","name":"豊洲一丁目"},"geometry":{"type":"Polygon","coordinates":[[[139.79443,35.66356],[139.79359,35.66289],[139.79477,35.662],[139.79482,35.66202],[139.79512,35.66179],[139.79204,35.65906],[139.79032,35.6589],[139.79006,35.6608],[139.79338,35.66306],[139.79348,35.66298],[139.79432,35.66365],[139.79443,35.66356]]]}},{"type":"Feature","properties":{"id":"area-13108021002","name":"豊洲二丁目"},"geometry":{"type":"Polygon","coordinates":[[[139.79204,35.65906],[139.79653,35.65458],[139.79465,35.65316],[139.79306,35.65217],[139.79276,35.65244],[139.79142,35.65161],[139.79109,35.65193],[139.79255,35.65292],[139.79093,35.65448],[139.79091,35.65461],[139.79116,35.65475],[139.79098,35.65496],[139.79094,35.65494],[139.79096,35.65491],[139.79091,35.65488],[139.79086,35.65495],[139.79084,35.65512],[139.79096,35.6552],[139.7908,35.65542],[139.79079,35.65551],[139.79086,35.65555],[139.79077,35.65566],[139.79037,35.65842],[139.79041,35.65843],[139.79032,35.6589],[139.79204,35.65906]]]}},{"type":"Feature","properties":{"id":"area-13108021003","name":"豊洲三丁目"},"geometry":{"type":"Polygon","coordinates":[[[139.80024,35.65703],[139.79653,35.65458],[139.79204,35.65906],[139.79512,35.66179],[139.79529,35.66168],[139.79527,35.66164],[139.79654,35.66071],[139.80024,35.65703]]]}},{"type":"Feature","properties":{"id":"area-13108021004","name":"豊洲四丁目"},"geometry":{"type":"Polygon","coordinates":[[[139.80036,35.65689],[139.80187,35.65538],[139.80189,35.65539],[139.80235,35.65493],[139.80244,35.65498],[139.8028,35.65462],[139.80271,35.65455],[139.80405,35.65322],[139.80313,35.6526],[139.80321,35.65252],[139.80306,35.65242],[139.80296,35.6525],[139.80034,35.65074],[139.79651,35.65457],[139.80096,35.6575],[139.80107,35.6574],[139.80036,35.65689]]]}},{"type":"Feature","properties":{"id":"area-13108021005","name":"豊洲五丁目"},"geometry":{"type":"Polygon","coordinates":[[[139.79651,35.65457],[139.80034,35.65074],[139.79995,35.65048],[139.79998,35.65046],[139.7992,35.64994],[139.79917,35.64997],[139.79823,35.64936],[139.7983,35.64929],[139.79831,35.64922],[139.79811,35.6491],[139.79812,35.64907],[139.79805,35.64903],[139.7979,35.64902],[139.79785,35.64907],[139.79777,35.64903],[139.79771,35.64906],[139.79674,35.64842],[139.79545,35.64967],[139.79552,35.64972],[139.794,35.65121],[139.79299,35.64992],[139.7923,35.6506],[139.79346,35.65175],[139.79305,35.65216],[139.79465,35.65316],[139.79651,35.65457]]]}},{"type":"Feature","properties":{"id":"area-13108021006","name":"豊洲六丁目"},"geometry":{"type":"Polygon","coordinates":[[[139.79346,35.65175],[139.7923,35.6506],[139.79466,35.64826],[139.79427,35.64735],[139.77996,35.63976],[139.77905,35.63968],[139.77653,35.64215],[139.78282,35.64642],[139.78264,35.64665],[139.79003,35.65163],[139.79027,35.65136],[139.79111,35.65191],[139.79142,35.65161],[139.79276,35.65244],[139.79346,35.65175]]]}},{"type":"Feature","properties":{"id":"area-13108022001","name":"東雲一丁目"},"geometry":{"type":"Polygon","coordinates":[[[139.80485,35.65197],[139.80509,35.65028],[139.80627,35.65033],[139.80631,35.64998],[139.80514,35.6499],[139.80572,35.64584],[139.80633,35.64591],[139.80645,35.64501],[139.79837,35.6443],[139.7982,35.6444],[139.79762,35.64376],[139.79757,35.64412],[139.79809,35.64472],[139.79768,35.64776],[139.79772,35.64786],[139.79882,35.64862],[139.79843,35.64899],[139.79814,35.6488],[139.79805,35.64889],[139.79843,35.64915],[139.79855,35.64907],[139.79852,35.64905],[139.79889,35.64867],[139.79894,35.64869],[139.79898,35.64866],[139.80093,35.64992],[139.80021,35.65066],[139.80044,35.65081],[139.80113,35.65005],[139.80185,35.65052],[139.80182,35.65055],[139.80426,35.65216],[139.80485,35.65197]]]}},{"type":"Feature","properties":{"id":"area-13108022002","name":"東雲二丁目"},"geometry":{"type":"Polygon","coordinates":[[[139.80585,35.64471],[139.80615,35.64262],[139.80681,35.64285],[139.80696,35.64197],[139.80628,35.64176],[139.807,35.63685],[139.80013,35.63621],[139.8001,35.63648],[139.79915,35.63641],[139.79898,35.63767],[139.79903,35.63824],[139.79939,35.63857],[139.79937,35.63876],[139.7981,35.63807],[139.79796,35.63911],[139.79861,35.63945],[139.79849,35.64038],[139.79734,35.63979],[139.79652,35.64096],[139.79759,35.64146],[139.79731,35.64342],[139.7982,35.6444],[139.79837,35.6443],[139.80614,35.645],[139.80585,35.64471]]]}},{"type":"Feature","properties":{"id":"area-13108023001","name":"有明一丁目"},"geometry":{"type":"Polygon","coordinates":[[[139.79465,35.64496],[139.79596,35.64336],[139.79767,35.64424],[139.79757,35.64412],[139.79762,35.64376],[139.79731,35.64342],[139.79734,35.64326],[139.79494,35.64056],[139.78317,35.63416],[139.78323,35.63407],[139.78189,35.63334],[139.77869,35.63728],[139.7787,35.6374],[139.78131,35.63881],[139.78204,35.63853],[139.78271,35.63764],[139.78366,35.63819],[139.78377,35.63909],[139.7891,35.642],[139.79465,35.64496]]]}},{"type":"Feature","properties":{"id":"area-13108023002","name":"有明二丁目"},"geometry":{"type":"Polygon","coordinates":[[[139.79652,35.64096],[139.79734,35.63979],[139.79849,35.64038],[139.79861,35.63945],[139.79674,35.63849],[139.78608,35.63263],[139.78352,35.63134],[139.78189,35.63334],[139.78323,35.63407],[139.78317,35.63416],[139.79489,35.64052],[139.79734,35.64326],[139.79759,35.64146],[139.79652,35.64096]]]}},{"type":"Feature","properties":{"id":"area-13108023003","name":"有明三丁目"},"geometry":{"type":"Polygon","coordinates":[[[139.79796,35.63911],[139.7981,35.63807],[139.79937,35.63876],[139.79939,35.63857],[139.79903,35.63824],[139.79898,35.63767],[139.79915,35.63641],[139.8001,35.63648],[139.80013,35.63621],[139.80016,35.63087],[139.80197,35.62627],[139.79851,35.62163],[139.79191,35.62984],[139.79075,35.62919],[139.78714,35.62728],[139.78474,35.62985],[139.78251,35.62864],[139.78204,35.62922],[139.78429,35.63039],[139.78352,35.63134],[139.78608,35.63263],[139.79674,35.63849],[139.79796,35.63911]]]}},{"type":"Feature","properties":{"id":"area-13108023004","name":"有明四丁目"},"geometry":{"type":"Polygon","coordinates":[[[139.78882,35.62817],[139.78918,35.62724],[139.78966,35.62749],[139.79633,35.61909],[139.79612,35.61886],[139.79754,35.61768],[139.79733,35.61723],[139.79684,35.6174],[139.79587,35.61562],[139.79557,35.61575],[139.79427,35.61368],[139.7851,35.62508],[139.78885,35.62707],[139.78853,35.62801],[139.78882,35.62817]]]}},{"type":"Feature","properties":{"id":"area-13108024001","name":"辰巳一丁目"},"geometry":{"type":"Polygon","coordinates":[[[139.81139,35.65362],[139.81273,35.64475],[139.80774,35.64315],[139.80773,35.64336],[139.80877,35.64369],[139.80858,35.64487],[139.80862,35.64489],[139.80862,35.64501],[139.8085,35.64565],[139.80811,35.64561],[139.80804,35.64569],[139.80774,35.64567],[139.80769,35.64558],[139.80741,35.64555],[139.80719,35.64529],[139.80663,35.64526],[139.80657,35.64522],[139.80644,35.64522],[139.80633,35.64591],[139.80701,35.64598],[139.80732,35.64577],[139.80765,35.6458],[139.80773,35.64572],[139.80805,35.64575],[139.80809,35.64583],[139.80822,35.64585],[139.80822,35.64587],[139.80846,35.64588],[139.8083,35.6471],[139.80656,35.64822],[139.80595,35.65244],[139.80718,35.65324],[139.81139,35.65362]]]}},{"type":"Feature","properties":{"id":"area-13108024002","name":"辰巳二丁目"},"geometry":{"type":"Polygon","coordinates":[[[139.81166,35.65367],[139.81171,35.65364],[139.81668,35.65413],[139.81675,35.6536],[139.81806,35.65373],[139.81675,35.65358],[139.81691,35.65251],[139.81822,35.65262],[139.81823,35.6526],[139.81691,35.65249],[139.81706,35.65142],[139.81836,35.65155],[139.81706,35.65139],[139.81755,35.64799],[139.82087,35.64831],[139.82108,35.64712],[139.82141,35.64714],[139.82142,35.64707],[139.82163,35.6471],[139.82164,35.64697],[139.82135,35.64693],[139.82166,35.64669],[139.82168,35.64655],[139.81717,35.64609],[139.81552,35.64566],[139.81272,35.64474],[139.81133,35.65405],[139.81118,35.65456],[139.81153,35.65459],[139.81166,35.65367]]]}},{"type":"Feature","properties":{"id":"area-13108024003","name":"辰巳三丁目"},"geometry":{"type":"Polygon","coordinates":[[[139.82109,35.64649],[139.82157,35.64271],[139.82012,35.64119],[139.81703,35.64102],[139.808,35.64024],[139.80781,35.64215],[139.80696,35.64197],[139.80681,35.64282],[139.80771,35.6431],[139.80774,35.64315],[139.81552,35.64566],[139.81717,35.64609],[139.82109,35.64649]]]}},{"type":"Feature","properties":{"id":"area-13108025001","name":"潮見一丁目"},"geometry":{"type":"Polygon","coordinates":[[[139.8159,35.6571],[139.81615,35.65505],[139.81536,35.655],[139.81522,35.65508],[139.81516,35.65531],[139.81505,35.65529],[139.81506,35.65525],[139.81469,35.65523],[139.81469,35.65519],[139.8144,35.65519],[139.81443,35.65498],[139.8143,35.65486],[139.81374,35.65481],[139.81362,35.6549],[139.81359,35.65513],[139.81305,35.65507],[139.81309,35.65484],[139.81297,35.65473],[139.80878,35.65433],[139.80792,35.65518],[139.81014,35.65665],[139.80978,35.65701],[139.80991,35.65709],[139.81028,35.65674],[139.81385,35.65909],[139.8159,35.6571]]]}},{"type":"Feature","properties":{"id":"area-13108025002","name":"潮見二丁目"},"geometry":{"type":"Polygon","coordinates":[[[139.8201,35.66133],[139.82029,35.65752],[139.8211,35.65756],[139.82111,35.65718],[139.82031,35.65718],[139.82039,35.65544],[139.81615,35.65505],[139.8159,35.6571],[139.81385,35.65909],[139.81673,35.66098],[139.8201,35.66133]]]}},{"type":"Feature","properties":{"id":"area-13108026001","name":"青海一丁目"},"geometry":{"type":"Polygon","coordinates":[[[139.78454,35.62606],[139.78071,35.62402],[139.78041,35.62431],[139.78034,35.62422],[139.77344,35.62054],[139.77108,35.62352],[139.7731,35.625],[139.77428,35.62578],[139.78161,35.62975],[139.78454,35.62606]]]}},{"type":"Feature","properties":{"id":"area-13108026002","name":"青海二丁目"},"geometry":{"type":"Polygon","coordinates":[[[139.78248,35.61652],[139.77703,35.61356],[139.77295,35.61856],[139.77443,35.61928],[139.77344,35.62054],[139.78034,35.62422],[139.78041,35.62431],[139.78152,35.62323],[139.77899,35.62182],[139.78002,35.61988],[139.78088,35.6185],[139.78248,35.61652]]]}},{"type":"Feature","properties":{"id":"area-13108026003","name":"青海三丁目"},"geometry":{"type":"Polygon","coordinates":[[[139.79003,35.60638],[139.78686,35.60225],[139.78567,35.60368],[139.78525,35.6035],[139.77703,35.61356],[139.78248,35.61652],[139.78461,35.61392],[139.79008,35.60694],[139.7898,35.60677],[139.79003,35.60638]]]}},{"type":"Feature","properties":{"id":"area-13108026004","name":"青海四丁目"},"geometry":{"type":"Polygon","coordinates":[[[139.79074,35.60733],[139.79008,35.60694],[139.78461,35.61392],[139.78088,35.6185],[139.78002,35.61988],[139.77899,35.62182],[139.7813,35.62311],[139.79254,35.60951],[139.79074,35.60733]]]}},{"type":"Feature","properties":{"id":"area-13108027001","name":"千石一丁目"},"geometry":{"type":"Polygon","coordinates":[[[139.81113,35.68048],[139.8112,35.67976],[139.81424,35.67992],[139.81463,35.67626],[139.81085,35.6761],[139.81085,35.67637],[139.81031,35.68043],[139.81113,35.68048]]]}},{"type":"Feature","properties":{"id":"area-13108027002","name":"千石二丁目"},"geometry":{"type":"Polygon","coordinates":[[[139.81743,35.67637],[139.81463,35.67626],[139.81424,35.67992],[139.81587,35.68001],[139.81608,35.67992],[139.81727,35.67979],[139.81743,35.67637]]]}},{"type":"Feature","properties":{"id":"area-13108027003","name":"千石三丁目"},"geometry":{"type":"Polygon","coordinates":[[[139.82006,35.67649],[139.81743,35.67637],[139.81727,35.67979],[139.81872,35.67963],[139.82035,35.67938],[139.82003,35.67686],[139.82006,35.67649]]]}},{"type":"Feature","properties":{"id":"area-131080280","name":"石島"},"geometry":{"type":"Polygon","coordinates":[[[139.81397,35.68235],[139.81424,35.67992],[139.8112,35.67976],[139.81113,35.68048],[139.81031,35.68043],[139.81018,35.68151],[139.81145,35.68156],[139.81139,35.68221],[139.81397,35.68235]]]}},{"type":"Feature","properties":{"id":"area-131080290","name":"千田"},"geometry":{"type":"Polygon","coordinates":[[[139.8172,35.6808],[139.81727,35.67979],[139.81608,35.67992],[139.81587,35.68001],[139.81424,35.67992],[139.81397,35.68235],[139.81735,35.68253],[139.8172,35.6808]]]}},{"type":"Feature","properties":{"id":"area-131080300","name":"海辺"},"geometry":{"type":"Polygon","coordinates":[[[139.81845,35.68259],[139.8207,35.68152],[139.82046,35.6803],[139.82035,35.67938],[139.81872,35.67963],[139.81727,35.67979],[139.8172,35.6808],[139.81735,35.68253],[139.81845,35.68259]]]}},{"type":"Feature","properties":{"id":"area-13108031001","name":"扇橋一丁目"},"geometry":{"type":"Polygon","coordinates":[[[139.81145,35.68156],[139.81018,35.68151],[139.80983,35.68437],[139.81372,35.68459],[139.81397,35.68235],[139.81139,35.68221],[139.81145,35.68156]]]}},{"type":"Feature","properties":{"id":"area-13108031002","name":"扇橋二丁目"},"geometry":{"type":"Polygon","coordinates":[[[139.81733,35.68253],[139.81397,35.68235],[139.81372,35.68459],[139.81716,35.68478],[139.81733,35.68253]]]}},{"type":"Feature","properties":{"id":"area-13108031003","name":"扇橋三丁目"},"geometry":{"type":"Polygon","coordinates":[[[139.8206,35.68497],[139.82083,35.68225],[139.8207,35.68151],[139.81845,35.68259],[139.81733,35.68253],[139.81716,35.68478],[139.8206,35.68497]]]}},{"type":"Feature","properties":{"id":"area-13108032001","name":"猿江一丁目"},"geometry":{"type":"Polygon","coordinates":[[[139.81372,35.68459],[139.80983,35.68437],[139.80953,35.68717],[139.81371,35.68741],[139.81379,35.68657],[139.81368,35.68502],[139.81372,35.68459]]]}},{"type":"Feature","properties":{"id":"area-13108032002","name":"猿江二丁目"},"geometry":{"type":"Polygon","coordinates":[[[139.82035,35.68754],[139.8206,35.68497],[139.81372,35.68459],[139.81368,35.68502],[139.81379,35.68657],[139.81371,35.68741],[139.81589,35.68753],[139.81594,35.68726],[139.82035,35.68754]]]}},{"type":"Feature","properties":{"id":"area-13108033001","name":"住吉一丁目"},"geometry":{"type":"Polygon","coordinates":[[[139.81371,35.68741],[139.80953,35.68717],[139.80938,35.68861],[139.81173,35.68877],[139.81157,35.69032],[139.81346,35.69042],[139.81371,35.68741]]]}},{"type":"Feature","properties":{"id":"area-13108033002","name":"住吉二丁目"},"geometry":{"type":"Polygon","coordinates":[[[139.81626,35.69059],[139.81639,35.68904],[139.82017,35.68917],[139.82035,35.68754],[139.81594,35.68726],[139.81589,35.68753],[139.81371,35.68741],[139.81346,35.69042],[139.81626,35.69059]]]}},{"type":"Feature","properties":{"id":"area-13108034001","name":"毛利一丁目"},"geometry":{"type":"Polygon","coordinates":[[[139.81557,35.69056],[139.81157,35.69032],[139.81136,35.69209],[139.81332,35.6922],[139.81326,35.69297],[139.81532,35.69308],[139.81557,35.69056]]]}},{"type":"Feature","properties":{"id":"area-13108034002","name":"毛利二丁目"},"geometry":{"type":"Polygon","coordinates":[[[139.81986,35.69164],[139.82017,35.68917],[139.81639,35.68904],[139.81626,35.69059],[139.81557,35.69056],[139.81532,35.69308],[139.81974,35.69332],[139.81986,35.69164]]]}},{"type":"Feature","properties":{"id":"area-13108035001","name":"木場一丁目"},"geometry":{"type":"Polygon","coordinates":[[[139.8016,35.66883],[139.80555,35.66878],[139.80538,35.66842],[139.80525,35.66497],[139.80348,35.665],[139.80244,35.66496],[139.80188,35.66773],[139.8016,35.66883]]]}},{"type":"Feature","properties":{"id":"area-13108035002","name":"木場二丁目"},"geometry":{"type":"Polygon","coordinates":[[[139.80581,35.66943],[139.80555,35.66878],[139.8016,35.66883],[139.80149,35.66911],[139.80132,35.66916],[139.80199,35.66989],[139.80224,35.67053],[139.80282,35.67258],[139.80508,35.67213],[139.80505,35.67195],[139.80626,35.67181],[139.80581,35.66943]]]}},{"type":"Feature","properties":{"id":"area-13108035003","name":"木場三丁目"},"geometry":{"type":"Polygon","coordinates":[[[139.807,35.67597],[139.80626,35.67181],[139.80505,35.67195],[139.80508,35.67213],[139.80282,35.67258],[139.80369,35.67584],[139.807,35.67597]]]}},{"type":"Feature","properties":{"id":"area-13108035004","name":"木場四丁目"},"geometry":{"type":"Polygon","coordinates":[[[139.81085,35.6761],[139.81005,35.67331],[139.80979,35.67258],[139.80955,35.67261],[139.80638,35.67251],[139.807,35.67597],[139.81085,35.6761]]]}},{"type":"Feature","properties":{"id":"area-13108035005","name":"木場五丁目"},"geometry":{"type":"Polygon","coordinates":[[[139.80637,35.66879],[139.80555,35.66878],[139.80581,35.66943],[139.80638,35.67251],[139.80955,35.67261],[139.80979,35.67258],[139.8085,35.66906],[139.80838,35.66897],[139.80807,35.66891],[139.80637,35.66879]]]}},{"type":"Feature","properties":{"id":"area-13108035006","name":"木場六丁目"},"geometry":{"type":"Polygon","coordinates":[[[139.80807,35.66891],[139.80859,35.66506],[139.80848,35.66495],[139.80836,35.66491],[139.80525,35.66497],[139.80538,35.66842],[139.80555,35.66878],[139.80637,35.66879],[139.80807,35.66891]]]}},{"type":"Feature","properties":{"id":"area-13108036001","name":"東陽一丁目"},"geometry":{"type":"Polygon","coordinates":[[[139.81372,35.6655],[139.80877,35.66503],[139.80858,35.66515],[139.80814,35.6684],[139.81323,35.66889],[139.81372,35.6655]]]}},{"type":"Feature","properties":{"id":"area-13108036002","name":"東陽二丁目"},"geometry":{"type":"Polygon","coordinates":[[[139.81963,35.66925],[139.81967,35.66826],[139.81963,35.66826],[139.81967,35.66673],[139.81972,35.66582],[139.81378,35.66547],[139.81372,35.6655],[139.81322,35.669],[139.81963,35.66925]]]}},{"type":"Feature","properties":{"id":"area-13108036003","name":"東陽三丁目"},"geometry":{"type":"Polygon","coordinates":[[[139.80972,35.67087],[139.81108,35.67065],[139.81632,35.67085],[139.81643,35.66914],[139.81322,35.669],[139.81323,35.66889],[139.80814,35.6684],[139.80807,35.66891],[139.80838,35.66897],[139.8085,35.66906],[139.80919,35.6709],[139.80972,35.67087]]]}},{"type":"Feature","properties":{"id":"area-13108036004","name":"東陽四丁目"},"geometry":{"type":"Polygon","coordinates":[[[139.81964,35.66925],[139.81643,35.66914],[139.81613,35.67407],[139.81962,35.67451],[139.81964,35.66925]]]}},{"type":"Feature","properties":{"id":"area-13108036005","name":"東陽五丁目"},"geometry":{"type":"Polygon","coordinates":[[[139.81632,35.67085],[139.81108,35.67065],[139.80972,35.67087],[139.80919,35.6709],[139.81006,35.67332],[139.81613,35.67407],[139.81632,35.67085]]]}},{"type":"Feature","properties":{"id":"area-13108036006","name":"東陽六丁目"},"geometry":{"type":"Polygon","coordinates":[[[139.81593,35.67631],[139.81614,35.67408],[139.81004,35.67331],[139.81085,35.6761],[139.81593,35.67631]]]}},{"type":"Feature","properties":{"id":"area-13108036007","name":"東陽七丁目"},"geometry":{"type":"Polygon","coordinates":[[[139.81998,35.67456],[139.81614,35.67408],[139.81593,35.67631],[139.82008,35.67649],[139.82023,35.67473],[139.8201,35.6746],[139.81998,35.67456]]]}},{"type":"Feature","properties":{"id":"area-13108037001","name":"亀戸一丁目"},"geometry":{"type":"Polygon","coordinates":[[[139.826,35.69361],[139.81974,35.6933],[139.81945,35.6969],[139.8257,35.69736],[139.826,35.69361]]]}},{"type":"Feature","properties":{"id":"area-13108037002","name":"亀戸二丁目"},"geometry":{"type":"Polygon","coordinates":[[[139.8257,35.69736],[139.81945,35.6969],[139.81913,35.70143],[139.82536,35.70173],[139.8257,35.69736]]]}},{"type":"Feature","properties":{"id":"area-13108037003","name":"亀戸三丁目"},"geometry":{"type":"Polygon","coordinates":[[[139.82536,35.70173],[139.81913,35.70143],[139.8188,35.70624],[139.81872,35.70785],[139.81905,35.70788],[139.82378,35.70604],[139.82589,35.70517],[139.82536,35.70173]]]}},{"type":"Feature","properties":{"id":"area-13108037004","name":"亀戸四丁目"},"geometry":{"type":"Polygon","coordinates":[[[139.8325,35.70175],[139.8326,35.70056],[139.83207,35.70077],[139.83179,35.70099],[139.83133,35.70103],[139.82545,35.70062],[139.82536,35.70178],[139.82589,35.70517],[139.82798,35.70434],[139.82938,35.70384],[139.83073,35.70297],[139.83086,35.70293],[139.83305,35.70289],[139.83343,35.70176],[139.8325,35.70175]]]}},{"type":"Feature","properties":{"id":"area-13108037005","name":"亀戸五丁目"},"geometry":{"type":"Polygon","coordinates":[[[139.83133,35.70103],[139.83179,35.70099],[139.83207,35.70077],[139.8326,35.70056],[139.83281,35.69771],[139.83004,35.69754],[139.8257,35.69736],[139.82545,35.70062],[139.83133,35.70103]]]}},{"type":"Feature","properties":{"id":"area-13108037006","name":"亀戸六丁目"},"geometry":{"type":"Polygon","coordinates":[[[139.83281,35.69771],[139.83286,35.697],[139.83291,35.697],[139.83313,35.69399],[139.826,35.69362],[139.8257,35.69736],[139.83004,35.69754],[139.83281,35.69771]]]}},{"type":"Feature","properties":{"id":"area-13108037007","name":"亀戸七丁目"},"geometry":{"type":"Polygon","coordinates":[[[139.84055,35.69702],[139.84013,35.69431],[139.83733,35.6942],[139.83313,35.69399],[139.83291,35.697],[139.83286,35.697],[139.8328,35.69778],[139.83341,35.6979],[139.83391,35.69804],[139.8349,35.69843],[139.83531,35.69863],[139.83603,35.69909],[139.83674,35.69979],[139.83763,35.69936],[139.83799,35.69885],[139.83865,35.69829],[139.83917,35.69788],[139.84055,35.69702]]]}},{"type":"Feature","properties":{"id":"area-13108037008","name":"亀戸八丁目"},"geometry":{"type":"Polygon","coordinates":[[[139.83563,35.70307],[139.83606,35.70273],[139.83644,35.7025],[139.83803,35.70187],[139.83712,35.70028],[139.83673,35.69979],[139.83603,35.69909],[139.83531,35.69863],[139.8349,35.69843],[139.83391,35.69804],[139.83341,35.6979],[139.8328,35.69778],[139.8325,35.70175],[139.83343,35.70176],[139.83305,35.70289],[139.83466,35.70291],[139.83521,35.70297],[139.83563,35.70307]]]}},{"type":"Feature","properties":{"id":"area-13108037009","name":"亀戸九丁目"},"geometry":{"type":"Polygon","coordinates":[[[139.84554,35.69451],[139.84013,35.69431],[139.84055,35.69702],[139.83917,35.69788],[139.83865,35.69829],[139.83799,35.69885],[139.83763,35.69936],[139.83674,35.69979],[139.83712,35.70028],[139.83803,35.70187],[139.84037,35.70102],[139.84204,35.70037],[139.84383,35.69952],[139.8444,35.69918],[139.84517,35.69856],[139.84556,35.69812],[139.8471,35.69601],[139.84781,35.69471],[139.84554,35.69451]]]}},{"type":"Feature","properties":{"id":"area-13108038001","name":"大島一丁目"},"geometry":{"type":"Polygon","coordinates":[[[139.8206,35.68504],[139.82048,35.68644],[139.82017,35.68917],[139.82634,35.68936],[139.82666,35.68539],[139.8206,35.68504]]]}},{"type":"Feature","properties":{"id":"area-13108038002","name":"大島二丁目"},"geometry":{"type":"Polygon","coordinates":[[[139.82634,35.68936],[139.82017,35.68917],[139.81986,35.69164],[139.81974,35.6933],[139.826,35.69361],[139.82634,35.68936]]]}},{"type":"Feature","properties":{"id":"area-13108038003","name":"大島三丁目"},"geometry":{"type":"Polygon","coordinates":[[[139.83188,35.69065],[139.83214,35.68952],[139.83217,35.68951],[139.82972,35.68929],[139.82634,35.68939],[139.826,35.69362],[139.83159,35.69391],[139.83188,35.69065]]]}},{"type":"Feature","properties":{"id":"area-13108038004","name":"大島四丁目"},"geometry":{"type":"Polygon","coordinates":[[[139.83219,35.68952],[139.83267,35.68733],[139.83277,35.68696],[139.83288,35.68674],[139.83299,35.68574],[139.82666,35.68539],[139.82634,35.68939],[139.82972,35.68929],[139.83219,35.68952]]]}},{"type":"Feature","properties":{"id":"area-13108038005","name":"大島五丁目"},"geometry":{"type":"Polygon","coordinates":[[[139.83862,35.68604],[139.83299,35.68574],[139.83288,35.68674],[139.83277,35.68696],[139.83267,35.68733],[139.83219,35.68952],[139.83789,35.69006],[139.8381,35.68891],[139.83874,35.68607],[139.83862,35.68604]]]}},{"type":"Feature","properties":{"id":"area-13108038006","name":"大島六丁目"},"geometry":{"type":"Polygon","coordinates":[[[139.83735,35.6942],[139.83764,35.69084],[139.83776,35.69068],[139.83789,35.69006],[139.83214,35.68952],[139.83188,35.69065],[139.83159,35.69391],[139.83735,35.6942]]]}},{"type":"Feature","properties":{"id":"area-13108038007","name":"大島七丁目"},"geometry":{"type":"Polygon","coordinates":[[[139.84425,35.69064],[139.83789,35.69006],[139.83776,35.69068],[139.83764,35.69084],[139.83735,35.6942],[139.84329,35.69443],[139.84348,35.69337],[139.84425,35.69064]]]}},{"type":"Feature","properties":{"id":"area-13108038008","name":"大島八丁目"},"geometry":{"type":"Polygon","coordinates":[[[139.83901,35.68611],[139.83874,35.68607],[139.8381,35.68891],[139.83789,35.69006],[139.84425,35.69064],[139.84516,35.6878],[139.84521,35.68647],[139.83901,35.68611]]]}},{"type":"Feature","properties":{"id":"area-13108038009","name":"大島九丁目"},"geometry":{"type":"Polygon","coordinates":[[[139.84706,35.68656],[139.84521,35.68647],[139.84516,35.6878],[139.84425,35.69064],[139.84398,35.69158],[139.84348,35.69337],[139.84329,35.69443],[139.84554,35.69451],[139.84781,35.69471],[139.84789,35.69449],[139.84797,35.69408],[139.84801,35.69364],[139.84802,35.69245],[139.84787,35.6909],[139.84775,35.68886],[139.84771,35.68867],[139.84706,35.68656]]]}},{"type":"Feature","properties":{"id":"area-13108039001","name":"北砂一丁目"},"geometry":{"type":"Polygon","coordinates":[[[139.82432,35.68394],[139.82484,35.68099],[139.82481,35.68097],[139.82535,35.67851],[139.82555,35.67783],[139.82559,35.67755],[139.82487,35.678],[139.82233,35.68103],[139.82105,35.68191],[139.82081,35.68205],[139.82081,35.68202],[139.82083,35.68225],[139.8206,35.68504],[139.82413,35.68524],[139.82439,35.68395],[139.82432,35.68394]]]}},{"type":"Feature","properties":{"id":"area-13108039002","name":"北砂二丁目"},"geometry":{"type":"Polygon","coordinates":[[[139.82762,35.68049],[139.82712,35.67708],[139.8257,35.67748],[139.82559,35.67755],[139.82555,35.67783],[139.82535,35.67851],[139.82481,35.68097],[139.82484,35.68099],[139.82432,35.68394],[139.82439,35.68395],[139.82413,35.68524],[139.82668,35.68539],[139.82683,35.68374],[139.82759,35.68143],[139.82768,35.68107],[139.82762,35.68049]]]}},{"type":"Feature","properties":{"id":"area-13108039003","name":"北砂三丁目"},"geometry":{"type":"Polygon","coordinates":[[[139.83068,35.68202],[139.83066,35.68161],[139.83129,35.68162],[139.8313,35.6797],[139.82743,35.67924],[139.82762,35.68049],[139.82767,35.68118],[139.82683,35.68374],[139.82668,35.68539],[139.83049,35.6856],[139.83063,35.68373],[139.83068,35.68202]]]}},{"type":"Feature","properties":{"id":"area-13108039004","name":"北砂四丁目"},"geometry":{"type":"Polygon","coordinates":[[[139.83496,35.68012],[139.83378,35.67625],[139.82712,35.67708],[139.82743,35.67924],[139.83496,35.68012]]]}},{"type":"Feature","properties":{"id":"area-13108039005","name":"北砂五丁目"},"geometry":{"type":"Polygon","coordinates":[[[139.83641,35.68592],[139.8364,35.68525],[139.83628,35.68465],[139.83529,35.68137],[139.83496,35.68012],[139.8313,35.6797],[139.83129,35.68162],[139.83066,35.68161],[139.83067,35.68293],[139.83049,35.6856],[139.83641,35.68592]]]}},{"type":"Feature","properties":{"id":"area-13108039006","name":"北砂六丁目"},"geometry":{"type":"Polygon","coordinates":[[[139.83889,35.68031],[139.83801,35.68013],[139.83724,35.68009],[139.83594,35.68013],[139.83496,35.68012],[139.83529,35.68137],[139.83628,35.68465],[139.8364,35.68525],[139.83641,35.68592],[139.83862,35.68604],[139.83933,35.68613],[139.83889,35.68031]]]}},{"type":"Feature","properties":{"id":"area-13108039007","name":"北砂七丁目"},"geometry":{"type":"Polygon","coordinates":[[[139.83895,35.68032],[139.83838,35.67919],[139.83823,35.67897],[139.8371,35.67692],[139.83661,35.67593],[139.83378,35.67625],[139.83496,35.68012],[139.83594,35.68013],[139.83724,35.68009],[139.83801,35.68013],[139.83895,35.68032]]]}},{"type":"Feature","properties":{"id":"area-13108040001","name":"東砂一丁目"},"geometry":{"type":"Polygon","coordinates":[[[139.84095,35.68143],[139.84085,35.68054],[139.84021,35.68058],[139.83889,35.68031],[139.83933,35.68613],[139.84136,35.68624],[139.84138,35.68443],[139.84135,35.68359],[139.84095,35.68143]]]}},{"type":"Feature","properties":{"id":"area-13108040002","name":"東砂二丁目"},"geometry":{"type":"Polygon","coordinates":[[[139.84706,35.68656],[139.84662,35.68519],[139.84617,35.68353],[139.84617,35.68348],[139.84665,35.68316],[139.84671,35.68309],[139.84669,35.68298],[139.84596,35.68173],[139.84593,35.68181],[139.84118,35.68258],[139.84135,35.68359],[139.84138,35.68443],[139.84136,35.68624],[139.84706,35.68656]]]}},{"type":"Feature","properties":{"id":"area-13108040003","name":"東砂三丁目"},"geometry":{"type":"Polygon","coordinates":[[[139.84852,35.67887],[139.8478,35.67697],[139.84412,35.67739],[139.84034,35.67766],[139.84085,35.68054],[139.84095,35.68143],[139.84118,35.68258],[139.84593,35.68181],[139.84597,35.6814],[139.84608,35.68111],[139.84613,35.68107],[139.84898,35.67998],[139.84867,35.67933],[139.84865,35.67916],[139.84852,35.67887]]]}},{"type":"Feature","properties":{"id":"area-13108040004","name":"東砂四丁目"},"geometry":{"type":"Polygon","coordinates":[[[139.83996,35.67549],[139.83661,35.67593],[139.8371,35.67692],[139.83881,35.67999],[139.83895,35.68032],[139.84021,35.68058],[139.84085,35.68054],[139.83996,35.67549]]]}},{"type":"Feature","properties":{"id":"area-13108040005","name":"東砂五丁目"},"geometry":{"type":"Polygon","coordinates":[[[139.84733,35.67546],[139.84712,35.67414],[139.84218,35.67461],[139.84201,35.67468],[139.84114,35.6753],[139.84115,35.67533],[139.83996,35.67549],[139.84034,35.67766],[139.84412,35.67739],[139.8478,35.67697],[139.84746,35.67597],[139.84733,35.67546]]]}},{"type":"Feature","properties":{"id":"area-13108040006","name":"東砂六丁目"},"geometry":{"type":"Polygon","coordinates":[[[139.84712,35.67414],[139.84662,35.66916],[139.84115,35.66936],[139.84045,35.67543],[139.84115,35.67533],[139.84114,35.6753],[139.84201,35.67468],[139.84218,35.67461],[139.84712,35.67414]]]}},{"type":"Feature","properties":{"id":"area-13108040007","name":"東砂七丁目"},"geometry":{"type":"Polygon","coordinates":[[[139.83664,35.67593],[139.84045,35.67543],[139.84114,35.66944],[139.83786,35.66978],[139.83766,35.67246],[139.83567,35.67283],[139.83615,35.67361],[139.83682,35.67587],[139.83663,35.6759],[139.83664,35.67593]]]}},{"type":"Feature","properties":{"id":"area-13108040008","name":"東砂八丁目"},"geometry":{"type":"Polygon","coordinates":[[[139.84628,35.66575],[139.84361,35.66597],[139.83803,35.66666],[139.83797,35.66863],[139.83786,35.66978],[139.84114,35.66944],[139.84115,35.66936],[139.84662,35.66916],[139.84637,35.66688],[139.84628,35.66575]]]}},{"type":"Feature","properties":{"id":"area-13108041001","name":"南砂一丁目"},"geometry":{"type":"Polygon","coordinates":[[[139.82712,35.67708],[139.82683,35.67533],[139.82166,35.67639],[139.82068,35.67639],[139.82043,35.67632],[139.82027,35.67619],[139.8201,35.67619],[139.82003,35.67686],[139.82007,35.67718],[139.82046,35.6803],[139.82081,35.68205],[139.82233,35.68103],[139.82487,35.678],[139.8257,35.67748],[139.82712,35.67708]]]}},{"type":"Feature","properties":{"id":"area-13108041002","name":"南砂二丁目"},"geometry":{"type":"Polygon","coordinates":[[[139.82166,35.67639],[139.82683,35.67533],[139.82654,35.67345],[139.82575,35.66995],[139.82573,35.66948],[139.82029,35.66921],[139.82029,35.66927],[139.81964,35.66925],[139.81962,35.67451],[139.8201,35.6746],[139.82023,35.67473],[139.8201,35.67619],[139.82027,35.67619],[139.82043,35.67632],[139.82068,35.67639],[139.82166,35.67639]]]}},{"type":"Feature","properties":{"id":"area-13108041003","name":"南砂三丁目"},"geometry":{"type":"Polygon","coordinates":[[[139.83374,35.67009],[139.833,35.66816],[139.82815,35.66961],[139.82774,35.66968],[139.82574,35.66959],[139.82575,35.66995],[139.82656,35.67362],[139.82901,35.67282],[139.82918,35.67281],[139.83425,35.67101],[139.83374,35.67009]]]}},{"type":"Feature","properties":{"id":"area-13108041004","name":"南砂四丁目"},"geometry":{"type":"Polygon","coordinates":[[[139.83312,35.67399],[139.83242,35.67166],[139.82918,35.67281],[139.82901,35.67282],[139.82656,35.67362],[139.82683,35.67533],[139.82684,35.67536],[139.82729,35.67527],[139.83312,35.67399]]]}},{"type":"Feature","properties":{"id":"area-13108041005","name":"南砂五丁目"},"geometry":{"type":"Polygon","coordinates":[[[139.83615,35.67361],[139.83598,35.67335],[139.82684,35.67536],[139.82712,35.67708],[139.83278,35.67637],[139.83661,35.67593],[139.83664,35.67593],[139.83663,35.6759],[139.83682,35.67587],[139.83615,35.67361]]]}},{"type":"Feature","properties":{"id":"area-13108041006","name":"南砂六丁目"},"geometry":{"type":"Polygon","coordinates":[[[139.83766,35.67246],[139.83786,35.66978],[139.83698,35.66993],[139.8353,35.67052],[139.83485,35.6708],[139.83242,35.67166],[139.83312,35.67399],[139.83598,35.67335],[139.83567,35.67283],[139.83766,35.67246]]]}},{"type":"Feature","properties":{"id":"area-13108041007","name":"南砂七丁目"},"geometry":{"type":"Polygon","coordinates":[[[139.83802,35.66667],[139.83799,35.66665],[139.83633,35.66714],[139.833,35.66816],[139.83374,35.67009],[139.83425,35.67101],[139.83485,35.6708],[139.8353,35.67052],[139.83698,35.66993],[139.83786,35.66978],[139.83797,35.66863],[139.83802,35.66667]]]}},{"type":"Feature","properties":{"id":"area-13108042001","name":"新砂一丁目"},"geometry":{"type":"Polygon","coordinates":[[[139.82573,35.66948],[139.82561,35.66618],[139.82394,35.66449],[139.82373,35.66408],[139.82398,35.65925],[139.82426,35.65581],[139.82144,35.65553],[139.82118,35.65567],[139.82096,35.66134],[139.82089,35.66193],[139.82078,35.66205],[139.82074,35.66216],[139.82065,35.66582],[139.82045,35.6658],[139.82045,35.66586],[139.81972,35.66582],[139.81967,35.66673],[139.81963,35.66826],[139.81967,35.66826],[139.81963,35.66925],[139.82029,35.66927],[139.82029,35.66921],[139.82573,35.66948]]]}},{"type":"Feature","properties":{"id":"area-13108042002","name":"新砂二丁目"},"geometry":{"type":"Polygon","coordinates":[[[139.82838,35.66626],[139.82829,35.66617],[139.82677,35.66622],[139.82675,35.66562],[139.82829,35.66557],[139.82837,35.66548],[139.82835,35.66331],[139.82826,35.66244],[139.82822,35.66239],[139.8245,35.66211],[139.82453,35.66163],[139.82786,35.66184],[139.82803,35.66172],[139.82807,35.66164],[139.82812,35.65985],[139.82817,35.6598],[139.82822,35.65872],[139.82818,35.65868],[139.8282,35.65827],[139.82824,35.6582],[139.82825,35.65773],[139.82823,35.65766],[139.82827,35.65634],[139.82807,35.65614],[139.82748,35.65606],[139.8275,35.65597],[139.82665,35.6559],[139.8266,35.65601],[139.82426,35.65581],[139.82398,35.65925],[139.82373,35.66408],[139.82394,35.66449],[139.82561,35.66618],[139.82574,35.66959],[139.82774,35.66968],[139.82817,35.66942],[139.82839,35.66925],[139.82882,35.66875],[139.82881,35.66809],[139.82843,35.66807],[139.82838,35.66626]]]}},{"type":"Feature","properties":{"id":"area-13108042003","name":"新砂三丁目"},"geometry":{"type":"Polygon","coordinates":[[[139.82989,35.66908],[139.83799,35.66665],[139.83802,35.66667],[139.84361,35.66597],[139.84628,35.66574],[139.8457,35.65896],[139.84548,35.65153],[139.84536,35.64933],[139.84081,35.64946],[139.83821,35.65113],[139.83794,35.65088],[139.83769,35.65107],[139.83793,35.65135],[139.83757,35.65162],[139.83817,35.65233],[139.8385,35.65219],[139.83864,35.65237],[139.83849,35.65258],[139.83958,35.65365],[139.83973,35.65572],[139.83811,35.65615],[139.83806,35.65538],[139.83487,35.6553],[139.83488,35.65519],[139.83448,35.65518],[139.83445,35.65528],[139.83269,35.65525],[139.8317,35.65572],[139.83169,35.65581],[139.83162,35.65582],[139.83165,35.65626],[139.83173,35.65626],[139.83173,35.65648],[139.83078,35.65639],[139.83077,35.65626],[139.83058,35.65625],[139.83055,35.65634],[139.8299,35.6563],[139.82992,35.6562],[139.82983,35.65618],[139.82982,35.65629],[139.82941,35.65625],[139.82942,35.65616],[139.8293,35.65614],[139.82928,35.65625],[139.8291,35.65625],[139.82891,35.65636],[139.8289,35.65751],[139.82883,35.65849],[139.82869,35.6619],[139.83038,35.66204],[139.82998,35.6653],[139.82875,35.66568],[139.82867,35.66573],[139.8287,35.66808],[139.82881,35.66809],[139.82882,35.66875],[139.82839,35.66925],[139.82817,35.66942],[139.82774,35.66968],[139.82846,35.66954],[139.82989,35.66908]]]}},{"type":"Feature","properties":{"id":"area-13108043001","name":"新木場一丁目"},"geometry":{"type":"Polygon","coordinates":[[[139.8375,35.648],[139.83675,35.63952],[139.83312,35.63917],[139.83315,35.63954],[139.83413,35.6396],[139.83453,35.6441],[139.82497,35.64314],[139.82484,35.64269],[139.82423,35.64265],[139.82433,35.64308],[139.82271,35.64291],[139.82219,35.64648],[139.8375,35.648]]]}},{"type":"Feature","properties":{"id":"area-13108043002","name":"新木場二丁目"},"geometry":{"type":"Polygon","coordinates":[[[139.82484,35.64269],[139.82471,35.64227],[139.8262,35.64239],[139.82492,35.63967],[139.83322,35.64045],[139.83312,35.63917],[139.83309,35.63795],[139.82524,35.6372],[139.82567,35.63463],[139.82553,35.63461],[139.82554,35.63449],[139.82337,35.63431],[139.82344,35.63398],[139.82285,35.63393],[139.82281,35.63427],[139.82115,35.63413],[139.82056,35.63886],[139.82292,35.64136],[139.82291,35.64175],[139.82283,35.64211],[139.82412,35.64222],[139.82423,35.64265],[139.82484,35.64269]]]}},{"type":"Feature","properties":{"id":"area-13108043003","name":"新木場三丁目"},"geometry":{"type":"Polygon","coordinates":[[[139.83675,35.63952],[139.8361,35.63158],[139.83553,35.63152],[139.83568,35.6334],[139.83189,35.63305],[139.82131,35.63176],[139.82107,35.63339],[139.82289,35.63354],[139.82285,35.63393],[139.82344,35.63398],[139.82354,35.63359],[139.83378,35.63456],[139.83408,35.63899],[139.83312,35.63896],[139.83312,35.63917],[139.83675,35.63952]]]}},{"type":"Feature","properties":{"id":"area-13108043004","name":"新木場四丁目"},"geometry":{"type":"Polygon","coordinates":[[[139.83641,35.63161],[139.8361,35.63158],[139.83675,35.63952],[139.8375,35.648],[139.84144,35.64765],[139.84022,35.63376],[139.83669,35.63349],[139.83641,35.63161]]]}},{"type":"Feature","properties":{"id":"area-13108044001","name":"夢の島一丁目"},"geometry":{"type":"Polygon","coordinates":[[[139.82548,35.64681],[139.82219,35.64648],[139.82213,35.64698],[139.82164,35.64697],[139.82163,35.6471],[139.82211,35.64712],[139.8213,35.65333],[139.82216,35.65411],[139.82396,35.65424],[139.82378,35.65576],[139.82426,35.65581],[139.82484,35.65111],[139.82548,35.64681]]]}},{"type":"Feature","properties":{"id":"area-13108044002","name":"夢の島二丁目"},"geometry":{"type":"Polygon","coordinates":[[[139.83065,35.65207],[139.83077,35.65113],[139.83075,35.65094],[139.83113,35.64823],[139.83339,35.64846],[139.83347,35.64798],[139.83387,35.64805],[139.83394,35.64765],[139.82548,35.64681],[139.82484,35.65111],[139.82426,35.65581],[139.82444,35.65582],[139.82463,35.65429],[139.82558,35.65434],[139.82608,35.65163],[139.82913,35.65195],[139.82911,35.65239],[139.83004,35.6525],[139.83013,35.65201],[139.83065,35.65207]]]}},{"type":"Feature","properties":{"id":"area-13108044003","name":"夢の島三丁目"},"geometry":{"type":"Polygon","coordinates":[[[139.83357,35.65237],[139.83402,35.65208],[139.83475,35.65216],[139.83718,35.65054],[139.83769,35.65107],[139.83794,35.65088],[139.83746,35.65034],[139.84144,35.64765],[139.8375,35.648],[139.83394,35.64765],[139.83387,35.64805],[139.83347,35.64798],[139.83339,35.64846],[139.83113,35.64823],[139.83075,35.65094],[139.83077,35.65113],[139.83065,35.65207],[139.83357,35.65237]]]}},{"type":"Feature","properties":{"id":"area-13108045001","name":"若洲一丁目"},"geometry":{"type":"Polygon","coordinates":[[[139.83159,35.62267],[139.82699,35.62223],[139.82567,35.63056],[139.83597,35.63156],[139.83575,35.62903],[139.83077,35.62859],[139.83159,35.62267]]]}},{"type":"Feature","properties":{"id":"area-13108045002","name":"若洲二丁目"},"geometry":{"type":"Polygon","coordinates":[[[139.83318,35.62281],[139.83298,35.62035],[139.83354,35.61965],[139.83347,35.61905],[139.83126,35.61783],[139.83069,35.61867],[139.8323,35.61955],[139.83106,35.62094],[139.82935,35.61977],[139.82752,35.61963],[139.82747,35.61991],[139.82736,35.6199],[139.82699,35.62223],[139.83159,35.62267],[139.83077,35.62859],[139.83575,35.62903],[139.83526,35.623],[139.83318,35.62281]]]}},{"type":"Feature","properties":{"id":"area-13108045003","name":"若洲三丁目"},"geometry":{"type":"Polygon","coordinates":[[[139.83973,35.6321],[139.84011,35.63197],[139.83864,35.61433],[139.83556,35.6126],[139.83126,35.61783],[139.83347,35.61905],[139.83354,35.61965],[139.83298,35.62035],[139.83318,35.62281],[139.83526,35.623],[139.83597,35.63156],[139.83644,35.63161],[139.83672,35.63173],[139.83973,35.6321]]]}},{"type":"Feature","properties":{"id":"area-131089990","name":"江東区"},"geometry":{"type":"MultiPolygon","coordinates":[[[[139.82031,35.6074],[139.827,35.59704],[139.81362,35.58979],[139.80633,35.59866],[139.8043,35.59761],[139.79429,35.59218],[139.79364,35.59172],[139.79333,35.59203],[139.79375,35.59234],[139.79297,35.59281],[139.80384,35.59871],[139.80458,35.59783],[139.80615,35.5987],[139.80558,35.5994],[139.82031,35.6074]]],[[[139.81168,35.61297],[139.81458,35.61147],[139.8144,35.61122],[139.8185,35.60911],[139.8245,35.61022],[139.82465,35.60984],[139.81931,35.60878],[139.81868,35.60874],[139.80424,35.60089],[139.80474,35.60022],[139.80363,35.59959],[139.80071,35.59805],[139.80018,35.59869],[139.7988,35.59793],[139.79884,35.5979],[139.7983,35.59759],[139.79158,35.59394],[139.79151,35.59387],[139.79063,35.59242],[139.79056,35.59244],[139.79149,35.59395],[139.79027,35.59545],[139.79141,35.597],[139.79116,35.59713],[139.79413,35.60115],[139.79589,35.60364],[139.79837,35.60684],[139.79841,35.60686],[139.79866,35.60672],[139.80883,35.61224],[139.80831,35.61292],[139.8094,35.61352],[139.80994,35.61284],[139.81021,35.61355],[139.81145,35.61318],[139.81168,35.61297]]]]}}]}