{"type":"FeatureCollection","features":[{"type":"Feature","properties":{"id":"area-13109001001","name":"荏原一丁目"},"geometry":{"type":"Polygon","coordinates":[[[139.71581,35.62034],[139.71684,35.61955],[139.71597,35.61908],[139.71551,35.61868],[139.71432,35.618],[139.71411,35.61792],[139.71358,35.61855],[139.71326,35.61838],[139.71264,35.61898],[139.7121,35.61937],[139.71098,35.62026],[139.71117,35.62024],[139.71285,35.6221],[139.71319,35.62186],[139.7151,35.62089],[139.71545,35.62068],[139.71581,35.62034]]]}},{"type":"Feature","properties":{"id":"area-13109001002","name":"荏原二丁目"},"geometry":{"type":"Polygon","coordinates":[[[139.71264,35.61898],[139.71326,35.61838],[139.71358,35.61855],[139.71411,35.61792],[139.71188,35.61703],[139.70948,35.61615],[139.70915,35.61585],[139.70907,35.61584],[139.70869,35.61613],[139.70869,35.61658],[139.70857,35.61762],[139.70833,35.61841],[139.70882,35.6187],[139.70996,35.61966],[139.71015,35.61984],[139.71038,35.62014],[139.71047,35.62032],[139.71098,35.62026],[139.7121,35.61937],[139.71264,35.61898]]]}},{"type":"Feature","properties":{"id":"area-13109001003","name":"荏原三丁目"},"geometry":{"type":"Polygon","coordinates":[[[139.70869,35.61658],[139.70869,35.61613],[139.70848,35.61637],[139.70795,35.61608],[139.70641,35.61712],[139.70547,35.61783],[139.70728,35.61959],[139.70744,35.61967],[139.70798,35.61974],[139.70812,35.61907],[139.70857,35.61762],[139.70869,35.61658]]]}},{"type":"Feature","properties":{"id":"area-13109001004","name":"荏原四丁目"},"geometry":{"type":"Polygon","coordinates":[[[139.70641,35.61712],[139.70795,35.61608],[139.70848,35.61637],[139.70869,35.61613],[139.70907,35.61584],[139.70915,35.61585],[139.70886,35.6155],[139.70751,35.61363],[139.70504,35.61362],[139.70478,35.61442],[139.7056,35.61485],[139.70525,35.61517],[139.70395,35.61625],[139.70547,35.61783],[139.70641,35.61712]]]}},{"type":"Feature","properties":{"id":"area-13109001005","name":"荏原五丁目"},"geometry":{"type":"Polygon","coordinates":[[[139.70192,35.61294],[139.70089,35.61277],[139.70029,35.61431],[139.70201,35.61477],[139.70268,35.61478],[139.70274,35.61495],[139.70301,35.61532],[139.70394,35.61626],[139.70525,35.61517],[139.7056,35.61485],[139.70478,35.61442],[139.70504,35.61362],[139.70377,35.61351],[139.7034,35.61344],[139.70274,35.61328],[139.70233,35.61309],[139.70192,35.61294]]]}},{"type":"Feature","properties":{"id":"area-13109001006","name":"荏原六丁目"},"geometry":{"type":"Polygon","coordinates":[[[139.70504,35.61362],[139.70751,35.61363],[139.70691,35.61267],[139.70592,35.61133],[139.70589,35.61124],[139.70581,35.61124],[139.70361,35.61075],[139.70268,35.61137],[139.7024,35.61158],[139.70245,35.61159],[139.70139,35.61231],[139.70101,35.61262],[139.70089,35.61277],[139.70192,35.61294],[139.70233,35.61309],[139.70274,35.61328],[139.70377,35.61351],[139.70504,35.61362]]]}},{"type":"Feature","properties":{"id":"area-13109001007","name":"荏原七丁目"},"geometry":{"type":"Polygon","coordinates":[[[139.69911,35.60909],[139.69867,35.609],[139.69844,35.60975],[139.69847,35.60975],[139.6985,35.61025],[139.69836,35.61137],[139.69828,35.6124],[139.70037,35.61267],[139.70089,35.61277],[139.70101,35.61262],[139.70139,35.61231],[139.70245,35.61159],[139.7024,35.61158],[139.70268,35.61137],[139.70361,35.61075],[139.70128,35.61023],[139.70145,35.6097],[139.69911,35.60909]]]}},{"type":"Feature","properties":{"id":"area-13109002001","name":"大井一丁目"},"geometry":{"type":"Polygon","coordinates":[[[139.72972,35.60818],[139.73204,35.60789],[139.73215,35.60791],[139.73307,35.60781],[139.73421,35.60777],[139.73534,35.60765],[139.73521,35.60684],[139.73517,35.60672],[139.73501,35.60595],[139.73485,35.60488],[139.7346,35.6048],[139.73354,35.60433],[139.73329,35.60418],[139.73258,35.60357],[139.73153,35.6038],[139.73094,35.60386],[139.73047,35.60552],[139.73039,35.6057],[139.73002,35.60634],[139.73,35.60648],[139.73005,35.6069],[139.73,35.60713],[139.7299,35.6071],[139.72985,35.60726],[139.72982,35.60785],[139.72972,35.60818]]]}},{"type":"Feature","properties":{"id":"area-13109002002","name":"大井二丁目"},"geometry":{"type":"Polygon","coordinates":[[[139.72723,35.60302],[139.72701,35.60295],[139.72689,35.60323],[139.72657,35.6036],[139.72632,35.60405],[139.72645,35.60426],[139.7265,35.60445],[139.72677,35.60453],[139.72712,35.60475],[139.72773,35.6054],[139.7288,35.60642],[139.72911,35.60665],[139.72972,35.60701],[139.73,35.60713],[139.73005,35.6069],[139.73,35.60648],[139.73002,35.60634],[139.73039,35.6057],[139.73047,35.60552],[139.73094,35.60386],[139.73007,35.6038],[139.7294,35.6038],[139.72871,35.60335],[139.72849,35.60326],[139.72797,35.60314],[139.72723,35.60302]]]}},{"type":"Feature","properties":{"id":"area-13109002003","name":"大井三丁目"},"geometry":{"type":"Polygon","coordinates":[[[139.73069,35.60071],[139.73064,35.60055],[139.73062,35.60011],[139.73002,35.60008],[139.72946,35.60011],[139.72915,35.6002],[139.72897,35.60021],[139.72864,35.60029],[139.72782,35.60038],[139.72765,35.60049],[139.72748,35.60055],[139.72715,35.60056],[139.72683,35.60053],[139.72685,35.60092],[139.72694,35.60127],[139.72699,35.60217],[139.72668,35.60281],[139.72723,35.60302],[139.72797,35.60314],[139.72849,35.60326],[139.72871,35.60335],[139.7294,35.6038],[139.73007,35.6038],[139.73083,35.60386],[139.73118,35.60385],[139.73184,35.60374],[139.73258,35.60357],[139.73239,35.60323],[139.73138,35.60196],[139.73069,35.60071]]]}},{"type":"Feature","properties":{"id":"area-13109002004","name":"大井四丁目"},"geometry":{"type":"Polygon","coordinates":[[[139.73401,35.59851],[139.73383,35.59792],[139.73274,35.59819],[139.7323,35.59834],[139.73207,35.59844],[139.73152,35.59877],[139.7311,35.59897],[139.7308,35.59906],[139.7306,35.59907],[139.73064,35.60055],[139.73069,35.60071],[139.73138,35.60196],[139.73239,35.60323],[139.73259,35.6036],[139.73329,35.60418],[139.73354,35.60433],[139.7346,35.6048],[139.73485,35.60488],[139.73436,35.60112],[139.73439,35.60111],[139.73423,35.60003],[139.73416,35.59923],[139.73401,35.59851]]]}},{"type":"Feature","properties":{"id":"area-13109002005","name":"大井五丁目"},"geometry":{"type":"Polygon","coordinates":[[[139.72765,35.60049],[139.72782,35.60038],[139.72864,35.60029],[139.72897,35.60021],[139.72915,35.6002],[139.72946,35.60011],[139.73002,35.60008],[139.73062,35.60011],[139.73059,35.59842],[139.73056,35.59823],[139.72983,35.59704],[139.72976,35.5967],[139.72926,35.59668],[139.72847,35.59686],[139.72818,35.59689],[139.72758,35.59726],[139.72744,35.59731],[139.72698,35.59743],[139.72651,35.59744],[139.72608,35.59752],[139.72544,35.59774],[139.72509,35.5978],[139.72549,35.59906],[139.72573,35.59969],[139.72578,35.59998],[139.7258,35.60048],[139.72646,35.60047],[139.72715,35.60056],[139.72748,35.60055],[139.72765,35.60049]]]}},{"type":"Feature","properties":{"id":"area-13109002006","name":"大井六丁目"},"geometry":{"type":"Polygon","coordinates":[[[139.73122,35.59345],[139.73035,35.59209],[139.73012,35.59219],[139.73006,35.59228],[139.72996,35.59234],[139.72973,35.5924],[139.72965,35.59251],[139.72943,35.59257],[139.72937,35.59265],[139.72957,35.59365],[139.72959,35.5953],[139.72964,35.59589],[139.7298,35.59694],[139.72983,35.59704],[139.73056,35.59823],[139.73059,35.59842],[139.7306,35.59907],[139.7308,35.59906],[139.7311,35.59897],[139.73152,35.59877],[139.73207,35.59844],[139.7323,35.59834],[139.73274,35.59819],[139.73384,35.59792],[139.73341,35.59695],[139.7315,35.594],[139.73125,35.59359],[139.73122,35.59345]]]}},{"type":"Feature","properties":{"id":"area-13109002007","name":"大井七丁目"},"geometry":{"type":"Polygon","coordinates":[[[139.72593,35.59755],[139.72651,35.59744],[139.72698,35.59743],[139.72744,35.59731],[139.72758,35.59726],[139.72818,35.59689],[139.72847,35.59686],[139.72926,35.59668],[139.72976,35.5967],[139.72964,35.59589],[139.72959,35.5953],[139.72957,35.59365],[139.72937,35.59265],[139.72916,35.59272],[139.72899,35.59331],[139.72892,35.59386],[139.72872,35.5941],[139.72824,35.59425],[139.72819,35.59429],[139.72804,35.59456],[139.72722,35.59427],[139.72693,35.59419],[139.72654,35.59414],[139.7265,35.59435],[139.72624,35.59433],[139.72471,35.59433],[139.72457,35.59437],[139.72431,35.59464],[139.72442,35.59476],[139.72442,35.59505],[139.7245,35.59538],[139.72503,35.59655],[139.72494,35.5966],[139.72509,35.5978],[139.72544,35.59774],[139.72593,35.59755]]]}},{"type":"Feature","properties":{"id":"area-13109003001","name":"大崎一丁目"},"geometry":{"type":"Polygon","coordinates":[[[139.73214,35.61955],[139.73362,35.61872],[139.73397,35.61848],[139.73425,35.6181],[139.73494,35.61692],[139.73455,35.61676],[139.73413,35.61664],[139.73206,35.6164],[139.73134,35.6162],[139.73098,35.61606],[139.73014,35.61712],[139.72944,35.61767],[139.72918,35.61782],[139.72907,35.61795],[139.72791,35.61944],[139.72754,35.61996],[139.72731,35.62056],[139.72689,35.62118],[139.72639,35.62214],[139.72555,35.62331],[139.72488,35.62432],[139.72547,35.62426],[139.72663,35.62361],[139.72861,35.62214],[139.72975,35.62092],[139.7299,35.62083],[139.73085,35.62048],[139.73113,35.62032],[139.73214,35.61955]]]}},{"type":"Feature","properties":{"id":"area-13109003002","name":"大崎二丁目"},"geometry":{"type":"Polygon","coordinates":[[[139.72791,35.61945],[139.72879,35.61827],[139.72918,35.61782],[139.72944,35.61767],[139.73014,35.61712],[139.73064,35.6165],[139.7296,35.61632],[139.72926,35.61629],[139.72874,35.6163],[139.72808,35.61616],[139.72757,35.61616],[139.72684,35.61634],[139.7259,35.61646],[139.72486,35.61691],[139.72431,35.61703],[139.72381,35.61708],[139.72477,35.61874],[139.72501,35.61895],[139.72526,35.6191],[139.72549,35.61917],[139.72707,35.61922],[139.72791,35.61945]]]}},{"type":"Feature","properties":{"id":"area-13109003003","name":"大崎三丁目"},"geometry":{"type":"Polygon","coordinates":[[[139.72654,35.62086],[139.72678,35.62087],[139.72706,35.62093],[139.72731,35.62056],[139.72754,35.61996],[139.72791,35.61944],[139.72707,35.61922],[139.72549,35.61917],[139.72526,35.6191],[139.72501,35.61895],[139.72477,35.61874],[139.72381,35.61708],[139.72282,35.61717],[139.7219,35.61714],[139.72119,35.61717],[139.71981,35.61765],[139.72215,35.61873],[139.7229,35.61903],[139.72313,35.61916],[139.72347,35.61942],[139.72422,35.62119],[139.72456,35.62176],[139.7255,35.62118],[139.72579,35.62105],[139.72628,35.6209],[139.72654,35.62086]]]}},{"type":"Feature","properties":{"id":"area-13109003004","name":"大崎四丁目"},"geometry":{"type":"Polygon","coordinates":[[[139.72347,35.61942],[139.72313,35.61916],[139.7229,35.61903],[139.72215,35.61873],[139.71981,35.61765],[139.71942,35.61779],[139.71854,35.61827],[139.71853,35.61831],[139.71841,35.6184],[139.72015,35.61929],[139.72018,35.61927],[139.72041,35.61943],[139.72056,35.6196],[139.72075,35.61993],[139.72097,35.62069],[139.72117,35.6211],[139.72199,35.62208],[139.72254,35.62266],[139.72276,35.62282],[139.72456,35.62176],[139.72422,35.62119],[139.72347,35.61942]]]}},{"type":"Feature","properties":{"id":"area-13109003005","name":"大崎五丁目"},"geometry":{"type":"Polygon","coordinates":[[[139.72678,35.62087],[139.72654,35.62086],[139.72628,35.6209],[139.72579,35.62105],[139.7255,35.62118],[139.72339,35.62247],[139.72419,35.6237],[139.72457,35.62435],[139.72488,35.62432],[139.72555,35.62331],[139.72639,35.62214],[139.72689,35.62118],[139.72706,35.62093],[139.72678,35.62087]]]}},{"type":"Feature","properties":{"id":"area-13109004001","name":"勝島一丁目"},"geometry":{"type":"Polygon","coordinates":[[[139.74713,35.59599],[139.74712,35.59579],[139.74192,35.5961],[139.74199,35.59637],[139.74189,35.59639],[139.74187,35.59643],[139.74238,35.59821],[139.74235,35.59832],[139.74238,35.59847],[139.743,35.60073],[139.74368,35.60199],[139.74426,35.60226],[139.74535,35.60218],[139.74537,35.60214],[139.74577,35.60209],[139.74736,35.60201],[139.7478,35.60185],[139.74755,35.60121],[139.74758,35.60091],[139.74755,35.60031],[139.7476,35.6002],[139.74754,35.60009],[139.74717,35.59603],[139.74713,35.59599]]]}},{"type":"Feature","properties":{"id":"area-13109004002","name":"勝島二丁目"},"geometry":{"type":"Polygon","coordinates":[[[139.74713,35.59294],[139.74708,35.59217],[139.74674,35.5922],[139.74663,35.59114],[139.74636,35.59067],[139.74429,35.59004],[139.74431,35.58982],[139.74398,35.5899],[139.73986,35.5887],[139.73923,35.58858],[139.73857,35.58931],[139.73835,35.58995],[139.73843,35.59062],[139.73869,35.59111],[139.74109,35.59444],[139.74184,35.59581],[139.74188,35.59608],[139.74192,35.5961],[139.74712,35.59579],[139.7471,35.59561],[139.74716,35.59558],[139.74707,35.59364],[139.74713,35.59294]]]}},{"type":"Feature","properties":{"id":"area-13109004003","name":"勝島三丁目"},"geometry":{"type":"Polygon","coordinates":[[[139.74188,35.59608],[139.74184,35.59581],[139.74109,35.59444],[139.73869,35.59111],[139.73843,35.59062],[139.73835,35.58995],[139.73857,35.58931],[139.73923,35.58858],[139.73715,35.58801],[139.73692,35.588],[139.73693,35.58914],[139.73687,35.58915],[139.73708,35.59047],[139.73725,35.5905],[139.73752,35.59133],[139.73896,35.59384],[139.73947,35.5949],[139.73937,35.59493],[139.73945,35.59506],[139.7396,35.59503],[139.74081,35.59607],[139.74087,35.59606],[139.74103,35.59654],[139.74137,35.59645],[139.74196,35.59636],[139.74192,35.5961],[139.74188,35.59608]]]}},{"type":"Feature","properties":{"id":"area-13109005001","name":"上大崎一丁目"},"geometry":{"type":"Polygon","coordinates":[[[139.72407,35.63538],[139.72567,35.63509],[139.72621,35.63489],[139.72656,35.6345],[139.7268,35.63418],[139.72667,35.63393],[139.72669,35.63382],[139.72665,35.63372],[139.72619,35.63263],[139.72565,35.63257],[139.72438,35.63256],[139.72328,35.63265],[139.723,35.63273],[139.72278,35.63273],[139.72158,35.63239],[139.72044,35.63222],[139.71984,35.63403],[139.7196,35.63443],[139.71999,35.63457],[139.72004,35.63449],[139.72049,35.63462],[139.72042,35.6348],[139.72096,35.63507],[139.72101,35.63502],[139.72131,35.63517],[139.72143,35.63504],[139.72165,35.63551],[139.72172,35.63549],[139.72178,35.63532],[139.72191,35.63532],[139.72193,35.63539],[139.72213,35.63537],[139.72216,35.6355],[139.72207,35.63582],[139.72223,35.6359],[139.72269,35.63571],[139.72407,35.63538]]]}},{"type":"Feature","properties":{"id":"area-13109005002","name":"上大崎二丁目"},"geometry":{"type":"Polygon","coordinates":[[[139.71778,35.64073],[139.71795,35.64001],[139.71725,35.6399],[139.717,35.64008],[139.71677,35.63994],[139.71697,35.6397],[139.71691,35.63884],[139.71662,35.63872],[139.71701,35.63815],[139.71727,35.63819],[139.7179,35.63597],[139.71731,35.63543],[139.71746,35.63536],[139.71738,35.63509],[139.71759,35.63497],[139.71777,35.63478],[139.71802,35.6349],[139.71796,35.63525],[139.71835,35.63531],[139.71935,35.63534],[139.71927,35.63498],[139.71957,35.63464],[139.71951,35.63459],[139.71753,35.6339],[139.71686,35.63375],[139.71643,35.63372],[139.71525,35.63375],[139.71452,35.6339],[139.71455,35.63395],[139.71451,35.63403],[139.71471,35.63438],[139.71453,35.63436],[139.71449,35.63457],[139.71425,35.63457],[139.71387,35.6353],[139.71378,35.63575],[139.71367,35.63572],[139.71361,35.63585],[139.71375,35.63589],[139.7135,35.63708],[139.7133,35.6375],[139.71362,35.63765],[139.71352,35.63778],[139.71362,35.63784],[139.71352,35.63798],[139.7137,35.63803],[139.71386,35.63814],[139.71392,35.63809],[139.71427,35.63839],[139.71432,35.63856],[139.71473,35.63915],[139.7152,35.64024],[139.71533,35.6403],[139.71537,35.64039],[139.71543,35.64037],[139.71553,35.64063],[139.71565,35.64065],[139.71565,35.6407],[139.71591,35.64077],[139.71594,35.64071],[139.71665,35.64109],[139.71743,35.6413],[139.71775,35.64132],[139.71774,35.64159],[139.71929,35.64156],[139.7193,35.64137],[139.71947,35.64128],[139.71943,35.64115],[139.71778,35.64073]]]}},{"type":"Feature","properties":{"id":"area-13109005003","name":"上大崎三丁目"},"geometry":{"type":"Polygon","coordinates":[[[139.71984,35.63403],[139.72072,35.63134],[139.72053,35.63012],[139.71973,35.62869],[139.71785,35.62956],[139.71755,35.62978],[139.71675,35.63056],[139.71637,35.63109],[139.71613,35.63166],[139.71588,35.63235],[139.71563,35.63359],[139.71557,35.63374],[139.71643,35.63372],[139.71686,35.63375],[139.7173,35.63384],[139.71851,35.63423],[139.71951,35.63459],[139.71957,35.63464],[139.71971,35.63447],[139.7196,35.63443],[139.71984,35.63403]]]}},{"type":"Feature","properties":{"id":"area-13109005004","name":"上大崎四丁目"},"geometry":{"type":"Polygon","coordinates":[[[139.71452,35.6339],[139.71525,35.63375],[139.71557,35.63374],[139.71563,35.63359],[139.71588,35.63235],[139.71572,35.63244],[139.71568,35.63241],[139.71624,35.63096],[139.71647,35.63018],[139.71646,35.62999],[139.71627,35.62904],[139.71619,35.62885],[139.7161,35.62871],[139.71553,35.62803],[139.71515,35.62833],[139.71506,35.62845],[139.71439,35.62943],[139.71527,35.6299],[139.71511,35.63044],[139.71505,35.63043],[139.71491,35.63066],[139.7146,35.63136],[139.71453,35.63147],[139.71445,35.63176],[139.71442,35.63177],[139.71442,35.63184],[139.71458,35.63192],[139.71456,35.63204],[139.71462,35.63205],[139.71448,35.63247],[139.71444,35.63256],[139.71425,35.63251],[139.714,35.6331],[139.71409,35.63312],[139.71412,35.63307],[139.71421,35.6331],[139.71424,35.63302],[139.71426,35.63303],[139.71428,35.6329],[139.71441,35.63296],[139.71442,35.63323],[139.71436,35.63369],[139.71444,35.63389],[139.7145,35.63387],[139.71452,35.6339]]]}},{"type":"Feature","properties":{"id":"area-13109006001","name":"北品川一丁目"},"geometry":{"type":"Polygon","coordinates":[[[139.74347,35.62516],[139.74376,35.62432],[139.74404,35.62376],[139.74356,35.62385],[139.74109,35.62249],[139.74113,35.62246],[139.74108,35.6224],[139.74118,35.62241],[139.74112,35.62226],[139.74116,35.62219],[139.7412,35.6222],[139.74118,35.62214],[139.7412,35.62205],[139.7413,35.62198],[139.74128,35.62204],[139.74136,35.62201],[139.74138,35.62196],[139.74126,35.62189],[139.74142,35.62168],[139.74257,35.62055],[139.74316,35.62006],[139.74256,35.61958],[139.74173,35.62022],[139.7413,35.62004],[139.74033,35.61969],[139.73854,35.62243],[139.73851,35.6224],[139.73846,35.62253],[139.73842,35.62252],[139.73852,35.62286],[139.73848,35.62291],[139.7389,35.62458],[139.73925,35.62464],[139.73945,35.62433],[139.7395,35.62434],[139.73959,35.62429],[139.73978,35.62437],[139.73958,35.62467],[139.74017,35.62475],[139.74003,35.62495],[139.74013,35.625],[139.74021,35.62488],[139.74032,35.6248],[139.74038,35.62477],[139.7405,35.62479],[139.7406,35.62475],[139.74064,35.62476],[139.74069,35.62482],[139.74157,35.62494],[139.74164,35.62491],[139.74169,35.62496],[139.74288,35.62512],[139.74291,35.62503],[139.74347,35.62516]]]}},{"type":"Feature","properties":{"id":"area-13109006002","name":"北品川二丁目"},"geometry":{"type":"Polygon","coordinates":[[[139.74173,35.62022],[139.74256,35.61958],[139.74316,35.62006],[139.74376,35.61968],[139.74453,35.61927],[139.7451,35.61884],[139.74526,35.61865],[139.74532,35.61846],[139.74532,35.61712],[139.74097,35.61607],[139.74075,35.61823],[139.74062,35.61898],[139.74047,35.61942],[139.74033,35.61969],[139.7413,35.62004],[139.74173,35.62022]]]}},{"type":"Feature","properties":{"id":"area-13109006003","name":"北品川三丁目"},"geometry":{"type":"Polygon","coordinates":[[[139.73854,35.62243],[139.74033,35.61969],[139.74047,35.61942],[139.74062,35.61898],[139.74077,35.61813],[139.74097,35.61607],[139.73971,35.61577],[139.73828,35.61592],[139.73708,35.61577],[139.73652,35.61588],[139.737,35.61761],[139.73713,35.6179],[139.73733,35.61821],[139.73749,35.61873],[139.73745,35.61879],[139.73762,35.61938],[139.738,35.62012],[139.73808,35.6205],[139.73801,35.6205],[139.73853,35.62235],[139.73851,35.6224],[139.73854,35.62243]]]}},{"type":"Feature","properties":{"id":"area-13109006004","name":"北品川四丁目"},"geometry":{"type":"Polygon","coordinates":[[[139.73819,35.62486],[139.73884,35.6246],[139.73896,35.62461],[139.7389,35.62458],[139.73848,35.62291],[139.73852,35.62286],[139.73842,35.62252],[139.73846,35.62253],[139.73853,35.62235],[139.73801,35.6205],[139.73808,35.6205],[139.738,35.62012],[139.73762,35.61938],[139.73745,35.61879],[139.73749,35.61873],[139.73733,35.61821],[139.73713,35.6179],[139.737,35.61761],[139.73652,35.61588],[139.73587,35.61601],[139.73569,35.61608],[139.73543,35.61624],[139.7352,35.6165],[139.73425,35.6181],[139.73456,35.61811],[139.73508,35.6183],[139.73526,35.61875],[139.73556,35.61927],[139.73535,35.61981],[139.73531,35.62024],[139.7352,35.62036],[139.73466,35.6231],[139.73536,35.62292],[139.73527,35.62314],[139.73743,35.62325],[139.73739,35.6236],[139.73806,35.62374],[139.73814,35.62402],[139.73799,35.62471],[139.73819,35.62486]]]}},{"type":"Feature","properties":{"id":"area-13109006005","name":"北品川五丁目"},"geometry":{"type":"Polygon","coordinates":[[[139.73466,35.6231],[139.7352,35.62036],[139.73531,35.62024],[139.73535,35.61981],[139.73556,35.61927],[139.73526,35.61875],[139.73508,35.6183],[139.73468,35.61815],[139.73456,35.61811],[139.73425,35.6181],[139.73402,35.61842],[139.73376,35.61863],[139.73214,35.61955],[139.73129,35.62021],[139.73085,35.62048],[139.7299,35.62083],[139.72975,35.62092],[139.72945,35.62123],[139.72999,35.62211],[139.73001,35.62292],[139.73129,35.62292],[139.73131,35.62364],[139.7314,35.6241],[139.73133,35.62475],[139.73169,35.62456],[139.73199,35.62434],[139.73262,35.6237],[139.73287,35.62357],[139.73466,35.6231]]]}},{"type":"Feature","properties":{"id":"area-13109006006","name":"北品川六丁目"},"geometry":{"type":"Polygon","coordinates":[[[139.73134,35.62781],[139.73133,35.62765],[139.73093,35.62764],[139.73098,35.6274],[139.73103,35.62739],[139.73104,35.62727],[139.73109,35.62727],[139.73109,35.62716],[139.73118,35.62714],[139.73118,35.62708],[139.73116,35.62702],[139.7311,35.62703],[139.73109,35.62698],[139.73089,35.62699],[139.73087,35.62667],[139.73097,35.62667],[139.73098,35.62673],[139.7311,35.62673],[139.7311,35.62677],[139.73115,35.62677],[139.73115,35.6266],[139.73129,35.62644],[139.73134,35.62645],[139.7314,35.62631],[139.73171,35.6261],[139.73161,35.62606],[139.73144,35.6259],[139.73112,35.62591],[139.73115,35.62578],[139.73127,35.62559],[139.73142,35.62553],[139.73164,35.62563],[139.7318,35.62552],[139.73182,35.62554],[139.73191,35.62546],[139.7323,35.62575],[139.73221,35.62602],[139.73339,35.62599],[139.73341,35.62592],[139.73365,35.62598],[139.73379,35.62597],[139.73472,35.62451],[139.73482,35.62432],[139.73513,35.62344],[139.73536,35.62292],[139.73287,35.62357],[139.73262,35.6237],[139.73199,35.62434],[139.73169,35.62456],[139.73132,35.62476],[139.73148,35.62486],[139.73149,35.62497],[139.73131,35.62518],[139.73105,35.62531],[139.73094,35.62557],[139.73068,35.62639],[139.73064,35.62664],[139.73071,35.62781],[139.7311,35.6286],[139.73113,35.62874],[139.73111,35.62928],[139.73134,35.62881],[139.73142,35.62881],[139.73145,35.62859],[139.73143,35.62786],[139.73134,35.62781]]]}},{"type":"Feature","properties":{"id":"area-13109007001","name":"小山一丁目"},"geometry":{"type":"Polygon","coordinates":[[[139.71285,35.6221],[139.71151,35.62063],[139.70962,35.62193],[139.70961,35.62205],[139.70938,35.62226],[139.70852,35.62256],[139.70821,35.62258],[139.70852,35.62275],[139.7085,35.62278],[139.70953,35.62335],[139.70948,35.62336],[139.7106,35.62398],[139.71251,35.62231],[139.71285,35.6221]]]}},{"type":"Feature","properties":{"id":"area-13109007002","name":"小山二丁目"},"geometry":{"type":"Polygon","coordinates":[[[139.70938,35.62226],[139.70961,35.62205],[139.70962,35.62193],[139.71151,35.62063],[139.71117,35.62024],[139.71047,35.62032],[139.71038,35.62014],[139.71015,35.61984],[139.70996,35.61966],[139.70882,35.6187],[139.70833,35.61841],[139.70812,35.61907],[139.70791,35.62004],[139.70773,35.62049],[139.70652,35.62101],[139.70594,35.62136],[139.7075,35.62222],[139.70751,35.62218],[139.70821,35.62258],[139.70852,35.62256],[139.70938,35.62226]]]}},{"type":"Feature","properties":{"id":"area-13109007003","name":"小山三丁目"},"geometry":{"type":"Polygon","coordinates":[[[139.70461,35.62186],[139.70572,35.62146],[139.70652,35.62101],[139.70773,35.62049],[139.70791,35.62004],[139.70798,35.61974],[139.70744,35.61967],[139.70728,35.61959],[139.70547,35.61783],[139.70234,35.62027],[139.70246,35.62042],[139.70252,35.62063],[139.70285,35.62123],[139.70288,35.62138],[139.70285,35.62157],[139.70298,35.62162],[139.7031,35.6216],[139.70311,35.62166],[139.70308,35.62167],[139.70314,35.62172],[139.70386,35.62167],[139.70393,35.62174],[139.70404,35.62196],[139.70394,35.62203],[139.70461,35.62186]]]}},{"type":"Feature","properties":{"id":"area-13109007004","name":"小山四丁目"},"geometry":{"type":"Polygon","coordinates":[[[139.70547,35.61783],[139.70395,35.61625],[139.70305,35.61702],[139.70221,35.61759],[139.70106,35.61825],[139.70075,35.61849],[139.70234,35.62027],[139.70547,35.61783]]]}},{"type":"Feature","properties":{"id":"area-13109007005","name":"小山五丁目"},"geometry":{"type":"Polygon","coordinates":[[[139.70201,35.61477],[139.70029,35.61431],[139.70022,35.61453],[139.69903,35.61604],[139.69909,35.61605],[139.69945,35.61642],[139.69998,35.61704],[139.6996,35.6172],[139.70075,35.61849],[139.70106,35.61825],[139.70221,35.61759],[139.70305,35.61702],[139.70394,35.61626],[139.70301,35.61532],[139.70274,35.61495],[139.70268,35.61478],[139.70201,35.61477]]]}},{"type":"Feature","properties":{"id":"area-13109007006","name":"小山六丁目"},"geometry":{"type":"Polygon","coordinates":[[[139.69903,35.61604],[139.70022,35.61453],[139.70089,35.61277],[139.70037,35.61267],[139.69828,35.6124],[139.69829,35.6121],[139.69717,35.61212],[139.69663,35.61221],[139.6956,35.61248],[139.69577,35.61362],[139.69639,35.61437],[139.69724,35.61492],[139.6975,35.61469],[139.6983,35.61523],[139.69854,35.61556],[139.69871,35.61569],[139.69903,35.61604]]]}},{"type":"Feature","properties":{"id":"area-13109007007","name":"小山七丁目"},"geometry":{"type":"Polygon","coordinates":[[[139.69717,35.61212],[139.69829,35.6121],[139.6985,35.61025],[139.69847,35.60975],[139.69844,35.60975],[139.69867,35.609],[139.69657,35.60858],[139.69568,35.60851],[139.69561,35.60905],[139.6957,35.60905],[139.69563,35.6096],[139.69588,35.60963],[139.69597,35.61077],[139.69575,35.61187],[139.69557,35.61198],[139.6956,35.61248],[139.69663,35.61221],[139.69717,35.61212]]]}},{"type":"Feature","properties":{"id":"area-13109008001","name":"小山台一丁目"},"geometry":{"type":"Polygon","coordinates":[[[139.70735,35.62559],[139.70722,35.62518],[139.70722,35.62468],[139.70806,35.62471],[139.70811,35.62449],[139.70831,35.62399],[139.70865,35.62417],[139.70961,35.62438],[139.71006,35.62451],[139.7106,35.62398],[139.70948,35.62336],[139.70953,35.62335],[139.7085,35.62278],[139.70852,35.62275],[139.70751,35.62218],[139.7075,35.62222],[139.70594,35.62136],[139.70545,35.62157],[139.70461,35.62186],[139.70394,35.62203],[139.70356,35.62225],[139.70285,35.62254],[139.70244,35.62275],[139.70331,35.6235],[139.70437,35.62358],[139.70489,35.6237],[139.70429,35.62449],[139.70401,35.62479],[139.70474,35.62503],[139.70475,35.62507],[139.70636,35.62557],[139.70654,35.62546],[139.70735,35.62559]]]}},{"type":"Feature","properties":{"id":"area-13109008002","name":"小山台二丁目"},"geometry":{"type":"Polygon","coordinates":[[[139.7023,35.62555],[139.70249,35.62484],[139.70352,35.62516],[139.70352,35.62528],[139.70371,35.62531],[139.70399,35.6248],[139.70429,35.62449],[139.70489,35.6237],[139.70437,35.62358],[139.70331,35.6235],[139.70244,35.62275],[139.70164,35.6233],[139.70096,35.62363],[139.69998,35.62382],[139.69911,35.6241],[139.69835,35.62431],[139.69801,35.62457],[139.69702,35.62468],[139.69622,35.62497],[139.69666,35.62504],[139.69708,35.62522],[139.69737,35.62527],[139.69773,35.62527],[139.6979,35.62518],[139.69796,35.62521],[139.69808,35.62537],[139.69816,35.62543],[139.69857,35.62555],[139.69879,35.62568],[139.69967,35.62579],[139.69977,35.62586],[139.70054,35.62611],[139.70075,35.62613],[139.70166,35.62599],[139.70195,35.6257],[139.70214,35.62567],[139.70216,35.62559],[139.7023,35.62555]]]}},{"type":"Feature","properties":{"id":"area-13109009001","name":"戸越一丁目"},"geometry":{"type":"Polygon","coordinates":[[[139.71804,35.61857],[139.71837,35.61838],[139.71841,35.6184],[139.71853,35.61831],[139.71854,35.61827],[139.71942,35.61779],[139.72094,35.61725],[139.72119,35.61717],[139.72149,35.61715],[139.72224,35.61715],[139.72219,35.61659],[139.72213,35.61633],[139.72261,35.6161],[139.72242,35.61591],[139.72257,35.61583],[139.72188,35.6148],[139.72178,35.61431],[139.71658,35.61531],[139.71738,35.61703],[139.71766,35.6178],[139.71804,35.61857]]]}},{"type":"Feature","properties":{"id":"area-13109009002","name":"戸越二丁目"},"geometry":{"type":"Polygon","coordinates":[[[139.72154,35.6125],[139.72065,35.61245],[139.72054,35.61283],[139.7196,35.61302],[139.7176,35.61306],[139.71794,35.61504],[139.72049,35.61454],[139.72209,35.61426],[139.72185,35.61338],[139.72154,35.6125]]]}},{"type":"Feature","properties":{"id":"area-13109009003","name":"戸越三丁目"},"geometry":{"type":"Polygon","coordinates":[[[139.71748,35.61204],[139.71714,35.61105],[139.71522,35.61168],[139.71658,35.61531],[139.71794,35.61504],[139.7176,35.61306],[139.71748,35.61204]]]}},{"type":"Feature","properties":{"id":"area-13109009004","name":"戸越四丁目"},"geometry":{"type":"Polygon","coordinates":[[[139.72043,35.6102],[139.7204,35.61014],[139.71946,35.61033],[139.71822,35.61069],[139.71714,35.61105],[139.71748,35.61204],[139.7176,35.61306],[139.7196,35.61302],[139.72054,35.61283],[139.72065,35.61245],[139.7203,35.61244],[139.72043,35.6102]]]}},{"type":"Feature","properties":{"id":"area-13109009005","name":"戸越五丁目"},"geometry":{"type":"Polygon","coordinates":[[[139.7204,35.61014],[139.71924,35.60805],[139.71562,35.60937],[139.71438,35.60937],[139.71522,35.61168],[139.71873,35.61054],[139.71946,35.61033],[139.7204,35.61014]]]}},{"type":"Feature","properties":{"id":"area-13109009006","name":"戸越六丁目"},"geometry":{"type":"Polygon","coordinates":[[[139.71819,35.60664],[139.71498,35.60578],[139.71368,35.60598],[139.7139,35.6072],[139.71438,35.60937],[139.71562,35.60937],[139.71924,35.60805],[139.71881,35.60731],[139.71819,35.60664]]]}},{"type":"Feature","properties":{"id":"area-13109010001","name":"中延一丁目"},"geometry":{"type":"Polygon","coordinates":[[[139.71338,35.6127],[139.71284,35.61153],[139.71151,35.61195],[139.70864,35.61216],[139.70857,35.61255],[139.70913,35.61256],[139.70907,35.61402],[139.70994,35.61409],[139.71043,35.61421],[139.71054,35.61433],[139.71085,35.61405],[139.71114,35.61387],[139.71137,35.61378],[139.71184,35.61343],[139.71243,35.61314],[139.71276,35.61295],[139.71338,35.6127]]]}},{"type":"Feature","properties":{"id":"area-13109010002","name":"中延二丁目"},"geometry":{"type":"Polygon","coordinates":[[[139.71242,35.61064],[139.71219,35.61026],[139.71211,35.6103],[139.7117,35.6099],[139.71174,35.60979],[139.71109,35.60938],[139.70944,35.60852],[139.70918,35.61107],[139.70916,35.61212],[139.71151,35.61195],[139.71284,35.61153],[139.71242,35.61064]]]}},{"type":"Feature","properties":{"id":"area-13109010003","name":"中延三丁目"},"geometry":{"type":"Polygon","coordinates":[[[139.71221,35.60763],[139.71232,35.60619],[139.70967,35.6066],[139.70944,35.60852],[139.71109,35.60938],[139.71174,35.60979],[139.71215,35.60848],[139.71224,35.60766],[139.71221,35.60763]]]}},{"type":"Feature","properties":{"id":"area-13109010004","name":"中延四丁目"},"geometry":{"type":"Polygon","coordinates":[[[139.70862,35.60676],[139.71368,35.60598],[139.7132,35.60368],[139.70985,35.60412],[139.70985,35.60434],[139.70929,35.60416],[139.70927,35.60411],[139.7083,35.60392],[139.70855,35.60432],[139.70865,35.60492],[139.70861,35.60623],[139.70862,35.60676]]]}},{"type":"Feature","properties":{"id":"area-13109010005","name":"中延五丁目"},"geometry":{"type":"Polygon","coordinates":[[[139.70985,35.60434],[139.70976,35.60314],[139.71011,35.60309],[139.70992,35.60232],[139.70993,35.60098],[139.70908,35.6011],[139.70884,35.60106],[139.70619,35.60122],[139.70583,35.60126],[139.70579,35.60131],[139.70624,35.60215],[139.70671,35.60397],[139.70748,35.60389],[139.7083,35.60392],[139.70927,35.60411],[139.70929,35.60416],[139.70985,35.60434]]]}},{"type":"Feature","properties":{"id":"area-13109010006","name":"中延六丁目"},"geometry":{"type":"Polygon","coordinates":[[[139.7132,35.60368],[139.71261,35.60074],[139.71086,35.60093],[139.70993,35.60098],[139.70992,35.60232],[139.71011,35.60309],[139.70976,35.60314],[139.70985,35.60412],[139.7132,35.60368]]]}},{"type":"Feature","properties":{"id":"area-13109011001","name":"西大井一丁目"},"geometry":{"type":"Polygon","coordinates":[[[139.72668,35.60281],[139.72699,35.60217],[139.72694,35.60127],[139.72685,35.60092],[139.72683,35.60051],[139.72646,35.60047],[139.72609,35.60047],[139.72512,35.60052],[139.72447,35.60043],[139.72386,35.60028],[139.7236,35.60028],[139.72328,35.59996],[139.72292,35.60013],[139.72201,35.6002],[139.72135,35.60031],[139.72103,35.60025],[139.72111,35.60042],[139.72123,35.60057],[139.7215,35.60134],[139.7219,35.60213],[139.72221,35.60221],[139.72223,35.60242],[139.72248,35.60249],[139.72241,35.60272],[139.72309,35.60292],[139.7232,35.60274],[139.72347,35.60276],[139.72362,35.60283],[139.72379,35.60283],[139.72386,35.60271],[139.72391,35.60273],[139.72451,35.60301],[139.72497,35.60326],[139.72553,35.60365],[139.72633,35.60437],[139.7265,35.60445],[139.72645,35.60426],[139.72632,35.60405],[139.72657,35.6036],[139.72689,35.60323],[139.72701,35.60295],[139.72668,35.60281]]]}},{"type":"Feature","properties":{"id":"area-13109011002","name":"西大井二丁目"},"geometry":{"type":"Polygon","coordinates":[[[139.7258,35.60048],[139.72578,35.59998],[139.72573,35.59969],[139.72549,35.59906],[139.72509,35.59778],[139.72475,35.59773],[139.72432,35.59775],[139.7242,35.59779],[139.72396,35.59796],[139.7238,35.59802],[139.72296,35.59799],[139.72207,35.59783],[139.72176,35.59779],[139.72119,35.59779],[139.72117,35.59806],[139.72021,35.59785],[139.72012,35.59785],[139.71997,35.59792],[139.72103,35.60025],[139.72135,35.60031],[139.72201,35.6002],[139.72292,35.60013],[139.72328,35.59996],[139.7236,35.60028],[139.72386,35.60028],[139.72447,35.60043],[139.72508,35.60052],[139.7258,35.60048]]]}},{"type":"Feature","properties":{"id":"area-13109011003","name":"西大井三丁目"},"geometry":{"type":"Polygon","coordinates":[[[139.7242,35.59779],[139.72432,35.59775],[139.72475,35.59773],[139.72509,35.59778],[139.72494,35.5966],[139.72503,35.59655],[139.7245,35.59538],[139.72442,35.59505],[139.72442,35.59476],[139.72431,35.59464],[139.72457,35.59437],[139.72403,35.59438],[139.72406,35.59432],[139.72399,35.59428],[139.72381,35.59428],[139.72381,35.59436],[139.72365,35.59439],[139.72272,35.59441],[139.72203,35.5945],[139.72121,35.59443],[139.72097,35.59444],[139.7211,35.59479],[139.72154,35.59549],[139.72197,35.59607],[139.7223,35.59671],[139.72273,35.59718],[139.72297,35.59777],[139.72296,35.59799],[139.7238,35.59802],[139.72396,35.59796],[139.7242,35.59779]]]}},{"type":"Feature","properties":{"id":"area-13109011004","name":"西大井四丁目"},"geometry":{"type":"Polygon","coordinates":[[[139.72117,35.59806],[139.72119,35.59779],[139.72207,35.59783],[139.72296,35.59799],[139.72297,35.59777],[139.72273,35.59718],[139.7223,35.59671],[139.72197,35.59607],[139.72154,35.59549],[139.7211,35.59479],[139.7209,35.59425],[139.72059,35.59354],[139.72027,35.59309],[139.72025,35.59295],[139.7203,35.59281],[139.7203,35.59266],[139.72023,35.59258],[139.71992,35.59246],[139.71918,35.59204],[139.71893,35.59223],[139.71895,35.59244],[139.71926,35.59261],[139.71821,35.59413],[139.71817,35.59472],[139.71774,35.59472],[139.71786,35.59488],[139.71792,35.59503],[139.7179,35.59517],[139.71773,35.59535],[139.71812,35.59562],[139.71811,35.59567],[139.71903,35.59641],[139.71934,35.59671],[139.71975,35.59739],[139.71979,35.59754],[139.71997,35.59792],[139.72012,35.59785],[139.72021,35.59785],[139.72117,35.59806]]]}},{"type":"Feature","properties":{"id":"area-13109011005","name":"西大井五丁目"},"geometry":{"type":"Polygon","coordinates":[[[139.72103,35.60025],[139.71979,35.59754],[139.71975,35.59739],[139.71934,35.59671],[139.71903,35.59641],[139.71811,35.59567],[139.71812,35.59562],[139.71773,35.59535],[139.71727,35.59587],[139.71756,35.5965],[139.71673,35.59683],[139.71583,35.5969],[139.71496,35.59717],[139.7145,35.59742],[139.71446,35.59751],[139.71452,35.59793],[139.71448,35.59813],[139.71435,35.59828],[139.71408,35.59884],[139.71402,35.59913],[139.71412,35.59917],[139.71421,35.59925],[139.71462,35.59918],[139.71486,35.59942],[139.71468,35.59949],[139.71486,35.59991],[139.71601,35.59957],[139.7168,35.59958],[139.71827,35.59978],[139.71905,35.59998],[139.72103,35.60025]]]}},{"type":"Feature","properties":{"id":"area-13109011006","name":"西大井六丁目"},"geometry":{"type":"Polygon","coordinates":[[[139.7215,35.60134],[139.72123,35.60057],[139.72111,35.60042],[139.72103,35.60025],[139.71905,35.59998],[139.71827,35.59978],[139.7168,35.59958],[139.71601,35.59957],[139.71578,35.59963],[139.71508,35.59986],[139.71467,35.59996],[139.71455,35.60008],[139.71423,35.60021],[139.71337,35.60052],[139.71261,35.60074],[139.71282,35.60184],[139.71388,35.60169],[139.71509,35.60131],[139.71932,35.60152],[139.71974,35.6016],[139.72069,35.60197],[139.7219,35.60213],[139.7215,35.60134]]]}},{"type":"Feature","properties":{"id":"area-13109012001","name":"西五反田一丁目"},"geometry":{"type":"Polygon","coordinates":[[[139.72474,35.62445],[139.72488,35.62432],[139.72457,35.62435],[139.72419,35.6237],[139.72339,35.62247],[139.72201,35.62323],[139.721,35.62371],[139.72133,35.62433],[139.72145,35.62439],[139.72174,35.62497],[139.72209,35.62548],[139.72319,35.62621],[139.72372,35.62565],[139.72388,35.6256],[139.72415,35.62517],[139.72465,35.62447],[139.72474,35.62445]]]}},{"type":"Feature","properties":{"id":"area-13109012002","name":"西五反田二丁目"},"geometry":{"type":"Polygon","coordinates":[[[139.72133,35.62433],[139.721,35.62371],[139.71815,35.62511],[139.71868,35.6258],[139.71938,35.62795],[139.71978,35.62866],[139.72099,35.62808],[139.7219,35.62757],[139.72273,35.62695],[139.7233,35.62629],[139.72209,35.62548],[139.72174,35.62497],[139.72145,35.62439],[139.72133,35.62433]]]}},{"type":"Feature","properties":{"id":"area-13109012003","name":"西五反田三丁目"},"geometry":{"type":"Polygon","coordinates":[[[139.71977,35.62864],[139.71938,35.62795],[139.71868,35.6258],[139.71815,35.62511],[139.71753,35.62542],[139.71763,35.62553],[139.71532,35.62675],[139.71234,35.62827],[139.71453,35.62921],[139.71515,35.62833],[139.71553,35.62803],[139.7161,35.62871],[139.71627,35.62904],[139.71646,35.62999],[139.71647,35.63018],[139.71624,35.63096],[139.71568,35.63241],[139.71572,35.63244],[139.71588,35.63235],[139.71591,35.6323],[139.71613,35.63166],[139.71637,35.63109],[139.71675,35.63056],[139.71755,35.62978],[139.71785,35.62956],[139.71973,35.62869],[139.71972,35.62866],[139.71977,35.62864]]]}},{"type":"Feature","properties":{"id":"area-13109012004","name":"西五反田四丁目"},"geometry":{"type":"Polygon","coordinates":[[[139.71485,35.62699],[139.71425,35.62622],[139.71379,35.62585],[139.71286,35.6253],[139.71056,35.62402],[139.71006,35.62451],[139.70961,35.62438],[139.70865,35.62417],[139.70831,35.62399],[139.70811,35.62449],[139.70806,35.62471],[139.70722,35.62468],[139.70722,35.62518],[139.70735,35.62559],[139.70749,35.62595],[139.70772,35.62614],[139.70777,35.62606],[139.70793,35.62616],[139.70811,35.62613],[139.70837,35.62618],[139.70899,35.62641],[139.71001,35.62686],[139.71191,35.62782],[139.71182,35.62805],[139.71234,35.62827],[139.71485,35.62699]]]}},{"type":"Feature","properties":{"id":"area-13109012005","name":"西五反田五丁目"},"geometry":{"type":"Polygon","coordinates":[[[139.71485,35.62699],[139.71763,35.62553],[139.71753,35.62542],[139.71815,35.62511],[139.71752,35.62441],[139.71727,35.62427],[139.71713,35.62423],[139.7161,35.62379],[139.71559,35.62338],[139.7152,35.62263],[139.71492,35.6222],[139.71451,35.62163],[139.71424,35.62132],[139.71319,35.62186],[139.71251,35.62231],[139.71056,35.62402],[139.71286,35.6253],[139.71379,35.62585],[139.71425,35.62622],[139.71485,35.62699]]]}},{"type":"Feature","properties":{"id":"area-13109012006","name":"西五反田六丁目"},"geometry":{"type":"Polygon","coordinates":[[[139.71764,35.6235],[139.71773,35.62261],[139.71817,35.61953],[139.71822,35.6189],[139.71838,35.61852],[139.71831,35.61841],[139.71804,35.61857],[139.71684,35.61955],[139.71617,35.62004],[139.71545,35.62068],[139.71424,35.62132],[139.71451,35.62163],[139.71492,35.6222],[139.7152,35.62263],[139.71559,35.62338],[139.7161,35.62379],[139.71713,35.62423],[139.71745,35.62395],[139.71759,35.62373],[139.71764,35.6235]]]}},{"type":"Feature","properties":{"id":"area-13109012007","name":"西五反田七丁目"},"geometry":{"type":"Polygon","coordinates":[[[139.71934,35.62036],[139.71838,35.61852],[139.71822,35.6189],[139.71817,35.61953],[139.71773,35.62261],[139.71764,35.6235],[139.71759,35.62373],[139.71745,35.62395],[139.71713,35.62423],[139.71727,35.62427],[139.71752,35.62441],[139.71815,35.62511],[139.721,35.62371],[139.71983,35.62124],[139.71934,35.62036]]]}},{"type":"Feature","properties":{"id":"area-13109012008","name":"西五反田八丁目"},"geometry":{"type":"Polygon","coordinates":[[[139.72023,35.61931],[139.71841,35.6184],[139.71837,35.61838],[139.71831,35.61841],[139.71863,35.61895],[139.71934,35.62036],[139.71983,35.62124],[139.721,35.62371],[139.72201,35.62323],[139.72276,35.62282],[139.72254,35.62266],[139.72199,35.62208],[139.72117,35.6211],[139.72097,35.62069],[139.72075,35.61993],[139.72056,35.6196],[139.72041,35.61943],[139.72023,35.61931]]]}},{"type":"Feature","properties":{"id":"area-13109013001","name":"西品川一丁目"},"geometry":{"type":"Polygon","coordinates":[[[139.72976,35.60923],[139.72831,35.60904],[139.72824,35.60907],[139.72724,35.60882],[139.7267,35.60862],[139.7253,35.60853],[139.72573,35.60902],[139.72637,35.60989],[139.7278,35.61216],[139.72807,35.61253],[139.72835,35.61298],[139.72878,35.61369],[139.729,35.61425],[139.72925,35.61461],[139.72973,35.61521],[139.72998,35.61546],[139.73045,35.61578],[139.73098,35.61605],[139.73146,35.61544],[139.73179,35.61488],[139.73192,35.61432],[139.73194,35.61406],[139.73184,35.61328],[139.73176,35.61307],[139.73142,35.61245],[139.73116,35.61209],[139.73088,35.6118],[139.73095,35.61159],[139.73093,35.61155],[139.73063,35.61131],[139.73041,35.61109],[139.73015,35.6107],[139.73002,35.61037],[139.72983,35.60965],[139.72976,35.60923]]]}},{"type":"Feature","properties":{"id":"area-13109013002","name":"西品川二丁目"},"geometry":{"type":"Polygon","coordinates":[[[139.72858,35.61482],[139.72922,35.61456],[139.729,35.61425],[139.72877,35.61367],[139.72807,35.61253],[139.7278,35.61216],[139.72712,35.61105],[139.72536,35.61171],[139.72493,35.61191],[139.72403,35.61203],[139.72419,35.61302],[139.72379,35.61307],[139.72413,35.61392],[139.72407,35.61432],[139.72455,35.61435],[139.72453,35.61474],[139.72568,35.61493],[139.72608,35.61485],[139.72614,35.61481],[139.72652,35.61482],[139.72765,35.61501],[139.72858,35.61482]]]}},{"type":"Feature","properties":{"id":"area-13109013003","name":"西品川三丁目"},"geometry":{"type":"Polygon","coordinates":[[[139.72761,35.61616],[139.72808,35.61616],[139.72874,35.6163],[139.72926,35.61629],[139.7296,35.61632],[139.73064,35.6165],[139.73098,35.61606],[139.73045,35.61578],[139.72998,35.61546],[139.72973,35.61521],[139.72922,35.61456],[139.72858,35.61482],[139.72765,35.61501],[139.72652,35.61482],[139.72614,35.61481],[139.72608,35.61485],[139.72568,35.61493],[139.72471,35.61475],[139.72433,35.61474],[139.72362,35.61515],[139.72357,35.61501],[139.72318,35.61518],[139.72277,35.61529],[139.72223,35.61533],[139.72257,35.61583],[139.72242,35.61591],[139.72261,35.6161],[139.72213,35.61633],[139.72219,35.61659],[139.72224,35.61715],[139.72282,35.61717],[139.72431,35.61703],[139.72486,35.61691],[139.7259,35.61646],[139.72684,35.61634],[139.72761,35.61616]]]}},{"type":"Feature","properties":{"id":"area-13109014001","name":"西中延一丁目"},"geometry":{"type":"Polygon","coordinates":[[[139.70916,35.61212],[139.70918,35.61107],[139.70589,35.61124],[139.70592,35.61133],[139.70691,35.61267],[139.70751,35.61363],[139.70886,35.6155],[139.70915,35.61585],[139.7097,35.61506],[139.71054,35.61433],[139.71043,35.61421],[139.70994,35.61409],[139.70907,35.61402],[139.70913,35.61256],[139.70857,35.61255],[139.70864,35.61216],[139.70916,35.61212]]]}},{"type":"Feature","properties":{"id":"area-13109014002","name":"西中延二丁目"},"geometry":{"type":"Polygon","coordinates":[[[139.70912,35.60838],[139.70858,35.60837],[139.70503,35.6085],[139.70511,35.60895],[139.70487,35.609],[139.7053,35.61001],[139.70589,35.61124],[139.70918,35.61107],[139.70944,35.60854],[139.70912,35.60838]]]}},{"type":"Feature","properties":{"id":"area-13109014003","name":"西中延三丁目"},"geometry":{"type":"Polygon","coordinates":[[[139.70944,35.60854],[139.70967,35.6066],[139.70862,35.60676],[139.70861,35.60623],[139.70813,35.60617],[139.7077,35.60617],[139.707,35.60628],[139.70629,35.60607],[139.70591,35.60652],[139.70612,35.60663],[139.70597,35.60684],[139.70595,35.60736],[139.70608,35.60845],[139.70858,35.60837],[139.70912,35.60838],[139.70944,35.60854]]]}},{"type":"Feature","properties":{"id":"area-13109015001","name":"旗の台一丁目"},"geometry":{"type":"Polygon","coordinates":[[[139.70226,35.60678],[139.70217,35.60779],[139.70222,35.60783],[139.70219,35.60801],[139.70164,35.60923],[139.70128,35.61023],[139.70521,35.61111],[139.70589,35.61124],[139.7053,35.61001],[139.70437,35.60779],[139.70414,35.60744],[139.70389,35.60724],[139.70357,35.6071],[139.70226,35.60678]]]}},{"type":"Feature","properties":{"id":"area-13109015002","name":"旗の台二丁目"},"geometry":{"type":"Polygon","coordinates":[[[139.70377,35.60544],[139.70361,35.60535],[139.70359,35.60538],[139.70275,35.60492],[139.70182,35.60512],[139.70081,35.60527],[139.6996,35.60531],[139.70117,35.60629],[139.70179,35.6066],[139.70214,35.60674],[139.70258,35.60687],[139.70351,35.60708],[139.70394,35.60727],[139.70414,35.60744],[139.70437,35.60779],[139.70487,35.609],[139.70511,35.60895],[139.70503,35.6085],[139.70608,35.60845],[139.70595,35.60736],[139.70597,35.60684],[139.70606,35.60671],[139.70377,35.60549],[139.70377,35.60544]]]}},{"type":"Feature","properties":{"id":"area-13109015003","name":"旗の台三丁目"},"geometry":{"type":"Polygon","coordinates":[[[139.70629,35.60608],[139.707,35.60628],[139.7077,35.60617],[139.70813,35.60617],[139.70861,35.60623],[139.70865,35.60492],[139.70855,35.60432],[139.7083,35.60392],[139.70748,35.60389],[139.70671,35.60397],[139.7067,35.60393],[139.70495,35.60428],[139.70497,35.60441],[139.70378,35.60471],[139.70275,35.60492],[139.70359,35.60538],[139.70361,35.60535],[139.70377,35.60544],[139.70377,35.60549],[139.70606,35.60671],[139.70612,35.60663],[139.70591,35.60652],[139.70629,35.60608]]]}},{"type":"Feature","properties":{"id":"area-13109015004","name":"旗の台四丁目"},"geometry":{"type":"Polygon","coordinates":[[[139.70624,35.60215],[139.70579,35.60131],[139.70262,35.60152],[139.7027,35.60204],[139.70357,35.60313],[139.70378,35.60414],[139.70378,35.60471],[139.70497,35.60441],[139.70495,35.60428],[139.7067,35.60393],[139.70624,35.60215]]]}},{"type":"Feature","properties":{"id":"area-13109015005","name":"旗の台五丁目"},"geometry":{"type":"Polygon","coordinates":[[[139.6996,35.60531],[139.70081,35.60527],[139.70126,35.60521],[139.70182,35.60512],[139.70378,35.60471],[139.70378,35.60414],[139.70357,35.60313],[139.7027,35.60204],[139.70262,35.60152],[139.70093,35.60161],[139.70023,35.60222],[139.69951,35.60276],[139.69905,35.60307],[139.69798,35.60404],[139.69898,35.60488],[139.6996,35.60531]]]}},{"type":"Feature","properties":{"id":"area-13109015006","name":"旗の台六丁目"},"geometry":{"type":"Polygon","coordinates":[[[139.69898,35.60488],[139.69802,35.60407],[139.69761,35.60449],[139.69739,35.60459],[139.69728,35.60472],[139.69716,35.60495],[139.69695,35.60515],[139.69646,35.60578],[139.6961,35.60633],[139.69545,35.60743],[139.6952,35.6081],[139.6956,35.60814],[139.69556,35.6085],[139.69657,35.60858],[139.69911,35.60909],[139.70145,35.6097],[139.70183,35.60875],[139.70219,35.60801],[139.70222,35.60783],[139.70217,35.60779],[139.70225,35.60677],[139.70179,35.6066],[139.70117,35.60629],[139.69941,35.60519],[139.69898,35.60488]]]}},{"type":"Feature","properties":{"id":"area-13109016001","name":"東大井一丁目"},"geometry":{"type":"Polygon","coordinates":[[[139.75065,35.60737],[139.7505,35.60633],[139.75029,35.60583],[139.74856,35.60326],[139.74825,35.60292],[139.74789,35.60265],[139.74391,35.60294],[139.74346,35.60295],[139.74339,35.60291],[139.74323,35.6026],[139.74178,35.60312],[139.7415,35.60313],[139.74129,35.6032],[139.74071,35.60356],[139.743,35.60627],[139.74313,35.60659],[139.74314,35.60674],[139.74427,35.60675],[139.74546,35.60665],[139.74975,35.6074],[139.75065,35.60737]]]}},{"type":"Feature","properties":{"id":"area-13109016002","name":"東大井二丁目"},"geometry":{"type":"Polygon","coordinates":[[[139.74178,35.60312],[139.74323,35.6026],[139.74223,35.60084],[139.74198,35.60061],[139.74155,35.59954],[139.74128,35.59837],[139.74133,35.59832],[139.74128,35.59827],[139.74134,35.59781],[139.74164,35.59778],[139.74146,35.59705],[139.74074,35.59674],[139.73926,35.59744],[139.73898,35.59777],[139.73802,35.59826],[139.74008,35.60269],[139.74042,35.60321],[139.74071,35.60356],[139.74129,35.6032],[139.7415,35.60313],[139.74178,35.60312]]]}},{"type":"Feature","properties":{"id":"area-13109016003","name":"東大井三丁目"},"geometry":{"type":"Polygon","coordinates":[[[139.73802,35.59826],[139.73623,35.59911],[139.73612,35.5992],[139.736,35.59938],[139.73593,35.59969],[139.73587,35.59978],[139.73575,35.59986],[139.73582,35.60071],[139.73643,35.6012],[139.73646,35.60146],[139.73671,35.60213],[139.73678,35.60247],[139.73692,35.60377],[139.73697,35.60396],[139.73784,35.60504],[139.73837,35.60481],[139.73915,35.60437],[139.74071,35.60356],[139.74042,35.60321],[139.74008,35.60269],[139.73802,35.59826]]]}},{"type":"Feature","properties":{"id":"area-13109016004","name":"東大井四丁目"},"geometry":{"type":"Polygon","coordinates":[[[139.74055,35.60696],[139.74057,35.60698],[139.74125,35.60677],[139.74168,35.60672],[139.74236,35.60671],[139.74314,35.60674],[139.74313,35.60659],[139.743,35.60627],[139.74071,35.60356],[139.73915,35.60437],[139.73837,35.60481],[139.73784,35.60504],[139.73803,35.60527],[139.73856,35.60572],[139.73863,35.60582],[139.73983,35.60703],[139.73972,35.60711],[139.73987,35.60728],[139.74055,35.60696]]]}},{"type":"Feature","properties":{"id":"area-13109016005","name":"東大井五丁目"},"geometry":{"type":"Polygon","coordinates":[[[139.73803,35.60527],[139.73703,35.60404],[139.73647,35.60417],[139.73573,35.60513],[139.73485,35.6049],[139.73501,35.60595],[139.73517,35.60672],[139.73521,35.60684],[139.7355,35.60867],[139.73713,35.60799],[139.73855,35.60754],[139.73919,35.60741],[139.73946,35.60732],[139.73973,35.60714],[139.73972,35.60711],[139.73983,35.60703],[139.73863,35.60582],[139.73856,35.60572],[139.73803,35.60527]]]}},{"type":"Feature","properties":{"id":"area-13109016006","name":"東大井六丁目"},"geometry":{"type":"Polygon","coordinates":[[[139.73643,35.6012],[139.73582,35.60071],[139.73575,35.59986],[139.7354,35.60003],[139.73518,35.60018],[139.73505,35.60036],[139.73496,35.60074],[139.73471,35.60064],[139.7343,35.6004],[139.73439,35.60111],[139.73436,35.60112],[139.73485,35.6049],[139.73573,35.60513],[139.73647,35.60417],[139.73703,35.60404],[139.73692,35.60377],[139.73678,35.60247],[139.73671,35.60213],[139.73646,35.60146],[139.73643,35.6012]]]}},{"type":"Feature","properties":{"id":"area-13109017001","name":"東五反田一丁目"},"geometry":{"type":"Polygon","coordinates":[[[139.72895,35.62586],[139.72893,35.62542],[139.72455,35.62579],[139.72396,35.62549],[139.72388,35.6256],[139.72372,35.62565],[139.72319,35.62621],[139.7248,35.62727],[139.7259,35.62821],[139.72646,35.62875],[139.72682,35.62915],[139.72695,35.62925],[139.72738,35.62952],[139.72825,35.62998],[139.72847,35.62956],[139.72841,35.62952],[139.72729,35.62656],[139.72749,35.6265],[139.72875,35.62591],[139.72895,35.62586]]]}},{"type":"Feature","properties":{"id":"area-13109017002","name":"東五反田二丁目"},"geometry":{"type":"Polygon","coordinates":[[[139.73131,35.62364],[139.73129,35.62292],[139.73001,35.62292],[139.72999,35.62211],[139.72945,35.62123],[139.72861,35.62214],[139.72663,35.62361],[139.72547,35.62426],[139.72488,35.62432],[139.72474,35.62445],[139.72465,35.62447],[139.72415,35.62517],[139.72396,35.62549],[139.72455,35.62579],[139.72893,35.62542],[139.73133,35.62475],[139.7314,35.6241],[139.73131,35.62364]]]}},{"type":"Feature","properties":{"id":"area-13109017003","name":"東五反田三丁目"},"geometry":{"type":"Polygon","coordinates":[[[139.73148,35.62486],[139.73132,35.62476],[139.72893,35.62542],[139.72895,35.62586],[139.72875,35.62591],[139.72749,35.6265],[139.72729,35.62656],[139.72841,35.62952],[139.72847,35.62956],[139.72825,35.62998],[139.72906,35.63054],[139.72976,35.63116],[139.73063,35.6305],[139.73075,35.63037],[139.73082,35.63013],[139.73101,35.63012],[139.73108,35.62993],[139.73107,35.62937],[139.73111,35.62928],[139.73113,35.62874],[139.7311,35.6286],[139.73071,35.62781],[139.73064,35.62664],[139.73068,35.62639],[139.73094,35.62557],[139.73105,35.62531],[139.73131,35.62518],[139.73149,35.62497],[139.73148,35.62486]]]}},{"type":"Feature","properties":{"id":"area-13109017004","name":"東五反田四丁目"},"geometry":{"type":"Polygon","coordinates":[[[139.72872,35.63291],[139.72845,35.63242],[139.72838,35.63244],[139.72826,35.6323],[139.72831,35.63207],[139.72825,35.63175],[139.72903,35.63131],[139.7291,35.63136],[139.72914,35.63133],[139.72936,35.63152],[139.72976,35.63116],[139.72906,35.63054],[139.72842,35.63009],[139.72738,35.62952],[139.72682,35.62915],[139.72646,35.62875],[139.7259,35.62821],[139.72547,35.62853],[139.72535,35.62893],[139.72546,35.62978],[139.7254,35.63005],[139.72583,35.63058],[139.72633,35.63044],[139.7265,35.63084],[139.72576,35.63258],[139.72619,35.63263],[139.72632,35.63292],[139.7266,35.6327],[139.72666,35.6326],[139.72673,35.63228],[139.72698,35.63205],[139.72748,35.63182],[139.72804,35.63317],[139.72872,35.63291]]]}},{"type":"Feature","properties":{"id":"area-13109017005","name":"東五反田五丁目"},"geometry":{"type":"Polygon","coordinates":[[[139.72407,35.63257],[139.72576,35.63258],[139.7265,35.63084],[139.72633,35.63044],[139.72583,35.63058],[139.7254,35.63005],[139.72546,35.62978],[139.72535,35.62893],[139.72547,35.62853],[139.7259,35.62821],[139.7248,35.62727],[139.7233,35.62629],[139.72273,35.62695],[139.7219,35.62757],[139.72099,35.62808],[139.71978,35.62866],[139.71972,35.62866],[139.72053,35.63012],[139.72072,35.63134],[139.72044,35.63222],[139.72158,35.63239],[139.72278,35.63273],[139.723,35.63273],[139.72328,35.63265],[139.72407,35.63257]]]}},{"type":"Feature","properties":{"id":"area-13109018001","name":"東品川一丁目"},"geometry":{"type":"Polygon","coordinates":[[[139.74362,35.62325],[139.7442,35.62309],[139.74505,35.62299],[139.74505,35.62294],[139.74606,35.62273],[139.74664,35.62151],[139.74656,35.62148],[139.74779,35.61888],[139.74809,35.61896],[139.74814,35.61885],[139.74787,35.61877],[139.74829,35.61785],[139.74532,35.61712],[139.74532,35.61846],[139.74526,35.61865],[139.7451,35.61884],[139.74465,35.61919],[139.74376,35.61968],[139.74292,35.62025],[139.74227,35.62084],[139.74142,35.62168],[139.74126,35.62189],[139.74138,35.62196],[139.74136,35.62201],[139.74153,35.62211],[139.7415,35.62219],[139.74171,35.6223],[139.74169,35.62234],[139.74178,35.6224],[139.74181,35.62237],[139.74192,35.62242],[139.74191,35.62244],[139.74211,35.62255],[139.74219,35.62256],[139.74221,35.62261],[139.74224,35.62259],[139.74242,35.62268],[139.7424,35.62272],[139.7425,35.62277],[139.74253,35.62275],[139.74338,35.6232],[139.74348,35.62318],[139.74362,35.62325]]]}},{"type":"Feature","properties":{"id":"area-13109018002","name":"東品川二丁目"},"geometry":{"type":"Polygon","coordinates":[[[139.75217,35.62215],[139.75213,35.62152],[139.75185,35.62153],[139.75159,35.62129],[139.75161,35.62048],[139.75153,35.62027],[139.75147,35.619],[139.75144,35.61894],[139.75093,35.61881],[139.75089,35.61884],[139.75074,35.61882],[139.75055,35.61872],[139.74926,35.61841],[139.74908,35.61848],[139.74881,35.61906],[139.74842,35.61895],[139.74837,35.61906],[139.74865,35.61914],[139.74689,35.62305],[139.7478,35.62332],[139.7484,35.62359],[139.7488,35.62388],[139.74935,35.62418],[139.75016,35.62449],[139.75116,35.62468],[139.7518,35.62475],[139.75166,35.62383],[139.75174,35.62379],[139.75164,35.62218],[139.75217,35.62215]]]}},{"type":"Feature","properties":{"id":"area-13109018003","name":"東品川三丁目"},"geometry":{"type":"Polygon","coordinates":[[[139.75147,35.61832],[139.75079,35.61166],[139.75006,35.61169],[139.74779,35.61149],[139.74492,35.61079],[139.74478,35.61247],[139.7448,35.6125],[139.74476,35.61326],[139.74495,35.61456],[139.74576,35.61663],[139.74557,35.61674],[139.74543,35.61714],[139.74829,35.61785],[139.74827,35.61771],[139.74837,35.6175],[139.74882,35.61761],[139.74887,35.6175],[139.74937,35.61763],[139.74935,35.61775],[139.75147,35.61832]]]}},{"type":"Feature","properties":{"id":"area-13109018004","name":"東品川四丁目"},"geometry":{"type":"Polygon","coordinates":[[[139.75079,35.61166],[139.75037,35.60737],[139.74975,35.6074],[139.74546,35.60665],[139.74527,35.60667],[139.7449,35.6108],[139.74779,35.61149],[139.75006,35.61169],[139.75079,35.61166]]]}},{"type":"Feature","properties":{"id":"area-13109018005","name":"東品川五丁目"},"geometry":{"type":"Polygon","coordinates":[[[139.7595,35.62597],[139.75973,35.61936],[139.75961,35.61928],[139.75932,35.61927],[139.75924,35.61924],[139.75928,35.61899],[139.75924,35.61895],[139.753,35.61899],[139.75319,35.62142],[139.75286,35.62142],[139.75291,35.62214],[139.75325,35.62212],[139.75345,35.62408],[139.75762,35.62417],[139.75746,35.62779],[139.75925,35.6278],[139.75925,35.62773],[139.7594,35.62771],[139.7595,35.62597]]]}},{"type":"Feature","properties":{"id":"area-13109019001","name":"東中延一丁目"},"geometry":{"type":"Polygon","coordinates":[[[139.71522,35.61168],[139.71438,35.60937],[139.71188,35.60936],[139.7117,35.6099],[139.71211,35.6103],[139.71219,35.61026],[139.71227,35.61038],[139.71242,35.61064],[139.71338,35.6127],[139.7139,35.6125],[139.7147,35.61191],[139.71522,35.61168]]]}},{"type":"Feature","properties":{"id":"area-13109019002","name":"東中延二丁目"},"geometry":{"type":"Polygon","coordinates":[[[139.71438,35.60937],[139.7139,35.6072],[139.71368,35.60598],[139.71232,35.60619],[139.71221,35.60763],[139.71224,35.60766],[139.71215,35.60848],[139.71188,35.60936],[139.71438,35.60937]]]}},{"type":"Feature","properties":{"id":"area-13109020001","name":"平塚一丁目"},"geometry":{"type":"Polygon","coordinates":[[[139.71658,35.61531],[139.71522,35.61168],[139.7147,35.61191],[139.7139,35.6125],[139.71342,35.61268],[139.71478,35.61567],[139.71512,35.61633],[139.7151,35.61638],[139.71532,35.61669],[139.71575,35.61706],[139.71656,35.61753],[139.71733,35.61794],[139.71779,35.61809],[139.71766,35.6178],[139.71738,35.61703],[139.71658,35.61531]]]}},{"type":"Feature","properties":{"id":"area-13109020002","name":"平塚二丁目"},"geometry":{"type":"Polygon","coordinates":[[[139.71512,35.61633],[139.71405,35.61406],[139.71347,35.61439],[139.7124,35.61491],[139.7128,35.61545],[139.71226,35.61657],[139.71188,35.61703],[139.71432,35.618],[139.71551,35.61868],[139.71597,35.61908],[139.71684,35.61955],[139.71804,35.61857],[139.71779,35.61809],[139.71733,35.61794],[139.71656,35.61753],[139.71575,35.61706],[139.71532,35.61669],[139.7151,35.61638],[139.71512,35.61633]]]}},{"type":"Feature","properties":{"id":"area-13109020003","name":"平塚三丁目"},"geometry":{"type":"Polygon","coordinates":[[[139.71405,35.61406],[139.71342,35.61268],[139.71307,35.61282],[139.71265,35.613],[139.71243,35.61314],[139.71184,35.61343],[139.71137,35.61378],[139.71114,35.61387],[139.71085,35.61405],[139.7097,35.61506],[139.70915,35.61585],[139.70948,35.61615],[139.71188,35.61703],[139.71226,35.61657],[139.7128,35.61545],[139.7124,35.61491],[139.71347,35.61439],[139.71405,35.61406]]]}},{"type":"Feature","properties":{"id":"area-13109021001","name":"広町一丁目"},"geometry":{"type":"Polygon","coordinates":[[[139.73569,35.61017],[139.73537,35.61025],[139.7353,35.61029],[139.73516,35.61068],[139.73462,35.61141],[139.73455,35.61162],[139.73447,35.61223],[139.73438,35.61259],[139.73423,35.61299],[139.73389,35.61362],[139.73372,35.61385],[139.73301,35.61459],[139.7326,35.61501],[139.73161,35.61589],[139.73134,35.6162],[139.73169,35.61631],[139.73233,35.61645],[139.73413,35.61664],[139.73455,35.61676],[139.73494,35.61692],[139.7352,35.6165],[139.73543,35.61624],[139.73569,35.61608],[139.73587,35.61601],[139.73656,35.61588],[139.73638,35.6152],[139.73624,35.61486],[139.73625,35.61479],[139.73607,35.61396],[139.73582,35.6118],[139.73584,35.61139],[139.73569,35.61017]]]}},{"type":"Feature","properties":{"id":"area-13109021002","name":"広町二丁目"},"geometry":{"type":"Polygon","coordinates":[[[139.73161,35.61589],[139.7326,35.61501],[139.73372,35.61385],[139.73389,35.61362],[139.73423,35.61299],[139.73438,35.61259],[139.73447,35.61223],[139.73455,35.61162],[139.73462,35.61141],[139.73516,35.61068],[139.7353,35.61029],[139.73537,35.61025],[139.73569,35.61017],[139.73534,35.60765],[139.73421,35.60777],[139.73307,35.60781],[139.73215,35.60791],[139.73204,35.60789],[139.72972,35.60818],[139.7296,35.60847],[139.72983,35.60965],[139.73002,35.61037],[139.73015,35.6107],[139.73041,35.61109],[139.73063,35.61131],[139.73093,35.61155],[139.73095,35.61159],[139.73088,35.6118],[139.73116,35.61209],[139.73142,35.61245],[139.73176,35.61307],[139.73184,35.61328],[139.73194,35.61406],[139.73192,35.61432],[139.73179,35.61488],[139.73146,35.61544],[139.73098,35.61605],[139.73134,35.6162],[139.73161,35.61589]]]}},{"type":"Feature","properties":{"id":"area-13109022001","name":"二葉一丁目"},"geometry":{"type":"Polygon","coordinates":[[[139.72976,35.60923],[139.7296,35.60847],[139.72982,35.60785],[139.72985,35.60726],[139.7299,35.6071],[139.72911,35.60665],[139.7288,35.60642],[139.72773,35.6054],[139.72712,35.60475],[139.72677,35.60453],[139.7265,35.60445],[139.72668,35.60473],[139.72629,35.60491],[139.72613,35.60503],[139.72587,35.60527],[139.7249,35.60637],[139.72447,35.60665],[139.72408,35.60681],[139.72447,35.60742],[139.72492,35.60806],[139.72533,35.60852],[139.7267,35.60862],[139.72724,35.60882],[139.72824,35.60907],[139.72831,35.60904],[139.72941,35.60916],[139.72976,35.60923]]]}},{"type":"Feature","properties":{"id":"area-13109022002","name":"二葉二丁目"},"geometry":{"type":"Polygon","coordinates":[[[139.72451,35.60301],[139.72386,35.60271],[139.72379,35.60283],[139.72362,35.60283],[139.72347,35.60276],[139.7232,35.60274],[139.72309,35.60292],[139.72241,35.60272],[139.72248,35.60249],[139.72223,35.60242],[139.72221,35.60221],[139.72192,35.60216],[139.72281,35.60412],[139.72337,35.60548],[139.72408,35.60681],[139.72447,35.60665],[139.7249,35.60637],[139.72587,35.60527],[139.72613,35.60503],[139.72629,35.60491],[139.72668,35.60473],[139.7265,35.60445],[139.72633,35.60437],[139.72616,35.60424],[139.72553,35.60365],[139.72497,35.60326],[139.72451,35.60301]]]}},{"type":"Feature","properties":{"id":"area-13109022003","name":"二葉三丁目"},"geometry":{"type":"Polygon","coordinates":[[[139.72291,35.60435],[139.7219,35.60213],[139.72069,35.60197],[139.71999,35.60168],[139.71953,35.60155],[139.71877,35.60148],[139.71874,35.60152],[139.71864,35.60296],[139.71865,35.60353],[139.71856,35.60395],[139.72001,35.60417],[139.72106,35.60412],[139.72128,35.60416],[139.72175,35.60437],[139.72208,35.60443],[139.72223,35.60452],[139.72239,35.6047],[139.72275,35.60532],[139.72315,35.60553],[139.72336,35.60548],[139.72291,35.60435]]]}},{"type":"Feature","properties":{"id":"area-13109022004","name":"二葉四丁目"},"geometry":{"type":"Polygon","coordinates":[[[139.71866,35.6034],[139.71864,35.60296],[139.71874,35.60152],[139.71877,35.60148],[139.71509,35.60131],[139.71388,35.60169],[139.71282,35.60184],[139.7132,35.60368],[139.71549,35.60338],[139.71602,35.6034],[139.71667,35.60335],[139.71856,35.60395],[139.71866,35.6034]]]}},{"type":"Feature","properties":{"id":"area-13109023001","name":"南大井一丁目"},"geometry":{"type":"Polygon","coordinates":[[[139.73926,35.59744],[139.74074,35.59674],[139.74087,35.5968],[139.74115,35.59678],[139.74103,35.59654],[139.74087,35.59606],[139.74081,35.59607],[139.7396,35.59503],[139.73945,35.59506],[139.73937,35.59493],[139.73947,35.5949],[139.73871,35.59338],[139.73788,35.59367],[139.73781,35.59362],[139.73628,35.59394],[139.73637,35.59453],[139.73679,35.59561],[139.73753,35.59717],[139.73801,35.59825],[139.73898,35.59777],[139.73926,35.59744]]]}},{"type":"Feature","properties":{"id":"area-13109023002","name":"南大井二丁目"},"geometry":{"type":"Polygon","coordinates":[[[139.73628,35.59394],[139.73781,35.59362],[139.73788,35.59367],[139.73871,35.59338],[139.73769,35.59167],[139.73752,35.59133],[139.73725,35.5905],[139.73708,35.59047],[139.73687,35.58915],[139.73693,35.58914],[139.73692,35.588],[139.73584,35.58793],[139.73595,35.59008],[139.73627,35.59242],[139.7362,35.59302],[139.73628,35.59394]]]}},{"type":"Feature","properties":{"id":"area-13109023003","name":"南大井三丁目"},"geometry":{"type":"Polygon","coordinates":[[[139.73595,35.59008],[139.7358,35.58723],[139.73339,35.58736],[139.73227,35.58733],[139.73396,35.59296],[139.7353,35.5927],[139.73624,35.59258],[139.73627,35.59242],[139.73595,35.59008]]]}},{"type":"Feature","properties":{"id":"area-13109023004","name":"南大井四丁目"},"geometry":{"type":"Polygon","coordinates":[[[139.73621,35.59288],[139.73624,35.59258],[139.7353,35.5927],[139.73396,35.59296],[139.7346,35.59509],[139.73473,35.59518],[139.73488,35.59562],[139.73545,35.59758],[139.73549,35.5976],[139.73577,35.59854],[139.73583,35.59924],[139.73575,35.59968],[139.73575,35.59986],[139.73587,35.59978],[139.73593,35.59969],[139.736,35.59938],[139.73612,35.5992],[139.73623,35.59911],[139.73801,35.59825],[139.73753,35.59717],[139.73679,35.59561],[139.73637,35.59453],[139.73623,35.59349],[139.73621,35.59288]]]}},{"type":"Feature","properties":{"id":"area-13109023005","name":"南大井五丁目"},"geometry":{"type":"Polygon","coordinates":[[[139.7346,35.59509],[139.73396,35.59296],[139.73149,35.59346],[139.73124,35.59355],[139.7315,35.594],[139.73341,35.59695],[139.73353,35.59718],[139.73384,35.59792],[139.73407,35.59875],[139.73416,35.59923],[139.73423,35.60003],[139.7343,35.6004],[139.73471,35.60064],[139.73496,35.60074],[139.73505,35.60036],[139.73518,35.60018],[139.7354,35.60003],[139.73575,35.59986],[139.73575,35.59968],[139.73583,35.59924],[139.73581,35.59881],[139.73577,35.59854],[139.73549,35.5976],[139.73545,35.59758],[139.73488,35.59562],[139.73473,35.59518],[139.7346,35.59509]]]}},{"type":"Feature","properties":{"id":"area-13109023006","name":"南大井六丁目"},"geometry":{"type":"Polygon","coordinates":[[[139.73227,35.58733],[139.72993,35.58725],[139.72944,35.58816],[139.72941,35.58829],[139.72941,35.58858],[139.72987,35.58947],[139.72915,35.58962],[139.72964,35.59087],[139.73035,35.59209],[139.73117,35.59335],[139.73124,35.59355],[139.73149,35.59346],[139.73396,35.59296],[139.73227,35.58733]]]}},{"type":"Feature","properties":{"id":"area-13109024001","name":"南品川一丁目"},"geometry":{"type":"Polygon","coordinates":[[[139.74576,35.61663],[139.74495,35.61456],[139.74407,35.61467],[139.74289,35.61468],[139.74192,35.61459],[139.74115,35.61439],[139.74097,35.61606],[139.74543,35.61714],[139.74557,35.61674],[139.74576,35.61663]]]}},{"type":"Feature","properties":{"id":"area-13109024002","name":"南品川二丁目"},"geometry":{"type":"Polygon","coordinates":[[[139.74287,35.60998],[139.74237,35.60955],[139.74115,35.61439],[139.74192,35.61459],[139.74289,35.61468],[139.74407,35.61467],[139.74495,35.61456],[139.74476,35.61326],[139.7448,35.6125],[139.74478,35.61247],[139.74492,35.6108],[139.74413,35.61062],[139.74338,35.61029],[139.74287,35.60998]]]}},{"type":"Feature","properties":{"id":"area-13109024003","name":"南品川三丁目"},"geometry":{"type":"Polygon","coordinates":[[[139.7449,35.6108],[139.74527,35.60667],[139.74427,35.60675],[139.74306,35.60673],[139.74237,35.60955],[139.74287,35.60998],[139.74338,35.61029],[139.74413,35.61062],[139.7449,35.6108]]]}},{"type":"Feature","properties":{"id":"area-13109024004","name":"南品川四丁目"},"geometry":{"type":"Polygon","coordinates":[[[139.74097,35.61606],[139.74115,35.61439],[139.74156,35.61274],[139.74117,35.61269],[139.74109,35.61273],[139.74107,35.6128],[139.74037,35.61267],[139.74025,35.61223],[139.73994,35.61224],[139.73983,35.61218],[139.73586,35.61215],[139.73607,35.61396],[139.73625,35.61479],[139.73624,35.61486],[139.73638,35.6152],[139.73656,35.61588],[139.73708,35.61577],[139.73828,35.61592],[139.73971,35.61577],[139.74097,35.61606]]]}},{"type":"Feature","properties":{"id":"area-13109024005","name":"南品川五丁目"},"geometry":{"type":"Polygon","coordinates":[[[139.74109,35.61273],[139.74117,35.61269],[139.74156,35.61274],[139.74288,35.60753],[139.74306,35.60673],[139.74189,35.60671],[139.74125,35.60677],[139.74057,35.60698],[139.74056,35.60695],[139.73987,35.60728],[139.73973,35.60714],[139.73952,35.6073],[139.73919,35.60741],[139.73855,35.60754],[139.73713,35.60799],[139.73916,35.61017],[139.74001,35.61152],[139.74019,35.61197],[139.74037,35.61267],[139.74107,35.6128],[139.74109,35.61273]]]}},{"type":"Feature","properties":{"id":"area-13109024006","name":"南品川六丁目"},"geometry":{"type":"Polygon","coordinates":[[[139.74025,35.61223],[139.74019,35.61197],[139.74001,35.61152],[139.73914,35.61014],[139.73713,35.60799],[139.7355,35.60867],[139.73584,35.61139],[139.73581,35.61171],[139.73586,35.61215],[139.73939,35.61216],[139.73983,35.61218],[139.73994,35.61224],[139.74025,35.61223]]]}},{"type":"Feature","properties":{"id":"area-13109025001","name":"八潮一丁目"},"geometry":{"type":"Polygon","coordinates":[[[139.75634,35.61698],[139.75743,35.61696],[139.75743,35.61766],[139.75786,35.61761],[139.75791,35.61757],[139.75806,35.61758],[139.75879,35.6169],[139.76029,35.61575],[139.75889,35.61456],[139.75865,35.61463],[139.75605,35.61274],[139.75568,35.61205],[139.75531,35.61133],[139.75488,35.61027],[139.75482,35.6053],[139.75477,35.60531],[139.75477,35.60535],[139.75194,35.6055],[139.75243,35.61157],[139.75303,35.61763],[139.75621,35.61769],[139.75634,35.61698]]]}},{"type":"Feature","properties":{"id":"area-13109025002","name":"八潮二丁目"},"geometry":{"type":"Polygon","coordinates":[[[139.76029,35.61575],[139.76133,35.61456],[139.76194,35.61461],[139.76283,35.61201],[139.76269,35.61201],[139.76371,35.60906],[139.76351,35.609],[139.76363,35.60858],[139.7631,35.60833],[139.7728,35.59536],[139.7671,35.5925],[139.7626,35.59851],[139.76207,35.59927],[139.76068,35.6037],[139.75568,35.61205],[139.75605,35.61274],[139.75865,35.61463],[139.75889,35.61456],[139.76029,35.61575]]]}},{"type":"Feature","properties":{"id":"area-13109025003","name":"八潮三丁目"},"geometry":{"type":"Polygon","coordinates":[[[139.7626,35.59851],[139.76544,35.59473],[139.76236,35.59489],[139.76271,35.58705],[139.76283,35.58508],[139.75535,35.58482],[139.75528,35.58576],[139.75527,35.58971],[139.75493,35.58971],[139.7548,35.59563],[139.75474,35.59625],[139.75478,35.59994],[139.75477,35.60488],[139.75482,35.6053],[139.75488,35.61027],[139.75531,35.61133],[139.75568,35.61205],[139.76068,35.6037],[139.76207,35.59927],[139.7626,35.59851]]]}},{"type":"Feature","properties":{"id":"area-13109025004","name":"八潮四丁目"},"geometry":{"type":"Polygon","coordinates":[[[139.74897,35.59583],[139.75364,35.59561],[139.7548,35.59563],[139.75493,35.58971],[139.75054,35.5897],[139.75051,35.58946],[139.74951,35.58915],[139.7498,35.58927],[139.74979,35.58942],[139.75031,35.58949],[139.75061,35.59187],[139.74877,35.59203],[139.74893,35.59564],[139.74896,35.59564],[139.74897,35.59583]]]}},{"type":"Feature","properties":{"id":"area-13109025005","name":"八潮五丁目"},"geometry":{"type":"Polygon","coordinates":[[[139.75474,35.59625],[139.7548,35.59563],[139.75473,35.59562],[139.75364,35.59561],[139.74887,35.59583],[139.74866,35.59575],[139.74903,35.6002],[139.74909,35.6002],[139.74911,35.60078],[139.75175,35.60472],[139.75182,35.60551],[139.75477,35.60535],[139.75477,35.60531],[139.75482,35.6053],[139.75477,35.60488],[139.75478,35.59994],[139.75474,35.59625]]]}},{"type":"Feature","properties":{"id":"area-13109026001","name":"豊町一丁目"},"geometry":{"type":"Polygon","coordinates":[[[139.72335,35.61511],[139.72357,35.61501],[139.72362,35.61515],[139.72433,35.61474],[139.72453,35.61474],[139.72455,35.61435],[139.72407,35.61432],[139.72413,35.61392],[139.72379,35.61307],[139.72419,35.61302],[139.72403,35.61203],[139.72364,35.61203],[139.72369,35.61131],[139.72038,35.61116],[139.7203,35.61244],[139.72154,35.6125],[139.72185,35.61338],[139.72209,35.61426],[139.72178,35.61431],[139.72188,35.6148],[139.72223,35.61533],[139.72277,35.61529],[139.72335,35.61511]]]}},{"type":"Feature","properties":{"id":"area-13109026002","name":"豊町二丁目"},"geometry":{"type":"Polygon","coordinates":[[[139.7261,35.6095],[139.7253,35.60853],[139.72422,35.60846],[139.7238,35.6085],[139.72362,35.60867],[139.72292,35.60901],[139.7228,35.60931],[139.71988,35.60919],[139.72043,35.6102],[139.72038,35.61116],[139.72369,35.61131],[139.72364,35.61203],[139.72403,35.61203],[139.72493,35.61191],[139.72536,35.61171],[139.72712,35.61105],[139.7261,35.6095]]]}},{"type":"Feature","properties":{"id":"area-13109026003","name":"豊町三丁目"},"geometry":{"type":"Polygon","coordinates":[[[139.7238,35.6085],[139.72422,35.60846],[139.72533,35.60852],[139.72492,35.60806],[139.72447,35.60742],[139.72408,35.60681],[139.72354,35.607],[139.72216,35.60779],[139.72056,35.60769],[139.71924,35.60805],[139.71988,35.60919],[139.7228,35.60931],[139.72292,35.60901],[139.72362,35.60867],[139.7238,35.6085]]]}},{"type":"Feature","properties":{"id":"area-13109026004","name":"豊町四丁目"},"geometry":{"type":"Polygon","coordinates":[[[139.71924,35.60805],[139.72056,35.60769],[139.72216,35.60779],[139.72354,35.607],[139.72408,35.60681],[139.72336,35.60548],[139.72315,35.60553],[139.72275,35.60532],[139.72239,35.6047],[139.72223,35.60452],[139.72208,35.60443],[139.72175,35.60437],[139.72128,35.60416],[139.71963,35.60682],[139.71934,35.60673],[139.71907,35.6071],[139.71881,35.60731],[139.71924,35.60805]]]}},{"type":"Feature","properties":{"id":"area-13109026005","name":"豊町五丁目"},"geometry":{"type":"Polygon","coordinates":[[[139.71907,35.6071],[139.71934,35.60673],[139.71963,35.60682],[139.72128,35.60416],[139.72106,35.60412],[139.72001,35.60417],[139.71856,35.60395],[139.71845,35.60456],[139.71834,35.60547],[139.718,35.60659],[139.71819,35.60664],[139.71881,35.60731],[139.71907,35.6071]]]}},{"type":"Feature","properties":{"id":"area-13109026006","name":"豊町六丁目"},"geometry":{"type":"Polygon","coordinates":[[[139.718,35.60659],[139.71834,35.60547],[139.71845,35.60456],[139.71856,35.60395],[139.71667,35.60335],[139.71602,35.6034],[139.71549,35.60338],[139.7132,35.60368],[139.71368,35.60598],[139.71498,35.60578],[139.718,35.60659]]]}},{"type":"Feature","properties":{"id":"area-131090270","name":"東八潮"},"geometry":{"type":"Polygon","coordinates":[[[139.77108,35.62352],[139.7736,35.62033],[139.77065,35.61871],[139.76845,35.62119],[139.76862,35.62134],[139.76831,35.62159],[139.7682,35.6215],[139.76768,35.62205],[139.76759,35.62582],[139.76881,35.62648],[139.76884,35.62647],[139.76941,35.62571],[139.77114,35.62356],[139.77108,35.62352]]]}}]}