{"type":"FeatureCollection","features":[{"type":"Feature","properties":{"id":"area-13103001001","name":"芝一丁目"},"geometry":{"type":"Polygon","coordinates":[[[139.75432,35.64942],[139.75369,35.64891],[139.75307,35.6491],[139.75384,35.6511],[139.75417,35.65313],[139.75633,35.65291],[139.75622,35.6525],[139.75598,35.6519],[139.75566,35.65117],[139.7554,35.65073],[139.75497,35.65013],[139.75474,35.64986],[139.75432,35.64942]]]}},{"type":"Feature","properties":{"id":"area-13103001002","name":"芝二丁目"},"geometry":{"type":"Polygon","coordinates":[[[139.75157,35.65354],[139.75417,35.65313],[139.75384,35.6511],[139.75307,35.6491],[139.75211,35.64936],[139.75042,35.64997],[139.74919,35.65008],[139.74967,35.6531],[139.75059,35.65349],[139.75102,35.65358],[139.75157,35.65354]]]}},{"type":"Feature","properties":{"id":"area-13103001003","name":"芝三丁目"},"geometry":{"type":"Polygon","coordinates":[[[139.7474,35.65323],[139.74915,35.65301],[139.74942,35.65303],[139.74967,35.6531],[139.74917,35.64999],[139.74486,35.65035],[139.74515,35.65466],[139.7455,35.65459],[139.74584,35.65442],[139.746,35.65429],[139.74663,35.65362],[139.747,35.65339],[139.7474,35.65323]]]}},{"type":"Feature","properties":{"id":"area-13103001004","name":"芝四丁目"},"geometry":{"type":"Polygon","coordinates":[[[139.75212,35.64795],[139.74929,35.64663],[139.74865,35.64736],[139.74875,35.64742],[139.74919,35.65008],[139.75042,35.64997],[139.75211,35.64936],[139.75368,35.64891],[139.75307,35.64847],[139.75269,35.64826],[139.75212,35.64795]]]}},{"type":"Feature","properties":{"id":"area-13103001005","name":"芝五丁目"},"geometry":{"type":"Polygon","coordinates":[[[139.74735,35.64576],[139.74546,35.64472],[139.7445,35.6441],[139.74413,35.64381],[139.74408,35.64389],[139.74403,35.64402],[139.74421,35.64514],[139.74428,35.64517],[139.74475,35.64888],[139.74486,35.65035],[139.74917,35.64999],[139.74875,35.64742],[139.74865,35.64736],[139.74929,35.64663],[139.74735,35.64576]]]}},{"type":"Feature","properties":{"id":"area-13103002001","name":"海岸一丁目"},"geometry":{"type":"Polygon","coordinates":[[[139.76467,35.65606],[139.76251,35.65187],[139.76179,35.65213],[139.76176,35.65222],[139.76179,35.65229],[139.76129,35.65246],[139.76101,35.65213],[139.76093,35.65216],[139.76119,35.65244],[139.76095,35.65241],[139.76038,35.65263],[139.76026,35.65239],[139.75984,35.65254],[139.75978,35.65238],[139.75965,35.65226],[139.75937,35.65217],[139.75933,35.65213],[139.75904,35.65218],[139.7593,35.65272],[139.75882,35.6527],[139.75634,35.65292],[139.75706,35.65593],[139.75731,35.65665],[139.75743,35.65709],[139.75808,35.65978],[139.75833,35.65973],[139.7589,35.65951],[139.75897,35.65936],[139.75949,35.65918],[139.75947,35.65901],[139.75974,35.65885],[139.76383,35.65647],[139.76467,35.65606]]]}},{"type":"Feature","properties":{"id":"area-13103002002","name":"海岸二丁目"},"geometry":{"type":"Polygon","coordinates":[[[139.76017,35.65217],[139.76075,35.65197],[139.76093,35.65216],[139.76101,35.65213],[139.76083,35.65193],[139.76099,35.65188],[139.76094,35.65172],[139.76098,35.65171],[139.76101,35.65176],[139.76108,35.65175],[139.76103,35.65159],[139.76096,35.6516],[139.76097,35.65166],[139.76092,35.65167],[139.76084,35.65146],[139.7609,35.65144],[139.76091,35.65148],[139.76097,35.65148],[139.76093,35.65132],[139.76087,35.65134],[139.76088,35.6514],[139.76083,35.65142],[139.76065,35.65095],[139.76072,35.65093],[139.76079,35.65115],[139.76087,35.65113],[139.75963,35.64756],[139.75928,35.646],[139.75911,35.646],[139.75869,35.64615],[139.75865,35.64595],[139.75856,35.64598],[139.75862,35.64618],[139.75825,35.64631],[139.75818,35.64628],[139.75812,35.64614],[139.75802,35.64617],[139.75807,35.6463],[139.75803,35.64637],[139.75777,35.64645],[139.75778,35.64649],[139.75732,35.64663],[139.75721,35.64645],[139.75679,35.64659],[139.75687,35.64677],[139.75667,35.64684],[139.75698,35.64747],[139.75671,35.64757],[139.75682,35.64781],[139.75711,35.64772],[139.75782,35.64907],[139.75753,35.64916],[139.75755,35.64922],[139.75758,35.64926],[139.75786,35.64917],[139.75839,35.65021],[139.75809,35.65033],[139.75815,35.65046],[139.75845,35.65034],[139.75898,35.65136],[139.75878,35.65143],[139.75879,35.65147],[139.75872,35.6515],[139.75874,35.65156],[139.75879,35.65154],[139.75882,35.65157],[139.75897,35.65153],[139.75924,35.65204],[139.759,35.65209],[139.75904,35.65218],[139.75933,35.65213],[139.75937,35.65217],[139.75965,35.65226],[139.75978,35.65238],[139.75984,35.65254],[139.76026,35.65239],[139.76017,35.65217]]]}},{"type":"Feature","properties":{"id":"area-13103002003","name":"海岸三丁目"},"geometry":{"type":"Polygon","coordinates":[[[139.75721,35.64645],[139.75711,35.64622],[139.75783,35.64596],[139.75786,35.64599],[139.75807,35.64593],[139.75804,35.64582],[139.75822,35.64572],[139.75826,35.6458],[139.75839,35.64575],[139.75846,35.64567],[139.75844,35.64562],[139.75862,35.64556],[139.75866,35.6456],[139.75878,35.64557],[139.75877,35.64554],[139.75866,35.64555],[139.75907,35.64542],[139.75908,35.64498],[139.76032,35.64499],[139.76042,35.63678],[139.75965,35.63678],[139.75892,35.63596],[139.75876,35.63585],[139.75856,35.63577],[139.75835,35.63575],[139.75834,35.63581],[139.75853,35.63582],[139.75872,35.63589],[139.75886,35.63599],[139.7596,35.6368],[139.75877,35.63726],[139.75805,35.63638],[139.75802,35.6364],[139.75873,35.63728],[139.75828,35.63753],[139.75808,35.63728],[139.75806,35.6373],[139.75827,35.63754],[139.75551,35.63905],[139.7548,35.63888],[139.75461,35.63848],[139.75508,35.63833],[139.75505,35.63828],[139.7546,35.63845],[139.7544,35.63807],[139.7549,35.63789],[139.75487,35.63785],[139.75438,35.63802],[139.75422,35.63772],[139.75436,35.63767],[139.75433,35.63761],[139.7542,35.63767],[139.75417,35.63759],[139.75431,35.63754],[139.75427,35.6375],[139.75416,35.63755],[139.75418,35.6375],[139.75393,35.63704],[139.75377,35.63685],[139.75383,35.63681],[139.75387,35.63684],[139.75452,35.63661],[139.75462,35.63652],[139.75446,35.63651],[139.75415,35.63659],[139.75375,35.63676],[139.75307,35.63542],[139.75344,35.63529],[139.75341,35.63524],[139.75304,35.63537],[139.75297,35.63535],[139.75279,35.6354],[139.75265,35.63516],[139.75223,35.63529],[139.75211,35.63506],[139.75201,35.63509],[139.75212,35.6353],[139.75208,35.63536],[139.75217,35.63559],[139.75183,35.63572],[139.75157,35.63524],[139.75117,35.63538],[139.75144,35.63587],[139.7513,35.63598],[139.75125,35.63609],[139.75128,35.63616],[139.75123,35.63619],[139.75183,35.6374],[139.75189,35.6374],[139.75215,35.63795],[139.75187,35.63805],[139.75195,35.63821],[139.75221,35.63812],[139.75256,35.63886],[139.75264,35.63887],[139.75293,35.63945],[139.75289,35.63948],[139.75336,35.64045],[139.75342,35.64046],[139.75339,35.64049],[139.7535,35.64066],[139.75354,35.64067],[139.75468,35.64285],[139.75432,35.64285],[139.75438,35.643],[139.75471,35.643],[139.75573,35.64497],[139.75546,35.64507],[139.75552,35.6452],[139.75578,35.64509],[139.75646,35.64641],[139.75666,35.64635],[139.75679,35.64659],[139.75721,35.64645]]]}},{"type":"Feature","properties":{"id":"area-13103003001","name":"東新橋一丁目"},"geometry":{"type":"Polygon","coordinates":[[[139.76107,35.66651],[139.76154,35.66646],[139.76258,35.66654],[139.76305,35.66565],[139.76318,35.66533],[139.76329,35.66422],[139.76318,35.66392],[139.76307,35.66375],[139.75951,35.65925],[139.75949,35.65918],[139.75897,35.65936],[139.7589,35.65951],[139.75833,35.65973],[139.75808,35.65978],[139.75825,35.66044],[139.75833,35.66089],[139.75846,35.66208],[139.7584,35.66327],[139.75827,35.66408],[139.7605,35.6667],[139.76107,35.66651]]]}},{"type":"Feature","properties":{"id":"area-13103003002","name":"東新橋二丁目"},"geometry":{"type":"Polygon","coordinates":[[[139.75825,35.66044],[139.75806,35.65973],[139.75516,35.66033],[139.75827,35.66408],[139.7584,35.66327],[139.75846,35.66208],[139.75833,35.66089],[139.75825,35.66044]]]}},{"type":"Feature","properties":{"id":"area-13103004001","name":"新橋一丁目"},"geometry":{"type":"Polygon","coordinates":[[[139.76258,35.66654],[139.76154,35.66646],[139.76107,35.66651],[139.75852,35.6674],[139.75495,35.66855],[139.75543,35.66957],[139.75582,35.66948],[139.75853,35.66857],[139.7585,35.66838],[139.76225,35.66715],[139.76258,35.66654]]]}},{"type":"Feature","properties":{"id":"area-13103004002","name":"新橋二丁目"},"geometry":{"type":"Polygon","coordinates":[[[139.7605,35.6667],[139.75925,35.66523],[139.75773,35.66577],[139.75422,35.66694],[139.75495,35.66855],[139.75852,35.6674],[139.7605,35.6667]]]}},{"type":"Feature","properties":{"id":"area-13103004003","name":"新橋三丁目"},"geometry":{"type":"Polygon","coordinates":[[[139.75422,35.66694],[139.75925,35.66523],[139.75829,35.6641],[139.75824,35.66435],[139.75799,35.66449],[139.757,35.66485],[139.75515,35.66546],[139.755,35.66517],[139.7536,35.66562],[139.75422,35.66694]]]}},{"type":"Feature","properties":{"id":"area-13103004004","name":"新橋四丁目"},"geometry":{"type":"Polygon","coordinates":[[[139.7536,35.66562],[139.755,35.66517],[139.75515,35.66546],[139.757,35.66485],[139.75799,35.66449],[139.75824,35.66435],[139.75829,35.6641],[139.75746,35.66312],[139.75502,35.66396],[139.75313,35.66458],[139.7536,35.66562]]]}},{"type":"Feature","properties":{"id":"area-13103004005","name":"新橋五丁目"},"geometry":{"type":"Polygon","coordinates":[[[139.75746,35.66312],[139.75624,35.66164],[139.75561,35.662],[139.75237,35.66295],[139.75313,35.66458],[139.75502,35.66396],[139.75746,35.66312]]]}},{"type":"Feature","properties":{"id":"area-13103004006","name":"新橋六丁目"},"geometry":{"type":"Polygon","coordinates":[[[139.75516,35.66033],[139.75498,35.66023],[139.75278,35.66054],[139.75143,35.66097],[139.75237,35.66295],[139.75561,35.662],[139.75624,35.66164],[139.75516,35.66033]]]}},{"type":"Feature","properties":{"id":"area-13103005001","name":"西新橋一丁目"},"geometry":{"type":"Polygon","coordinates":[[[139.75543,35.66957],[139.75422,35.66694],[139.75082,35.66807],[139.75138,35.66933],[139.75204,35.67062],[139.75229,35.67058],[139.75328,35.67029],[139.75543,35.66957]]]}},{"type":"Feature","properties":{"id":"area-13103005002","name":"西新橋二丁目"},"geometry":{"type":"Polygon","coordinates":[[[139.75422,35.66694],[139.75314,35.6646],[139.74983,35.66565],[139.75038,35.66709],[139.75082,35.66807],[139.75422,35.66694]]]}},{"type":"Feature","properties":{"id":"area-13103005003","name":"西新橋三丁目"},"geometry":{"type":"Polygon","coordinates":[[[139.75217,35.66249],[139.75143,35.66097],[139.74934,35.66165],[139.74942,35.66198],[139.74948,35.66351],[139.74965,35.66511],[139.74983,35.66565],[139.75314,35.6646],[139.75217,35.66249]]]}},{"type":"Feature","properties":{"id":"area-13103006001","name":"三田一丁目"},"geometry":{"type":"Polygon","coordinates":[[[139.74522,35.65466],[139.74515,35.65466],[139.74497,35.65189],[139.73945,35.65216],[139.73691,35.65259],[139.737,35.65277],[139.73715,35.65296],[139.73738,35.65334],[139.7376,35.65379],[139.73765,35.65402],[139.73771,35.65454],[139.73768,35.65498],[139.73761,35.65534],[139.73763,35.65544],[139.73773,35.6556],[139.73791,35.6557],[139.73801,35.65571],[139.73937,35.6554],[139.74043,35.65532],[139.7408,35.65525],[139.74138,35.65506],[139.74195,35.65494],[139.74522,35.65466]]]}},{"type":"Feature","properties":{"id":"area-13103006002","name":"三田二丁目"},"geometry":{"type":"Polygon","coordinates":[[[139.74088,35.64769],[139.74048,35.6471],[139.73748,35.6485],[139.73734,35.64854],[139.73735,35.64863],[139.73763,35.6492],[139.7377,35.64943],[139.73772,35.64958],[139.7377,35.64983],[139.73728,35.65162],[139.73708,35.65227],[139.73691,35.65259],[139.73945,35.65216],[139.74497,35.65189],[139.74483,35.64973],[139.74463,35.6479],[139.74261,35.64789],[139.74114,35.64785],[139.74102,35.64782],[139.74088,35.64769]]]}},{"type":"Feature","properties":{"id":"area-13103006003","name":"三田三丁目"},"geometry":{"type":"Polygon","coordinates":[[[139.74463,35.6479],[139.74428,35.64517],[139.74421,35.64514],[139.74403,35.64402],[139.74408,35.64389],[139.74413,35.64381],[139.74415,35.64382],[139.74406,35.64373],[139.74407,35.64368],[139.74372,35.64333],[139.74348,35.64302],[139.74295,35.64201],[139.74276,35.64149],[139.74281,35.64148],[139.74266,35.64097],[139.74256,35.64097],[139.74227,35.63997],[139.74177,35.63886],[139.74138,35.63906],[139.74135,35.63914],[139.74123,35.63917],[139.74102,35.63915],[139.7414,35.64001],[139.74062,35.64025],[139.7401,35.64027],[139.74024,35.64081],[139.74032,35.64089],[139.74024,35.641],[139.74027,35.64116],[139.74038,35.64144],[139.74047,35.64141],[139.74054,35.64154],[139.74045,35.64157],[139.74039,35.64163],[139.74038,35.64201],[139.74062,35.64237],[139.74061,35.64242],[139.74071,35.64259],[139.74077,35.64262],[139.74098,35.64292],[139.74107,35.64291],[139.74184,35.64414],[139.74174,35.64426],[139.74228,35.64489],[139.74225,35.64498],[139.74243,35.6454],[139.74264,35.64537],[139.7427,35.64565],[139.74255,35.64566],[139.74257,35.64575],[139.74264,35.64576],[139.74274,35.64619],[139.7426,35.6463],[139.74268,35.6464],[139.74253,35.64651],[139.74198,35.64676],[139.74168,35.64642],[139.74112,35.64657],[139.74147,35.64716],[139.74162,35.64715],[139.74211,35.64788],[139.74463,35.6479]]]}},{"type":"Feature","properties":{"id":"area-13103006004","name":"三田四丁目"},"geometry":{"type":"Polygon","coordinates":[[[139.74211,35.64788],[139.74162,35.64715],[139.74147,35.64716],[139.74112,35.64657],[139.74168,35.64642],[139.74198,35.64676],[139.74253,35.64651],[139.74268,35.6464],[139.7426,35.6463],[139.74274,35.64619],[139.74264,35.64576],[139.74257,35.64575],[139.74255,35.64566],[139.7427,35.64565],[139.74264,35.64537],[139.74243,35.6454],[139.74225,35.64498],[139.74228,35.64489],[139.74174,35.64426],[139.74184,35.64414],[139.74107,35.64291],[139.74098,35.64292],[139.74077,35.64262],[139.74071,35.64259],[139.74061,35.64242],[139.74062,35.64237],[139.74038,35.64201],[139.74039,35.64163],[139.74045,35.64157],[139.74054,35.64154],[139.74047,35.64141],[139.74038,35.64144],[139.74027,35.64116],[139.74024,35.641],[139.74032,35.64089],[139.74024,35.64081],[139.7401,35.64027],[139.73986,35.64019],[139.73953,35.6402],[139.73886,35.64004],[139.73863,35.64002],[139.73783,35.64096],[139.73742,35.6416],[139.73666,35.64313],[139.73632,35.64392],[139.73781,35.64478],[139.7394,35.64565],[139.73996,35.64645],[139.74002,35.64642],[139.74088,35.64769],[139.74102,35.64782],[139.74211,35.64788]]]}},{"type":"Feature","properties":{"id":"area-13103006005","name":"三田五丁目"},"geometry":{"type":"Polygon","coordinates":[[[139.74048,35.6471],[139.74002,35.64642],[139.73996,35.64645],[139.7394,35.64565],[139.73781,35.64478],[139.73632,35.64392],[139.73585,35.6449],[139.73584,35.64568],[139.73576,35.64633],[139.73617,35.64638],[139.73642,35.64649],[139.73662,35.64672],[139.73735,35.64863],[139.73734,35.64854],[139.73748,35.6485],[139.74048,35.6471]]]}},{"type":"Feature","properties":{"id":"area-13103007001","name":"浜松町一丁目"},"geometry":{"type":"Polygon","coordinates":[[[139.75806,35.65973],[139.75729,35.65659],[139.75482,35.65684],[139.75532,35.6603],[139.75806,35.65973]]]}},{"type":"Feature","properties":{"id":"area-13103007002","name":"浜松町二丁目"},"geometry":{"type":"Polygon","coordinates":[[[139.75634,35.65292],[139.75431,35.65311],[139.75482,35.65684],[139.75729,35.65659],[139.75706,35.65593],[139.75634,35.65292]]]}},{"type":"Feature","properties":{"id":"area-13103008001","name":"芝大門一丁目"},"geometry":{"type":"Polygon","coordinates":[[[139.75275,35.66055],[139.75498,35.66023],[139.75516,35.66033],[139.75532,35.6603],[139.75482,35.65684],[139.75288,35.65702],[139.75246,35.65908],[139.75275,35.66055]]]}},{"type":"Feature","properties":{"id":"area-13103008002","name":"芝大門二丁目"},"geometry":{"type":"Polygon","coordinates":[[[139.75482,35.65684],[139.75431,35.65311],[139.75259,35.65338],[139.7528,35.65577],[139.75288,35.65702],[139.75482,35.65684]]]}},{"type":"Feature","properties":{"id":"area-13103009001","name":"芝公園一丁目"},"geometry":{"type":"Polygon","coordinates":[[[139.75246,35.65908],[139.75288,35.65702],[139.75171,35.65708],[139.75027,35.65724],[139.75058,35.6591],[139.75069,35.6594],[139.75143,35.66097],[139.75275,35.66055],[139.75246,35.65908]]]}},{"type":"Feature","properties":{"id":"area-13103009002","name":"芝公園二丁目"},"geometry":{"type":"Polygon","coordinates":[[[139.75288,35.65702],[139.75259,35.65338],[139.75157,35.65354],[139.75102,35.65358],[139.75059,35.65349],[139.7497,35.6531],[139.74982,35.65398],[139.75003,35.65512],[139.75012,35.65624],[139.75027,35.65724],[139.75171,35.65708],[139.75288,35.65702]]]}},{"type":"Feature","properties":{"id":"area-13103009003","name":"芝公園三丁目"},"geometry":{"type":"Polygon","coordinates":[[[139.74596,35.66214],[139.74636,35.66172],[139.74635,35.66165],[139.74693,35.6615],[139.74699,35.66143],[139.7471,35.66144],[139.74818,35.66116],[139.74835,35.66143],[139.74869,35.66175],[139.74934,35.66165],[139.75143,35.66097],[139.75069,35.6594],[139.75058,35.6591],[139.75036,35.65784],[139.74764,35.65819],[139.74709,35.65818],[139.7471,35.65843],[139.7464,35.65866],[139.74484,35.65942],[139.74438,35.65965],[139.74433,35.65973],[139.74427,35.65973],[139.74432,35.65981],[139.74332,35.65982],[139.74329,35.65996],[139.74336,35.6603],[139.74346,35.66033],[139.74393,35.66076],[139.74414,35.66088],[139.74424,35.66105],[139.74417,35.66108],[139.74439,35.66137],[139.74436,35.66137],[139.74439,35.66142],[139.74434,35.66146],[139.74489,35.66214],[139.74543,35.66196],[139.74573,35.662],[139.74588,35.66197],[139.74596,35.66214]]]}},{"type":"Feature","properties":{"id":"area-13103009004","name":"芝公園四丁目"},"geometry":{"type":"Polygon","coordinates":[[[139.74709,35.65818],[139.74764,35.65819],[139.75036,35.65784],[139.75012,35.65624],[139.75003,35.65512],[139.74982,35.65398],[139.7497,35.6531],[139.74942,35.65303],[139.74915,35.65301],[139.7474,35.65323],[139.747,35.65339],[139.74663,35.65362],[139.746,35.65429],[139.74572,35.6545],[139.7455,35.65459],[139.74522,35.65466],[139.74536,35.65527],[139.74486,35.65624],[139.74512,35.65639],[139.74507,35.65651],[139.74446,35.65752],[139.74451,35.65754],[139.74449,35.6576],[139.74443,35.65758],[139.74432,35.65778],[139.74436,35.65784],[139.74505,35.65803],[139.74503,35.65809],[139.74485,35.65829],[139.74463,35.65841],[139.74429,35.65853],[139.74383,35.65874],[139.74368,35.65875],[139.74357,35.65897],[139.74375,35.65933],[139.7434,35.65946],[139.74332,35.65982],[139.74432,35.65981],[139.74427,35.65973],[139.74433,35.65973],[139.74438,35.65965],[139.74484,35.65942],[139.7464,35.65866],[139.7471,35.65843],[139.74709,35.65818]]]}},{"type":"Feature","properties":{"id":"area-13103010001","name":"虎ノ門一丁目"},"geometry":{"type":"Polygon","coordinates":[[[139.75038,35.66709],[139.74996,35.66597],[139.74751,35.66685],[139.74843,35.66887],[139.74717,35.66928],[139.74942,35.67094],[139.7518,35.67014],[139.75138,35.66933],[139.75064,35.66767],[139.75038,35.66709]]]}},{"type":"Feature","properties":{"id":"area-13103010002","name":"虎ノ門二丁目"},"geometry":{"type":"Polygon","coordinates":[[[139.74643,35.67028],[139.74754,35.66953],[139.74717,35.66928],[139.74843,35.66887],[139.74751,35.66685],[139.74592,35.66741],[139.74568,35.66708],[139.74548,35.66688],[139.74516,35.66667],[139.74454,35.66634],[139.74418,35.66633],[139.7429,35.66684],[139.74337,35.66763],[139.74416,35.66875],[139.74405,35.66888],[139.744,35.66904],[139.74594,35.6703],[139.74586,35.67032],[139.74594,35.67038],[139.74643,35.67028]]]}},{"type":"Feature","properties":{"id":"area-13103010003","name":"虎ノ門三丁目"},"geometry":{"type":"Polygon","coordinates":[[[139.74766,35.66219],[139.74766,35.66211],[139.74783,35.66211],[139.74864,35.66201],[139.74859,35.66177],[139.74869,35.66175],[139.74835,35.66143],[139.74818,35.66116],[139.7471,35.66144],[139.74699,35.66143],[139.74693,35.6615],[139.74635,35.66165],[139.74636,35.66172],[139.74596,35.66214],[139.74588,35.66197],[139.74573,35.662],[139.74543,35.66196],[139.74492,35.66213],[139.74563,35.66296],[139.74625,35.66362],[139.7459,35.66383],[139.74625,35.66421],[139.74588,35.6645],[139.74613,35.66469],[139.74594,35.6648],[139.74611,35.66517],[139.74611,35.66523],[139.74546,35.66543],[139.7453,35.66569],[139.74539,35.66594],[139.74507,35.66614],[139.74539,35.6664],[139.74517,35.66668],[139.74559,35.66698],[139.74592,35.66741],[139.74832,35.66655],[139.74799,35.66588],[139.74872,35.66562],[139.7485,35.66549],[139.74808,35.66497],[139.74795,35.66456],[139.74802,35.66447],[139.74799,35.66441],[139.74802,35.66421],[139.74781,35.66343],[139.74719,35.6631],[139.74687,35.66286],[139.74725,35.6626],[139.74726,35.6625],[139.74734,35.66244],[139.74731,35.66239],[139.74766,35.66219]]]}},{"type":"Feature","properties":{"id":"area-13103010004","name":"虎ノ門四丁目"},"geometry":{"type":"Polygon","coordinates":[[[139.74539,35.6664],[139.74507,35.66614],[139.74539,35.66594],[139.7453,35.66569],[139.74546,35.66543],[139.74611,35.66523],[139.74611,35.66517],[139.74594,35.6648],[139.74613,35.66469],[139.74588,35.6645],[139.74625,35.66421],[139.7459,35.66383],[139.74523,35.66406],[139.74509,35.66388],[139.74469,35.66319],[139.74439,35.6633],[139.74424,35.6631],[139.7431,35.6636],[139.74277,35.6638],[139.74196,35.66411],[139.74198,35.6642],[139.74233,35.66459],[139.74251,35.66472],[139.74306,35.66545],[139.74366,35.66652],[139.74418,35.66633],[139.74454,35.66634],[139.74517,35.66668],[139.74539,35.6664]]]}},{"type":"Feature","properties":{"id":"area-13103010005","name":"虎ノ門五丁目"},"geometry":{"type":"Polygon","coordinates":[[[139.74625,35.66362],[139.74563,35.66296],[139.74492,35.66213],[139.74489,35.66214],[139.74434,35.66146],[139.74439,35.66142],[139.74436,35.66137],[139.74439,35.66137],[139.74417,35.66108],[139.74411,35.6611],[139.74402,35.66097],[139.74396,35.66096],[139.74362,35.66115],[139.7435,35.66115],[139.74323,35.66127],[139.74274,35.66109],[139.74252,35.66097],[139.7425,35.66166],[139.74255,35.6619],[139.74252,35.66209],[139.74257,35.66211],[139.74262,35.66238],[139.74205,35.66229],[139.74157,35.66235],[139.74129,35.66232],[139.74126,35.66229],[139.74081,35.66236],[139.74079,35.66237],[139.74083,35.66237],[139.74075,35.66241],[139.74154,35.66252],[139.74138,35.6627],[139.74133,35.66282],[139.74135,35.66298],[139.7414,35.6631],[139.74154,35.66321],[139.74164,35.66336],[139.74184,35.66325],[139.74219,35.66367],[139.742,35.66377],[139.74228,35.664],[139.74277,35.6638],[139.7431,35.6636],[139.74424,35.6631],[139.74439,35.6633],[139.74469,35.66319],[139.74509,35.66388],[139.74523,35.66406],[139.7459,35.66383],[139.74625,35.66362]]]}},{"type":"Feature","properties":{"id":"area-13103011001","name":"愛宕一丁目"},"geometry":{"type":"Polygon","coordinates":[[[139.74965,35.66511],[139.7495,35.66375],[139.74886,35.66401],[139.74879,35.66392],[139.748,35.66407],[139.74802,35.66421],[139.74799,35.66441],[139.74802,35.66447],[139.74795,35.66456],[139.74808,35.66497],[139.7485,35.66549],[139.74872,35.66562],[139.74799,35.66588],[139.74832,35.66655],[139.74996,35.66597],[139.74974,35.66541],[139.74965,35.66511]]]}},{"type":"Feature","properties":{"id":"area-13103011002","name":"愛宕二丁目"},"geometry":{"type":"Polygon","coordinates":[[[139.748,35.66407],[139.74879,35.66392],[139.74886,35.66401],[139.7495,35.66375],[139.74942,35.66198],[139.74934,35.66165],[139.74859,35.66177],[139.74864,35.66201],[139.74783,35.66211],[139.74766,35.66211],[139.74766,35.66219],[139.74731,35.66239],[139.74734,35.66244],[139.74726,35.6625],[139.74725,35.6626],[139.74687,35.66286],[139.74719,35.6631],[139.74781,35.66343],[139.748,35.66407]]]}},{"type":"Feature","properties":{"id":"area-131030120","name":"麻布狸穴町"},"geometry":{"type":"Polygon","coordinates":[[[139.73908,35.66015],[139.73973,35.65989],[139.73976,35.65999],[139.74035,35.65972],[139.74013,35.65942],[139.74,35.65901],[139.73969,35.65844],[139.73962,35.65794],[139.73881,35.65796],[139.7387,35.65805],[139.73886,35.65851],[139.73886,35.65854],[139.73879,35.65855],[139.73889,35.65887],[139.73893,35.65887],[139.73894,35.65892],[139.73907,35.6589],[139.73905,35.65885],[139.73915,35.65883],[139.73902,35.65973],[139.73898,35.65983],[139.739,35.66003],[139.73908,35.66015]]]}},{"type":"Feature","properties":{"id":"area-131030130","name":"麻布永坂町"},"geometry":{"type":"Polygon","coordinates":[[[139.73903,35.6597],[139.73915,35.65883],[139.73905,35.65885],[139.73907,35.6589],[139.73894,35.65892],[139.73893,35.65887],[139.73889,35.65887],[139.73879,35.65855],[139.73886,35.65854],[139.73886,35.65851],[139.7387,35.65805],[139.73881,35.65796],[139.73878,35.65791],[139.73844,35.65765],[139.73792,35.65746],[139.73725,35.65749],[139.7366,35.65758],[139.73647,35.65755],[139.73623,35.65807],[139.73655,35.65963],[139.73692,35.65956],[139.73722,35.65946],[139.73774,35.65939],[139.73851,35.65957],[139.73898,35.65983],[139.73903,35.6597]]]}},{"type":"Feature","properties":{"id":"area-13103014001","name":"南麻布一丁目"},"geometry":{"type":"Polygon","coordinates":[[[139.73563,35.6526],[139.73691,35.65259],[139.73708,35.65227],[139.73728,35.65162],[139.73766,35.65004],[139.73724,35.64998],[139.73715,35.65025],[139.73453,35.64992],[139.73444,35.64982],[139.73302,35.64965],[139.7331,35.64915],[139.73261,35.64911],[139.7325,35.64924],[139.73238,35.6495],[139.73194,35.6495],[139.73192,35.64968],[139.73182,35.64985],[139.73204,35.64996],[139.73059,35.65192],[139.7334,35.65249],[139.73563,35.6526]]]}},{"type":"Feature","properties":{"id":"area-13103014002","name":"南麻布二丁目"},"geometry":{"type":"Polygon","coordinates":[[[139.73715,35.65025],[139.73724,35.64998],[139.73766,35.65004],[139.73772,35.64958],[139.7377,35.64943],[139.73763,35.6492],[139.7373,35.64854],[139.73685,35.64737],[139.7367,35.64688],[139.73652,35.64658],[139.73642,35.64649],[139.73617,35.64638],[139.73558,35.64633],[139.73408,35.64654],[139.7338,35.64666],[139.73349,35.64688],[139.73369,35.64707],[139.73299,35.64736],[139.73306,35.64799],[139.73318,35.64845],[139.73261,35.64911],[139.7331,35.64915],[139.73302,35.64965],[139.73444,35.64982],[139.73453,35.64992],[139.73715,35.65025]]]}},{"type":"Feature","properties":{"id":"area-13103014003","name":"南麻布三丁目"},"geometry":{"type":"Polygon","coordinates":[[[139.73042,35.65193],[139.73059,35.65192],[139.73204,35.64996],[139.73182,35.64985],[139.73192,35.64968],[139.73194,35.6495],[139.73238,35.6495],[139.7325,35.64924],[139.73261,35.64911],[139.73318,35.64845],[139.73306,35.64799],[139.73299,35.64736],[139.73369,35.64707],[139.73349,35.64688],[139.73309,35.64712],[139.73282,35.64719],[139.73242,35.64724],[139.73045,35.647],[139.72935,35.64697],[139.72894,35.64687],[139.72855,35.6466],[139.72824,35.64645],[139.72802,35.64642],[139.72795,35.64672],[139.7287,35.64697],[139.72865,35.64703],[139.72851,35.64753],[139.72849,35.64822],[139.72861,35.64891],[139.72839,35.65002],[139.72842,35.65003],[139.72772,35.65135],[139.72833,35.65164],[139.72913,35.65215],[139.7292,35.65224],[139.73042,35.65193]]]}},{"type":"Feature","properties":{"id":"area-13103014004","name":"南麻布四丁目"},"geometry":{"type":"Polygon","coordinates":[[[139.72461,35.65127],[139.72569,35.65099],[139.72588,35.65099],[139.72772,35.65135],[139.72842,35.65003],[139.72839,35.65002],[139.72861,35.64891],[139.72849,35.64822],[139.72851,35.64753],[139.72865,35.64703],[139.7287,35.64697],[139.72795,35.64672],[139.72802,35.64642],[139.728,35.64641],[139.7259,35.64634],[139.72461,35.64633],[139.72417,35.64655],[139.72356,35.647],[139.72326,35.64727],[139.7232,35.64738],[139.72309,35.64741],[139.72305,35.6479],[139.72276,35.64916],[139.72314,35.64921],[139.72309,35.64931],[139.723,35.6493],[139.72293,35.64947],[139.72285,35.64946],[139.7228,35.64969],[139.72265,35.64966],[139.72258,35.65002],[139.7223,35.65075],[139.72347,35.65109],[139.72358,35.65106],[139.72375,35.65142],[139.72461,35.65127]]]}},{"type":"Feature","properties":{"id":"area-13103014005","name":"南麻布五丁目"},"geometry":{"type":"Polygon","coordinates":[[[139.72615,35.65431],[139.7292,35.65224],[139.72913,35.65215],[139.72833,35.65164],[139.72772,35.65135],[139.72588,35.65099],[139.72569,35.65099],[139.72461,35.65127],[139.72375,35.65142],[139.72358,35.65106],[139.72347,35.65109],[139.7223,35.65075],[139.72213,35.65121],[139.72208,35.65239],[139.72198,35.65239],[139.72198,35.65236],[139.72178,35.65234],[139.72175,35.6524],[139.72162,35.6524],[139.72173,35.65253],[139.72195,35.65261],[139.72183,35.65277],[139.72178,35.65292],[139.72174,35.65329],[139.72174,35.65346],[139.72165,35.65365],[139.72168,35.65392],[139.7229,35.65591],[139.72293,35.65604],[139.72516,35.65511],[139.72559,35.65485],[139.72616,35.65442],[139.72615,35.65431]]]}},{"type":"Feature","properties":{"id":"area-13103015001","name":"元麻布一丁目"},"geometry":{"type":"Polygon","coordinates":[[[139.73325,35.65553],[139.73329,35.65536],[139.73378,35.65536],[139.73423,35.65529],[139.73424,35.6548],[139.73439,35.65479],[139.73432,35.65442],[139.73434,35.65437],[139.7342,35.65426],[139.73409,35.65398],[139.73409,35.65374],[139.73423,35.65372],[139.73419,35.65332],[139.73412,35.6533],[139.7341,35.65319],[139.73437,35.65307],[139.73435,35.653],[139.73419,35.653],[139.73412,35.65284],[139.73394,35.65285],[139.73394,35.65275],[139.73371,35.65275],[139.73369,35.65253],[139.73332,35.65248],[139.73056,35.65192],[139.73064,35.65233],[139.73105,35.65382],[139.73227,35.65513],[139.73224,35.65539],[139.73229,35.65566],[139.73237,35.65583],[139.73279,35.65621],[139.7333,35.65595],[139.73314,35.65562],[139.73325,35.65553]]]}},{"type":"Feature","properties":{"id":"area-13103015002","name":"元麻布二丁目"},"geometry":{"type":"Polygon","coordinates":[[[139.73034,35.65571],[139.73227,35.65513],[139.73105,35.65382],[139.73064,35.65233],[139.73056,35.65192],[139.73022,35.65196],[139.7292,35.65224],[139.72615,35.65431],[139.72634,35.65548],[139.72804,35.65562],[139.72851,35.65561],[139.7289,35.65554],[139.7297,35.65566],[139.73034,35.65571]]]}},{"type":"Feature","properties":{"id":"area-13103015003","name":"元麻布三丁目"},"geometry":{"type":"Polygon","coordinates":[[[139.7308,35.65782],[139.73162,35.65713],[139.73226,35.65757],[139.73246,35.65714],[139.73256,35.65719],[139.73323,35.65662],[139.73237,35.65583],[139.73229,35.65566],[139.73224,35.65539],[139.73227,35.65513],[139.73034,35.65571],[139.7297,35.65566],[139.7289,35.65554],[139.72851,35.65561],[139.72804,35.65562],[139.72634,35.65548],[139.72648,35.65631],[139.72651,35.65638],[139.72692,35.65681],[139.727,35.65695],[139.72717,35.65735],[139.72756,35.65856],[139.72911,35.65814],[139.72966,35.65803],[139.73065,35.65789],[139.7308,35.65782]]]}},{"type":"Feature","properties":{"id":"area-13103016001","name":"西麻布一丁目"},"geometry":{"type":"Polygon","coordinates":[[[139.72748,35.66217],[139.72796,35.66186],[139.7287,35.66146],[139.72816,35.6612],[139.72561,35.66027],[139.72464,35.65995],[139.72403,35.65978],[139.72344,35.65967],[139.72298,35.66119],[139.7229,35.6613],[139.72279,35.6614],[139.72216,35.6618],[139.72283,35.66184],[139.72296,35.66195],[139.72344,35.66213],[139.72357,35.66213],[139.72384,35.66193],[139.72391,35.66193],[139.72421,35.66209],[139.72452,35.66218],[139.72524,35.66211],[139.72572,35.66214],[139.72605,35.66226],[139.72684,35.66287],[139.72748,35.66217]]]}},{"type":"Feature","properties":{"id":"area-13103016002","name":"西麻布二丁目"},"geometry":{"type":"Polygon","coordinates":[[[139.71992,35.66439],[139.7204,35.66412],[139.72062,35.66358],[139.72096,35.6626],[139.72112,35.66236],[139.72126,35.66224],[139.72198,35.66179],[139.72216,35.6618],[139.7229,35.6613],[139.72304,35.66102],[139.72344,35.65967],[139.72305,35.65961],[139.71908,35.65939],[139.71905,35.65939],[139.71909,35.65951],[139.71859,35.65964],[139.71879,35.6602],[139.71757,35.66055],[139.7176,35.66109],[139.71785,35.66122],[139.7181,35.66143],[139.71832,35.66153],[139.71862,35.66139],[139.71879,35.66146],[139.71884,35.66185],[139.71829,35.66196],[139.7187,35.66218],[139.71865,35.66227],[139.71966,35.66273],[139.71997,35.66257],[139.72004,35.66267],[139.7201,35.66304],[139.72,35.66373],[139.71986,35.66389],[139.71981,35.66388],[139.71971,35.66397],[139.71972,35.664],[139.71958,35.6641],[139.71926,35.66418],[139.71977,35.6643],[139.71992,35.66439]]]}},{"type":"Feature","properties":{"id":"area-13103016003","name":"西麻布三丁目"},"geometry":{"type":"Polygon","coordinates":[[[139.72648,35.65631],[139.72616,35.65442],[139.72559,35.65485],[139.72516,35.65511],[139.72349,35.65581],[139.72385,35.65661],[139.72387,35.65683],[139.72375,35.6584],[139.72344,35.65967],[139.72403,35.65978],[139.72464,35.65995],[139.72634,35.66053],[139.72816,35.6612],[139.72751,35.65839],[139.72717,35.65735],[139.727,35.65695],[139.72692,35.65681],[139.72651,35.65638],[139.72648,35.65631]]]}},{"type":"Feature","properties":{"id":"area-13103016004","name":"西麻布四丁目"},"geometry":{"type":"Polygon","coordinates":[[[139.72385,35.65661],[139.72349,35.65581],[139.72293,35.65604],[139.72298,35.65629],[139.72296,35.65636],[139.7221,35.65574],[139.72204,35.65573],[139.71825,35.65707],[139.71908,35.65939],[139.72305,35.65961],[139.72344,35.65967],[139.72375,35.6584],[139.72382,35.65758],[139.72387,35.65683],[139.72385,35.65661]]]}},{"type":"Feature","properties":{"id":"area-13103017001","name":"六本木一丁目"},"geometry":{"type":"Polygon","coordinates":[[[139.73941,35.66704],[139.73999,35.6667],[139.74029,35.66704],[139.74084,35.6667],[139.74108,35.66661],[139.74134,35.66644],[139.7415,35.66639],[139.74154,35.66644],[139.74184,35.66633],[139.74176,35.66619],[139.74179,35.66616],[139.74234,35.6659],[139.7429,35.66684],[139.74366,35.66652],[139.74306,35.66545],[139.74251,35.66472],[139.74233,35.66459],[139.74198,35.6642],[139.74196,35.66411],[139.74228,35.66399],[139.742,35.66377],[139.74219,35.66367],[139.74184,35.66325],[139.74164,35.66336],[139.74154,35.66321],[139.7414,35.6631],[139.74135,35.66298],[139.74133,35.66282],[139.74138,35.6627],[139.74154,35.66252],[139.74075,35.66241],[139.73991,35.66287],[139.73985,35.66285],[139.73887,35.6632],[139.73853,35.66329],[139.7389,35.66466],[139.73883,35.66497],[139.73902,35.66562],[139.73928,35.66687],[139.73937,35.66705],[139.73985,35.66763],[139.73991,35.66759],[139.73941,35.66704]]]}},{"type":"Feature","properties":{"id":"area-13103017002","name":"六本木二丁目"},"geometry":{"type":"Polygon","coordinates":[[[139.73885,35.66803],[139.73891,35.66775],[139.73907,35.66799],[139.73965,35.66771],[139.73916,35.66715],[139.73861,35.66665],[139.73688,35.66547],[139.73655,35.66528],[139.73646,35.6654],[139.73649,35.66542],[139.73614,35.66586],[139.73578,35.66564],[139.73508,35.66699],[139.73554,35.6671],[139.73575,35.66721],[139.73702,35.66825],[139.73762,35.66867],[139.73864,35.66822],[139.73881,35.6681],[139.73885,35.66803]]]}},{"type":"Feature","properties":{"id":"area-13103017003","name":"六本木三丁目"},"geometry":{"type":"Polygon","coordinates":[[[139.73902,35.66562],[139.73883,35.66497],[139.7389,35.66466],[139.73849,35.66319],[139.73805,35.66114],[139.73421,35.66229],[139.73344,35.66262],[139.73227,35.66325],[139.73384,35.66402],[139.73377,35.66411],[139.73414,35.66429],[139.73429,35.66411],[139.73528,35.66463],[139.73529,35.66473],[139.73542,35.6647],[139.73676,35.66539],[139.73861,35.66665],[139.73916,35.66715],[139.73966,35.66774],[139.73985,35.66763],[139.73937,35.66705],[139.7393,35.66693],[139.7392,35.66653],[139.73902,35.66562]]]}},{"type":"Feature","properties":{"id":"area-13103017004","name":"六本木四丁目"},"geometry":{"type":"Polygon","coordinates":[[[139.73508,35.66699],[139.73578,35.66564],[139.73614,35.66586],[139.73649,35.66542],[139.73646,35.6654],[139.73655,35.66528],[139.73542,35.6647],[139.73529,35.66473],[139.73528,35.66463],[139.73429,35.66411],[139.73414,35.66429],[139.73377,35.66411],[139.73384,35.66402],[139.73227,35.66325],[139.73199,35.66346],[139.73106,35.66432],[139.73162,35.66488],[139.73228,35.66519],[139.73241,35.66528],[139.73363,35.66692],[139.73442,35.66645],[139.73476,35.66693],[139.73508,35.66699]]]}},{"type":"Feature","properties":{"id":"area-13103017005","name":"六本木五丁目"},"geometry":{"type":"Polygon","coordinates":[[[139.73777,35.66125],[139.73686,35.66009],[139.73665,35.66011],[139.73623,35.65807],[139.73643,35.65762],[139.73576,35.65733],[139.73563,35.65762],[139.73543,35.65759],[139.73529,35.65711],[139.73455,35.65709],[139.73375,35.65726],[139.7337,35.65708],[139.73308,35.65751],[139.73277,35.65776],[139.73265,35.6579],[139.73243,35.65838],[139.73228,35.65858],[139.73228,35.65901],[139.73289,35.66125],[139.73282,35.66205],[139.73276,35.66227],[139.73222,35.66327],[139.73359,35.66255],[139.73421,35.66229],[139.73777,35.66125]]]}},{"type":"Feature","properties":{"id":"area-13103017006","name":"六本木六丁目"},"geometry":{"type":"Polygon","coordinates":[[[139.73265,35.6579],[139.7322,35.65773],[139.73226,35.65757],[139.73162,35.65713],[139.7308,35.65782],[139.73065,35.65789],[139.72966,35.65803],[139.72911,35.65814],[139.72756,35.65856],[139.72816,35.6612],[139.72907,35.66163],[139.72947,35.66185],[139.73228,35.66315],[139.73276,35.66227],[139.73282,35.66205],[139.73289,35.66125],[139.73228,35.65901],[139.73228,35.65858],[139.73243,35.65838],[139.73265,35.6579]]]}},{"type":"Feature","properties":{"id":"area-13103017007","name":"六本木七丁目"},"geometry":{"type":"Polygon","coordinates":[[[139.72752,35.66679],[139.72888,35.6658],[139.72992,35.66514],[139.73107,35.66433],[139.73222,35.66327],[139.73228,35.66315],[139.72947,35.66185],[139.7287,35.66146],[139.72796,35.66186],[139.72748,35.66217],[139.72684,35.66287],[139.72605,35.66226],[139.72572,35.66214],[139.72524,35.66211],[139.72452,35.66218],[139.72421,35.66209],[139.72391,35.66193],[139.72384,35.66193],[139.72365,35.66208],[139.72387,35.66321],[139.72438,35.66426],[139.72469,35.6651],[139.7247,35.66558],[139.72452,35.66623],[139.72458,35.66644],[139.7255,35.66649],[139.72553,35.66658],[139.72663,35.66653],[139.72752,35.66679]]]}},{"type":"Feature","properties":{"id":"area-13103018001","name":"麻布台一丁目"},"geometry":{"type":"Polygon","coordinates":[[[139.73985,35.66286],[139.73991,35.66287],[139.74083,35.66237],[139.74079,35.66237],[139.74081,35.66236],[139.74126,35.66229],[139.74129,35.66232],[139.74157,35.66235],[139.74205,35.66229],[139.74262,35.66238],[139.74257,35.66211],[139.74252,35.66209],[139.74255,35.6619],[139.7425,35.66166],[139.74252,35.66097],[139.74274,35.66109],[139.74323,35.66127],[139.7435,35.66115],[139.74362,35.66115],[139.74396,35.66096],[139.74402,35.66097],[139.74411,35.6611],[139.74424,35.66105],[139.74414,35.66088],[139.74393,35.66076],[139.74346,35.66033],[139.74336,35.6603],[139.74329,35.65996],[139.74332,35.65982],[139.74294,35.6598],[139.74293,35.65967],[139.74271,35.65955],[139.74228,35.65949],[139.74213,35.6595],[139.74196,35.65956],[139.73805,35.66114],[139.73836,35.66266],[139.73853,35.66329],[139.73887,35.6632],[139.73985,35.66286]]]}},{"type":"Feature","properties":{"id":"area-13103018002","name":"麻布台二丁目"},"geometry":{"type":"Polygon","coordinates":[[[139.74213,35.6595],[139.74257,35.65951],[139.74271,35.65955],[139.74293,35.65967],[139.74294,35.6598],[139.74332,35.65982],[139.7434,35.65946],[139.74375,35.65933],[139.74357,35.65897],[139.74368,35.65876],[139.74367,35.65862],[139.74302,35.65844],[139.74296,35.65855],[139.74241,35.65856],[139.74241,35.65845],[139.74244,35.65843],[139.74241,35.65797],[139.74245,35.65786],[139.74218,35.65748],[139.74115,35.65782],[139.74122,35.65803],[139.74112,35.65802],[139.7411,35.65796],[139.74077,35.65802],[139.7408,35.6581],[139.74039,35.65821],[139.74041,35.65827],[139.74035,35.65836],[139.74028,35.65839],[139.73999,35.65842],[139.73998,35.65848],[139.73978,35.65859],[139.74,35.65901],[139.74013,35.65942],[139.74061,35.66011],[139.74213,35.6595]]]}},{"type":"Feature","properties":{"id":"area-13103018003","name":"麻布台三丁目"},"geometry":{"type":"Polygon","coordinates":[[[139.73777,35.66125],[139.74061,35.66011],[139.74035,35.65972],[139.73976,35.65999],[139.73973,35.65989],[139.73908,35.66015],[139.739,35.66003],[139.73898,35.65983],[139.73851,35.65957],[139.73774,35.65939],[139.73722,35.65946],[139.73692,35.65956],[139.73655,35.65963],[139.73665,35.66011],[139.73686,35.66009],[139.73777,35.66125]]]}},{"type":"Feature","properties":{"id":"area-13103019001","name":"麻布十番一丁目"},"geometry":{"type":"Polygon","coordinates":[[[139.73265,35.6579],[139.73294,35.65762],[139.7337,35.65708],[139.73375,35.65726],[139.73455,35.65709],[139.73529,35.65711],[139.73543,35.65759],[139.73563,35.65762],[139.73576,35.65733],[139.73644,35.65762],[139.73647,35.65755],[139.73652,35.65756],[139.73655,35.65752],[139.73719,35.65636],[139.7371,35.65545],[139.73569,35.6557],[139.73323,35.65662],[139.73256,35.65719],[139.73246,35.65714],[139.73222,35.65765],[139.7322,35.65773],[139.73265,35.6579]]]}},{"type":"Feature","properties":{"id":"area-13103019002","name":"麻布十番二丁目"},"geometry":{"type":"Polygon","coordinates":[[[139.73708,35.65545],[139.73688,35.65376],[139.73569,35.65385],[139.73465,35.65397],[139.73456,35.65365],[139.73423,35.65371],[139.73409,35.65374],[139.73408,35.65394],[139.73412,35.65412],[139.7342,35.65426],[139.73434,35.65437],[139.73432,35.65442],[139.73439,35.65479],[139.73424,35.6548],[139.73423,35.65529],[139.73378,35.65536],[139.73329,35.65536],[139.73325,35.65553],[139.73314,35.65562],[139.7333,35.65595],[139.73279,35.65621],[139.73325,35.65663],[139.73569,35.6557],[139.73708,35.65545]]]}},{"type":"Feature","properties":{"id":"area-13103019003","name":"麻布十番三丁目"},"geometry":{"type":"Polygon","coordinates":[[[139.73688,35.65376],[139.73662,35.65258],[139.73563,35.6526],[139.73369,35.65253],[139.73371,35.65275],[139.73394,35.65275],[139.73394,35.65285],[139.73412,35.65284],[139.73419,35.653],[139.73435,35.653],[139.73437,35.65307],[139.7341,35.65319],[139.73412,35.6533],[139.73419,35.65332],[139.73423,35.65371],[139.73456,35.65365],[139.73465,35.65397],[139.73569,35.65385],[139.73688,35.65376]]]}},{"type":"Feature","properties":{"id":"area-13103019004","name":"麻布十番四丁目"},"geometry":{"type":"Polygon","coordinates":[[[139.73691,35.65259],[139.73662,35.65258],[139.73688,35.65376],[139.73708,35.65545],[139.73761,35.65534],[139.73768,35.65498],[139.7377,35.65432],[139.73765,35.65402],[139.7375,35.65356],[139.73715,35.65296],[139.737,35.65277],[139.73691,35.65259]]]}},{"type":"Feature","properties":{"id":"area-13103020001","name":"東麻布一丁目"},"geometry":{"type":"Polygon","coordinates":[[[139.74383,35.65874],[139.74429,35.65853],[139.74463,35.65841],[139.74485,35.65829],[139.74503,35.65809],[139.74505,35.65803],[139.74436,35.65784],[139.74432,35.65778],[139.74443,35.65758],[139.74449,35.6576],[139.74451,35.65754],[139.74446,35.65752],[139.74507,35.65651],[139.74512,35.65639],[139.74486,35.65624],[139.74536,35.65527],[139.74522,35.65466],[139.74195,35.65494],[139.74164,35.655],[139.74175,35.65523],[139.74188,35.65519],[139.74225,35.65604],[139.74309,35.65759],[139.74306,35.65839],[139.74326,35.65846],[139.74324,35.65851],[139.74367,35.65862],[139.74368,35.65875],[139.74383,35.65874]]]}},{"type":"Feature","properties":{"id":"area-13103020002","name":"東麻布二丁目"},"geometry":{"type":"Polygon","coordinates":[[[139.74077,35.65802],[139.7411,35.65796],[139.74112,35.65802],[139.74122,35.65803],[139.74115,35.65782],[139.74218,35.65748],[139.74245,35.65786],[139.74241,35.65797],[139.74244,35.65843],[139.74241,35.65845],[139.74241,35.65856],[139.74296,35.65855],[139.74302,35.65844],[139.74324,35.65851],[139.74326,35.65846],[139.74306,35.65839],[139.74309,35.65759],[139.74225,35.65604],[139.74188,35.65519],[139.74175,35.65523],[139.74164,35.655],[139.7408,35.65525],[139.74043,35.65532],[139.73937,35.6554],[139.7389,35.65551],[139.73902,35.65597],[139.73891,35.656],[139.73925,35.65795],[139.73962,35.65794],[139.73969,35.65844],[139.73978,35.65859],[139.73998,35.65848],[139.73999,35.65842],[139.74028,35.65839],[139.74035,35.65836],[139.74041,35.65827],[139.74039,35.65821],[139.7408,35.6581],[139.74077,35.65802]]]}},{"type":"Feature","properties":{"id":"area-13103020003","name":"東麻布三丁目"},"geometry":{"type":"Polygon","coordinates":[[[139.73925,35.65795],[139.73891,35.656],[139.73902,35.65597],[139.7389,35.65551],[139.73801,35.65571],[139.73791,35.6557],[139.73773,35.6556],[139.73763,35.65544],[139.73761,35.65534],[139.7371,35.65545],[139.73719,35.65636],[139.73678,35.65714],[139.73651,35.65757],[139.73772,35.65745],[139.73792,35.65746],[139.73844,35.65765],[139.73882,35.65796],[139.73925,35.65795]]]}},{"type":"Feature","properties":{"id":"area-13103021001","name":"元赤坂一丁目"},"geometry":{"type":"Polygon","coordinates":[[[139.73508,35.67879],[139.7369,35.67887],[139.73691,35.6787],[139.737,35.67849],[139.73697,35.67847],[139.73706,35.67826],[139.7365,35.67797],[139.73632,35.67796],[139.73578,35.67758],[139.73417,35.6767],[139.73243,35.67566],[139.73257,35.67727],[139.73204,35.67773],[139.73242,35.67865],[139.7336,35.67901],[139.73405,35.6789],[139.73508,35.67879]]]}},{"type":"Feature","properties":{"id":"area-13103021002","name":"元赤坂二丁目"},"geometry":{"type":"Polygon","coordinates":[[[139.72999,35.68242],[139.73065,35.68119],[139.73153,35.68155],[139.73269,35.68054],[139.73288,35.68025],[139.73331,35.67924],[139.73342,35.67911],[139.7336,35.67901],[139.73242,35.67865],[139.73204,35.67773],[139.73257,35.67727],[139.73242,35.67552],[139.73164,35.67505],[139.73093,35.67472],[139.72952,35.67446],[139.72766,35.67384],[139.72416,35.67275],[139.72332,35.67444],[139.72277,35.67466],[139.72252,35.6748],[139.72235,35.67493],[139.72213,35.67518],[139.7211,35.67717],[139.72098,35.67711],[139.72071,35.67759],[139.72013,35.67864],[139.72015,35.67867],[139.72004,35.67894],[139.7207,35.67918],[139.72085,35.67905],[139.72109,35.67912],[139.72115,35.67889],[139.72164,35.67888],[139.72163,35.67884],[139.7218,35.67884],[139.7218,35.67898],[139.7227,35.67899],[139.72329,35.67889],[139.72362,35.67887],[139.72389,35.6789],[139.72404,35.6787],[139.72514,35.6793],[139.72583,35.67945],[139.72603,35.67953],[139.7263,35.67969],[139.72651,35.67987],[139.72746,35.68192],[139.72796,35.68262],[139.72999,35.68242]]]}},{"type":"Feature","properties":{"id":"area-13103022001","name":"赤坂一丁目"},"geometry":{"type":"Polygon","coordinates":[[[139.74594,35.6703],[139.744,35.66904],[139.74405,35.66888],[139.74416,35.66875],[139.74337,35.66763],[139.74236,35.66591],[139.74179,35.66616],[139.74176,35.66619],[139.74184,35.66633],[139.74154,35.66644],[139.7415,35.66639],[139.74134,35.66644],[139.74108,35.66661],[139.74084,35.6667],[139.74029,35.66704],[139.73999,35.6667],[139.73941,35.66704],[139.73991,35.66759],[139.73966,35.66774],[139.7396,35.66773],[139.74128,35.66958],[139.74274,35.67099],[139.74309,35.6713],[139.74318,35.67135],[139.74503,35.67095],[139.74495,35.67058],[139.74594,35.67038],[139.74586,35.67032],[139.74594,35.6703]]]}},{"type":"Feature","properties":{"id":"area-13103022002","name":"赤坂二丁目"},"geometry":{"type":"Polygon","coordinates":[[[139.74133,35.66963],[139.7396,35.66773],[139.73907,35.66799],[139.73891,35.66775],[139.73885,35.66803],[139.73881,35.6681],[139.73864,35.66822],[139.73762,35.66867],[139.73826,35.6693],[139.73802,35.66947],[139.73788,35.67012],[139.73761,35.67064],[139.73739,35.67138],[139.73636,35.67222],[139.73721,35.67282],[139.73889,35.67336],[139.7389,35.67383],[139.73912,35.67373],[139.74052,35.6729],[139.74315,35.67132],[139.74309,35.6713],[139.74274,35.67099],[139.74133,35.66963]]]}},{"type":"Feature","properties":{"id":"area-13103022003","name":"赤坂三丁目"},"geometry":{"type":"Polygon","coordinates":[[[139.73889,35.67336],[139.73721,35.67282],[139.73682,35.67406],[139.73631,35.67449],[139.73581,35.67602],[139.7352,35.67725],[139.73578,35.67758],[139.73632,35.67796],[139.7365,35.67797],[139.73706,35.67826],[139.73713,35.67809],[139.73704,35.67788],[139.737,35.67768],[139.73716,35.67718],[139.73727,35.6767],[139.73752,35.67628],[139.73821,35.67544],[139.73883,35.67386],[139.7389,35.67383],[139.73889,35.67336]]]}},{"type":"Feature","properties":{"id":"area-13103022004","name":"赤坂四丁目"},"geometry":{"type":"Polygon","coordinates":[[[139.73302,35.67289],[139.73184,35.67234],[139.73137,35.67268],[139.73109,35.67294],[139.73091,35.67319],[139.73089,35.67376],[139.73098,35.67468],[139.73096,35.67473],[139.73175,35.67511],[139.73242,35.67552],[139.73243,35.67566],[139.73271,35.67583],[139.73417,35.6767],[139.7352,35.67725],[139.73581,35.67602],[139.73631,35.67449],[139.73605,35.67419],[139.73302,35.67289]]]}},{"type":"Feature","properties":{"id":"area-13103022005","name":"赤坂五丁目"},"geometry":{"type":"Polygon","coordinates":[[[139.73396,35.67024],[139.73363,35.67009],[139.73333,35.67053],[139.73303,35.67081],[139.73355,35.6712],[139.73327,35.67143],[139.73184,35.67234],[139.73302,35.67289],[139.73605,35.67419],[139.73631,35.67449],[139.73682,35.67406],[139.73721,35.67282],[139.73668,35.67247],[139.73614,35.67205],[139.73585,35.67179],[139.73503,35.67096],[139.73396,35.67024]]]}},{"type":"Feature","properties":{"id":"area-13103022006","name":"赤坂六丁目"},"geometry":{"type":"Polygon","coordinates":[[[139.73476,35.66693],[139.73442,35.66645],[139.73356,35.66697],[139.73282,35.66756],[139.73321,35.66787],[139.73285,35.66831],[139.73261,35.66867],[139.73222,35.66901],[139.73355,35.67005],[139.73396,35.67024],[139.73503,35.67096],[139.73585,35.67179],[139.73636,35.67222],[139.73739,35.67138],[139.73761,35.67064],[139.73788,35.67012],[139.73802,35.66947],[139.73826,35.6693],[139.73762,35.66867],[139.73702,35.66825],[139.73575,35.66721],[139.73554,35.6671],[139.73476,35.66693]]]}},{"type":"Feature","properties":{"id":"area-13103022007","name":"赤坂七丁目"},"geometry":{"type":"Polygon","coordinates":[[[139.73355,35.6712],[139.73303,35.67081],[139.73333,35.67053],[139.73363,35.67009],[139.73302,35.66966],[139.73222,35.66901],[139.7322,35.66903],[139.73201,35.66892],[139.73094,35.66984],[139.73068,35.6699],[139.73031,35.67026],[139.72974,35.67104],[139.72934,35.671],[139.72877,35.67207],[139.72769,35.67385],[139.72952,35.67446],[139.73096,35.67473],[139.73098,35.67468],[139.73089,35.67376],[139.73089,35.67344],[139.73091,35.67319],[139.73097,35.67309],[139.73137,35.67268],[139.7321,35.67216],[139.73327,35.67143],[139.73355,35.6712]]]}},{"type":"Feature","properties":{"id":"area-13103022008","name":"赤坂八丁目"},"geometry":{"type":"Polygon","coordinates":[[[139.72877,35.67207],[139.72934,35.671],[139.72974,35.67104],[139.73031,35.67026],[139.73068,35.6699],[139.73094,35.66984],[139.73201,35.66892],[139.73053,35.66878],[139.73034,35.6688],[139.7278,35.66798],[139.72732,35.66766],[139.72667,35.67063],[139.7257,35.67324],[139.72769,35.67385],[139.72877,35.67207]]]}},{"type":"Feature","properties":{"id":"area-13103022009","name":"赤坂九丁目"},"geometry":{"type":"Polygon","coordinates":[[[139.7322,35.66903],[139.73261,35.66867],[139.73285,35.66831],[139.73321,35.66787],[139.73282,35.66756],[139.73363,35.66692],[139.73241,35.66528],[139.73228,35.66519],[139.73162,35.66488],[139.73107,35.66433],[139.72992,35.66514],[139.72888,35.6658],[139.72753,35.66678],[139.72732,35.66766],[139.7278,35.66798],[139.73034,35.6688],[139.73053,35.66878],[139.73199,35.6689],[139.7322,35.66903]]]}},{"type":"Feature","properties":{"id":"area-13103023001","name":"南青山一丁目"},"geometry":{"type":"Polygon","coordinates":[[[139.72753,35.66679],[139.72663,35.66653],[139.72553,35.66658],[139.7255,35.66649],[139.72458,35.66644],[139.72452,35.66623],[139.72364,35.6699],[139.72364,35.67005],[139.72371,35.67032],[139.72385,35.67055],[139.7243,35.67092],[139.72441,35.67104],[139.72451,35.67122],[139.72455,35.67137],[139.72454,35.67156],[139.72405,35.67272],[139.7257,35.67324],[139.72667,35.67063],[139.72707,35.66891],[139.72735,35.66748],[139.72753,35.66679]]]}},{"type":"Feature","properties":{"id":"area-13103023002","name":"南青山二丁目"},"geometry":{"type":"Polygon","coordinates":[[[139.72387,35.66321],[139.72365,35.66208],[139.72357,35.66213],[139.72331,35.6621],[139.72296,35.66195],[139.72283,35.66184],[139.72198,35.66179],[139.72126,35.66224],[139.72112,35.66236],[139.72096,35.6626],[139.72062,35.66358],[139.72031,35.66435],[139.7203,35.66448],[139.72041,35.66465],[139.72046,35.66486],[139.72054,35.66558],[139.72053,35.66587],[139.72048,35.66618],[139.72032,35.66657],[139.71999,35.66701],[139.71978,35.6672],[139.71963,35.66729],[139.71934,35.6674],[139.71804,35.66764],[139.71755,35.66779],[139.71736,35.66791],[139.71686,35.66837],[139.71597,35.66896],[139.71603,35.66905],[139.71594,35.66911],[139.71664,35.66992],[139.71685,35.67008],[139.71724,35.67024],[139.7187,35.67077],[139.72099,35.67173],[139.72403,35.67277],[139.72454,35.67156],[139.72455,35.67137],[139.72451,35.67122],[139.72441,35.67104],[139.7243,35.67092],[139.72385,35.67055],[139.72371,35.67032],[139.72364,35.67005],[139.72364,35.6699],[139.72426,35.66728],[139.7247,35.66558],[139.72471,35.6654],[139.72469,35.6651],[139.72438,35.66426],[139.72387,35.66321]]]}},{"type":"Feature","properties":{"id":"area-13103023003","name":"南青山三丁目"},"geometry":{"type":"Polygon","coordinates":[[[139.71808,35.66763],[139.71464,35.66383],[139.71267,35.66508],[139.71541,35.66814],[139.71574,35.66859],[139.71597,35.66896],[139.71686,35.66837],[139.71744,35.66785],[139.71766,35.66775],[139.71808,35.66763]]]}},{"type":"Feature","properties":{"id":"area-13103023004","name":"南青山四丁目"},"geometry":{"type":"Polygon","coordinates":[[[139.7203,35.66448],[139.7204,35.66412],[139.71992,35.66439],[139.71977,35.6643],[139.71926,35.66418],[139.71958,35.6641],[139.71972,35.664],[139.71971,35.66397],[139.71981,35.66388],[139.71986,35.66389],[139.72,35.66373],[139.7201,35.66304],[139.72008,35.66279],[139.71997,35.66257],[139.71966,35.66273],[139.71865,35.66227],[139.7187,35.66218],[139.71836,35.66199],[139.7181,35.66205],[139.71715,35.66264],[139.71621,35.66282],[139.71464,35.66383],[139.71808,35.66763],[139.71932,35.6674],[139.71954,35.66733],[139.71978,35.6672],[139.71989,35.66711],[139.72025,35.66668],[139.72043,35.66633],[139.72051,35.66603],[139.72054,35.66575],[139.72046,35.66486],[139.72041,35.66465],[139.7203,35.66448]]]}},{"type":"Feature","properties":{"id":"area-13103023005","name":"南青山五丁目"},"geometry":{"type":"Polygon","coordinates":[[[139.71591,35.6625],[139.71393,35.65978],[139.7122,35.66081],[139.71198,35.66104],[139.71195,35.66116],[139.71187,35.66126],[139.71048,35.66282],[139.71061,35.6629],[139.71267,35.66508],[139.71621,35.66282],[139.71591,35.6625]]]}},{"type":"Feature","properties":{"id":"area-13103023006","name":"南青山六丁目"},"geometry":{"type":"Polygon","coordinates":[[[139.71884,35.66185],[139.71879,35.66146],[139.71862,35.66139],[139.71832,35.66153],[139.7181,35.66143],[139.71785,35.66122],[139.7176,35.66109],[139.71757,35.66055],[139.71879,35.6602],[139.71859,35.65964],[139.71909,35.65951],[139.71901,35.65919],[139.71337,35.65866],[139.71362,35.65922],[139.71398,35.65975],[139.71393,35.65978],[139.71591,35.6625],[139.71621,35.66282],[139.71715,35.66264],[139.7181,35.66205],[139.71836,35.66199],[139.71829,35.66196],[139.71884,35.66185]]]}},{"type":"Feature","properties":{"id":"area-13103023007","name":"南青山七丁目"},"geometry":{"type":"Polygon","coordinates":[[[139.71901,35.65919],[139.71825,35.65707],[139.71791,35.65641],[139.71671,35.65681],[139.71532,35.65698],[139.71472,35.65717],[139.71396,35.65764],[139.71355,35.65802],[139.71322,35.6582],[139.71323,35.65823],[139.71301,35.65839],[139.71297,35.65846],[139.7129,35.65845],[139.71289,35.65858],[139.71331,35.65862],[139.71337,35.65866],[139.71369,35.65869],[139.71901,35.65919]]]}},{"type":"Feature","properties":{"id":"area-13103024001","name":"北青山一丁目"},"geometry":{"type":"Polygon","coordinates":[[[139.72013,35.67864],[139.72098,35.67711],[139.7211,35.67717],[139.72213,35.67518],[139.72235,35.67493],[139.72252,35.6748],[139.72277,35.67466],[139.72332,35.67444],[139.72416,35.67275],[139.72405,35.67272],[139.72403,35.67277],[139.72135,35.67186],[139.72113,35.67234],[139.72099,35.67244],[139.72088,35.67241],[139.71959,35.67506],[139.71987,35.67527],[139.71945,35.67674],[139.71967,35.67678],[139.7193,35.67803],[139.719,35.67859],[139.71973,35.67852],[139.71976,35.67913],[139.72007,35.67895],[139.72004,35.67894],[139.72015,35.67867],[139.72013,35.67864]]]}},{"type":"Feature","properties":{"id":"area-13103024002","name":"北青山二丁目"},"geometry":{"type":"Polygon","coordinates":[[[139.71959,35.67506],[139.72088,35.67241],[139.72099,35.67244],[139.72113,35.67234],[139.72135,35.67186],[139.72045,35.67151],[139.7187,35.67077],[139.71685,35.67008],[139.71664,35.66992],[139.71594,35.66911],[139.71399,35.67036],[139.7144,35.67087],[139.71411,35.67091],[139.7141,35.67115],[139.71457,35.67191],[139.71439,35.67199],[139.71454,35.67221],[139.71461,35.67247],[139.71485,35.67295],[139.71501,35.67289],[139.71499,35.67284],[139.71541,35.6727],[139.71533,35.67254],[139.71645,35.67211],[139.71667,35.67244],[139.71625,35.67324],[139.71861,35.67399],[139.7195,35.675],[139.71959,35.67506]]]}},{"type":"Feature","properties":{"id":"area-13103024003","name":"北青山三丁目"},"geometry":{"type":"Polygon","coordinates":[[[139.71507,35.66965],[139.71603,35.66905],[139.71574,35.66859],[139.71541,35.66814],[139.71307,35.66552],[139.71189,35.66423],[139.71061,35.6629],[139.71048,35.66282],[139.71038,35.66293],[139.71045,35.66298],[139.70874,35.66418],[139.71056,35.6661],[139.71083,35.66598],[139.71112,35.66635],[139.71132,35.66652],[139.71181,35.6671],[139.71184,35.66709],[139.7128,35.66817],[139.71284,35.66815],[139.71326,35.6687],[139.71393,35.66945],[139.71441,35.66924],[139.71491,35.66947],[139.71507,35.66965]]]}},{"type":"Feature","properties":{"id":"area-13103025001","name":"高輪一丁目"},"geometry":{"type":"Polygon","coordinates":[[[139.73306,35.63566],[139.73133,35.63584],[139.73188,35.63879],[139.73211,35.63932],[139.7328,35.64044],[139.73296,35.64046],[139.73342,35.6414],[139.73552,35.64508],[139.73586,35.64509],[139.73587,35.64483],[139.73632,35.64392],[139.73666,35.64313],[139.73742,35.6416],[139.73785,35.64093],[139.73748,35.64049],[139.73465,35.63872],[139.73401,35.6381],[139.73375,35.63773],[139.73345,35.63713],[139.73326,35.63655],[139.73306,35.63566]]]}},{"type":"Feature","properties":{"id":"area-13103025002","name":"高輪二丁目"},"geometry":{"type":"Polygon","coordinates":[[[139.73785,35.64093],[139.73863,35.64002],[139.73886,35.64004],[139.73953,35.6402],[139.73986,35.64019],[139.7401,35.64027],[139.74062,35.64025],[139.7414,35.64001],[139.74102,35.63915],[139.74123,35.63917],[139.74135,35.63914],[139.74138,35.63906],[139.74183,35.63884],[139.7416,35.638],[139.74137,35.63732],[139.74126,35.6371],[139.74087,35.63652],[139.74081,35.63655],[139.74049,35.63599],[139.73983,35.63445],[139.73956,35.63365],[139.73917,35.63374],[139.73913,35.63382],[139.73844,35.63395],[139.73835,35.63389],[139.73824,35.6339],[139.73827,35.63398],[139.73705,35.63423],[139.73672,35.63433],[139.736,35.63463],[139.73466,35.63527],[139.73306,35.63566],[139.73334,35.6368],[139.73355,35.63734],[139.73387,35.63792],[139.73401,35.6381],[139.73451,35.6386],[139.73486,35.63886],[139.73748,35.64049],[139.73785,35.64093]]]}},{"type":"Feature","properties":{"id":"area-13103025003","name":"高輪三丁目"},"geometry":{"type":"Polygon","coordinates":[[[139.73135,35.63583],[139.73306,35.63566],[139.73466,35.63527],[139.736,35.63463],[139.73672,35.63433],[139.73705,35.63423],[139.73827,35.63398],[139.73824,35.6339],[139.73835,35.63389],[139.73844,35.63395],[139.73913,35.63382],[139.73917,35.63374],[139.73956,35.63365],[139.73922,35.63216],[139.73906,35.63168],[139.73891,35.63133],[139.73859,35.63077],[139.73848,35.6305],[139.7384,35.62998],[139.7384,35.62938],[139.73813,35.62936],[139.73823,35.62879],[139.73801,35.6278],[139.73759,35.62778],[139.73751,35.62895],[139.73236,35.62956],[139.7324,35.63012],[139.73133,35.63019],[139.73119,35.63018],[139.73101,35.63012],[139.73082,35.63013],[139.73075,35.63037],[139.73063,35.6305],[139.72967,35.63123],[139.73049,35.63179],[139.73077,35.63209],[139.73087,35.63239],[139.73091,35.63263],[139.73135,35.63583]]]}},{"type":"Feature","properties":{"id":"area-13103025004","name":"高輪四丁目"},"geometry":{"type":"Polygon","coordinates":[[[139.73751,35.62895],[139.73759,35.62778],[139.73775,35.62778],[139.73782,35.62719],[139.73803,35.62618],[139.73851,35.6249],[139.73881,35.62461],[139.73819,35.62486],[139.73799,35.62471],[139.73814,35.62402],[139.73806,35.62374],[139.73739,35.6236],[139.73743,35.62325],[139.73527,35.62314],[139.73513,35.62344],[139.73482,35.62432],[139.73472,35.62451],[139.73379,35.62597],[139.73365,35.62598],[139.73341,35.62592],[139.73339,35.62599],[139.73221,35.62602],[139.7323,35.62575],[139.73191,35.62546],[139.73182,35.62554],[139.7318,35.62552],[139.73164,35.62563],[139.73142,35.62553],[139.73127,35.62559],[139.73115,35.62578],[139.73112,35.62591],[139.73144,35.6259],[139.73161,35.62606],[139.73171,35.6261],[139.7314,35.62631],[139.73134,35.62645],[139.73129,35.62644],[139.73115,35.6266],[139.73115,35.62677],[139.7311,35.62677],[139.7311,35.62673],[139.73098,35.62673],[139.73097,35.62667],[139.73087,35.62667],[139.73089,35.62699],[139.73109,35.62698],[139.7311,35.62703],[139.73116,35.62702],[139.73118,35.62708],[139.73118,35.62714],[139.73109,35.62716],[139.73109,35.62727],[139.73104,35.62727],[139.73103,35.62739],[139.73098,35.6274],[139.73093,35.62764],[139.73133,35.62765],[139.73134,35.62781],[139.73143,35.62786],[139.73145,35.62808],[139.73145,35.62859],[139.73142,35.62881],[139.73134,35.62881],[139.73107,35.62937],[139.73108,35.62993],[139.73101,35.63012],[139.73119,35.63018],[139.73133,35.63019],[139.7324,35.63012],[139.73236,35.62956],[139.73751,35.62895]]]}},{"type":"Feature","properties":{"id":"area-13103026001","name":"白金一丁目"},"geometry":{"type":"Polygon","coordinates":[[[139.73423,35.6465],[139.73558,35.64633],[139.73576,35.64633],[139.73584,35.64568],[139.73586,35.64509],[139.73552,35.64508],[139.73416,35.64269],[139.73329,35.64325],[139.73324,35.64341],[139.73304,35.64335],[139.73306,35.64346],[139.73284,35.64361],[139.73281,35.64358],[139.73134,35.64372],[139.73154,35.64483],[139.73147,35.64565],[139.7316,35.64715],[139.73242,35.64724],[139.73298,35.64715],[139.73321,35.64706],[139.7338,35.64666],[139.73423,35.6465]]]}},{"type":"Feature","properties":{"id":"area-13103026002","name":"白金二丁目"},"geometry":{"type":"Polygon","coordinates":[[[139.73065,35.64378],[139.73281,35.64358],[139.73284,35.64361],[139.73306,35.64346],[139.73304,35.64335],[139.73324,35.64341],[139.73329,35.64325],[139.73416,35.64269],[139.73342,35.6414],[139.73296,35.64046],[139.7305,35.64021],[139.72996,35.63996],[139.72841,35.63905],[139.72814,35.63943],[139.7283,35.64011],[139.7284,35.64078],[139.72852,35.64107],[139.72926,35.6419],[139.72931,35.6419],[139.72996,35.6429],[139.73038,35.64367],[139.73065,35.64378]]]}},{"type":"Feature","properties":{"id":"area-13103026003","name":"白金三丁目"},"geometry":{"type":"Polygon","coordinates":[[[139.7316,35.64715],[139.73147,35.64565],[139.73154,35.64483],[139.73134,35.64372],[139.7277,35.644],[139.72778,35.64444],[139.72812,35.6454],[139.72811,35.64621],[139.72806,35.64619],[139.728,35.64641],[139.72824,35.64645],[139.72855,35.6466],[139.72894,35.64687],[139.72918,35.64694],[139.72964,35.647],[139.73045,35.647],[139.7316,35.64715]]]}},{"type":"Feature","properties":{"id":"area-13103026004","name":"白金四丁目"},"geometry":{"type":"Polygon","coordinates":[[[139.7284,35.64078],[139.7283,35.64011],[139.72444,35.64106],[139.72459,35.64138],[139.72512,35.64204],[139.72485,35.6423],[139.72483,35.64246],[139.72557,35.64332],[139.72619,35.64439],[139.72679,35.64435],[139.72747,35.64402],[139.73065,35.64378],[139.73038,35.64367],[139.72996,35.6429],[139.72931,35.6419],[139.72926,35.6419],[139.72852,35.64107],[139.7284,35.64078]]]}},{"type":"Feature","properties":{"id":"area-13103026005","name":"白金五丁目"},"geometry":{"type":"Polygon","coordinates":[[[139.72436,35.64644],[139.72461,35.64633],[139.7259,35.64634],[139.728,35.64641],[139.72806,35.64619],[139.72811,35.64621],[139.72812,35.6454],[139.72778,35.64444],[139.7277,35.644],[139.72747,35.64402],[139.72679,35.64435],[139.7227,35.64471],[139.72272,35.64485],[139.72277,35.64492],[139.72284,35.64491],[139.72293,35.64508],[139.72298,35.64531],[139.72277,35.64551],[139.72291,35.64554],[139.723,35.64546],[139.72308,35.64549],[139.7231,35.64586],[139.72323,35.64599],[139.72327,35.6461],[139.72391,35.64675],[139.72436,35.64644]]]}},{"type":"Feature","properties":{"id":"area-13103026006","name":"白金六丁目"},"geometry":{"type":"Polygon","coordinates":[[[139.72619,35.64439],[139.72557,35.64332],[139.72483,35.64246],[139.72485,35.6423],[139.72512,35.64204],[139.72459,35.64138],[139.72444,35.64106],[139.724,35.64116],[139.72407,35.64139],[139.72348,35.64159],[139.72335,35.64161],[139.7224,35.64152],[139.72224,35.64186],[139.72205,35.64213],[139.72091,35.64339],[139.72118,35.64373],[139.72117,35.64377],[139.72109,35.64383],[139.7209,35.64389],[139.72098,35.64416],[139.72124,35.64429],[139.72154,35.64448],[139.72196,35.64437],[139.72225,35.64437],[139.72238,35.64443],[139.72235,35.64448],[139.72269,35.64464],[139.7227,35.64471],[139.72619,35.64439]]]}},{"type":"Feature","properties":{"id":"area-13103027001","name":"白金台一丁目"},"geometry":{"type":"Polygon","coordinates":[[[139.73188,35.63879],[139.73133,35.63584],[139.72876,35.63612],[139.7283,35.63676],[139.72806,35.63716],[139.7275,35.63853],[139.72996,35.63996],[139.7305,35.64021],[139.7328,35.64044],[139.73211,35.63932],[139.73188,35.63879]]]}},{"type":"Feature","properties":{"id":"area-13103027002","name":"白金台二丁目"},"geometry":{"type":"Polygon","coordinates":[[[139.73135,35.63583],[139.73087,35.63239],[139.73077,35.63209],[139.73049,35.63179],[139.72967,35.63123],[139.72936,35.63152],[139.72914,35.63133],[139.7291,35.63136],[139.72903,35.63131],[139.72825,35.63175],[139.72831,35.63207],[139.72826,35.6323],[139.72838,35.63244],[139.72845,35.63242],[139.72872,35.63291],[139.72804,35.63317],[139.72748,35.63182],[139.72698,35.63205],[139.72673,35.63228],[139.72666,35.6326],[139.7266,35.6327],[139.72632,35.63292],[139.72665,35.63372],[139.72669,35.63382],[139.72667,35.63393],[139.7268,35.63418],[139.72718,35.63383],[139.72739,35.63384],[139.72777,35.63375],[139.72808,35.63451],[139.72829,35.63617],[139.73135,35.63583]]]}},{"type":"Feature","properties":{"id":"area-13103027003","name":"白金台三丁目"},"geometry":{"type":"Polygon","coordinates":[[[139.72806,35.63716],[139.72876,35.63612],[139.72829,35.63617],[139.72808,35.63451],[139.72777,35.63375],[139.72739,35.63384],[139.72718,35.63383],[139.7268,35.63418],[139.72621,35.63489],[139.72544,35.63515],[139.72477,35.63524],[139.72407,35.63538],[139.72269,35.63571],[139.72223,35.6359],[139.72207,35.63582],[139.72216,35.6355],[139.72213,35.63537],[139.72193,35.63539],[139.72191,35.63532],[139.72178,35.63532],[139.72172,35.63549],[139.72165,35.63551],[139.72143,35.63504],[139.72131,35.63517],[139.72101,35.63502],[139.72096,35.63507],[139.72042,35.6348],[139.72049,35.63462],[139.72004,35.63449],[139.71999,35.63457],[139.71971,35.63447],[139.71952,35.63469],[139.72292,35.63651],[139.72453,35.6372],[139.7275,35.63853],[139.72806,35.63716]]]}},{"type":"Feature","properties":{"id":"area-13103027004","name":"白金台四丁目"},"geometry":{"type":"Polygon","coordinates":[[[139.7275,35.63853],[139.72401,35.63698],[139.72262,35.63938],[139.72229,35.64151],[139.72335,35.64161],[139.72348,35.64159],[139.72407,35.64139],[139.724,35.64116],[139.7283,35.64011],[139.72814,35.63943],[139.72841,35.63905],[139.7275,35.63853]]]}},{"type":"Feature","properties":{"id":"area-13103027005","name":"白金台五丁目"},"geometry":{"type":"Polygon","coordinates":[[[139.72229,35.64151],[139.72262,35.63938],[139.72401,35.63698],[139.72292,35.63651],[139.71952,35.63469],[139.71927,35.63498],[139.71935,35.63534],[139.71835,35.63531],[139.71796,35.63525],[139.71802,35.6349],[139.71777,35.63478],[139.71759,35.63497],[139.71738,35.63509],[139.71746,35.63536],[139.71731,35.63543],[139.7179,35.63597],[139.71727,35.63819],[139.71701,35.63815],[139.71662,35.63872],[139.71691,35.63884],[139.71697,35.6397],[139.71677,35.63994],[139.717,35.64008],[139.71725,35.6399],[139.71795,35.64001],[139.71778,35.64073],[139.71943,35.64115],[139.71947,35.64128],[139.7193,35.64137],[139.71929,35.64156],[139.71907,35.64157],[139.71967,35.64194],[139.71987,35.64202],[139.72091,35.64339],[139.72205,35.64213],[139.72232,35.64171],[139.7224,35.64152],[139.72229,35.64151]]]}},{"type":"Feature","properties":{"id":"area-13103028001","name":"芝浦一丁目"},"geometry":{"type":"Polygon","coordinates":[[[139.75633,35.65291],[139.75882,35.6527],[139.7593,35.65272],[139.75916,35.65243],[139.75885,35.65255],[139.75722,35.65275],[139.75721,35.65272],[139.75889,35.65251],[139.75876,35.65221],[139.75904,35.65218],[139.759,35.65209],[139.75872,35.65212],[139.7585,35.65169],[139.75876,35.6516],[139.75872,35.6515],[139.75866,35.65152],[139.75862,35.65149],[139.75846,35.65156],[139.7579,35.65054],[139.75815,35.65046],[139.75809,35.65033],[139.75784,35.6504],[139.7573,35.64936],[139.75757,35.64925],[139.75753,35.64916],[139.75726,35.64928],[139.75684,35.64849],[139.75585,35.64878],[139.7558,35.6487],[139.75549,35.64878],[139.75542,35.64865],[139.75584,35.64852],[139.75575,35.64829],[139.75562,35.64833],[139.7556,35.64828],[139.75629,35.64809],[139.75632,35.64814],[139.75645,35.64811],[139.75644,35.64805],[139.75649,35.64804],[139.75648,35.648],[139.75653,35.64797],[139.75654,35.6479],[139.75682,35.64781],[139.75671,35.64757],[139.75642,35.64764],[139.75606,35.647],[139.75415,35.64617],[139.75406,35.64599],[139.75138,35.64484],[139.75133,35.64482],[139.75127,35.64492],[139.75105,35.64489],[139.751,35.64497],[139.75125,35.64503],[139.75001,35.64696],[139.75212,35.64795],[139.75307,35.64847],[139.75355,35.6488],[139.75432,35.64942],[139.75497,35.65013],[139.75553,35.65094],[139.75581,35.65149],[139.75611,35.65219],[139.75633,35.65291]]]}},{"type":"Feature","properties":{"id":"area-13103028002","name":"芝浦二丁目"},"geometry":{"type":"Polygon","coordinates":[[[139.75554,35.64584],[139.75526,35.6453],[139.75552,35.6452],[139.75549,35.64512],[139.75546,35.64507],[139.75521,35.64515],[139.75412,35.643],[139.75438,35.643],[139.75436,35.64293],[139.75432,35.64285],[139.75401,35.64283],[139.75358,35.64202],[139.75341,35.64202],[139.75338,35.64199],[139.75329,35.64198],[139.75329,35.64194],[139.75305,35.64195],[139.75304,35.64199],[139.75247,35.64199],[139.75245,35.64203],[139.75236,35.64202],[139.75236,35.64181],[139.75228,35.64181],[139.75228,35.64203],[139.75144,35.64204],[139.75143,35.64277],[139.75123,35.64277],[139.75123,35.64442],[139.75144,35.6445],[139.75144,35.64473],[139.75138,35.64484],[139.75406,35.64599],[139.754,35.64583],[139.75583,35.64659],[139.7559,35.64655],[139.75562,35.64599],[139.75567,35.64596],[139.75562,35.64585],[139.75554,35.64584]]]}},{"type":"Feature","properties":{"id":"area-13103028003","name":"芝浦三丁目"},"geometry":{"type":"Polygon","coordinates":[[[139.751,35.64496],[139.75105,35.64489],[139.75127,35.64492],[139.75133,35.64482],[139.75138,35.64484],[139.75144,35.64473],[139.75144,35.6445],[139.75123,35.64442],[139.75123,35.64277],[139.75109,35.64276],[139.75103,35.64204],[139.74924,35.64126],[139.7482,35.64159],[139.74815,35.64147],[139.74799,35.64152],[139.74602,35.64218],[139.74615,35.64245],[139.74592,35.64253],[139.74594,35.64263],[139.74554,35.64277],[139.74539,35.64286],[139.74464,35.64339],[139.74415,35.64383],[139.7445,35.6441],[139.74546,35.64472],[139.74687,35.64551],[139.74735,35.64576],[139.75001,35.64696],[139.75125,35.64503],[139.751,35.64496]]]}},{"type":"Feature","properties":{"id":"area-13103028004","name":"芝浦四丁目"},"geometry":{"type":"Polygon","coordinates":[[[139.74923,35.641],[139.74923,35.64092],[139.74927,35.64091],[139.74929,35.64031],[139.74925,35.64031],[139.74925,35.63908],[139.74973,35.63894],[139.74979,35.63897],[139.74967,35.639],[139.74966,35.63951],[139.75069,35.64091],[139.75087,35.64147],[139.75092,35.64147],[139.75076,35.64091],[139.75068,35.64084],[139.74972,35.6395],[139.74972,35.63903],[139.7498,35.63902],[139.74981,35.63941],[139.74995,35.63967],[139.75105,35.64109],[139.75139,35.64148],[139.75152,35.64154],[139.75229,35.64158],[139.75228,35.64181],[139.75236,35.64181],[139.75237,35.64157],[139.75314,35.64156],[139.75329,35.64136],[139.7517,35.63832],[139.75196,35.63822],[139.75187,35.63805],[139.75161,35.63812],[139.7508,35.63658],[139.75018,35.63678],[139.75016,35.63682],[139.75009,35.63684],[139.75007,35.63681],[139.74981,35.6369],[139.74978,35.63876],[139.74973,35.63878],[139.74923,35.6389],[139.74927,35.6369],[139.74858,35.63648],[139.74841,35.63647],[139.74746,35.63679],[139.74744,35.63676],[139.74676,35.637],[139.74674,35.63703],[139.74669,35.63691],[139.7465,35.637],[139.74652,35.63711],[139.74475,35.63769],[139.74471,35.63762],[139.74463,35.63764],[139.74396,35.63787],[139.74383,35.63762],[139.74382,35.63777],[139.74377,35.63788],[139.74359,35.63807],[139.74328,35.63818],[139.74327,35.63811],[139.74293,35.63835],[139.74177,35.63886],[139.74227,35.63997],[139.74256,35.64097],[139.74266,35.64097],[139.74281,35.64148],[139.74276,35.64149],[139.74295,35.64201],[139.74348,35.64302],[139.74372,35.64333],[139.74407,35.64368],[139.74406,35.64373],[139.74415,35.64382],[139.74464,35.64339],[139.74539,35.64286],[139.74554,35.64277],[139.74594,35.64263],[139.74592,35.64253],[139.74615,35.64245],[139.74602,35.64218],[139.74815,35.64147],[139.74811,35.64137],[139.74923,35.641]]]}},{"type":"Feature","properties":{"id":"area-13103029001","name":"港南一丁目"},"geometry":{"type":"Polygon","coordinates":[[[139.74377,35.63788],[139.74383,35.63762],[139.74396,35.63787],[139.7465,35.637],[139.7467,35.63691],[139.7466,35.63657],[139.74779,35.63618],[139.74788,35.636],[139.74743,35.63507],[139.74781,35.63496],[139.74772,35.6348],[139.74737,35.63493],[139.74637,35.63292],[139.74641,35.6329],[139.746,35.63206],[139.74595,35.63204],[139.74592,35.63188],[139.74633,35.63184],[139.74631,35.63158],[139.74589,35.6316],[139.74588,35.6315],[139.74598,35.63148],[139.74597,35.63133],[139.74589,35.63132],[139.74588,35.63129],[139.74596,35.63129],[139.74593,35.63094],[139.74585,35.63094],[139.74581,35.63055],[139.74579,35.63053],[139.74572,35.62974],[139.74584,35.62972],[139.7458,35.62949],[139.74571,35.62948],[139.74569,35.62943],[139.74572,35.6294],[139.74569,35.62913],[139.74499,35.62915],[139.745,35.62932],[139.74285,35.62945],[139.74072,35.62965],[139.74114,35.63123],[139.74135,35.63214],[139.74209,35.63209],[139.74238,35.63462],[139.74299,35.63681],[139.74306,35.63697],[139.74322,35.63786],[139.7433,35.6381],[139.74327,35.63811],[139.74328,35.63818],[139.74352,35.63811],[139.74364,35.63803],[139.74377,35.63788]]]}},{"type":"Feature","properties":{"id":"area-13103029002","name":"港南二丁目"},"geometry":{"type":"Polygon","coordinates":[[[139.74299,35.63681],[139.74238,35.63462],[139.74209,35.63209],[139.74135,35.63214],[139.74114,35.63123],[139.74072,35.62965],[139.74285,35.62945],[139.745,35.62932],[139.74499,35.62915],[139.74605,35.62913],[139.74603,35.62896],[139.74565,35.62896],[139.74561,35.62864],[139.74566,35.62863],[139.74562,35.62858],[139.74557,35.62804],[139.74564,35.62803],[139.74563,35.62791],[139.74555,35.62791],[139.74547,35.62709],[139.74551,35.62657],[139.74556,35.62657],[139.74557,35.62642],[139.74554,35.62642],[139.74573,35.62469],[139.74615,35.62476],[139.74615,35.62469],[139.74575,35.62462],[139.74586,35.62359],[139.74551,35.62346],[139.74535,35.62349],[139.74538,35.62326],[139.74421,35.62342],[139.74376,35.62432],[139.74347,35.62516],[139.74291,35.62503],[139.74288,35.62512],[139.74169,35.62496],[139.74164,35.62491],[139.74157,35.62494],[139.74069,35.62482],[139.74064,35.62476],[139.7406,35.62475],[139.7405,35.62479],[139.74038,35.62477],[139.74032,35.6248],[139.74021,35.62488],[139.74013,35.625],[139.74003,35.62495],[139.74017,35.62475],[139.73958,35.62467],[139.73978,35.62437],[139.73959,35.62429],[139.7395,35.62434],[139.73945,35.62433],[139.73925,35.62464],[139.73884,35.6246],[139.73851,35.6249],[139.73842,35.62512],[139.73803,35.62618],[139.73782,35.62719],[139.73775,35.62778],[139.73801,35.6278],[139.73823,35.62879],[139.73813,35.62936],[139.7384,35.62938],[139.7384,35.62998],[139.73848,35.6305],[139.73859,35.63077],[139.73891,35.63133],[139.73906,35.63168],[139.73922,35.63216],[139.73968,35.63404],[139.74,35.63486],[139.74049,35.63599],[139.74081,35.63655],[139.74087,35.63652],[139.74126,35.6371],[139.74137,35.63732],[139.7416,35.638],[139.74183,35.63884],[139.74293,35.63835],[139.7433,35.6381],[139.74322,35.63786],[139.74306,35.63697],[139.74299,35.63681]]]}},{"type":"Feature","properties":{"id":"area-13103029003","name":"港南三丁目"},"geometry":{"type":"Polygon","coordinates":[[[139.74905,35.63583],[139.74904,35.63579],[139.75102,35.63513],[139.75115,35.63539],[139.75157,35.63524],[139.75146,35.635],[139.75174,35.6349],[139.75184,35.63502],[139.75194,35.63504],[139.75197,35.63511],[139.75211,35.63506],[139.75211,35.63502],[139.75234,35.63494],[139.75221,35.63465],[139.75199,35.63452],[139.752,35.6345],[139.75182,35.63436],[139.75203,35.63411],[139.75254,35.63443],[139.7526,35.63439],[139.75259,35.63418],[139.75262,35.63418],[139.75261,35.63411],[139.75258,35.63411],[139.75257,35.63397],[139.75265,35.63396],[139.75265,35.63389],[139.75256,35.6339],[139.75253,35.6336],[139.7526,35.63359],[139.75264,35.63362],[139.75265,35.63369],[139.75272,35.63368],[139.7527,35.63346],[139.75264,35.63346],[139.75264,35.63356],[139.75253,35.63355],[139.75252,35.63328],[139.7526,35.63327],[139.75261,35.63335],[139.75266,35.63335],[139.75265,35.63323],[139.75251,35.63323],[139.7525,35.63305],[139.75253,35.63304],[139.75256,35.63315],[139.75261,35.63315],[139.7526,35.63293],[139.75254,35.63293],[139.75254,35.63301],[139.7525,35.63302],[139.75245,35.63249],[139.75257,35.63248],[139.7526,35.63279],[139.75267,35.63279],[139.75264,35.63248],[139.75287,35.63247],[139.75286,35.63265],[139.75292,35.63264],[139.75289,35.63247],[139.75302,35.63245],[139.75335,35.63309],[139.75333,35.63314],[139.7534,35.63312],[139.75292,35.6322],[139.75289,35.63221],[139.75301,35.63242],[139.75287,35.63243],[139.75282,35.63229],[139.75276,35.63231],[139.75281,35.63243],[139.75262,35.63245],[139.75262,35.6323],[139.75257,35.6323],[139.75257,35.63243],[139.7526,35.63245],[139.75245,35.63246],[139.75242,35.6322],[139.75265,35.63216],[139.75262,35.63212],[139.75243,35.63217],[139.7524,35.63195],[139.75256,35.63194],[139.7525,35.63196],[139.7525,35.63201],[139.75267,35.632],[139.75267,35.63196],[139.7526,35.63195],[139.75271,35.63193],[139.7527,35.63197],[139.75279,35.6321],[139.75288,35.63206],[139.75278,35.6319],[139.75245,35.63191],[139.75244,35.63179],[139.75266,35.6318],[139.75285,35.63176],[139.75283,35.63173],[139.75245,35.63176],[139.75243,35.63165],[139.75261,35.63164],[139.75261,35.6316],[139.75243,35.63162],[139.75241,35.63152],[139.75264,35.63152],[139.75263,35.63147],[139.75242,35.6315],[139.75241,35.63139],[139.75314,35.63131],[139.75313,35.63112],[139.75219,35.63116],[139.75219,35.63114],[139.7467,35.63182],[139.74669,35.63189],[139.74686,35.63221],[139.74684,35.63224],[139.74699,35.63249],[139.74695,35.63251],[139.74704,35.6326],[139.74809,35.63469],[139.74772,35.6348],[139.74781,35.63496],[139.74817,35.63485],[139.74762,35.63543],[139.74775,35.63568],[139.74832,35.63511],[139.74833,35.63517],[139.74824,35.63521],[139.74845,35.63561],[139.74855,35.63557],[139.74863,35.63575],[139.74878,35.63585],[139.74891,35.63582],[139.74894,35.63586],[139.74905,35.63583]]]}},{"type":"Feature","properties":{"id":"area-13103029004","name":"港南四丁目"},"geometry":{"type":"Polygon","coordinates":[[[139.74713,35.63178],[139.75219,35.63114],[139.75219,35.63111],[139.75238,35.63108],[139.75232,35.6305],[139.75309,35.63005],[139.75307,35.62979],[139.75243,35.63012],[139.7524,35.62985],[139.75225,35.62985],[139.75196,35.62629],[139.75191,35.62628],[139.75189,35.62606],[139.75154,35.6259],[139.7515,35.62595],[139.7516,35.62599],[139.7516,35.62619],[139.75167,35.62623],[139.75085,35.62618],[139.75086,35.62603],[139.75103,35.62604],[139.75103,35.626],[139.75086,35.62601],[139.75087,35.62576],[139.75101,35.62572],[139.75132,35.62586],[139.75136,35.62581],[139.75019,35.62529],[139.75016,35.62449],[139.74963,35.62429],[139.74966,35.62501],[139.74911,35.62476],[139.74938,35.62434],[139.74934,35.62433],[139.74941,35.6242],[139.74935,35.62418],[139.74927,35.6243],[139.74921,35.62428],[139.74892,35.62473],[139.74684,35.62379],[139.74659,35.6239],[139.74651,35.62474],[139.74615,35.62469],[139.74615,35.62476],[139.74651,35.62482],[139.74623,35.627],[139.74642,35.62893],[139.74603,35.62896],[139.74605,35.62913],[139.74644,35.62911],[139.74662,35.63099],[139.74658,35.631],[139.74662,35.63146],[139.74667,35.63146],[139.74667,35.63153],[139.74631,35.63158],[139.74633,35.63184],[139.74713,35.63178]]]}},{"type":"Feature","properties":{"id":"area-13103029005","name":"港南五丁目"},"geometry":{"type":"Polygon","coordinates":[[[139.75921,35.63363],[139.75941,35.62788],[139.75925,35.62788],[139.75925,35.6278],[139.75746,35.62779],[139.75762,35.62417],[139.75345,35.62408],[139.75358,35.62544],[139.75349,35.62544],[139.75352,35.62566],[139.75358,35.62566],[139.75361,35.626],[139.75354,35.626],[139.75356,35.62613],[139.75363,35.62612],[139.75383,35.62893],[139.75372,35.62893],[139.75372,35.629],[139.75384,35.629],[139.75387,35.62919],[139.7534,35.6296],[139.75307,35.62979],[139.75309,35.63007],[139.75374,35.62966],[139.75378,35.63004],[139.75394,35.63037],[139.75396,35.63066],[139.75393,35.63063],[139.75386,35.63064],[139.75387,35.63079],[139.75393,35.63077],[139.75395,35.63068],[139.75397,35.63088],[139.75393,35.63082],[139.75387,35.63082],[139.75388,35.63096],[139.75395,35.63095],[139.75397,35.6309],[139.75405,35.63104],[139.75313,35.63112],[139.75314,35.63133],[139.75416,35.63126],[139.75427,35.63153],[139.75421,35.63158],[139.75431,35.63159],[139.75445,35.63188],[139.75442,35.63195],[139.75447,35.63193],[139.7546,35.63222],[139.75457,35.63226],[139.75454,35.63218],[139.75454,35.63227],[139.75463,35.63227],[139.75471,35.63245],[139.75467,35.63246],[139.75461,35.63233],[139.75468,35.63254],[139.75468,35.63248],[139.75472,35.63247],[139.75511,35.6333],[139.75505,35.63332],[139.75499,35.63314],[139.75492,35.63316],[139.75511,35.63354],[139.75517,35.63351],[139.75507,35.63335],[139.75513,35.63333],[139.75525,35.63361],[139.7557,35.6336],[139.75566,35.63363],[139.75566,35.6337],[139.75588,35.6337],[139.75589,35.63361],[139.75618,35.63361],[139.75623,35.63365],[139.75623,35.6337],[139.75654,35.63369],[139.75654,35.63361],[139.757,35.63362],[139.75692,35.63364],[139.75692,35.63372],[139.75717,35.63371],[139.75716,35.63361],[139.7579,35.63363],[139.75795,35.63372],[139.75787,35.63372],[139.75788,35.63379],[139.75802,35.63379],[139.75805,35.63363],[139.75921,35.63363]]]}},{"type":"Feature","properties":{"id":"area-13103030001","name":"台場一丁目"},"geometry":{"type":"MultiPolygon","coordinates":[[[[139.77711,35.63597],[139.78076,35.6315],[139.77968,35.63062],[139.7698,35.62524],[139.76884,35.62647],[139.76844,35.62667],[139.76849,35.62675],[139.76889,35.62654],[139.76899,35.6266],[139.76897,35.62664],[139.76944,35.62695],[139.7698,35.62707],[139.76991,35.62712],[139.77001,35.62724],[139.77046,35.6274],[139.7707,35.62753],[139.77086,35.62769],[139.77082,35.62773],[139.77074,35.6277],[139.77089,35.62786],[139.77102,35.62784],[139.77126,35.62805],[139.77131,35.62829],[139.77186,35.62824],[139.77186,35.62828],[139.77192,35.62828],[139.77199,35.62825],[139.77273,35.62862],[139.7728,35.6287],[139.77274,35.62882],[139.7726,35.62901],[139.77255,35.62899],[139.7725,35.62907],[139.77257,35.62911],[139.77285,35.62875],[139.77354,35.62913],[139.77323,35.62948],[139.77335,35.62954],[139.77355,35.62931],[139.77351,35.62928],[139.77361,35.62917],[139.774,35.62938],[139.77398,35.62985],[139.7739,35.6299],[139.77419,35.63004],[139.77421,35.63001],[139.77405,35.62988],[139.77407,35.62974],[139.77418,35.62968],[139.77432,35.62967],[139.77447,35.62972],[139.77525,35.63021],[139.77555,35.63033],[139.77608,35.63069],[139.77646,35.63087],[139.77675,35.63089],[139.77686,35.63093],[139.77776,35.63144],[139.77784,35.6315],[139.77787,35.63158],[139.77769,35.63185],[139.77626,35.63364],[139.77621,35.63364],[139.7761,35.63377],[139.77612,35.63379],[139.77592,35.63404],[139.77594,35.63405],[139.77589,35.63411],[139.77586,35.6341],[139.77516,35.63496],[139.77323,35.63396],[139.77268,35.63256],[139.77085,35.63308],[139.77136,35.63434],[139.7717,35.63448],[139.77245,35.63427],[139.77252,35.63452],[139.77303,35.63442],[139.77711,35.63665],[139.77771,35.63628],[139.77711,35.63597]]],[[[139.76655,35.63288],[139.76549,35.63317],[139.76573,35.6339],[139.76581,35.63447],[139.76758,35.63403],[139.76751,35.63363],[139.76731,35.63315],[139.76655,35.63288]]]]}},{"type":"Feature","properties":{"id":"area-13103030002","name":"台場二丁目"},"geometry":{"type":"Polygon","coordinates":[[[139.7731,35.625],[139.77114,35.62356],[139.7698,35.62524],[139.77922,35.63035],[139.77968,35.63062],[139.78076,35.6315],[139.782,35.62997],[139.77428,35.62578],[139.7731,35.625]]]}}]}