{"type":"FeatureCollection","features":[{"type":"Feature","properties":{"id":"area-13102001001","name":"八重洲一丁目"},"geometry":{"type":"Polygon","coordinates":[[[139.77288,35.68381],[139.7704,35.67982],[139.76878,35.68048],[139.76943,35.68146],[139.76967,35.68174],[139.7696,35.68178],[139.76968,35.68193],[139.76979,35.68185],[139.77017,35.68246],[139.7701,35.68249],[139.77012,35.68255],[139.77021,35.68253],[139.77065,35.68342],[139.77056,35.68353],[139.77065,35.68383],[139.77081,35.68379],[139.771,35.68433],[139.77086,35.68437],[139.77091,35.68463],[139.77301,35.68428],[139.77288,35.68381]]]}},{"type":"Feature","properties":{"id":"area-13102001002","name":"八重洲二丁目"},"geometry":{"type":"Polygon","coordinates":[[[139.7704,35.67982],[139.7677,35.67547],[139.76621,35.67591],[139.76615,35.67582],[139.76575,35.67596],[139.76581,35.67598],[139.76679,35.67744],[139.76687,35.67747],[139.76688,35.67756],[139.76699,35.67771],[139.76702,35.6777],[139.76726,35.67807],[139.76724,35.67808],[139.76878,35.68048],[139.7704,35.67982]]]}},{"type":"Feature","properties":{"id":"area-13102002001","name":"京橋一丁目"},"geometry":{"type":"Polygon","coordinates":[[[139.7704,35.67982],[139.77474,35.67803],[139.77386,35.67659],[139.77281,35.67696],[139.76946,35.67832],[139.7704,35.67982]]]}},{"type":"Feature","properties":{"id":"area-13102002002","name":"京橋二丁目"},"geometry":{"type":"Polygon","coordinates":[[[139.77384,35.67659],[139.7728,35.67498],[139.76849,35.67674],[139.76946,35.67832],[139.77281,35.67696],[139.77384,35.67659]]]}},{"type":"Feature","properties":{"id":"area-13102002003","name":"京橋三丁目"},"geometry":{"type":"Polygon","coordinates":[[[139.76849,35.67674],[139.77282,35.67497],[139.77247,35.67445],[139.77249,35.67405],[139.7721,35.67411],[139.77192,35.67422],[139.77149,35.67439],[139.77144,35.67435],[139.77045,35.67473],[139.77039,35.67479],[139.76911,35.67521],[139.76864,35.67531],[139.76819,35.67532],[139.7677,35.67547],[139.76849,35.67674]]]}},{"type":"Feature","properties":{"id":"area-13102003001","name":"銀座一丁目"},"geometry":{"type":"Polygon","coordinates":[[[139.76575,35.67596],[139.76615,35.67582],[139.76621,35.67591],[139.76819,35.67532],[139.76864,35.67531],[139.76911,35.67521],[139.77039,35.67479],[139.77045,35.67473],[139.77144,35.67435],[139.77149,35.67439],[139.77192,35.67422],[139.7721,35.67411],[139.7725,35.67405],[139.77249,35.6736],[139.77242,35.67343],[139.77183,35.67153],[139.77177,35.67142],[139.77169,35.67135],[139.7711,35.67161],[139.76857,35.67329],[139.76661,35.67463],[139.76574,35.67527],[139.76566,35.67517],[139.76527,35.67526],[139.76575,35.67596]]]}},{"type":"Feature","properties":{"id":"area-13102003002","name":"銀座二丁目"},"geometry":{"type":"Polygon","coordinates":[[[139.76574,35.67527],[139.76661,35.67463],[139.76821,35.67353],[139.77093,35.67172],[139.7711,35.67161],[139.77169,35.67135],[139.77063,35.67035],[139.76496,35.67426],[139.765,35.67432],[139.76472,35.67446],[139.76527,35.67526],[139.76566,35.67517],[139.76574,35.67527]]]}},{"type":"Feature","properties":{"id":"area-13102003003","name":"銀座三丁目"},"geometry":{"type":"Polygon","coordinates":[[[139.77063,35.67035],[139.76957,35.66946],[139.76814,35.67048],[139.7678,35.67077],[139.76695,35.67129],[139.76419,35.67322],[139.76443,35.67349],[139.76416,35.67364],[139.76472,35.67446],[139.765,35.67432],[139.76496,35.67426],[139.77063,35.67035]]]}},{"type":"Feature","properties":{"id":"area-13102003004","name":"銀座四丁目"},"geometry":{"type":"Polygon","coordinates":[[[139.76695,35.67129],[139.7678,35.67077],[139.76814,35.67048],[139.76957,35.66946],[139.7684,35.66846],[139.76607,35.67045],[139.76461,35.67156],[139.76266,35.67296],[139.76381,35.67332],[139.76393,35.67339],[139.76416,35.67364],[139.76443,35.67349],[139.76419,35.67322],[139.76695,35.67129]]]}},{"type":"Feature","properties":{"id":"area-13102003005","name":"銀座五丁目"},"geometry":{"type":"Polygon","coordinates":[[[139.76461,35.67156],[139.76607,35.67045],[139.76838,35.66847],[139.76774,35.66794],[139.76752,35.66764],[139.76747,35.66746],[139.76553,35.66927],[139.76181,35.67188],[139.76176,35.67191],[139.76132,35.67196],[139.76057,35.67201],[139.7604,35.67208],[139.76058,35.67231],[139.76091,35.67253],[139.76266,35.67296],[139.76461,35.67156]]]}},{"type":"Feature","properties":{"id":"area-13102003006","name":"銀座六丁目"},"geometry":{"type":"Polygon","coordinates":[[[139.76725,35.66661],[139.76699,35.66641],[139.76451,35.66843],[139.76009,35.67153],[139.7604,35.67208],[139.76057,35.67201],[139.76176,35.67191],[139.76553,35.66927],[139.76747,35.66746],[139.76739,35.66678],[139.76725,35.66661]]]}},{"type":"Feature","properties":{"id":"area-13102003007","name":"銀座七丁目"},"geometry":{"type":"Polygon","coordinates":[[[139.7642,35.66866],[139.76699,35.66641],[139.76597,35.66562],[139.76411,35.66714],[139.76405,35.6671],[139.76289,35.66804],[139.75947,35.67042],[139.76009,35.67153],[139.7642,35.66866]]]}},{"type":"Feature","properties":{"id":"area-13102003008","name":"銀座八丁目"},"geometry":{"type":"Polygon","coordinates":[[[139.76289,35.66804],[139.76405,35.6671],[139.76411,35.66714],[139.76596,35.66562],[139.76471,35.66429],[139.76387,35.66354],[139.76346,35.66325],[139.76295,35.6636],[139.76318,35.66392],[139.76329,35.66422],[139.76318,35.66533],[139.76305,35.66565],[139.76225,35.66715],[139.7585,35.66838],[139.75855,35.66863],[139.75867,35.66897],[139.75947,35.67042],[139.76289,35.66804]]]}},{"type":"Feature","properties":{"id":"area-13102004001","name":"新富一丁目"},"geometry":{"type":"Polygon","coordinates":[[[139.77654,35.67389],[139.77556,35.67147],[139.77266,35.67227],[139.77215,35.6725],[139.77242,35.67343],[139.77249,35.6736],[139.7725,35.67405],[139.77308,35.67404],[139.77315,35.67399],[139.77425,35.67392],[139.77654,35.67389]]]}},{"type":"Feature","properties":{"id":"area-13102004002","name":"新富二丁目"},"geometry":{"type":"Polygon","coordinates":[[[139.77482,35.6701],[139.77214,35.67117],[139.77221,35.67123],[139.77177,35.67142],[139.77183,35.67153],[139.77215,35.6725],[139.77266,35.67227],[139.77556,35.67147],[139.77509,35.6703],[139.77487,35.67024],[139.77482,35.6701]]]}},{"type":"Feature","properties":{"id":"area-13102005001","name":"入船一丁目"},"geometry":{"type":"Polygon","coordinates":[[[139.77852,35.67284],[139.7782,35.67205],[139.77602,35.67264],[139.77654,35.67389],[139.77858,35.67383],[139.77852,35.67284]]]}},{"type":"Feature","properties":{"id":"area-13102005002","name":"入船二丁目"},"geometry":{"type":"Polygon","coordinates":[[[139.7782,35.67205],[139.77782,35.67108],[139.77637,35.67144],[139.7763,35.67129],[139.77556,35.67147],[139.77602,35.67264],[139.7782,35.67205]]]}},{"type":"Feature","properties":{"id":"area-13102005003","name":"入船三丁目"},"geometry":{"type":"Polygon","coordinates":[[[139.77556,35.67147],[139.7763,35.67129],[139.77637,35.67144],[139.77782,35.67108],[139.77725,35.66961],[139.77503,35.67018],[139.77556,35.67147]]]}},{"type":"Feature","properties":{"id":"area-13102006001","name":"湊一丁目"},"geometry":{"type":"Polygon","coordinates":[[[139.78072,35.67339],[139.78108,35.67291],[139.78133,35.67301],[139.7814,35.67291],[139.78115,35.6728],[139.78133,35.67243],[139.78143,35.67168],[139.77931,35.67173],[139.7782,35.67205],[139.77852,35.67284],[139.77858,35.67383],[139.7803,35.67382],[139.7803,35.67349],[139.78055,35.67348],[139.78072,35.67339]]]}},{"type":"Feature","properties":{"id":"area-13102006002","name":"湊二丁目"},"geometry":{"type":"Polygon","coordinates":[[[139.7812,35.67045],[139.78108,35.67016],[139.77923,35.67065],[139.77926,35.67072],[139.77782,35.67108],[139.7782,35.67205],[139.77931,35.67173],[139.78143,35.67168],[139.78137,35.6711],[139.7812,35.67045]]]}},{"type":"Feature","properties":{"id":"area-13102006003","name":"湊三丁目"},"geometry":{"type":"Polygon","coordinates":[[[139.78108,35.67016],[139.78041,35.66881],[139.77875,35.6693],[139.77868,35.66925],[139.77725,35.66961],[139.77782,35.67108],[139.77926,35.67072],[139.77923,35.67065],[139.78108,35.67016]]]}},{"type":"Feature","properties":{"id":"area-131020070","name":"明石町"},"geometry":{"type":"Polygon","coordinates":[[[139.77503,35.67018],[139.77868,35.66925],[139.77875,35.6693],[139.78041,35.66881],[139.77965,35.66724],[139.77907,35.66632],[139.77839,35.66574],[139.77735,35.66474],[139.77688,35.66458],[139.77687,35.66462],[139.77712,35.66473],[139.77665,35.66533],[139.77665,35.6654],[139.77763,35.66629],[139.77762,35.66632],[139.77596,35.66671],[139.77589,35.66668],[139.77505,35.66689],[139.77508,35.66698],[139.77488,35.66702],[139.77485,35.66697],[139.77448,35.66706],[139.7744,35.66701],[139.77415,35.66707],[139.77443,35.66735],[139.77491,35.66831],[139.7754,35.66967],[139.77537,35.66984],[139.77482,35.6701],[139.77487,35.67024],[139.77509,35.6703],[139.77503,35.67018]]]}},{"type":"Feature","properties":{"id":"area-13102008001","name":"築地一丁目"},"geometry":{"type":"Polygon","coordinates":[[[139.77207,35.66933],[139.76967,35.66738],[139.7684,35.66846],[139.77064,35.67036],[139.77177,35.67142],[139.77221,35.67123],[139.77214,35.67117],[139.77311,35.67076],[139.77207,35.66933]]]}},{"type":"Feature","properties":{"id":"area-13102008002","name":"築地二丁目"},"geometry":{"type":"Polygon","coordinates":[[[139.77417,35.66939],[139.77065,35.66656],[139.76967,35.66738],[139.77207,35.66933],[139.77311,35.67076],[139.77481,35.67008],[139.77417,35.66939]]]}},{"type":"Feature","properties":{"id":"area-13102008003","name":"築地三丁目"},"geometry":{"type":"Polygon","coordinates":[[[139.77328,35.66646],[139.77183,35.66536],[139.77065,35.66656],[139.77394,35.6692],[139.77417,35.66939],[139.77482,35.6701],[139.77537,35.66984],[139.7754,35.66967],[139.77491,35.66831],[139.77443,35.66735],[139.77415,35.66707],[139.77328,35.66646]]]}},{"type":"Feature","properties":{"id":"area-13102008004","name":"築地四丁目"},"geometry":{"type":"Polygon","coordinates":[[[139.77176,35.66543],[139.77021,35.66429],[139.76771,35.66662],[139.768,35.66684],[139.76745,35.6673],[139.76752,35.66764],[139.76774,35.66794],[139.76838,35.66847],[139.77065,35.66656],[139.77176,35.66543]]]}},{"type":"Feature","properties":{"id":"area-13102008005","name":"築地五丁目"},"geometry":{"type":"Polygon","coordinates":[[[139.76771,35.66662],[139.77253,35.66212],[139.77251,35.6621],[139.77264,35.66198],[139.77123,35.66077],[139.77071,35.66042],[139.77087,35.66028],[139.76941,35.65931],[139.76913,35.65958],[139.76885,35.65937],[139.76873,35.65946],[139.76897,35.65964],[139.76796,35.66034],[139.76797,35.66036],[139.76567,35.66195],[139.76561,35.66195],[139.76543,35.66208],[139.76545,35.6621],[139.7641,35.66305],[139.76408,35.66303],[139.76397,35.66311],[139.76403,35.66317],[139.7637,35.6634],[139.76471,35.66429],[139.76584,35.66552],[139.76725,35.66661],[139.76739,35.66678],[139.76745,35.6673],[139.768,35.66684],[139.76771,35.66662]]]}},{"type":"Feature","properties":{"id":"area-13102008006","name":"築地六丁目"},"geometry":{"type":"Polygon","coordinates":[[[139.77309,35.66632],[139.77505,35.66451],[139.77493,35.66442],[139.77549,35.66393],[139.77384,35.66303],[139.77386,35.66301],[139.77341,35.6627],[139.77286,35.66219],[139.77278,35.66227],[139.77253,35.66212],[139.77021,35.66429],[139.77176,35.66543],[139.77183,35.66536],[139.77309,35.66632]]]}},{"type":"Feature","properties":{"id":"area-13102008007","name":"築地七丁目"},"geometry":{"type":"Polygon","coordinates":[[[139.77415,35.66707],[139.7744,35.66701],[139.77448,35.66706],[139.77485,35.66697],[139.77488,35.66702],[139.77508,35.66698],[139.77505,35.66689],[139.77589,35.66668],[139.77596,35.66671],[139.77762,35.66632],[139.77763,35.66629],[139.77665,35.6654],[139.77665,35.66533],[139.77712,35.66473],[139.77687,35.66462],[139.77688,35.66458],[139.77663,35.66449],[139.77549,35.66393],[139.77493,35.66442],[139.77505,35.66451],[139.77309,35.66632],[139.77415,35.66707]]]}},{"type":"Feature","properties":{"id":"area-131020090","name":"浜離宮庭園"},"geometry":{"type":"MultiPolygon","coordinates":[[[[139.76475,35.65638],[139.76427,35.65664],[139.76419,35.65654],[139.76413,35.65657],[139.76401,35.65642],[139.76406,35.65639],[139.76404,35.65637],[139.76383,35.65647],[139.76397,35.65646],[139.76407,35.65658],[139.76405,35.65661],[139.76413,35.6567],[139.76449,35.65696],[139.76458,35.65695],[139.76481,35.65711],[139.76477,35.65717],[139.76507,35.65739],[139.76546,35.65707],[139.76712,35.6583],[139.76713,35.6586],[139.76741,35.65881],[139.76752,35.65881],[139.76748,35.65854],[139.76744,35.65854],[139.76743,35.65835],[139.76475,35.65638]]],[[[139.76777,35.65854],[139.76766,35.65854],[139.76768,35.6588],[139.76782,35.65879],[139.76873,35.65946],[139.76885,35.65937],[139.76778,35.6586],[139.76777,35.65854]]],[[[139.76332,35.66309],[139.76435,35.6623],[139.76427,35.66219],[139.76433,35.66215],[139.76443,35.66225],[139.7677,35.6598],[139.76683,35.65918],[139.76627,35.65887],[139.76621,35.65891],[139.76616,35.65888],[139.76622,35.65884],[139.76304,35.65718],[139.75973,35.6591],[139.76306,35.66328],[139.76319,35.66319],[139.76323,35.66319],[139.76336,35.66331],[139.76346,35.66325],[139.76331,35.66313],[139.76332,35.66309]]]]}},{"type":"Feature","properties":{"id":"area-13102010001","name":"八丁堀一丁目"},"geometry":{"type":"Polygon","coordinates":[[[139.77539,35.67851],[139.77553,35.67846],[139.77555,35.6785],[139.77603,35.6783],[139.77939,35.67685],[139.77902,35.67641],[139.77831,35.6766],[139.77732,35.67696],[139.77473,35.67805],[139.7751,35.67869],[139.77542,35.67856],[139.77539,35.67851]]]}},{"type":"Feature","properties":{"id":"area-13102010002","name":"八丁堀二丁目"},"geometry":{"type":"Polygon","coordinates":[[[139.77907,35.6753],[139.7785,35.67513],[139.77734,35.67545],[139.77724,35.67545],[139.77564,35.67596],[139.77438,35.67643],[139.77386,35.67659],[139.77474,35.67803],[139.77732,35.67696],[139.77831,35.6766],[139.77902,35.67641],[139.77885,35.6762],[139.77944,35.67548],[139.77909,35.67534],[139.77907,35.6753]]]}},{"type":"Feature","properties":{"id":"area-13102010003","name":"八丁堀三丁目"},"geometry":{"type":"Polygon","coordinates":[[[139.77685,35.67557],[139.7785,35.67513],[139.77907,35.6753],[139.77909,35.67534],[139.77944,35.67548],[139.78017,35.6746],[139.77955,35.67457],[139.77859,35.67458],[139.7744,35.67466],[139.77338,35.67473],[139.7728,35.67498],[139.77384,35.67659],[139.77438,35.67643],[139.77564,35.67596],[139.77685,35.67557]]]}},{"type":"Feature","properties":{"id":"area-13102010004","name":"八丁堀四丁目"},"geometry":{"type":"Polygon","coordinates":[[[139.77528,35.67463],[139.77955,35.67457],[139.78017,35.6746],[139.78074,35.67382],[139.77425,35.67392],[139.77315,35.67399],[139.77308,35.67404],[139.77249,35.67405],[139.77247,35.67445],[139.77282,35.67497],[139.77338,35.67473],[139.77528,35.67463]]]}},{"type":"Feature","properties":{"id":"area-13102011001","name":"新川一丁目"},"geometry":{"type":"Polygon","coordinates":[[[139.78746,35.67644],[139.78734,35.67622],[139.78654,35.67639],[139.78657,35.67636],[139.78637,35.67562],[139.78646,35.67559],[139.78631,35.67495],[139.78625,35.67483],[139.78554,35.67395],[139.78317,35.67539],[139.78055,35.67735],[139.78009,35.67763],[139.78162,35.67917],[139.7816,35.67918],[139.7824,35.67994],[139.7834,35.67919],[139.78418,35.67869],[139.78664,35.67749],[139.7865,35.6773],[139.78674,35.67715],[139.78683,35.677],[139.78685,35.67684],[139.78675,35.6767],[139.7866,35.67662],[139.78746,35.67644]]]}},{"type":"Feature","properties":{"id":"area-13102011002","name":"新川二丁目"},"geometry":{"type":"Polygon","coordinates":[[[139.78554,35.67395],[139.78469,35.67294],[139.78461,35.67297],[139.78441,35.67278],[139.78422,35.67265],[139.78301,35.67194],[139.78284,35.67194],[139.78275,35.67198],[139.78213,35.67261],[139.78195,35.6726],[139.78189,35.67242],[139.78183,35.67241],[139.78176,35.67244],[139.7817,35.67254],[139.78156,35.67287],[139.78159,35.67288],[139.78146,35.673],[139.78137,35.67296],[139.78017,35.6746],[139.77885,35.6762],[139.78009,35.67766],[139.78055,35.67735],[139.78317,35.67539],[139.78554,35.67395]]]}},{"type":"Feature","properties":{"id":"area-13102012001","name":"日本橋本石町一丁目"},"geometry":{"type":"Polygon","coordinates":[[[139.77259,35.68585],[139.7731,35.68462],[139.77301,35.68428],[139.77091,35.68463],[139.77097,35.68484],[139.77092,35.68507],[139.77081,35.6853],[139.77124,35.68523],[139.77119,35.68543],[139.77259,35.68585]]]}},{"type":"Feature","properties":{"id":"area-13102012002","name":"日本橋本石町二丁目"},"geometry":{"type":"Polygon","coordinates":[[[139.77191,35.68752],[139.77259,35.68585],[139.77119,35.68543],[139.77124,35.68523],[139.77081,35.6853],[139.77045,35.6861],[139.77082,35.68621],[139.77038,35.68701],[139.77191,35.68752]]]}},{"type":"Feature","properties":{"id":"area-13102012003","name":"日本橋本石町三丁目"},"geometry":{"type":"Polygon","coordinates":[[[139.77082,35.68621],[139.77045,35.6861],[139.77027,35.68639],[139.76958,35.68722],[139.76999,35.6876],[139.76996,35.68764],[139.77163,35.6882],[139.77191,35.68752],[139.77038,35.68701],[139.77082,35.68621]]]}},{"type":"Feature","properties":{"id":"area-13102012004","name":"日本橋本石町四丁目"},"geometry":{"type":"Polygon","coordinates":[[[139.76999,35.6876],[139.76958,35.68722],[139.76907,35.68777],[139.76859,35.6882],[139.76841,35.68845],[139.76839,35.68854],[139.76813,35.6886],[139.76964,35.68912],[139.76965,35.68915],[139.77105,35.68957],[139.77163,35.6882],[139.76996,35.68764],[139.76999,35.6876]]]}},{"type":"Feature","properties":{"id":"area-13102013001","name":"日本橋室町一丁目"},"geometry":{"type":"Polygon","coordinates":[[[139.77539,35.68674],[139.77622,35.68478],[139.77687,35.68486],[139.77691,35.68431],[139.77548,35.68411],[139.77447,35.68405],[139.77301,35.68428],[139.7731,35.68462],[139.77259,35.68585],[139.77539,35.68674]]]}},{"type":"Feature","properties":{"id":"area-13102013002","name":"日本橋室町二丁目"},"geometry":{"type":"Polygon","coordinates":[[[139.77406,35.68776],[139.77423,35.68734],[139.77503,35.6876],[139.77539,35.68674],[139.77259,35.68585],[139.77207,35.68711],[139.77406,35.68776]]]}},{"type":"Feature","properties":{"id":"area-13102013003","name":"日本橋室町三丁目"},"geometry":{"type":"Polygon","coordinates":[[[139.77406,35.68776],[139.77207,35.68711],[139.77163,35.6882],[139.7736,35.68883],[139.77406,35.68776]]]}},{"type":"Feature","properties":{"id":"area-13102013004","name":"日本橋室町四丁目"},"geometry":{"type":"Polygon","coordinates":[[[139.77238,35.69002],[139.77249,35.68978],[139.77312,35.68998],[139.7736,35.68883],[139.77163,35.6882],[139.77105,35.68957],[139.77238,35.69002]]]}},{"type":"Feature","properties":{"id":"area-13102014001","name":"日本橋本町一丁目"},"geometry":{"type":"Polygon","coordinates":[[[139.77823,35.68493],[139.77827,35.6843],[139.77778,35.68437],[139.77691,35.68431],[139.77687,35.68486],[139.77622,35.68478],[139.77539,35.68674],[139.7772,35.68731],[139.77823,35.68493]]]}},{"type":"Feature","properties":{"id":"area-13102014002","name":"日本橋本町二丁目"},"geometry":{"type":"Polygon","coordinates":[[[139.7769,35.68804],[139.7772,35.68731],[139.77539,35.68674],[139.77503,35.6876],[139.77423,35.68734],[139.77406,35.68776],[139.77764,35.68893],[139.77788,35.68838],[139.7769,35.68804]]]}},{"type":"Feature","properties":{"id":"area-13102014003","name":"日本橋本町三丁目"},"geometry":{"type":"Polygon","coordinates":[[[139.7772,35.69003],[139.77764,35.68893],[139.77406,35.68776],[139.7736,35.68883],[139.77569,35.68949],[139.7772,35.69003]]]}},{"type":"Feature","properties":{"id":"area-13102014004","name":"日本橋本町四丁目"},"geometry":{"type":"Polygon","coordinates":[[[139.7772,35.69003],[139.77569,35.68949],[139.7736,35.68883],[139.77312,35.68998],[139.77249,35.68978],[139.77238,35.69002],[139.77312,35.69025],[139.77661,35.69145],[139.7772,35.69003]]]}},{"type":"Feature","properties":{"id":"area-131020150","name":"日本橋小舟町"},"geometry":{"type":"Polygon","coordinates":[[[139.77877,35.68749],[139.77929,35.68631],[139.77945,35.68635],[139.77992,35.68527],[139.77862,35.68493],[139.77821,35.68494],[139.7769,35.68804],[139.77847,35.68858],[139.77894,35.68754],[139.77877,35.68749]]]}},{"type":"Feature","properties":{"id":"area-131020160","name":"日本橋小伝馬町"},"geometry":{"type":"Polygon","coordinates":[[[139.78128,35.69177],[139.78112,35.69168],[139.78107,35.69174],[139.77887,35.69024],[139.7787,35.69041],[139.77736,35.68964],[139.77661,35.69145],[139.77877,35.69235],[139.77995,35.69319],[139.78029,35.69286],[139.78032,35.69279],[139.78128,35.69177]]]}},{"type":"Feature","properties":{"id":"area-131020170","name":"日本橋大伝馬町"},"geometry":{"type":"Polygon","coordinates":[[[139.78128,35.69177],[139.78241,35.69047],[139.78225,35.69038],[139.78199,35.69068],[139.78022,35.68959],[139.77996,35.68988],[139.77898,35.68925],[139.77776,35.68866],[139.77736,35.68964],[139.7787,35.69041],[139.77887,35.69024],[139.78107,35.69174],[139.78112,35.69168],[139.78128,35.69177]]]}},{"type":"Feature","properties":{"id":"area-13102018001","name":"日本橋堀留町一丁目"},"geometry":{"type":"Polygon","coordinates":[[[139.77948,35.68957],[139.78145,35.68729],[139.7803,35.68658],[139.77929,35.68631],[139.77877,35.68749],[139.77894,35.68754],[139.77847,35.68858],[139.77788,35.68838],[139.77776,35.68866],[139.77898,35.68925],[139.77948,35.68957]]]}},{"type":"Feature","properties":{"id":"area-13102018002","name":"日本橋堀留町二丁目"},"geometry":{"type":"Polygon","coordinates":[[[139.78081,35.68996],[139.78253,35.68799],[139.78145,35.68729],[139.77948,35.68957],[139.77996,35.68988],[139.78022,35.68959],[139.78081,35.68996]]]}},{"type":"Feature","properties":{"id":"area-131020190","name":"日本橋富沢町"},"geometry":{"type":"Polygon","coordinates":[[[139.78199,35.69068],[139.78225,35.69038],[139.78241,35.69047],[139.78295,35.68985],[139.78294,35.68982],[139.78323,35.68953],[139.78331,35.6895],[139.78382,35.68892],[139.78382,35.68878],[139.78465,35.6879],[139.78466,35.68787],[139.78337,35.68703],[139.78081,35.68996],[139.78199,35.69068]]]}},{"type":"Feature","properties":{"id":"area-13102020001","name":"日本橋人形町一丁目"},"geometry":{"type":"Polygon","coordinates":[[[139.78229,35.68632],[139.78451,35.68383],[139.7832,35.68318],[139.78217,35.68439],[139.78137,35.68395],[139.78065,35.68483],[139.78027,35.68537],[139.78179,35.68607],[139.78229,35.68632]]]}},{"type":"Feature","properties":{"id":"area-13102020002","name":"日本橋人形町二丁目"},"geometry":{"type":"Polygon","coordinates":[[[139.78703,35.68507],[139.78451,35.68383],[139.78229,35.68632],[139.78466,35.68787],[139.78477,35.68787],[139.78598,35.68666],[139.78703,35.68507]]]}},{"type":"Feature","properties":{"id":"area-13102020003","name":"日本橋人形町三丁目"},"geometry":{"type":"Polygon","coordinates":[[[139.78026,35.68537],[139.77992,35.68527],[139.77945,35.68635],[139.7803,35.68658],[139.78253,35.68799],[139.78337,35.68703],[139.78229,35.68632],[139.78179,35.68607],[139.78026,35.68537]]]}},{"type":"Feature","properties":{"id":"area-131020210","name":"日本橋小網町"},"geometry":{"type":"Polygon","coordinates":[[[139.78065,35.68483],[139.78137,35.68395],[139.78062,35.68356],[139.78115,35.68317],[139.78172,35.68247],[139.78178,35.6825],[139.78347,35.68053],[139.78262,35.68008],[139.78277,35.67996],[139.78252,35.67984],[139.78158,35.68057],[139.78041,35.68154],[139.78013,35.68182],[139.78002,35.68203],[139.77957,35.68341],[139.77825,35.6843],[139.77827,35.6843],[139.77823,35.68493],[139.77862,35.68493],[139.77955,35.68516],[139.78027,35.68537],[139.78065,35.68483]]]}},{"type":"Feature","properties":{"id":"area-13102022001","name":"日本橋蛎殻町一丁目"},"geometry":{"type":"Polygon","coordinates":[[[139.78217,35.68439],[139.7832,35.68318],[139.78451,35.68383],[139.78518,35.68309],[139.78634,35.68171],[139.78494,35.68112],[139.78399,35.68078],[139.78347,35.68053],[139.78178,35.6825],[139.78172,35.68247],[139.78115,35.68317],[139.78062,35.68356],[139.78217,35.68439]]]}},{"type":"Feature","properties":{"id":"area-13102022002","name":"日本橋蛎殻町二丁目"},"geometry":{"type":"Polygon","coordinates":[[[139.78734,35.68223],[139.78634,35.68171],[139.78518,35.68309],[139.78451,35.68383],[139.78703,35.68507],[139.78857,35.68304],[139.78851,35.683],[139.78862,35.68286],[139.78812,35.68257],[139.78734,35.68223]]]}},{"type":"Feature","properties":{"id":"area-131020230","name":"日本橋箱崎町"},"geometry":{"type":"Polygon","coordinates":[[[139.78787,35.67714],[139.78778,35.67692],[139.78418,35.67869],[139.7834,35.67919],[139.78252,35.67984],[139.78277,35.67996],[139.78262,35.68008],[139.78399,35.68078],[139.78494,35.68112],[139.78634,35.68171],[139.78734,35.68223],[139.78812,35.68257],[139.7887,35.68291],[139.78904,35.68272],[139.78908,35.68262],[139.78991,35.68196],[139.79014,35.68188],[139.78993,35.68164],[139.79069,35.68103],[139.79045,35.68076],[139.78968,35.67974],[139.78787,35.67714]]]}},{"type":"Feature","properties":{"id":"area-13102024001","name":"日本橋馬喰町一丁目"},"geometry":{"type":"Polygon","coordinates":[[[139.78238,35.69263],[139.78121,35.69185],[139.78032,35.69279],[139.78029,35.69286],[139.78281,35.69469],[139.78287,35.6951],[139.78502,35.69481],[139.78238,35.69263]]]}},{"type":"Feature","properties":{"id":"area-13102024002","name":"日本橋馬喰町二丁目"},"geometry":{"type":"Polygon","coordinates":[[[139.78312,35.6966],[139.7854,35.69586],[139.78522,35.69552],[139.78534,35.69539],[139.78528,35.69501],[139.78502,35.69481],[139.78287,35.6951],[139.78288,35.69514],[139.78166,35.69523],[139.78175,35.6963],[139.78268,35.69618],[139.78273,35.69664],[139.78312,35.6966]]]}},{"type":"Feature","properties":{"id":"area-131020250","name":"日本橋横山町"},"geometry":{"type":"Polygon","coordinates":[[[139.78527,35.69478],[139.78501,35.69316],[139.78436,35.69323],[139.78433,35.693],[139.78295,35.69194],[139.78183,35.69116],[139.78121,35.69185],[139.78238,35.69263],[139.78502,35.69481],[139.78527,35.69478]]]}},{"type":"Feature","properties":{"id":"area-13102026001","name":"東日本橋一丁目"},"geometry":{"type":"Polygon","coordinates":[[[139.78882,35.69202],[139.78696,35.69093],[139.78513,35.68972],[139.78444,35.69079],[139.78874,35.6938],[139.78872,35.69292],[139.78882,35.69202]]]}},{"type":"Feature","properties":{"id":"area-13102026002","name":"東日本橋二丁目"},"geometry":{"type":"Polygon","coordinates":[[[139.78874,35.6938],[139.78469,35.69096],[139.78527,35.69478],[139.78502,35.69481],[139.78528,35.69501],[139.78534,35.69539],[139.78522,35.69552],[139.7854,35.69586],[139.78744,35.69521],[139.78895,35.69478],[139.78881,35.69431],[139.78874,35.6938]]]}},{"type":"Feature","properties":{"id":"area-13102026003","name":"東日本橋三丁目"},"geometry":{"type":"Polygon","coordinates":[[[139.78469,35.69096],[139.78295,35.68985],[139.78183,35.69116],[139.78295,35.69194],[139.78433,35.693],[139.78436,35.69323],[139.78501,35.69316],[139.78469,35.69096]]]}},{"type":"Feature","properties":{"id":"area-131020270","name":"日本橋久松町"},"geometry":{"type":"Polygon","coordinates":[[[139.78581,35.68865],[139.78465,35.6879],[139.78382,35.68878],[139.78382,35.68892],[139.78331,35.6895],[139.78323,35.68953],[139.78294,35.68982],[139.78444,35.69079],[139.78581,35.68865]]]}},{"type":"Feature","properties":{"id":"area-13102028001","name":"日本橋浜町一丁目"},"geometry":{"type":"Polygon","coordinates":[[[139.78882,35.69202],[139.78903,35.69116],[139.78917,35.69084],[139.78582,35.68867],[139.78513,35.68972],[139.78696,35.69093],[139.78882,35.69202]]]}},{"type":"Feature","properties":{"id":"area-13102028002","name":"日本橋浜町二丁目"},"geometry":{"type":"Polygon","coordinates":[[[139.79032,35.68931],[139.79208,35.68746],[139.78702,35.68508],[139.78598,35.68666],[139.78477,35.68787],[139.78466,35.68787],[139.78465,35.6879],[139.78917,35.69084],[139.78948,35.69034],[139.79032,35.68931]]]}},{"type":"Feature","properties":{"id":"area-13102028003","name":"日本橋浜町三丁目"},"geometry":{"type":"Polygon","coordinates":[[[139.79311,35.68607],[139.78895,35.6829],[139.78876,35.68294],[139.78862,35.68286],[139.78851,35.683],[139.78857,35.68304],[139.78702,35.68508],[139.79208,35.68746],[139.79258,35.68682],[139.79311,35.68607]]]}},{"type":"Feature","properties":{"id":"area-131020290","name":"日本橋中洲"},"geometry":{"type":"Polygon","coordinates":[[[139.79261,35.68326],[139.79231,35.68284],[139.79067,35.68105],[139.78993,35.68164],[139.79014,35.68188],[139.78991,35.68196],[139.78908,35.68262],[139.78904,35.68272],[139.7887,35.68291],[139.78876,35.68294],[139.78895,35.6829],[139.79084,35.68431],[139.79182,35.68511],[139.79311,35.68607],[139.79318,35.68585],[139.7932,35.68565],[139.79318,35.68509],[139.79303,35.68441],[139.79278,35.68358],[139.79261,35.68326]]]}},{"type":"Feature","properties":{"id":"area-13102031001","name":"日本橋一丁目"},"geometry":{"type":"Polygon","coordinates":[[[139.77825,35.6843],[139.77866,35.68402],[139.7784,35.68364],[139.77816,35.6838],[139.77804,35.68342],[139.77671,35.68134],[139.7724,35.68305],[139.77288,35.68381],[139.77301,35.68428],[139.77447,35.68405],[139.77548,35.68411],[139.77736,35.68436],[139.77778,35.68437],[139.77825,35.6843]]]}},{"type":"Feature","properties":{"id":"area-13102031002","name":"日本橋二丁目"},"geometry":{"type":"Polygon","coordinates":[[[139.7756,35.67949],[139.77257,35.68073],[139.77259,35.68077],[139.77131,35.68128],[139.7724,35.68305],[139.77371,35.68255],[139.77673,35.68133],[139.7756,35.67949]]]}},{"type":"Feature","properties":{"id":"area-13102031003","name":"日本橋三丁目"},"geometry":{"type":"Polygon","coordinates":[[[139.77257,35.68073],[139.7756,35.67949],[139.77473,35.67805],[139.77371,35.67843],[139.7737,35.67846],[139.7704,35.67982],[139.77131,35.68128],[139.77259,35.68077],[139.77257,35.68073]]]}},{"type":"Feature","properties":{"id":"area-13102032001","name":"日本橋茅場町一丁目"},"geometry":{"type":"Polygon","coordinates":[[[139.7824,35.67994],[139.7816,35.67918],[139.78129,35.67935],[139.78097,35.67906],[139.77795,35.68029],[139.77859,35.68127],[139.77887,35.68161],[139.7794,35.6821],[139.77968,35.68221],[139.77994,35.68225],[139.78013,35.68182],[139.78041,35.68154],[139.78158,35.68057],[139.7824,35.67994]]]}},{"type":"Feature","properties":{"id":"area-13102032002","name":"日本橋茅場町二丁目"},"geometry":{"type":"Polygon","coordinates":[[[139.77795,35.68029],[139.78097,35.67906],[139.78129,35.67935],[139.78162,35.67917],[139.78009,35.67763],[139.78009,35.67766],[139.77955,35.67792],[139.77707,35.67892],[139.77795,35.68029]]]}},{"type":"Feature","properties":{"id":"area-13102032003","name":"日本橋茅場町三丁目"},"geometry":{"type":"Polygon","coordinates":[[[139.7794,35.67685],[139.77655,35.67807],[139.77707,35.67892],[139.77955,35.67792],[139.78009,35.67766],[139.7794,35.67685]]]}},{"type":"Feature","properties":{"id":"area-131020330","name":"日本橋兜町"},"geometry":{"type":"Polygon","coordinates":[[[139.77866,35.68404],[139.77957,35.68341],[139.77995,35.68227],[139.77968,35.68221],[139.7794,35.6821],[139.77887,35.68161],[139.77859,35.68127],[139.77655,35.67808],[139.77555,35.6785],[139.77553,35.67846],[139.77539,35.67851],[139.77542,35.67856],[139.77512,35.67868],[139.77673,35.68133],[139.77671,35.68134],[139.77804,35.68342],[139.77816,35.6838],[139.7784,35.68364],[139.77866,35.68404]]]}},{"type":"Feature","properties":{"id":"area-13102034001","name":"佃一丁目"},"geometry":{"type":"Polygon","coordinates":[[[139.78426,35.66769],[139.78345,35.66612],[139.78306,35.66627],[139.78296,35.66609],[139.78184,35.66712],[139.78191,35.66723],[139.78193,35.66738],[139.78237,35.66839],[139.78238,35.66863],[139.78237,35.66865],[139.78228,35.66866],[139.78228,35.66883],[139.7827,35.66979],[139.78284,35.66996],[139.78302,35.67009],[139.78415,35.67076],[139.7846,35.67098],[139.78516,35.66886],[139.78382,35.66861],[139.78401,35.66784],[139.78426,35.66769]]]}},{"type":"Feature","properties":{"id":"area-13102034002","name":"佃二丁目"},"geometry":{"type":"Polygon","coordinates":[[[139.78645,35.67091],[139.78685,35.66999],[139.78697,35.67001],[139.787,35.66994],[139.78689,35.66992],[139.78694,35.66974],[139.7872,35.66979],[139.78722,35.6697],[139.78724,35.66962],[139.78701,35.66957],[139.78707,35.66925],[139.78717,35.66923],[139.78709,35.66913],[139.78744,35.66738],[139.78744,35.66728],[139.78737,35.66726],[139.7875,35.66641],[139.78569,35.66507],[139.78558,35.66498],[139.78562,35.66495],[139.7854,35.66478],[139.78531,35.66478],[139.7848,35.66441],[139.78296,35.66609],[139.78306,35.66627],[139.78345,35.66612],[139.78426,35.66769],[139.78401,35.66784],[139.78382,35.66861],[139.78516,35.66886],[139.7846,35.67098],[139.78606,35.67169],[139.7861,35.67164],[139.78606,35.67161],[139.78645,35.67091]]]}},{"type":"Feature","properties":{"id":"area-13102034003","name":"佃三丁目"},"geometry":{"type":"Polygon","coordinates":[[[139.7875,35.66346],[139.78753,35.66287],[139.78745,35.66282],[139.78744,35.66273],[139.78733,35.66265],[139.78744,35.66254],[139.78738,35.6625],[139.78728,35.6626],[139.78719,35.66257],[139.78654,35.66321],[139.78631,35.66304],[139.7848,35.66441],[139.78531,35.66478],[139.7854,35.66478],[139.78562,35.66495],[139.78558,35.66498],[139.78569,35.66507],[139.7875,35.66641],[139.78753,35.66632],[139.78767,35.6663],[139.7877,35.66623],[139.78761,35.66526],[139.78745,35.66426],[139.7875,35.6635],[139.78745,35.6635],[139.7875,35.66346]]]}},{"type":"Feature","properties":{"id":"area-13102035001","name":"月島一丁目"},"geometry":{"type":"Polygon","coordinates":[[[139.78481,35.6644],[139.78241,35.66269],[139.78013,35.66479],[139.78175,35.66651],[139.78184,35.66712],[139.78481,35.6644]]]}},{"type":"Feature","properties":{"id":"area-13102035002","name":"月島二丁目"},"geometry":{"type":"Polygon","coordinates":[[[139.78444,35.6609],[139.78432,35.66089],[139.78241,35.66269],[139.78481,35.6644],[139.78631,35.66304],[139.78596,35.66271],[139.78568,35.66232],[139.78519,35.66176],[139.78501,35.66161],[139.78454,35.66108],[139.78447,35.66103],[139.78453,35.66097],[139.78444,35.6609]]]}},{"type":"Feature","properties":{"id":"area-13102035003","name":"月島三丁目"},"geometry":{"type":"Polygon","coordinates":[[[139.78241,35.66269],[139.77897,35.66026],[139.77692,35.66222],[139.77934,35.66395],[139.78013,35.66479],[139.78241,35.66269]]]}},{"type":"Feature","properties":{"id":"area-13102035004","name":"月島四丁目"},"geometry":{"type":"Polygon","coordinates":[[[139.78432,35.66089],[139.78422,35.66083],[139.78419,35.66085],[139.78223,35.65957],[139.78199,35.65928],[139.78179,35.65928],[139.78095,35.65874],[139.78073,35.65854],[139.77897,35.66026],[139.78241,35.66269],[139.78432,35.66089]]]}},{"type":"Feature","properties":{"id":"area-13102036001","name":"勝どき一丁目"},"geometry":{"type":"Polygon","coordinates":[[[139.77898,35.66025],[139.77658,35.65859],[139.77455,35.66059],[139.77692,35.66222],[139.77898,35.66025]]]}},{"type":"Feature","properties":{"id":"area-13102036002","name":"勝どき二丁目"},"geometry":{"type":"Polygon","coordinates":[[[139.78073,35.65854],[139.77829,35.6569],[139.77658,35.65859],[139.77898,35.66025],[139.78073,35.65854]]]}},{"type":"Feature","properties":{"id":"area-13102036003","name":"勝どき三丁目"},"geometry":{"type":"Polygon","coordinates":[[[139.77658,35.65859],[139.77414,35.65692],[139.77213,35.65894],[139.77455,35.66059],[139.77658,35.65859]]]}},{"type":"Feature","properties":{"id":"area-13102036004","name":"勝どき四丁目"},"geometry":{"type":"Polygon","coordinates":[[[139.77829,35.6569],[139.77581,35.6552],[139.77414,35.65692],[139.77658,35.65859],[139.77829,35.6569]]]}},{"type":"Feature","properties":{"id":"area-13102036005","name":"勝どき五丁目"},"geometry":{"type":"Polygon","coordinates":[[[139.77213,35.65894],[139.77414,35.65692],[139.77093,35.65474],[139.77064,35.65495],[139.76888,35.65671],[139.76945,35.65709],[139.76929,35.65722],[139.76943,35.65731],[139.76946,35.65727],[139.76937,35.65721],[139.76947,35.65711],[139.77045,35.65777],[139.77031,35.65791],[139.77017,35.65782],[139.77015,35.65786],[139.77032,35.65798],[139.77033,35.65793],[139.77048,35.65779],[139.77106,35.6582],[139.77094,35.65833],[139.7708,35.65823],[139.77076,35.65827],[139.77105,35.65845],[139.77109,35.65842],[139.77095,35.65833],[139.77107,35.65822],[139.7717,35.65863],[139.77159,35.65874],[139.77153,35.6587],[139.77149,35.65874],[139.77163,35.65883],[139.77165,35.6588],[139.7716,35.65876],[139.77173,35.65864],[139.77213,35.65894]]]}},{"type":"Feature","properties":{"id":"area-13102036006","name":"勝どき六丁目"},"geometry":{"type":"Polygon","coordinates":[[[139.7755,35.65472],[139.7753,35.65459],[139.77517,35.6547],[139.77316,35.65332],[139.77303,35.65332],[139.77216,35.6542],[139.77176,35.65393],[139.77093,35.65474],[139.77414,35.65692],[139.77581,35.6552],[139.77534,35.65488],[139.7755,35.65472]]]}},{"type":"Feature","properties":{"id":"area-131020370","name":"豊海町"},"geometry":{"type":"Polygon","coordinates":[[[139.7681,35.6558],[139.76964,35.65427],[139.77064,35.65495],[139.77093,35.65474],[139.77176,35.65393],[139.77216,35.6542],[139.77303,35.65332],[139.77176,35.65245],[139.77163,35.65258],[139.76836,35.65035],[139.76764,35.65106],[139.76734,35.65105],[139.76709,35.6534],[139.7674,35.65342],[139.76722,35.65522],[139.7681,35.6558]]]}},{"type":"Feature","properties":{"id":"area-13102038001","name":"晴海一丁目"},"geometry":{"type":"Polygon","coordinates":[[[139.78765,35.66248],[139.78774,35.66241],[139.7878,35.66246],[139.78809,35.6622],[139.78851,35.65895],[139.78842,35.65894],[139.78839,35.65873],[139.78663,35.65859],[139.78175,35.6553],[139.78003,35.65697],[139.78033,35.65717],[139.78029,35.65724],[139.78056,35.65742],[139.78062,35.65737],[139.78724,35.66186],[139.78722,35.66189],[139.78757,35.66214],[139.78748,35.66226],[139.7875,35.66229],[139.78744,35.66235],[139.78765,35.66248]]]}},{"type":"Feature","properties":{"id":"area-13102038002","name":"晴海二丁目"},"geometry":{"type":"Polygon","coordinates":[[[139.78859,35.65657],[139.78814,35.65637],[139.78806,35.65645],[139.78779,35.65627],[139.78788,35.65619],[139.7878,35.65614],[139.78772,35.65623],[139.78722,35.65588],[139.78727,35.65583],[139.78365,35.65338],[139.78175,35.6553],[139.78663,35.65859],[139.78839,35.65873],[139.7884,35.65839],[139.78859,35.65681],[139.78856,35.65679],[139.78856,35.65665],[139.78849,35.6566],[139.78859,35.65657]]]}},{"type":"Feature","properties":{"id":"area-13102038003","name":"晴海三丁目"},"geometry":{"type":"Polygon","coordinates":[[[139.78174,35.65529],[139.77784,35.65265],[139.77612,35.65434],[139.78004,35.65697],[139.78174,35.65529]]]}},{"type":"Feature","properties":{"id":"area-13102038004","name":"晴海四丁目"},"geometry":{"type":"Polygon","coordinates":[[[139.78365,35.65339],[139.77978,35.65077],[139.77784,35.65265],[139.78175,35.6553],[139.78365,35.65339]]]}},{"type":"Feature","properties":{"id":"area-13102038005","name":"晴海五丁目"},"geometry":{"type":"Polygon","coordinates":[[[139.77583,35.65441],[139.77599,35.65426],[139.77612,35.65434],[139.77879,35.6517],[139.77978,35.65077],[139.77274,35.64604],[139.77194,35.64682],[139.7718,35.64673],[139.77199,35.64654],[139.77191,35.6465],[139.7715,35.64691],[139.77157,35.64696],[139.77175,35.64678],[139.77189,35.64687],[139.77105,35.64771],[139.7709,35.64761],[139.77108,35.64744],[139.77101,35.64739],[139.7706,35.6478],[139.77067,35.64785],[139.77085,35.64767],[139.77099,35.64777],[139.77013,35.64861],[139.77,35.64852],[139.76997,35.64847],[139.77012,35.64834],[139.77005,35.64835],[139.76973,35.64867],[139.76977,35.64869],[139.7699,35.64855],[139.77009,35.64865],[139.76948,35.64926],[139.76975,35.64944],[139.76956,35.6496],[139.76964,35.64965],[139.76979,35.64947],[139.77276,35.65147],[139.77241,35.65182],[139.77492,35.65353],[139.77486,35.65359],[139.77506,35.65372],[139.77512,35.65366],[139.77578,35.65411],[139.77562,35.65427],[139.77583,35.65441]]]}}]}