{"type":"FeatureCollection","features":[{"type":"Feature","properties":{"id":"area-13101001001","name":"丸の内一丁目"},"geometry":{"type":"Polygon","coordinates":[[[139.761,35.68572],[139.77052,35.68365],[139.77054,35.68369],[139.7706,35.68367],[139.77056,35.68353],[139.77065,35.68342],[139.77021,35.68253],[139.77012,35.68255],[139.7701,35.68251],[139.77017,35.68246],[139.76979,35.68185],[139.76968,35.68193],[139.7696,35.68178],[139.76967,35.68174],[139.76943,35.68146],[139.76906,35.68091],[139.76724,35.67808],[139.76726,35.67807],[139.76702,35.6777],[139.76699,35.67771],[139.76688,35.67756],[139.76687,35.67747],[139.76679,35.67744],[139.76664,35.67723],[139.76492,35.67761],[139.7656,35.67939],[139.76556,35.6795],[139.76466,35.68091],[139.76451,35.68121],[139.7645,35.68156],[139.76453,35.68164],[139.76213,35.6822],[139.76257,35.68356],[139.7627,35.68413],[139.76025,35.68446],[139.76054,35.68532],[139.76082,35.68528],[139.76093,35.68566],[139.76098,35.68565],[139.761,35.68572]]]}},{"type":"Feature","properties":{"id":"area-13101001002","name":"丸の内二丁目"},"geometry":{"type":"Polygon","coordinates":[[[139.7656,35.67939],[139.76492,35.67761],[139.76086,35.67852],[139.76213,35.6822],[139.76453,35.68164],[139.7645,35.68156],[139.76451,35.68121],[139.76466,35.68091],[139.76556,35.6795],[139.7656,35.67939]]]}},{"type":"Feature","properties":{"id":"area-13101001003","name":"丸の内三丁目"},"geometry":{"type":"Polygon","coordinates":[[[139.76575,35.67596],[139.76524,35.67522],[139.76157,35.67611],[139.7601,35.67641],[139.76086,35.67852],[139.76664,35.67723],[139.76581,35.67598],[139.76575,35.67596]]]}},{"type":"Feature","properties":{"id":"area-13101002001","name":"大手町一丁目"},"geometry":{"type":"Polygon","coordinates":[[[139.76053,35.69127],[139.76082,35.69123],[139.76121,35.69104],[139.76158,35.69074],[139.76185,35.69047],[139.76205,35.69038],[139.76281,35.6902],[139.76315,35.69007],[139.76374,35.68955],[139.7642,35.68927],[139.76675,35.68883],[139.76647,35.68777],[139.76608,35.68598],[139.76573,35.68468],[139.761,35.68572],[139.76141,35.68723],[139.76069,35.68918],[139.76066,35.68922],[139.76,35.68934],[139.75992,35.68981],[139.75977,35.68994],[139.75883,35.69015],[139.75893,35.69127],[139.76053,35.69127]]]}},{"type":"Feature","properties":{"id":"area-13101002002","name":"大手町二丁目"},"geometry":{"type":"Polygon","coordinates":[[[139.771,35.68433],[139.77081,35.68379],[139.77065,35.68383],[139.7706,35.68367],[139.77054,35.68369],[139.77052,35.68365],[139.76573,35.68468],[139.76608,35.68598],[139.76647,35.68777],[139.76675,35.68883],[139.7667,35.68885],[139.76839,35.68854],[139.76841,35.68845],[139.76859,35.6882],[139.76907,35.68777],[139.76952,35.68729],[139.77027,35.68639],[139.77043,35.68614],[139.77092,35.68507],[139.77097,35.68484],[139.77086,35.68437],[139.771,35.68433]]]}},{"type":"Feature","properties":{"id":"area-13101003001","name":"内幸町一丁目"},"geometry":{"type":"Polygon","coordinates":[[[139.75867,35.66897],[139.75853,35.66857],[139.75582,35.66948],[139.75546,35.66956],[139.75756,35.67302],[139.75764,35.67308],[139.7604,35.67208],[139.75867,35.66897]]]}},{"type":"Feature","properties":{"id":"area-13101003002","name":"内幸町二丁目"},"geometry":{"type":"Polygon","coordinates":[[[139.75616,35.67072],[139.75546,35.66956],[139.75328,35.67029],[139.75229,35.67058],[139.75204,35.67062],[139.7529,35.67206],[139.75616,35.67072]]]}},{"type":"Feature","properties":{"id":"area-13101004001","name":"有楽町一丁目"},"geometry":{"type":"Polygon","coordinates":[[[139.7604,35.67282],[139.76004,35.67219],[139.75764,35.67308],[139.7596,35.67499],[139.75979,35.67566],[139.7601,35.67641],[139.76157,35.67611],[139.76366,35.6756],[139.76231,35.67459],[139.76096,35.67344],[139.76058,35.67305],[139.7604,35.67282]]]}},{"type":"Feature","properties":{"id":"area-13101004002","name":"有楽町二丁目"},"geometry":{"type":"Polygon","coordinates":[[[139.76067,35.67239],[139.7604,35.67208],[139.76004,35.67219],[139.7604,35.67282],[139.76058,35.67305],[139.76096,35.67344],[139.76231,35.67459],[139.76366,35.6756],[139.76524,35.67522],[139.76416,35.67364],[139.76393,35.67339],[139.76354,35.67322],[139.76268,35.67297],[139.76091,35.67253],[139.76067,35.67239]]]}},{"type":"Feature","properties":{"id":"area-13101005001","name":"霞が関一丁目"},"geometry":{"type":"Polygon","coordinates":[[[139.7518,35.67015],[139.74963,35.67088],[139.74979,35.67124],[139.75039,35.67293],[139.75148,35.6746],[139.75351,35.67789],[139.75589,35.67687],[139.75289,35.6721],[139.7529,35.67206],[139.75204,35.67062],[139.7518,35.67015]]]}},{"type":"Feature","properties":{"id":"area-13101005002","name":"霞が関二丁目"},"geometry":{"type":"Polygon","coordinates":[[[139.75351,35.67789],[139.75148,35.6746],[139.75053,35.67315],[139.74781,35.6743],[139.74891,35.67616],[139.7493,35.67677],[139.74968,35.67747],[139.7507,35.67736],[139.75136,35.67742],[139.7529,35.67788],[139.75323,35.67804],[139.75351,35.67789]]]}},{"type":"Feature","properties":{"id":"area-13101005003","name":"霞が関三丁目"},"geometry":{"type":"Polygon","coordinates":[[[139.74989,35.6715],[139.74963,35.67088],[139.74942,35.67094],[139.74754,35.66953],[139.74643,35.67028],[139.74495,35.67058],[139.74503,35.67095],[139.74318,35.67135],[139.74315,35.67132],[139.74306,35.67137],[139.74328,35.67157],[139.74374,35.67183],[139.74437,35.67202],[139.74554,35.67224],[139.74579,35.67232],[139.74626,35.6726],[139.74738,35.67366],[139.74781,35.6743],[139.75053,35.67315],[139.75039,35.67293],[139.74989,35.6715]]]}},{"type":"Feature","properties":{"id":"area-13101006001","name":"永田町一丁目"},"geometry":{"type":"Polygon","coordinates":[[[139.74726,35.67953],[139.74776,35.67916],[139.74837,35.67855],[139.74861,35.67819],[139.74921,35.67764],[139.74956,35.67749],[139.74968,35.67747],[139.7493,35.67677],[139.74891,35.67616],[139.74781,35.6743],[139.74738,35.67366],[139.74634,35.67265],[139.74599,35.67243],[139.74579,35.67232],[139.74554,35.67224],[139.74473,35.67209],[139.74441,35.67294],[139.74436,35.67323],[139.74315,35.6776],[139.74193,35.67763],[139.74148,35.67784],[139.74013,35.6788],[139.74313,35.67934],[139.74314,35.67933],[139.74614,35.67989],[139.747,35.67964],[139.74726,35.67953]]]}},{"type":"Feature","properties":{"id":"area-13101006002","name":"永田町二丁目"},"geometry":{"type":"Polygon","coordinates":[[[139.74328,35.67157],[139.74306,35.67137],[139.73912,35.67373],[139.73883,35.67386],[139.73821,35.67544],[139.73752,35.67628],[139.73727,35.6767],[139.73716,35.67718],[139.737,35.67768],[139.73704,35.67788],[139.73713,35.67809],[139.73697,35.67847],[139.737,35.67849],[139.73939,35.67868],[139.74013,35.6788],[139.74148,35.67784],[139.74193,35.67763],[139.74315,35.6776],[139.74436,35.67323],[139.74441,35.67294],[139.74473,35.67209],[139.74437,35.67202],[139.74374,35.67183],[139.74328,35.67157]]]}},{"type":"Feature","properties":{"id":"area-131010070","name":"隼町"},"geometry":{"type":"Polygon","coordinates":[[[139.74614,35.67989],[139.74314,35.67933],[139.74301,35.67948],[139.74291,35.67956],[139.7421,35.67993],[139.74189,35.6802],[139.7418,35.68276],[139.74167,35.68341],[139.74439,35.68312],[139.74448,35.68265],[139.74459,35.68231],[139.74596,35.68],[139.74614,35.67989]]]}},{"type":"Feature","properties":{"id":"area-13101008001","name":"平河町一丁目"},"geometry":{"type":"Polygon","coordinates":[[[139.7418,35.68276],[139.74185,35.68179],[139.74133,35.6818],[139.74038,35.68223],[139.73823,35.68226],[139.7382,35.68296],[139.73927,35.68309],[139.74105,35.68338],[139.74167,35.68341],[139.7418,35.68276]]]}},{"type":"Feature","properties":{"id":"area-13101008002","name":"平河町二丁目"},"geometry":{"type":"Polygon","coordinates":[[[139.73823,35.68226],[139.74038,35.68223],[139.74133,35.6818],[139.74185,35.68179],[139.74189,35.6802],[139.7421,35.67993],[139.74291,35.67956],[139.74301,35.67948],[139.74313,35.67934],[139.73975,35.67873],[139.73852,35.67861],[139.73833,35.68018],[139.73823,35.68226]]]}},{"type":"Feature","properties":{"id":"area-13101009001","name":"麹町一丁目"},"geometry":{"type":"Polygon","coordinates":[[[139.74295,35.68538],[139.74484,35.6852],[139.74464,35.68414],[139.74464,35.68378],[139.74436,35.68381],[139.74431,35.68357],[139.74439,35.68312],[139.74167,35.68341],[139.74151,35.68422],[139.74147,35.68422],[139.74164,35.68572],[139.74297,35.68553],[139.74295,35.68538]]]}},{"type":"Feature","properties":{"id":"area-13101009002","name":"麹町二丁目"},"geometry":{"type":"Polygon","coordinates":[[[139.74151,35.68422],[139.74167,35.68341],[139.74127,35.68341],[139.74029,35.68326],[139.74012,35.68416],[139.73955,35.68412],[139.73919,35.68573],[139.74024,35.68579],[139.74164,35.68568],[139.74147,35.68422],[139.74151,35.68422]]]}},{"type":"Feature","properties":{"id":"area-13101009003","name":"麹町三丁目"},"geometry":{"type":"Polygon","coordinates":[[[139.73919,35.68573],[139.73955,35.68412],[139.74012,35.68416],[139.74029,35.68326],[139.7382,35.68296],[139.73815,35.68393],[139.73773,35.68391],[139.73726,35.68495],[139.73806,35.68516],[139.73895,35.68609],[139.73919,35.68573]]]}},{"type":"Feature","properties":{"id":"area-13101009004","name":"麹町四丁目"},"geometry":{"type":"Polygon","coordinates":[[[139.73726,35.68497],[139.73773,35.68391],[139.73815,35.68393],[139.7382,35.68296],[139.73691,35.68291],[139.73662,35.68295],[139.73642,35.6829],[139.73616,35.68276],[139.73579,35.68249],[139.73561,35.68241],[139.73524,35.68232],[139.73523,35.68263],[139.73536,35.68361],[139.7352,35.68364],[139.73527,35.68401],[139.73509,35.68403],[139.73513,35.68458],[139.73578,35.68467],[139.73581,35.68461],[139.73726,35.68497]]]}},{"type":"Feature","properties":{"id":"area-13101009005","name":"麹町五丁目"},"geometry":{"type":"Polygon","coordinates":[[[139.73391,35.68513],[139.73449,35.68484],[139.73499,35.68487],[139.73514,35.68456],[139.73509,35.68403],[139.73527,35.68401],[139.7352,35.68364],[139.73536,35.68361],[139.73523,35.68263],[139.73524,35.68232],[139.73487,35.68225],[139.7345,35.68226],[139.73357,35.68304],[139.73305,35.68434],[139.7333,35.68473],[139.73346,35.68465],[139.73391,35.68513]]]}},{"type":"Feature","properties":{"id":"area-13101009006","name":"麹町六丁目"},"geometry":{"type":"Polygon","coordinates":[[[139.73047,35.68635],[139.73126,35.68603],[139.73137,35.68618],[139.73242,35.68567],[139.73342,35.68627],[139.73376,35.68573],[139.73349,35.68555],[139.73391,35.68513],[139.73346,35.68465],[139.7333,35.68473],[139.73305,35.68434],[139.73302,35.68442],[139.73218,35.68414],[139.73036,35.68344],[139.72989,35.68454],[139.72996,35.68467],[139.73025,35.68459],[139.73037,35.68485],[139.73009,35.68493],[139.73016,35.68514],[139.73018,35.68538],[139.73036,35.68596],[139.73031,35.68597],[139.7304,35.68625],[139.73044,35.68625],[139.73047,35.68635]]]}},{"type":"Feature","properties":{"id":"area-131010100","name":"紀尾井町"},"geometry":{"type":"Polygon","coordinates":[[[139.7345,35.68226],[139.73487,35.68225],[139.73561,35.68241],[139.73579,35.68249],[139.73616,35.68276],[139.73642,35.6829],[139.73662,35.68295],[139.73691,35.68291],[139.7382,35.68296],[139.73833,35.68018],[139.73852,35.67861],[139.737,35.67849],[139.73691,35.6787],[139.7369,35.67887],[139.73535,35.67879],[139.73474,35.67881],[139.73405,35.6789],[139.73364,35.67899],[139.73346,35.67908],[139.73331,35.67924],[139.73288,35.68025],[139.73269,35.68054],[139.73153,35.68155],[139.7315,35.68154],[139.73131,35.68172],[139.73112,35.68198],[139.73036,35.68344],[139.73218,35.68414],[139.73302,35.68442],[139.73357,35.68304],[139.7345,35.68226]]]}},{"type":"Feature","properties":{"id":"area-131010110","name":"一番町"},"geometry":{"type":"Polygon","coordinates":[[[139.74277,35.6895],[139.74226,35.68824],[139.7448,35.68893],[139.74519,35.68902],[139.74538,35.68902],[139.74516,35.68813],[139.74544,35.68808],[139.74533,35.68732],[139.74534,35.68715],[139.74508,35.68601],[139.74484,35.6852],[139.74295,35.68538],[139.74297,35.68553],[139.74164,35.68572],[139.74164,35.68568],[139.74024,35.68579],[139.73919,35.68573],[139.73895,35.68609],[139.73891,35.68605],[139.73843,35.68684],[139.73787,35.68788],[139.73874,35.68822],[139.741,35.68902],[139.74277,35.6895]]]}},{"type":"Feature","properties":{"id":"area-131010120","name":"皇居外苑"},"geometry":{"type":"Polygon","coordinates":[[[139.7627,35.68413],[139.76257,35.68356],[139.76213,35.6822],[139.76086,35.67852],[139.7601,35.67641],[139.75979,35.67566],[139.75963,35.67504],[139.75935,35.6753],[139.75588,35.67673],[139.75597,35.67685],[139.75351,35.67789],[139.75323,35.67804],[139.75359,35.67856],[139.75337,35.67865],[139.75343,35.67876],[139.75351,35.67873],[139.7536,35.67883],[139.75396,35.67871],[139.75397,35.67873],[139.75412,35.67868],[139.75411,35.67865],[139.75479,35.6784],[139.75554,35.67984],[139.75468,35.68018],[139.75527,35.68194],[139.75613,35.68181],[139.75643,35.68274],[139.7577,35.6825],[139.75815,35.68355],[139.75979,35.68318],[139.76025,35.68446],[139.7627,35.68413]]]}},{"type":"Feature","properties":{"id":"area-131010130","name":"日比谷公園"},"geometry":{"type":"Polygon","coordinates":[[[139.75963,35.67504],[139.75756,35.67302],[139.75616,35.67072],[139.7529,35.67206],[139.75289,35.6721],[139.75589,35.67687],[139.75597,35.67685],[139.75588,35.67673],[139.75935,35.6753],[139.75963,35.67504]]]}},{"type":"Feature","properties":{"id":"area-131010140","name":"千代田"},"geometry":{"type":"Polygon","coordinates":[[[139.75624,35.69056],[139.75731,35.6902],[139.75735,35.69026],[139.75824,35.69017],[139.75869,35.69019],[139.75977,35.68994],[139.75992,35.68981],[139.76,35.68934],[139.76066,35.68922],[139.76069,35.68918],[139.76141,35.68723],[139.76098,35.68565],[139.76093,35.68566],[139.76082,35.68528],[139.76054,35.68532],[139.75979,35.68318],[139.75815,35.68355],[139.7577,35.6825],[139.75643,35.68274],[139.75613,35.68181],[139.75527,35.68194],[139.75468,35.68018],[139.75554,35.67984],[139.75479,35.6784],[139.75411,35.67865],[139.75412,35.67868],[139.75397,35.67873],[139.75396,35.67871],[139.7536,35.67883],[139.75351,35.67873],[139.75343,35.67876],[139.75337,35.67865],[139.75359,35.67856],[139.75323,35.67804],[139.7529,35.67788],[139.75136,35.67742],[139.7507,35.67736],[139.74956,35.67749],[139.74921,35.67764],[139.74861,35.67819],[139.74837,35.67855],[139.74776,35.67916],[139.74726,35.67953],[139.747,35.67964],[139.74614,35.67989],[139.74596,35.68],[139.74459,35.68231],[139.74448,35.68265],[139.74431,35.68357],[139.74436,35.68381],[139.74464,35.68378],[139.74464,35.68414],[139.74468,35.68441],[139.74484,35.6852],[139.74508,35.68601],[139.74534,35.68715],[139.74533,35.68732],[139.74542,35.68791],[139.74641,35.68782],[139.74802,35.68795],[139.7495,35.68841],[139.75129,35.68929],[139.75209,35.6895],[139.7526,35.68888],[139.75445,35.68984],[139.75624,35.69056]]]}},{"type":"Feature","properties":{"id":"area-131010150","name":"北の丸公園"},"geometry":{"type":"Polygon","coordinates":[[[139.75259,35.69349],[139.7532,35.69323],[139.7535,35.69347],[139.75533,35.69269],[139.75581,35.69186],[139.75568,35.69181],[139.75624,35.69056],[139.75445,35.68984],[139.7526,35.68888],[139.75209,35.6895],[139.75129,35.68929],[139.7495,35.68841],[139.74802,35.68795],[139.74641,35.68782],[139.74542,35.68791],[139.74544,35.68808],[139.74516,35.68813],[139.74538,35.68902],[139.74558,35.68904],[139.74593,35.68919],[139.74773,35.68955],[139.74796,35.68988],[139.74767,35.69031],[139.74742,35.69089],[139.74734,35.69101],[139.74723,35.69111],[139.74718,35.69126],[139.74714,35.69128],[139.74716,35.69128],[139.74712,35.69146],[139.74712,35.69163],[139.74717,35.69169],[139.74767,35.69223],[139.7477,35.69326],[139.74767,35.69368],[139.74758,35.69432],[139.74926,35.69474],[139.74934,35.69501],[139.75027,35.69513],[139.75039,35.69488],[139.75157,35.69365],[139.75259,35.69349]]]}},{"type":"Feature","properties":{"id":"area-13101016001","name":"九段南一丁目"},"geometry":{"type":"Polygon","coordinates":[[[139.75282,35.69536],[139.753,35.69498],[139.75319,35.69476],[139.75375,35.69434],[139.75408,35.6942],[139.75534,35.69389],[139.75552,35.69382],[139.75567,35.69371],[139.75579,35.69343],[139.75595,35.69275],[139.75623,35.69275],[139.75613,35.69202],[139.75574,35.69201],[139.75566,35.6921],[139.75533,35.69269],[139.7535,35.69347],[139.7532,35.69323],[139.75259,35.69349],[139.75157,35.69365],[139.75039,35.69488],[139.75027,35.69513],[139.74934,35.69501],[139.74926,35.69474],[139.74902,35.69468],[139.74887,35.69502],[139.74935,35.69516],[139.75277,35.69566],[139.75282,35.69536]]]}},{"type":"Feature","properties":{"id":"area-13101016002","name":"九段南二丁目"},"geometry":{"type":"Polygon","coordinates":[[[139.7477,35.69288],[139.74767,35.69223],[139.74712,35.69163],[139.74712,35.69146],[139.74716,35.69128],[139.74591,35.69146],[139.7462,35.69287],[139.74368,35.69214],[139.7439,35.69343],[139.74526,35.69398],[139.74887,35.69502],[139.74902,35.69468],[139.74904,35.69468],[139.74758,35.69432],[139.74767,35.69368],[139.7477,35.69288]]]}},{"type":"Feature","properties":{"id":"area-13101016003","name":"九段南三丁目"},"geometry":{"type":"Polygon","coordinates":[[[139.74368,35.69214],[139.74132,35.69145],[139.74088,35.6925],[139.7439,35.69343],[139.74368,35.69214]]]}},{"type":"Feature","properties":{"id":"area-13101016004","name":"九段南四丁目"},"geometry":{"type":"Polygon","coordinates":[[[139.73718,35.69007],[139.73705,35.68998],[139.7364,35.69118],[139.74088,35.6925],[139.74132,35.69145],[139.73882,35.69067],[139.73718,35.69007]]]}},{"type":"Feature","properties":{"id":"area-13101017001","name":"九段北一丁目"},"geometry":{"type":"Polygon","coordinates":[[[139.74935,35.69516],[139.74887,35.69502],[139.74871,35.69545],[139.74825,35.6957],[139.74756,35.69628],[139.74852,35.69637],[139.74873,35.69677],[139.75092,35.69701],[139.75074,35.69743],[139.75016,35.69802],[139.75005,35.69815],[139.75002,35.69824],[139.75235,35.6979],[139.75277,35.69566],[139.74935,35.69516]]]}},{"type":"Feature","properties":{"id":"area-13101017002","name":"九段北二丁目"},"geometry":{"type":"Polygon","coordinates":[[[139.74727,35.69654],[139.74825,35.6957],[139.74871,35.69545],[139.74887,35.69502],[139.74526,35.69398],[139.74496,35.69492],[139.74416,35.6947],[139.74382,35.69582],[139.74497,35.69612],[139.74504,35.69607],[139.74727,35.69654]]]}},{"type":"Feature","properties":{"id":"area-13101017003","name":"九段北三丁目"},"geometry":{"type":"Polygon","coordinates":[[[139.74382,35.69582],[139.74416,35.6947],[139.74496,35.69492],[139.74526,35.69398],[139.7439,35.69343],[139.74088,35.6925],[139.73999,35.69467],[139.74195,35.6953],[139.74382,35.69582]]]}},{"type":"Feature","properties":{"id":"area-13101017004","name":"九段北四丁目"},"geometry":{"type":"Polygon","coordinates":[[[139.74088,35.6925],[139.73615,35.69111],[139.73594,35.69115],[139.7358,35.69128],[139.73545,35.69177],[139.73561,35.69186],[139.73561,35.6919],[139.73571,35.69196],[139.73574,35.69198],[139.73578,35.69195],[139.73621,35.69221],[139.7376,35.69325],[139.73874,35.6946],[139.73921,35.69523],[139.73999,35.69487],[139.73994,35.69479],[139.74088,35.6925]]]}},{"type":"Feature","properties":{"id":"area-13101018001","name":"富士見一丁目"},"geometry":{"type":"Polygon","coordinates":[[[139.74785,35.69894],[139.74824,35.69877],[139.74852,35.69879],[139.74906,35.69812],[139.74911,35.698],[139.74941,35.69782],[139.74964,35.69759],[139.74987,35.69689],[139.74873,35.69677],[139.74852,35.69637],[139.74758,35.69629],[139.74727,35.69654],[139.74504,35.69607],[139.74497,35.69612],[139.74457,35.69709],[139.74406,35.69755],[139.74478,35.69813],[139.74553,35.6988],[139.74658,35.69958],[139.74746,35.69934],[139.74742,35.69922],[139.74775,35.69895],[139.74785,35.69894]]]}},{"type":"Feature","properties":{"id":"area-13101018002","name":"富士見二丁目"},"geometry":{"type":"Polygon","coordinates":[[[139.74609,35.70038],[139.7469,35.70024],[139.74706,35.70028],[139.74715,35.7002],[139.74705,35.70009],[139.74707,35.6999],[139.74694,35.6997],[139.74707,35.69964],[139.74697,35.6995],[139.74658,35.69958],[139.74553,35.6988],[139.74478,35.69813],[139.74406,35.69755],[139.74457,35.69709],[139.74497,35.69612],[139.74213,35.69535],[139.73999,35.69467],[139.73994,35.69479],[139.73999,35.69487],[139.73921,35.69523],[139.74032,35.69684],[139.74151,35.69832],[139.74156,35.6983],[139.74314,35.70025],[139.74377,35.69997],[139.74388,35.70008],[139.7444,35.70097],[139.74499,35.70149],[139.7455,35.70128],[139.74608,35.70094],[139.74588,35.70053],[139.74611,35.70047],[139.74609,35.70038]]]}},{"type":"Feature","properties":{"id":"area-13101019001","name":"飯田橋一丁目"},"geometry":{"type":"Polygon","coordinates":[[[139.7483,35.70007],[139.75002,35.69824],[139.75005,35.69815],[139.75016,35.69802],[139.75074,35.69743],[139.75092,35.69701],[139.74987,35.69689],[139.74964,35.69759],[139.74941,35.69782],[139.74911,35.698],[139.74906,35.69812],[139.74852,35.69879],[139.74824,35.69877],[139.74785,35.69894],[139.74775,35.69895],[139.74742,35.69922],[139.74758,35.69956],[139.74768,35.69965],[139.7483,35.70007]]]}},{"type":"Feature","properties":{"id":"area-13101019002","name":"飯田橋二丁目"},"geometry":{"type":"Polygon","coordinates":[[[139.74895,35.70049],[139.74981,35.69965],[139.75142,35.7002],[139.75221,35.69877],[139.75236,35.6979],[139.75002,35.69824],[139.7483,35.70007],[139.74895,35.70049]]]}},{"type":"Feature","properties":{"id":"area-13101019003","name":"飯田橋三丁目"},"geometry":{"type":"Polygon","coordinates":[[[139.75074,35.70144],[139.75142,35.7002],[139.74981,35.69965],[139.74895,35.70049],[139.7483,35.70007],[139.74763,35.70077],[139.74593,35.70176],[139.74497,35.70244],[139.74512,35.70255],[139.74589,35.70273],[139.74636,35.7029],[139.74738,35.70291],[139.74921,35.70284],[139.75085,35.70264],[139.75074,35.70144]]]}},{"type":"Feature","properties":{"id":"area-13101019004","name":"飯田橋四丁目"},"geometry":{"type":"Polygon","coordinates":[[[139.74497,35.70244],[139.74593,35.70176],[139.74763,35.70077],[139.7483,35.70007],[139.74768,35.69965],[139.74758,35.69956],[139.74746,35.69934],[139.74697,35.6995],[139.74707,35.69964],[139.74694,35.6997],[139.74707,35.6999],[139.74705,35.70009],[139.74715,35.7002],[139.74706,35.70028],[139.7469,35.70024],[139.74609,35.70038],[139.74611,35.70047],[139.74588,35.70053],[139.74608,35.70094],[139.7455,35.70128],[139.74499,35.70149],[139.7444,35.70097],[139.74388,35.70008],[139.74377,35.69997],[139.74343,35.70014],[139.74428,35.70134],[139.7438,35.70163],[139.74392,35.70175],[139.74377,35.70189],[139.74436,35.70238],[139.74476,35.7023],[139.74497,35.70244]]]}},{"type":"Feature","properties":{"id":"area-13101020001","name":"一ツ橋一丁目"},"geometry":{"type":"Polygon","coordinates":[[[139.75623,35.69275],[139.7566,35.69274],[139.75819,35.69124],[139.75893,35.69124],[139.75883,35.69015],[139.75869,35.69019],[139.75824,35.69017],[139.75735,35.69026],[139.75731,35.6902],[139.75624,35.69056],[139.75568,35.69181],[139.75581,35.69186],[139.75574,35.69201],[139.75613,35.69202],[139.75623,35.69275]]]}},{"type":"Feature","properties":{"id":"area-13101020002","name":"一ツ橋二丁目"},"geometry":{"type":"Polygon","coordinates":[[[139.75893,35.69124],[139.75819,35.69124],[139.7566,35.69274],[139.75595,35.69275],[139.75584,35.69322],[139.75612,35.6933],[139.75605,35.69356],[139.75583,35.69412],[139.75576,35.69483],[139.75831,35.69493],[139.75897,35.69166],[139.75893,35.69124]]]}},{"type":"Feature","properties":{"id":"area-13101021001","name":"神田神保町一丁目"},"geometry":{"type":"Polygon","coordinates":[[[139.76056,35.69602],[139.76129,35.69552],[139.76112,35.69382],[139.75854,35.69384],[139.75823,35.69533],[139.75806,35.69596],[139.75803,35.69596],[139.75786,35.69645],[139.75671,35.69851],[139.75812,35.69907],[139.75886,35.69827],[139.75992,35.69675],[139.76056,35.69602]]]}},{"type":"Feature","properties":{"id":"area-13101021002","name":"神田神保町二丁目"},"geometry":{"type":"Polygon","coordinates":[[[139.75786,35.69645],[139.75803,35.69596],[139.75806,35.69596],[139.75831,35.69493],[139.75576,35.69483],[139.7557,35.69521],[139.75442,35.69756],[139.75671,35.69851],[139.75786,35.69645]]]}},{"type":"Feature","properties":{"id":"area-13101021003","name":"神田神保町三丁目"},"geometry":{"type":"Polygon","coordinates":[[[139.75442,35.69756],[139.7557,35.69521],[139.75583,35.69412],[139.75605,35.69356],[139.75612,35.6933],[139.75584,35.69322],[139.75574,35.69357],[139.75567,35.69371],[139.75552,35.69382],[139.75496,35.69399],[139.75408,35.6942],[139.75359,35.69444],[139.75331,35.69465],[139.753,35.69498],[139.75282,35.69536],[139.75256,35.6968],[139.75442,35.69756]]]}},{"type":"Feature","properties":{"id":"area-13101022001","name":"三崎町一丁目"},"geometry":{"type":"Polygon","coordinates":[[[139.75714,35.70009],[139.75607,35.69982],[139.75508,35.70172],[139.75523,35.70212],[139.7566,35.7018],[139.7571,35.70011],[139.75714,35.70009]]]}},{"type":"Feature","properties":{"id":"area-13101022002","name":"三崎町二丁目"},"geometry":{"type":"Polygon","coordinates":[[[139.75607,35.69982],[139.75359,35.69915],[139.7526,35.70092],[139.75216,35.70181],[139.75188,35.70229],[139.75182,35.70241],[139.75184,35.70255],[139.75377,35.70238],[139.75449,35.70228],[139.75523,35.70212],[139.75508,35.70172],[139.75607,35.69982]]]}},{"type":"Feature","properties":{"id":"area-13101022003","name":"三崎町三丁目"},"geometry":{"type":"Polygon","coordinates":[[[139.75359,35.69915],[139.7522,35.69878],[139.75074,35.70144],[139.75085,35.70263],[139.75184,35.70255],[139.75182,35.70241],[139.75188,35.70229],[139.75216,35.70181],[139.7526,35.70092],[139.75359,35.69915]]]}},{"type":"Feature","properties":{"id":"area-13101023001","name":"西神田一丁目"},"geometry":{"type":"Polygon","coordinates":[[[139.75812,35.69907],[139.75676,35.69853],[139.75607,35.69982],[139.75714,35.70009],[139.75812,35.69907]]]}},{"type":"Feature","properties":{"id":"area-13101023002","name":"西神田二丁目"},"geometry":{"type":"Polygon","coordinates":[[[139.75676,35.69853],[139.75445,35.69758],[139.75359,35.69915],[139.75607,35.69982],[139.75676,35.69853]]]}},{"type":"Feature","properties":{"id":"area-13101023003","name":"西神田三丁目"},"geometry":{"type":"Polygon","coordinates":[[[139.75359,35.69915],[139.75445,35.69758],[139.75257,35.69679],[139.75253,35.69689],[139.75221,35.69877],[139.75359,35.69915]]]}},{"type":"Feature","properties":{"id":"area-13101024001","name":"猿楽町一丁目"},"geometry":{"type":"Polygon","coordinates":[[[139.75973,35.69961],[139.76007,35.69938],[139.76053,35.69899],[139.76088,35.69879],[139.76092,35.69857],[139.76082,35.69774],[139.76073,35.69749],[139.76068,35.69721],[139.76072,35.69704],[139.76069,35.6969],[139.76003,35.69673],[139.75997,35.69669],[139.75872,35.69844],[139.75968,35.6989],[139.75929,35.69919],[139.7596,35.69952],[139.75963,35.69949],[139.75973,35.69961]]]}},{"type":"Feature","properties":{"id":"area-13101024002","name":"猿楽町二丁目"},"geometry":{"type":"Polygon","coordinates":[[[139.75813,35.7009],[139.75847,35.70053],[139.75854,35.70053],[139.75866,35.70041],[139.75884,35.7004],[139.75891,35.70045],[139.75932,35.70007],[139.75987,35.69975],[139.75963,35.69949],[139.7596,35.69952],[139.75929,35.69919],[139.75968,35.6989],[139.75872,35.69844],[139.7571,35.70011],[139.75674,35.70132],[139.75702,35.70124],[139.75719,35.70111],[139.75756,35.70104],[139.7578,35.70095],[139.75813,35.7009]]]}},{"type":"Feature","properties":{"id":"area-13101025001","name":"神田駿河台一丁目"},"geometry":{"type":"Polygon","coordinates":[[[139.76417,35.69826],[139.76319,35.69626],[139.76159,35.69684],[139.76126,35.6969],[139.761,35.69689],[139.76072,35.69704],[139.76068,35.69721],[139.76073,35.69749],[139.76082,35.69774],[139.76092,35.69857],[139.76088,35.69879],[139.76053,35.69899],[139.76007,35.69938],[139.75973,35.69961],[139.75987,35.69975],[139.76417,35.69826]]]}},{"type":"Feature","properties":{"id":"area-13101025002","name":"神田駿河台二丁目"},"geometry":{"type":"Polygon","coordinates":[[[139.75763,35.70157],[139.76075,35.70159],[139.76158,35.7015],[139.76185,35.70144],[139.76208,35.70134],[139.76227,35.7012],[139.76229,35.70122],[139.76249,35.70104],[139.76278,35.70065],[139.76294,35.7005],[139.76334,35.7003],[139.76383,35.70012],[139.76406,35.70014],[139.765,35.69988],[139.76417,35.69826],[139.75987,35.69975],[139.75932,35.70007],[139.75891,35.70045],[139.75884,35.7004],[139.75866,35.70041],[139.75854,35.70053],[139.75847,35.70053],[139.75813,35.7009],[139.7578,35.70095],[139.75756,35.70104],[139.75719,35.70111],[139.75702,35.70124],[139.75674,35.70132],[139.7566,35.7018],[139.75763,35.70157]]]}},{"type":"Feature","properties":{"id":"area-13101025003","name":"神田駿河台三丁目"},"geometry":{"type":"Polygon","coordinates":[[[139.76604,35.69656],[139.76549,35.69549],[139.76516,35.69562],[139.76343,35.69557],[139.76339,35.69619],[139.76319,35.69626],[139.76403,35.69797],[139.76631,35.6972],[139.76595,35.69661],[139.76604,35.69656]]]}},{"type":"Feature","properties":{"id":"area-13101025004","name":"神田駿河台四丁目"},"geometry":{"type":"Polygon","coordinates":[[[139.76749,35.6991],[139.76712,35.69816],[139.76691,35.69819],[139.76631,35.6972],[139.76403,35.69797],[139.765,35.69988],[139.76655,35.69948],[139.76722,35.69924],[139.76749,35.6991]]]}},{"type":"Feature","properties":{"id":"area-13101026001","name":"神田錦町一丁目"},"geometry":{"type":"Polygon","coordinates":[[[139.76437,35.69008],[139.7642,35.68927],[139.76374,35.68955],[139.76318,35.69004],[139.76391,35.69394],[139.76513,35.69384],[139.7648,35.69243],[139.76455,35.69122],[139.76452,35.69092],[139.76449,35.69088],[139.76434,35.69014],[139.76437,35.69008]]]}},{"type":"Feature","properties":{"id":"area-13101026002","name":"神田錦町二丁目"},"geometry":{"type":"Polygon","coordinates":[[[139.76391,35.69394],[139.76318,35.69004],[139.76302,35.69014],[139.76281,35.6902],[139.76205,35.69038],[139.76278,35.69408],[139.76388,35.69398],[139.76388,35.69395],[139.76391,35.69394]]]}},{"type":"Feature","properties":{"id":"area-13101026003","name":"神田錦町三丁目"},"geometry":{"type":"Polygon","coordinates":[[[139.76274,35.69383],[139.76205,35.69038],[139.76185,35.69047],[139.76158,35.69074],[139.76121,35.69104],[139.76082,35.69123],[139.76053,35.69127],[139.75893,35.69127],[139.75897,35.69166],[139.75854,35.69384],[139.76274,35.69383]]]}},{"type":"Feature","properties":{"id":"area-13101027001","name":"神田小川町一丁目"},"geometry":{"type":"Polygon","coordinates":[[[139.76679,35.69566],[139.76704,35.69524],[139.76745,35.6954],[139.76745,35.69444],[139.76643,35.69413],[139.76527,35.69384],[139.76533,35.69419],[139.76506,35.6956],[139.76516,35.69562],[139.7656,35.69545],[139.76565,35.69523],[139.76679,35.69566]]]}},{"type":"Feature","properties":{"id":"area-13101027002","name":"神田小川町二丁目"},"geometry":{"type":"Polygon","coordinates":[[[139.76506,35.6956],[139.76533,35.69419],[139.76527,35.69384],[139.76388,35.69395],[139.76388,35.69398],[139.76278,35.69408],[139.76286,35.69442],[139.7635,35.69438],[139.76343,35.69557],[139.76506,35.6956]]]}},{"type":"Feature","properties":{"id":"area-13101027003","name":"神田小川町三丁目"},"geometry":{"type":"Polygon","coordinates":[[[139.76072,35.69704],[139.761,35.69689],[139.76126,35.6969],[139.76159,35.69684],[139.76339,35.69619],[139.7635,35.69438],[139.76286,35.69442],[139.76274,35.69383],[139.76113,35.69384],[139.76129,35.69552],[139.76056,35.69602],[139.75997,35.69669],[139.76003,35.69673],[139.76069,35.6969],[139.76072,35.69704]]]}},{"type":"Feature","properties":{"id":"area-131010280","name":"神田美土代町"},"geometry":{"type":"Polygon","coordinates":[[[139.7664,35.69386],[139.76613,35.69233],[139.76481,35.69245],[139.76505,35.69358],[139.76513,35.69384],[139.76527,35.69384],[139.76643,35.69413],[139.7664,35.69386]]]}},{"type":"Feature","properties":{"id":"area-13101029001","name":"内神田一丁目"},"geometry":{"type":"Polygon","coordinates":[[[139.76743,35.69219],[139.7667,35.68885],[139.7642,35.68927],[139.76437,35.69008],[139.76434,35.69014],[139.76449,35.69088],[139.76452,35.69092],[139.76455,35.69122],[139.76481,35.69245],[139.76743,35.69219]]]}},{"type":"Feature","properties":{"id":"area-13101029002","name":"内神田二丁目"},"geometry":{"type":"Polygon","coordinates":[[[139.769,35.69253],[139.7691,35.69214],[139.76893,35.69044],[139.76876,35.68948],[139.76844,35.68926],[139.7688,35.68884],[139.76814,35.68859],[139.7667,35.68885],[139.76743,35.69219],[139.76761,35.69217],[139.769,35.69253]]]}},{"type":"Feature","properties":{"id":"area-13101029003","name":"内神田三丁目"},"geometry":{"type":"Polygon","coordinates":[[[139.76881,35.68884],[139.76844,35.68926],[139.76876,35.68948],[139.76893,35.69044],[139.7691,35.69214],[139.769,35.69253],[139.77133,35.69316],[139.77092,35.69244],[139.77064,35.6919],[139.77037,35.69122],[139.7703,35.69083],[139.77017,35.69039],[139.76964,35.68912],[139.76881,35.68884]]]}},{"type":"Feature","properties":{"id":"area-131010300","name":"神田司町"},"geometry":{"type":"Polygon","coordinates":[[[139.769,35.69253],[139.76761,35.69217],[139.76696,35.69225],[139.76659,35.69226],[139.76613,35.69233],[139.76635,35.69345],[139.76643,35.69413],[139.76745,35.69444],[139.76836,35.6948],[139.76853,35.69367],[139.769,35.69253]]]}},{"type":"Feature","properties":{"id":"area-131010310","name":"神田多町"},"geometry":{"type":"Polygon","coordinates":[[[139.77024,35.69288],[139.769,35.69253],[139.76867,35.69329],[139.76853,35.69367],[139.76836,35.6948],[139.76882,35.69499],[139.76931,35.69513],[139.77024,35.69288]]]}},{"type":"Feature","properties":{"id":"area-13101032001","name":"神田淡路町一丁目"},"geometry":{"type":"Polygon","coordinates":[[[139.76728,35.69599],[139.76751,35.69599],[139.76792,35.69616],[139.76816,35.69568],[139.76704,35.69524],[139.76679,35.69566],[139.76565,35.69523],[139.7656,35.69545],[139.76549,35.69549],[139.76604,35.69656],[139.76728,35.69599]]]}},{"type":"Feature","properties":{"id":"area-13101032002","name":"神田淡路町二丁目"},"geometry":{"type":"Polygon","coordinates":[[[139.76883,35.69838],[139.76866,35.69811],[139.76923,35.69758],[139.76834,35.69633],[139.76751,35.69599],[139.76728,35.69599],[139.76595,35.69661],[139.76691,35.69819],[139.76712,35.69816],[139.76749,35.6991],[139.76883,35.69838]]]}},{"type":"Feature","properties":{"id":"area-13101033001","name":"神田須田町一丁目"},"geometry":{"type":"Polygon","coordinates":[[[139.77156,35.69515],[139.77157,35.69452],[139.76977,35.69403],[139.76931,35.69513],[139.76882,35.69499],[139.76745,35.69444],[139.76745,35.6954],[139.76816,35.69568],[139.76792,35.69616],[139.76834,35.69633],[139.76923,35.69758],[139.76866,35.69811],[139.76883,35.69838],[139.77097,35.69708],[139.77076,35.69657],[139.77106,35.69626],[139.77132,35.69585],[139.7715,35.69543],[139.77156,35.69515]]]}},{"type":"Feature","properties":{"id":"area-13101033002","name":"神田須田町二丁目"},"geometry":{"type":"Polygon","coordinates":[[[139.77196,35.69698],[139.77481,35.69691],[139.77479,35.69658],[139.77471,35.69657],[139.7747,35.69652],[139.77465,35.69535],[139.77157,35.69453],[139.77158,35.69498],[139.7715,35.69543],[139.77132,35.69585],[139.7712,35.69607],[139.77106,35.69626],[139.77076,35.69657],[139.77097,35.69707],[139.77196,35.69698]]]}},{"type":"Feature","properties":{"id":"area-13101034001","name":"外神田一丁目"},"geometry":{"type":"Polygon","coordinates":[[[139.77169,35.69864],[139.77231,35.69859],[139.77287,35.69894],[139.7727,35.69753],[139.77271,35.69696],[139.77168,35.697],[139.77097,35.69707],[139.76889,35.69834],[139.76895,35.69847],[139.76896,35.69887],[139.76915,35.69986],[139.77119,35.69972],[139.77119,35.69967],[139.7718,35.69963],[139.77169,35.69864]]]}},{"type":"Feature","properties":{"id":"area-13101034002","name":"外神田二丁目"},"geometry":{"type":"Polygon","coordinates":[[[139.76959,35.70296],[139.76934,35.70202],[139.76914,35.69982],[139.76896,35.69887],[139.76895,35.69847],[139.76889,35.69834],[139.76722,35.69924],[139.7664,35.69952],[139.76652,35.69979],[139.76701,35.69964],[139.76726,35.7001],[139.76761,35.69996],[139.76755,35.69985],[139.76831,35.6995],[139.76843,35.6998],[139.76859,35.6998],[139.76862,35.70008],[139.76845,35.70008],[139.76802,35.7005],[139.76804,35.70064],[139.76813,35.70063],[139.76815,35.7008],[139.76808,35.70081],[139.76799,35.70089],[139.76791,35.70082],[139.76734,35.70113],[139.76716,35.70097],[139.76694,35.7011],[139.76697,35.70129],[139.76614,35.7018],[139.76646,35.70256],[139.76649,35.70256],[139.76654,35.70266],[139.76668,35.70265],[139.76663,35.70246],[139.76812,35.70262],[139.76815,35.70264],[139.76814,35.70286],[139.76959,35.70296]]]}},{"type":"Feature","properties":{"id":"area-13101034003","name":"外神田三丁目"},"geometry":{"type":"Polygon","coordinates":[[[139.76959,35.70296],[139.77166,35.70295],[139.7713,35.69966],[139.77119,35.69967],[139.77119,35.69972],[139.76915,35.69986],[139.76934,35.70202],[139.76959,35.70296]]]}},{"type":"Feature","properties":{"id":"area-13101034004","name":"外神田四丁目"},"geometry":{"type":"Polygon","coordinates":[[[139.77287,35.69894],[139.77231,35.69859],[139.77169,35.69864],[139.7718,35.69963],[139.7713,35.69966],[139.77166,35.70295],[139.77372,35.7028],[139.77338,35.70174],[139.77308,35.69988],[139.77287,35.69894]]]}},{"type":"Feature","properties":{"id":"area-13101034005","name":"外神田五丁目"},"geometry":{"type":"Polygon","coordinates":[[[139.77325,35.70499],[139.77302,35.70286],[139.77166,35.70295],[139.77188,35.70509],[139.77325,35.70499]]]}},{"type":"Feature","properties":{"id":"area-13101034006","name":"外神田六丁目"},"geometry":{"type":"Polygon","coordinates":[[[139.77188,35.70509],[139.77166,35.70295],[139.76933,35.70295],[139.76806,35.70286],[139.76799,35.70332],[139.76845,35.70335],[139.76932,35.70328],[139.76942,35.70369],[139.76966,35.70362],[139.76981,35.7037],[139.76994,35.70522],[139.77188,35.70509]]]}},{"type":"Feature","properties":{"id":"area-13101035001","name":"鍛冶町一丁目"},"geometry":{"type":"Polygon","coordinates":[[[139.77017,35.68929],[139.76965,35.68915],[139.77017,35.69039],[139.7735,35.69132],[139.77383,35.69049],[139.77017,35.68929]]]}},{"type":"Feature","properties":{"id":"area-13101035002","name":"鍛冶町二丁目"},"geometry":{"type":"Polygon","coordinates":[[[139.7735,35.69132],[139.77017,35.69039],[139.7703,35.69083],[139.77037,35.69122],[139.77064,35.6919],[139.77092,35.69244],[139.77133,35.69316],[139.77146,35.69348],[139.7715,35.69367],[139.77157,35.69453],[139.77209,35.69466],[139.7735,35.69132]]]}},{"type":"Feature","properties":{"id":"area-131010360","name":"神田鍛冶町"},"geometry":{"type":"Polygon","coordinates":[[[139.77157,35.69452],[139.7715,35.69367],[139.77146,35.69348],[139.77133,35.69316],[139.77024,35.69288],[139.76977,35.69403],[139.77157,35.69452]]]}},{"type":"Feature","properties":{"id":"area-131010370","name":"神田紺屋町"},"geometry":{"type":"MultiPolygon","coordinates":[[[[139.7735,35.69132],[139.77317,35.69204],[139.77469,35.69246],[139.77478,35.69226],[139.77475,35.69216],[139.77491,35.69173],[139.7735,35.69132]]],[[[139.77301,35.69244],[139.77278,35.69298],[139.7743,35.69339],[139.77436,35.69331],[139.77454,35.69286],[139.77301,35.69244]]]]}},{"type":"Feature","properties":{"id":"area-131010380","name":"神田北乗物町"},"geometry":{"type":"Polygon","coordinates":[[[139.77469,35.69246],[139.77317,35.69204],[139.77301,35.69244],[139.77454,35.69286],[139.77469,35.69246]]]}},{"type":"Feature","properties":{"id":"area-131010390","name":"神田富山町"},"geometry":{"type":"Polygon","coordinates":[[[139.7743,35.69339],[139.77278,35.69298],[139.77246,35.69377],[139.77398,35.69419],[139.7743,35.69339]]]}},{"type":"Feature","properties":{"id":"area-131010400","name":"神田美倉町"},"geometry":{"type":"Polygon","coordinates":[[[139.77522,35.69097],[139.77383,35.69049],[139.77363,35.691],[139.77476,35.69136],[139.77501,35.69149],[139.77522,35.69097]]]}},{"type":"Feature","properties":{"id":"area-13101041001","name":"岩本町一丁目"},"geometry":{"type":"Polygon","coordinates":[[[139.77659,35.69145],[139.77522,35.69097],[139.77492,35.69171],[139.77812,35.69301],[139.77926,35.69386],[139.77995,35.69319],[139.77877,35.69235],[139.77659,35.69145]]]}},{"type":"Feature","properties":{"id":"area-13101041002","name":"岩本町二丁目"},"geometry":{"type":"Polygon","coordinates":[[[139.77812,35.69301],[139.77492,35.69171],[139.77475,35.69216],[139.77478,35.69226],[139.77474,35.69234],[139.77506,35.69419],[139.77857,35.69516],[139.77904,35.6941],[139.77926,35.69386],[139.77812,35.69301]]]}},{"type":"Feature","properties":{"id":"area-13101041003","name":"岩本町三丁目"},"geometry":{"type":"Polygon","coordinates":[[[139.77536,35.69691],[139.77831,35.69685],[139.77829,35.69647],[139.77814,35.69647],[139.77862,35.69541],[139.77845,35.69541],[139.77857,35.69516],[139.77506,35.69419],[139.77535,35.69653],[139.77536,35.69691]]]}},{"type":"Feature","properties":{"id":"area-131010420","name":"神田西福田町"},"geometry":{"type":"Polygon","coordinates":[[[139.77491,35.69173],[139.77501,35.69149],[139.77476,35.69136],[139.77363,35.691],[139.7735,35.69132],[139.77491,35.69173]]]}},{"type":"Feature","properties":{"id":"area-131010430","name":"神田東松下町"},"geometry":{"type":"Polygon","coordinates":[[[139.77444,35.69467],[139.77466,35.69409],[139.77506,35.69419],[139.77494,35.69347],[139.77436,35.69331],[139.7743,35.69339],[139.77398,35.69419],[139.77246,35.69377],[139.77209,35.69466],[139.77465,35.69535],[139.77488,35.6948],[139.77444,35.69467]]]}},{"type":"Feature","properties":{"id":"area-131010440","name":"神田東紺屋町"},"geometry":{"type":"Polygon","coordinates":[[[139.77492,35.69347],[139.77484,35.69295],[139.77474,35.69234],[139.77436,35.69331],[139.77492,35.69347]]]}},{"type":"Feature","properties":{"id":"area-131010450","name":"神田岩本町"},"geometry":{"type":"Polygon","coordinates":[[[139.77506,35.6942],[139.77466,35.69409],[139.77444,35.69467],[139.77488,35.6948],[139.77465,35.69535],[139.7747,35.69652],[139.77471,35.69657],[139.77479,35.69658],[139.77481,35.69691],[139.77536,35.69691],[139.77535,35.69653],[139.77506,35.6942]]]}},{"type":"Feature","properties":{"id":"area-13101046001","name":"東神田一丁目"},"geometry":{"type":"Polygon","coordinates":[[[139.78281,35.69469],[139.78029,35.69286],[139.77904,35.6941],[139.77845,35.69541],[139.78001,35.69535],[139.78288,35.69514],[139.78281,35.69469]]]}},{"type":"Feature","properties":{"id":"area-13101046002","name":"東神田二丁目"},"geometry":{"type":"Polygon","coordinates":[[[139.78273,35.69664],[139.78268,35.69618],[139.78175,35.6963],[139.78166,35.69523],[139.77862,35.69541],[139.77814,35.69647],[139.77829,35.69647],[139.77831,35.69685],[139.78005,35.69684],[139.78273,35.69664]]]}},{"type":"Feature","properties":{"id":"area-13101046003","name":"東神田三丁目"},"geometry":{"type":"Polygon","coordinates":[[[139.78283,35.69764],[139.78273,35.69664],[139.78006,35.69684],[139.78006,35.69713],[139.78017,35.69789],[139.78283,35.69764]]]}},{"type":"Feature","properties":{"id":"area-131010470","name":"神田和泉町"},"geometry":{"type":"Polygon","coordinates":[[[139.78054,35.70019],[139.78031,35.69867],[139.7754,35.69879],[139.77544,35.70058],[139.78054,35.70019]]]}},{"type":"Feature","properties":{"id":"area-13101048001","name":"神田佐久間町一丁目"},"geometry":{"type":"Polygon","coordinates":[[[139.77539,35.69891],[139.77536,35.69691],[139.77269,35.69695],[139.77271,35.69696],[139.7727,35.69753],[139.77277,35.69811],[139.77499,35.69804],[139.77501,35.69892],[139.77539,35.69891]]]}},{"type":"Feature","properties":{"id":"area-13101048002","name":"神田佐久間町二丁目"},"geometry":{"type":"Polygon","coordinates":[[[139.77719,35.69875],[139.77718,35.69849],[139.77685,35.6985],[139.77683,35.69821],[139.77689,35.6982],[139.77684,35.69756],[139.77673,35.69755],[139.77672,35.69723],[139.77537,35.69726],[139.77537,35.69759],[139.7759,35.69759],[139.77593,35.6985],[139.77539,35.69852],[139.7754,35.69879],[139.77719,35.69875]]]}},{"type":"Feature","properties":{"id":"area-13101048003","name":"神田佐久間町三丁目"},"geometry":{"type":"Polygon","coordinates":[[[139.77961,35.69869],[139.77955,35.69756],[139.77892,35.69757],[139.7789,35.69713],[139.77806,35.69716],[139.77806,35.69721],[139.77672,35.69723],[139.77673,35.69755],[139.77684,35.69756],[139.77689,35.6982],[139.77683,35.69821],[139.77685,35.6985],[139.77718,35.69849],[139.77719,35.69875],[139.77961,35.69869]]]}},{"type":"Feature","properties":{"id":"area-13101048004","name":"神田佐久間町四丁目"},"geometry":{"type":"Polygon","coordinates":[[[139.78031,35.69867],[139.78006,35.69713],[139.7789,35.69713],[139.77892,35.69757],[139.77955,35.69756],[139.77961,35.69869],[139.78031,35.69867]]]}},{"type":"Feature","properties":{"id":"area-131010490","name":"神田平河町"},"geometry":{"type":"Polygon","coordinates":[[[139.7759,35.69759],[139.77537,35.69759],[139.77539,35.69852],[139.77593,35.6985],[139.7759,35.69759]]]}},{"type":"Feature","properties":{"id":"area-131010500","name":"神田松永町"},"geometry":{"type":"Polygon","coordinates":[[[139.77507,35.70164],[139.77559,35.70159],[139.77549,35.70057],[139.77544,35.70058],[139.77539,35.69891],[139.77501,35.69892],[139.77501,35.69914],[139.77422,35.69916],[139.77428,35.69972],[139.77489,35.69967],[139.77492,35.69991],[139.77511,35.69991],[139.77512,35.70001],[139.77494,35.70002],[139.77495,35.70011],[139.77509,35.70011],[139.7751,35.70021],[139.77494,35.70022],[139.77507,35.70164]]]}},{"type":"Feature","properties":{"id":"area-131010510","name":"神田花岡町"},"geometry":{"type":"Polygon","coordinates":[[[139.77293,35.69921],[139.77501,35.69914],[139.77499,35.69804],[139.77277,35.69811],[139.77287,35.69894],[139.77293,35.69921]]]}},{"type":"Feature","properties":{"id":"area-131010520","name":"神田佐久間河岸"},"geometry":{"type":"Polygon","coordinates":[[[139.77806,35.69716],[139.7789,35.69713],[139.78006,35.69713],[139.78005,35.69684],[139.7774,35.69686],[139.77536,35.69691],[139.77537,35.69726],[139.77806,35.69721],[139.77806,35.69716]]]}},{"type":"Feature","properties":{"id":"area-131010530","name":"神田練塀町"},"geometry":{"type":"Polygon","coordinates":[[[139.77509,35.70012],[139.77495,35.70011],[139.77494,35.70002],[139.77512,35.70001],[139.77511,35.69991],[139.77492,35.69991],[139.77489,35.69967],[139.77428,35.69972],[139.77429,35.69974],[139.77339,35.69986],[139.77308,35.69988],[139.77338,35.70174],[139.77507,35.70164],[139.77494,35.70022],[139.7751,35.70021],[139.77509,35.70012]]]}},{"type":"Feature","properties":{"id":"area-131010540","name":"神田相生町"},"geometry":{"type":"Polygon","coordinates":[[[139.77308,35.69988],[139.77429,35.69974],[139.77422,35.69916],[139.77293,35.69921],[139.77308,35.69988]]]}},{"type":"Feature","properties":{"id":"area-131010550","name":"二番町"},"geometry":{"type":"Polygon","coordinates":[[[139.73806,35.68516],[139.73581,35.68461],[139.73578,35.68467],[139.73513,35.68458],[139.73499,35.68487],[139.73449,35.68484],[139.73391,35.68513],[139.73349,35.68555],[139.73376,35.68573],[139.73342,35.68627],[139.73385,35.68646],[139.73627,35.68727],[139.73787,35.68788],[139.73843,35.68684],[139.73891,35.68605],[139.73806,35.68516]]]}},{"type":"Feature","properties":{"id":"area-131010560","name":"三番町"},"geometry":{"type":"Polygon","coordinates":[[[139.7462,35.69287],[139.74591,35.69146],[139.74718,35.69126],[139.74723,35.69111],[139.74734,35.69101],[139.74742,35.69089],[139.74767,35.69031],[139.74796,35.68988],[139.74773,35.68955],[139.74593,35.68919],[139.74558,35.68904],[139.74519,35.68902],[139.7448,35.68893],[139.74226,35.68824],[139.74277,35.6895],[139.741,35.68902],[139.74037,35.68879],[139.74015,35.6894],[139.73949,35.69089],[139.74341,35.69208],[139.7462,35.69287]]]}},{"type":"Feature","properties":{"id":"area-131010570","name":"四番町"},"geometry":{"type":"Polygon","coordinates":[[[139.73874,35.68822],[139.73627,35.68727],[139.73539,35.68937],[139.73705,35.68998],[139.73718,35.69007],[139.73949,35.69089],[139.74015,35.6894],[139.74037,35.68879],[139.73874,35.68822]]]}},{"type":"Feature","properties":{"id":"area-131010580","name":"五番町"},"geometry":{"type":"Polygon","coordinates":[[[139.73594,35.69115],[139.73615,35.69111],[139.7364,35.69118],[139.73705,35.68998],[139.73416,35.68893],[139.73205,35.68806],[139.73201,35.68795],[139.73072,35.68752],[139.73093,35.68802],[139.73071,35.68807],[139.73073,35.68814],[139.73129,35.68932],[139.73545,35.69177],[139.7358,35.69128],[139.73594,35.69115]]]}},{"type":"Feature","properties":{"id":"area-131010590","name":"六番町"},"geometry":{"type":"Polygon","coordinates":[[[139.73339,35.68625],[139.73242,35.68567],[139.73137,35.68618],[139.73126,35.68603],[139.73047,35.68635],[139.73058,35.68682],[139.73059,35.68702],[139.73072,35.68752],[139.73201,35.68795],[139.73205,35.68806],[139.73416,35.68893],[139.73539,35.68937],[139.73627,35.68727],[139.73385,35.68646],[139.73339,35.68625]]]}}]}