{"type":"FeatureCollection","features":[{"type":"Feature","properties":{"id":"area-13107001001","name":"両国一丁目"},"geometry":{"type":"Polygon","coordinates":[[[139.79157,35.69182],[139.78889,35.69169],[139.78882,35.69202],[139.78872,35.69292],[139.78874,35.6938],[139.78881,35.69431],[139.78889,35.69461],[139.78899,35.69493],[139.78935,35.69572],[139.78987,35.69643],[139.79146,35.69585],[139.7911,35.69489],[139.791,35.69448],[139.79109,35.69378],[139.79138,35.69216],[139.79157,35.69182]]]}},{"type":"Feature","properties":{"id":"area-13107001002","name":"両国二丁目"},"geometry":{"type":"Polygon","coordinates":[[[139.79335,35.69191],[139.79157,35.69182],[139.79138,35.69216],[139.79109,35.69378],[139.791,35.69448],[139.7911,35.69489],[139.79146,35.69585],[139.79205,35.69575],[139.79317,35.69566],[139.79325,35.69437],[139.79319,35.69436],[139.79335,35.69191]]]}},{"type":"Feature","properties":{"id":"area-13107001003","name":"両国三丁目"},"geometry":{"type":"Polygon","coordinates":[[[139.79506,35.69279],[139.79509,35.69233],[139.79574,35.69235],[139.79577,35.69203],[139.79337,35.69191],[139.79325,35.69324],[139.79319,35.69436],[139.79325,35.69437],[139.79317,35.69566],[139.7948,35.69554],[139.79483,35.69543],[139.79493,35.69438],[139.79475,35.69436],[139.79482,35.69326],[139.79486,35.69286],[139.79506,35.69279]]]}},{"type":"Feature","properties":{"id":"area-13107001004","name":"両国四丁目"},"geometry":{"type":"Polygon","coordinates":[[[139.79757,35.69569],[139.79785,35.69215],[139.79577,35.69203],[139.79574,35.69235],[139.79509,35.69233],[139.79506,35.69279],[139.79486,35.69286],[139.79482,35.69326],[139.79475,35.69436],[139.79493,35.69438],[139.79483,35.69543],[139.79692,35.69555],[139.79705,35.69565],[139.79757,35.69569]]]}},{"type":"Feature","properties":{"id":"area-13107002001","name":"千歳一丁目"},"geometry":{"type":"Polygon","coordinates":[[[139.79161,35.68981],[139.79042,35.6892],[139.78948,35.69034],[139.78917,35.69084],[139.78903,35.69116],[139.78889,35.69169],[139.79337,35.69191],[139.79343,35.69071],[139.79242,35.69066],[139.79264,35.69034],[139.79159,35.68984],[139.79161,35.68981]]]}},{"type":"Feature","properties":{"id":"area-13107002002","name":"千歳二丁目"},"geometry":{"type":"Polygon","coordinates":[[[139.79584,35.69126],[139.79613,35.6899],[139.79498,35.68981],[139.79493,35.6903],[139.79349,35.69018],[139.79337,35.69191],[139.79577,35.69203],[139.79584,35.69126]]]}},{"type":"Feature","properties":{"id":"area-13107002003","name":"千歳三丁目"},"geometry":{"type":"Polygon","coordinates":[[[139.79785,35.69215],[139.79814,35.68928],[139.79801,35.68921],[139.79792,35.68921],[139.79792,35.68917],[139.7967,35.68857],[139.7967,35.6887],[139.79636,35.68991],[139.79613,35.6899],[139.79584,35.69126],[139.79577,35.69203],[139.79785,35.69215]]]}},{"type":"Feature","properties":{"id":"area-13107003001","name":"緑一丁目"},"geometry":{"type":"Polygon","coordinates":[[[139.80048,35.69229],[139.79786,35.69212],[139.79757,35.69574],[139.80021,35.69586],[139.80045,35.69312],[139.80048,35.69229]]]}},{"type":"Feature","properties":{"id":"area-13107003002","name":"緑二丁目"},"geometry":{"type":"Polygon","coordinates":[[[139.8031,35.69244],[139.80048,35.69229],[139.80045,35.69312],[139.80021,35.69586],[139.80283,35.696],[139.8031,35.69244]]]}},{"type":"Feature","properties":{"id":"area-13107003003","name":"緑三丁目"},"geometry":{"type":"Polygon","coordinates":[[[139.80568,35.69258],[139.8031,35.69244],[139.80283,35.696],[139.80539,35.69614],[139.80568,35.69258]]]}},{"type":"Feature","properties":{"id":"area-13107003004","name":"緑四丁目"},"geometry":{"type":"Polygon","coordinates":[[[139.80877,35.69633],[139.80878,35.69614],[139.80874,35.69614],[139.80882,35.69506],[139.809,35.69273],[139.80568,35.69258],[139.80539,35.69614],[139.80877,35.69633]]]}},{"type":"Feature","properties":{"id":"area-13107004001","name":"立川一丁目"},"geometry":{"type":"Polygon","coordinates":[[[139.79931,35.68983],[139.79814,35.68928],[139.79786,35.69212],[139.80048,35.69229],[139.80061,35.69022],[139.79928,35.69015],[139.79931,35.68983]]]}},{"type":"Feature","properties":{"id":"area-13107004002","name":"立川二丁目"},"geometry":{"type":"Polygon","coordinates":[[[139.80323,35.69037],[139.80061,35.69022],[139.80048,35.69229],[139.8031,35.69244],[139.80323,35.69037]]]}},{"type":"Feature","properties":{"id":"area-13107004003","name":"立川三丁目"},"geometry":{"type":"Polygon","coordinates":[[[139.80589,35.69008],[139.80326,35.68994],[139.8031,35.69244],[139.80567,35.69257],[139.80589,35.69008]]]}},{"type":"Feature","properties":{"id":"area-13107004004","name":"立川四丁目"},"geometry":{"type":"Polygon","coordinates":[[[139.809,35.69273],[139.80922,35.69018],[139.80883,35.69016],[139.80826,35.6902],[139.80589,35.69008],[139.80567,35.69257],[139.809,35.69273]]]}},{"type":"Feature","properties":{"id":"area-13107005001","name":"菊川一丁目"},"geometry":{"type":"Polygon","coordinates":[[[139.80323,35.69037],[139.80337,35.6883],[139.8006,35.68819],[139.80043,35.68847],[139.8005,35.6885],[139.80045,35.68856],[139.80042,35.68855],[139.80026,35.68879],[139.80022,35.68878],[139.80015,35.6889],[139.80017,35.68891],[139.79957,35.68993],[139.79931,35.68983],[139.79928,35.69015],[139.80323,35.69037]]]}},{"type":"Feature","properties":{"id":"area-13107005002","name":"菊川二丁目"},"geometry":{"type":"Polygon","coordinates":[[[139.80589,35.69008],[139.80616,35.68675],[139.80483,35.68669],[139.80469,35.68835],[139.80337,35.6883],[139.80326,35.68994],[139.80589,35.69008]]]}},{"type":"Feature","properties":{"id":"area-13107005003","name":"菊川三丁目"},"geometry":{"type":"Polygon","coordinates":[[[139.80826,35.6902],[139.80883,35.69016],[139.80922,35.69018],[139.80955,35.68691],[139.80616,35.68675],[139.80589,35.69008],[139.80826,35.6902]]]}},{"type":"Feature","properties":{"id":"area-13107006001","name":"江東橋一丁目"},"geometry":{"type":"Polygon","coordinates":[[[139.80997,35.69637],[139.80999,35.696],[139.81107,35.69603],[139.81129,35.69286],[139.809,35.69273],[139.80882,35.69506],[139.80874,35.69614],[139.80878,35.69614],[139.80877,35.69633],[139.80997,35.69637]]]}},{"type":"Feature","properties":{"id":"area-13107006002","name":"江東橋二丁目"},"geometry":{"type":"Polygon","coordinates":[[[139.81253,35.69609],[139.81259,35.69543],[139.81298,35.69544],[139.81307,35.69453],[139.81314,35.69453],[139.81326,35.69297],[139.81129,35.69286],[139.81107,35.69603],[139.80999,35.696],[139.80997,35.69637],[139.81297,35.69649],[139.81299,35.69619],[139.81293,35.69612],[139.81253,35.69609]]]}},{"type":"Feature","properties":{"id":"area-13107006003","name":"江東橋三丁目"},"geometry":{"type":"Polygon","coordinates":[[[139.81507,35.69556],[139.81527,35.69308],[139.81326,35.69297],[139.81314,35.69453],[139.81307,35.69453],[139.81298,35.69544],[139.81259,35.69543],[139.81253,35.69609],[139.81293,35.69612],[139.81299,35.69619],[139.81297,35.69649],[139.81502,35.69661],[139.81507,35.69556]]]}},{"type":"Feature","properties":{"id":"area-13107006004","name":"江東橋四丁目"},"geometry":{"type":"Polygon","coordinates":[[[139.81974,35.69332],[139.81527,35.69308],[139.81506,35.69569],[139.81502,35.69661],[139.81946,35.69684],[139.81974,35.69332]]]}},{"type":"Feature","properties":{"id":"area-13107006005","name":"江東橋五丁目"},"geometry":{"type":"Polygon","coordinates":[[[139.81173,35.68877],[139.80938,35.68861],[139.809,35.69273],[139.81326,35.69297],[139.81332,35.6922],[139.81136,35.69209],[139.81173,35.68877]]]}},{"type":"Feature","properties":{"id":"area-13107007001","name":"横網一丁目"},"geometry":{"type":"Polygon","coordinates":[[[139.79728,35.69862],[139.79757,35.69569],[139.79705,35.69565],[139.79692,35.69555],[139.79483,35.69543],[139.7948,35.69554],[139.7918,35.69578],[139.79144,35.69586],[139.78987,35.69643],[139.79034,35.697],[139.79181,35.69862],[139.79253,35.69953],[139.79483,35.69879],[139.79617,35.69867],[139.79728,35.69862]]]}},{"type":"Feature","properties":{"id":"area-13107007002","name":"横網二丁目"},"geometry":{"type":"Polygon","coordinates":[[[139.79696,35.70186],[139.79728,35.69862],[139.79617,35.69867],[139.79483,35.69879],[139.79253,35.69953],[139.79363,35.70133],[139.7939,35.70182],[139.79404,35.70215],[139.79487,35.7019],[139.79696,35.70186]]]}},{"type":"Feature","properties":{"id":"area-13107008001","name":"亀沢一丁目"},"geometry":{"type":"Polygon","coordinates":[[[139.79757,35.69574],[139.79752,35.696],[139.79728,35.69859],[139.79999,35.69877],[139.80021,35.69586],[139.79757,35.69574]]]}},{"type":"Feature","properties":{"id":"area-13107008002","name":"亀沢二丁目"},"geometry":{"type":"Polygon","coordinates":[[[139.80281,35.696],[139.80021,35.69586],[139.79999,35.69877],[139.8026,35.69893],[139.80281,35.696]]]}},{"type":"Feature","properties":{"id":"area-13107008003","name":"亀沢三丁目"},"geometry":{"type":"Polygon","coordinates":[[[139.80283,35.696],[139.8026,35.69893],[139.8051,35.69906],[139.80536,35.69614],[139.80283,35.696]]]}},{"type":"Feature","properties":{"id":"area-13107008004","name":"亀沢四丁目"},"geometry":{"type":"Polygon","coordinates":[[[139.80874,35.69633],[139.80536,35.69614],[139.8051,35.69906],[139.80851,35.69925],[139.80874,35.69633]]]}},{"type":"Feature","properties":{"id":"area-13107009001","name":"石原一丁目"},"geometry":{"type":"Polygon","coordinates":[[[139.79985,35.70201],[139.79983,35.70038],[139.79997,35.69877],[139.79728,35.69859],[139.79696,35.70186],[139.79985,35.70201]]]}},{"type":"Feature","properties":{"id":"area-13107009002","name":"石原二丁目"},"geometry":{"type":"Polygon","coordinates":[[[139.79999,35.69877],[139.7999,35.69944],[139.79983,35.70038],[139.79985,35.70201],[139.80236,35.70215],[139.8026,35.69893],[139.79999,35.69877]]]}},{"type":"Feature","properties":{"id":"area-13107009003","name":"石原三丁目"},"geometry":{"type":"Polygon","coordinates":[[[139.80509,35.69906],[139.8026,35.69893],[139.80236,35.70215],[139.80481,35.70227],[139.80509,35.69906]]]}},{"type":"Feature","properties":{"id":"area-13107009004","name":"石原四丁目"},"geometry":{"type":"Polygon","coordinates":[[[139.8051,35.69906],[139.80481,35.70227],[139.80826,35.70245],[139.80851,35.69925],[139.8051,35.69906]]]}},{"type":"Feature","properties":{"id":"area-13107010001","name":"本所一丁目"},"geometry":{"type":"Polygon","coordinates":[[[139.79865,35.70478],[139.79988,35.70483],[139.79995,35.70409],[139.79991,35.70369],[139.79987,35.70201],[139.79698,35.70186],[139.79487,35.7019],[139.79404,35.70215],[139.79448,35.70313],[139.79583,35.70562],[139.79678,35.70529],[139.79865,35.70478]]]}},{"type":"Feature","properties":{"id":"area-13107010002","name":"本所二丁目"},"geometry":{"type":"Polygon","coordinates":[[[139.80235,35.70215],[139.79987,35.70201],[139.79991,35.70369],[139.79995,35.70409],[139.79988,35.70483],[139.79994,35.70483],[139.79993,35.70499],[139.80218,35.7051],[139.80235,35.70215]]]}},{"type":"Feature","properties":{"id":"area-13107010003","name":"本所三丁目"},"geometry":{"type":"Polygon","coordinates":[[[139.80236,35.70215],[139.80229,35.70291],[139.80218,35.7051],[139.8046,35.70522],[139.80483,35.70227],[139.80236,35.70215]]]}},{"type":"Feature","properties":{"id":"area-13107010004","name":"本所四丁目"},"geometry":{"type":"Polygon","coordinates":[[[139.80827,35.70245],[139.80483,35.70227],[139.8046,35.70522],[139.80759,35.70537],[139.80763,35.70539],[139.80807,35.70542],[139.80805,35.70539],[139.80827,35.70245]]]}},{"type":"Feature","properties":{"id":"area-13107011001","name":"東駒形一丁目"},"geometry":{"type":"Polygon","coordinates":[[[139.79994,35.70483],[139.79866,35.70478],[139.79678,35.70529],[139.79583,35.70562],[139.79674,35.70724],[139.79741,35.70823],[139.79827,35.70783],[139.79979,35.70646],[139.79994,35.70483]]]}},{"type":"Feature","properties":{"id":"area-13107011002","name":"東駒形二丁目"},"geometry":{"type":"Polygon","coordinates":[[[139.80219,35.7051],[139.79993,35.70499],[139.79979,35.70646],[139.79885,35.70731],[139.8,35.70757],[139.80222,35.70801],[139.80214,35.70655],[139.80219,35.7051]]]}},{"type":"Feature","properties":{"id":"area-13107011003","name":"東駒形三丁目"},"geometry":{"type":"Polygon","coordinates":[[[139.80459,35.70522],[139.80219,35.7051],[139.80214,35.70655],[139.80222,35.70801],[139.80438,35.70809],[139.80452,35.70652],[139.80459,35.70522]]]}},{"type":"Feature","properties":{"id":"area-13107011004","name":"東駒形四丁目"},"geometry":{"type":"Polygon","coordinates":[[[139.8046,35.70522],[139.80438,35.70809],[139.80449,35.70814],[139.80732,35.7083],[139.8073,35.70873],[139.80776,35.70875],[139.80795,35.70709],[139.80807,35.70542],[139.80763,35.70539],[139.80759,35.70537],[139.8046,35.70522]]]}},{"type":"Feature","properties":{"id":"area-13107012001","name":"吾妻橋一丁目"},"geometry":{"type":"Polygon","coordinates":[[[139.80222,35.70801],[139.79885,35.70731],[139.79827,35.70783],[139.79741,35.70823],[139.79899,35.71007],[139.8009,35.7119],[139.80168,35.71139],[139.80215,35.71129],[139.80206,35.71097],[139.80223,35.70853],[139.80222,35.70801]]]}},{"type":"Feature","properties":{"id":"area-13107012002","name":"吾妻橋二丁目"},"geometry":{"type":"Polygon","coordinates":[[[139.80438,35.70809],[139.80222,35.70801],[139.80223,35.70853],[139.80206,35.71097],[139.80215,35.71129],[139.80234,35.71127],[139.8044,35.71066],[139.80416,35.71005],[139.80438,35.70809]]]}},{"type":"Feature","properties":{"id":"area-13107012003","name":"吾妻橋三丁目"},"geometry":{"type":"Polygon","coordinates":[[[139.80449,35.70814],[139.80438,35.70809],[139.80416,35.71005],[139.8044,35.71066],[139.80654,35.70999],[139.80768,35.7097],[139.80776,35.70875],[139.8073,35.70873],[139.80732,35.7083],[139.80449,35.70814]]]}},{"type":"Feature","properties":{"id":"area-13107013001","name":"錦糸一丁目"},"geometry":{"type":"Polygon","coordinates":[[[139.81184,35.69773],[139.81188,35.69701],[139.81268,35.69709],[139.81275,35.69705],[139.81322,35.69706],[139.81322,35.69719],[139.81499,35.69725],[139.81502,35.69661],[139.81281,35.69648],[139.80874,35.69633],[139.80851,35.69926],[139.81175,35.69945],[139.8119,35.69773],[139.81184,35.69773]]]}},{"type":"Feature","properties":{"id":"area-13107013002","name":"錦糸二丁目"},"geometry":{"type":"Polygon","coordinates":[[[139.81331,35.69954],[139.81347,35.69773],[139.81357,35.69774],[139.81358,35.69763],[139.81394,35.69764],[139.81397,35.69721],[139.81322,35.69719],[139.81322,35.69706],[139.81275,35.69705],[139.81268,35.69709],[139.81188,35.69701],[139.81184,35.69773],[139.8119,35.69773],[139.81175,35.69945],[139.81331,35.69954]]]}},{"type":"Feature","properties":{"id":"area-13107013003","name":"錦糸三丁目"},"geometry":{"type":"Polygon","coordinates":[[[139.81481,35.69962],[139.81499,35.69725],[139.81397,35.69721],[139.81394,35.69764],[139.81358,35.69763],[139.81357,35.69774],[139.81347,35.69773],[139.81331,35.69954],[139.81481,35.69962]]]}},{"type":"Feature","properties":{"id":"area-13107013004","name":"錦糸四丁目"},"geometry":{"type":"Polygon","coordinates":[[[139.81946,35.69684],[139.81502,35.69661],[139.81496,35.69792],[139.81479,35.69994],[139.81784,35.70012],[139.81785,35.70024],[139.8192,35.70031],[139.81946,35.69684]]]}},{"type":"Feature","properties":{"id":"area-13107014001","name":"太平一丁目"},"geometry":{"type":"Polygon","coordinates":[[[139.81149,35.70261],[139.81175,35.69945],[139.80851,35.69926],[139.80826,35.70245],[139.81149,35.70261]]]}},{"type":"Feature","properties":{"id":"area-13107014002","name":"太平二丁目"},"geometry":{"type":"Polygon","coordinates":[[[139.81331,35.69954],[139.81175,35.69945],[139.81149,35.70261],[139.81304,35.70269],[139.81331,35.69954]]]}},{"type":"Feature","properties":{"id":"area-13107014003","name":"太平三丁目"},"geometry":{"type":"Polygon","coordinates":[[[139.81481,35.69962],[139.81331,35.69954],[139.81304,35.70269],[139.81455,35.70277],[139.81481,35.69962]]]}},{"type":"Feature","properties":{"id":"area-13107014004","name":"太平四丁目"},"geometry":{"type":"Polygon","coordinates":[[[139.81784,35.70012],[139.81479,35.69994],[139.81455,35.70277],[139.81903,35.70302],[139.8192,35.70031],[139.81785,35.70024],[139.81784,35.70012]]]}},{"type":"Feature","properties":{"id":"area-13107015001","name":"横川一丁目"},"geometry":{"type":"Polygon","coordinates":[[[139.81103,35.70669],[139.81111,35.70589],[139.81127,35.7059],[139.81132,35.70544],[139.81136,35.70544],[139.81141,35.70425],[139.81137,35.70412],[139.81149,35.70261],[139.80828,35.70244],[139.80805,35.70539],[139.80807,35.70542],[139.80802,35.70609],[139.80905,35.70616],[139.80902,35.70659],[139.81103,35.70669]]]}},{"type":"Feature","properties":{"id":"area-13107015002","name":"横川二丁目"},"geometry":{"type":"Polygon","coordinates":[[[139.81301,35.70269],[139.81149,35.70261],[139.81137,35.70412],[139.81141,35.70425],[139.81136,35.70544],[139.81279,35.70552],[139.81301,35.70269]]]}},{"type":"Feature","properties":{"id":"area-13107015003","name":"横川三丁目"},"geometry":{"type":"Polygon","coordinates":[[[139.81454,35.70277],[139.81301,35.70269],[139.81299,35.70298],[139.81279,35.70552],[139.81429,35.7056],[139.81454,35.70277]]]}},{"type":"Feature","properties":{"id":"area-13107015004","name":"横川四丁目"},"geometry":{"type":"Polygon","coordinates":[[[139.81455,35.70277],[139.81429,35.7056],[139.81611,35.70569],[139.81634,35.70287],[139.81455,35.70277]]]}},{"type":"Feature","properties":{"id":"area-13107015005","name":"横川五丁目"},"geometry":{"type":"Polygon","coordinates":[[[139.81903,35.70302],[139.81634,35.70287],[139.81611,35.70569],[139.81616,35.70569],[139.81613,35.7062],[139.8181,35.70627],[139.81881,35.70617],[139.81903,35.70302]]]}},{"type":"Feature","properties":{"id":"area-13107016001","name":"業平一丁目"},"geometry":{"type":"Polygon","coordinates":[[[139.80769,35.70969],[139.80789,35.70963],[139.80789,35.70969],[139.80815,35.70969],[139.80815,35.70956],[139.80875,35.70939],[139.80904,35.70935],[139.81091,35.70951],[139.81098,35.70886],[139.81108,35.70885],[139.81127,35.7059],[139.81111,35.70589],[139.81103,35.70669],[139.80902,35.70659],[139.80905,35.70616],[139.80802,35.70609],[139.80795,35.70709],[139.80776,35.70875],[139.80769,35.70969]]]}},{"type":"Feature","properties":{"id":"area-13107016002","name":"業平二丁目"},"geometry":{"type":"Polygon","coordinates":[[[139.81279,35.70552],[139.81132,35.70544],[139.81128,35.70587],[139.81108,35.70885],[139.81098,35.70886],[139.81091,35.70951],[139.81246,35.70966],[139.81279,35.70552]]]}},{"type":"Feature","properties":{"id":"area-13107016003","name":"業平三丁目"},"geometry":{"type":"Polygon","coordinates":[[[139.81279,35.70552],[139.81246,35.70966],[139.81323,35.70972],[139.81369,35.7097],[139.81384,35.70965],[139.81371,35.70945],[139.81366,35.70929],[139.81365,35.70907],[139.81389,35.708],[139.8142,35.7068],[139.81429,35.7056],[139.81279,35.70552]]]}},{"type":"Feature","properties":{"id":"area-13107016004","name":"業平四丁目"},"geometry":{"type":"Polygon","coordinates":[[[139.81616,35.70569],[139.81429,35.7056],[139.8142,35.7068],[139.81389,35.708],[139.81365,35.70907],[139.81366,35.70929],[139.81371,35.70945],[139.81384,35.70965],[139.81527,35.70898],[139.81609,35.70879],[139.81593,35.70842],[139.81616,35.70569]]]}},{"type":"Feature","properties":{"id":"area-13107016005","name":"業平五丁目"},"geometry":{"type":"Polygon","coordinates":[[[139.8187,35.70806],[139.81881,35.70617],[139.8181,35.70627],[139.81613,35.7062],[139.81593,35.70842],[139.81609,35.70879],[139.81791,35.70837],[139.81833,35.70823],[139.8187,35.70806]]]}},{"type":"Feature","properties":{"id":"area-13107017001","name":"向島一丁目"},"geometry":{"type":"Polygon","coordinates":[[[139.80855,35.71072],[139.80856,35.70944],[139.80815,35.70956],[139.80815,35.70969],[139.80789,35.70969],[139.80789,35.70963],[139.80741,35.70978],[139.80654,35.70999],[139.80234,35.71127],[139.80168,35.71139],[139.8009,35.7119],[139.80107,35.71208],[139.80215,35.71296],[139.80346,35.71422],[139.80455,35.71354],[139.80549,35.71309],[139.80844,35.71153],[139.80851,35.71143],[139.80855,35.71072]]]}},{"type":"Feature","properties":{"id":"area-13107017002","name":"向島二丁目"},"geometry":{"type":"Polygon","coordinates":[[[139.81012,35.71575],[139.80585,35.7129],[139.80455,35.71354],[139.80346,35.71422],[139.80544,35.71617],[139.80663,35.71744],[139.8077,35.71691],[139.8091,35.71638],[139.81012,35.71575]]]}},{"type":"Feature","properties":{"id":"area-13107017003","name":"向島三丁目"},"geometry":{"type":"Polygon","coordinates":[[[139.8108,35.712],[139.80855,35.71072],[139.80851,35.71143],[139.80844,35.71153],[139.80585,35.7129],[139.81012,35.71575],[139.81077,35.71532],[139.81283,35.71371],[139.8108,35.712]]]}},{"type":"Feature","properties":{"id":"area-13107017004","name":"向島四丁目"},"geometry":{"type":"Polygon","coordinates":[[[139.8147,35.71531],[139.81281,35.71373],[139.81077,35.71532],[139.81012,35.71575],[139.81339,35.71798],[139.81418,35.71683],[139.81439,35.71635],[139.81461,35.71551],[139.8147,35.71531]]]}},{"type":"Feature","properties":{"id":"area-13107017005","name":"向島五丁目"},"geometry":{"type":"Polygon","coordinates":[[[139.80898,35.72235],[139.81148,35.72136],[139.81165,35.72145],[139.81175,35.72126],[139.81184,35.72095],[139.81239,35.71997],[139.81261,35.71949],[139.81339,35.71798],[139.81012,35.71575],[139.8091,35.71638],[139.8077,35.71691],[139.80663,35.71744],[139.80722,35.71815],[139.80822,35.71993],[139.80855,35.72077],[139.80872,35.72133],[139.80895,35.72233],[139.80898,35.72235]]]}},{"type":"Feature","properties":{"id":"area-13107018001","name":"東向島一丁目"},"geometry":{"type":"Polygon","coordinates":[[[139.81546,35.72146],[139.81629,35.72056],[139.81339,35.71798],[139.81261,35.71949],[139.81239,35.71997],[139.81184,35.72095],[139.81175,35.72126],[139.81165,35.72145],[139.81148,35.72136],[139.81267,35.72331],[139.81269,35.72341],[139.81282,35.72366],[139.81323,35.72325],[139.81342,35.72312],[139.81364,35.72305],[139.81382,35.72295],[139.81476,35.72213],[139.81546,35.72146]]]}},{"type":"Feature","properties":{"id":"area-13107018002","name":"東向島二丁目"},"geometry":{"type":"Polygon","coordinates":[[[139.81672,35.71703],[139.8147,35.71531],[139.81461,35.71551],[139.81439,35.71635],[139.81418,35.71683],[139.81339,35.71798],[139.81842,35.72245],[139.82051,35.72027],[139.81741,35.71761],[139.81678,35.71704],[139.81672,35.71703]]]}},{"type":"Feature","properties":{"id":"area-13107018003","name":"東向島三丁目"},"geometry":{"type":"Polygon","coordinates":[[[139.8163,35.72056],[139.81546,35.72146],[139.81476,35.72213],[139.81377,35.72299],[139.81342,35.72312],[139.81323,35.72325],[139.81282,35.72366],[139.81291,35.72377],[139.8131,35.7241],[139.8132,35.72441],[139.81318,35.72467],[139.81313,35.72477],[139.81287,35.72507],[139.81279,35.72509],[139.81283,35.72567],[139.81322,35.72755],[139.81334,35.72754],[139.81351,35.72747],[139.81382,35.72724],[139.8184,35.72244],[139.8163,35.72056]]]}},{"type":"Feature","properties":{"id":"area-13107018004","name":"東向島四丁目"},"geometry":{"type":"Polygon","coordinates":[[[139.81839,35.72716],[139.81977,35.7272],[139.81988,35.72724],[139.81989,35.72701],[139.81984,35.72644],[139.81966,35.72558],[139.81952,35.72466],[139.81947,35.72427],[139.81948,35.72383],[139.81928,35.72379],[139.8192,35.72314],[139.8184,35.72244],[139.81382,35.72724],[139.81351,35.72747],[139.81334,35.72754],[139.81322,35.72755],[139.81339,35.72811],[139.81374,35.72805],[139.81457,35.72799],[139.81733,35.72731],[139.81839,35.72716]]]}},{"type":"Feature","properties":{"id":"area-13107018005","name":"東向島五丁目"},"geometry":{"type":"Polygon","coordinates":[[[139.82108,35.72491],[139.8192,35.72314],[139.81928,35.72379],[139.81948,35.72383],[139.81947,35.72427],[139.81952,35.72466],[139.81966,35.72558],[139.81987,35.72666],[139.81988,35.72724],[139.82012,35.7274],[139.82036,35.72774],[139.82309,35.72933],[139.82416,35.72942],[139.82505,35.72868],[139.82515,35.72863],[139.82108,35.72491]]]}},{"type":"Feature","properties":{"id":"area-13107018006","name":"東向島六丁目"},"geometry":{"type":"Polygon","coordinates":[[[139.82154,35.72115],[139.82052,35.72026],[139.81842,35.72245],[139.8192,35.72314],[139.82108,35.72491],[139.82515,35.72863],[139.82612,35.72778],[139.82549,35.72698],[139.82497,35.72621],[139.82262,35.72218],[139.82154,35.72115]]]}},{"type":"Feature","properties":{"id":"area-13107019001","name":"堤通一丁目"},"geometry":{"type":"Polygon","coordinates":[[[139.81267,35.72331],[139.81148,35.72136],[139.8099,35.72196],[139.80898,35.72235],[139.80928,35.72334],[139.80948,35.7242],[139.80961,35.7251],[139.80977,35.72808],[139.81323,35.7276],[139.81302,35.72647],[139.81283,35.72567],[139.81279,35.72509],[139.81287,35.72507],[139.81313,35.72477],[139.81318,35.72467],[139.8132,35.72441],[139.8131,35.7241],[139.81291,35.72377],[139.81279,35.72363],[139.81269,35.72341],[139.81267,35.72331]]]}},{"type":"Feature","properties":{"id":"area-13107019002","name":"堤通二丁目"},"geometry":{"type":"Polygon","coordinates":[[[139.81695,35.73924],[139.81824,35.73666],[139.81824,35.73634],[139.81812,35.73527],[139.8181,35.73463],[139.81686,35.73358],[139.81658,35.73328],[139.81445,35.73075],[139.81417,35.73035],[139.814,35.72997],[139.81323,35.7276],[139.80977,35.72808],[139.80997,35.72907],[139.8103,35.73034],[139.81083,35.73185],[139.81104,35.73253],[139.8112,35.73287],[139.81157,35.73337],[139.81193,35.73379],[139.81335,35.73523],[139.81381,35.73576],[139.81414,35.73619],[139.81446,35.73681],[139.81457,35.73715],[139.81464,35.7377],[139.81463,35.73851],[139.81458,35.73905],[139.81618,35.74044],[139.81655,35.74013],[139.81695,35.73924]]]}},{"type":"Feature","properties":{"id":"area-13107020001","name":"墨田一丁目"},"geometry":{"type":"Polygon","coordinates":[[[139.81772,35.72878],[139.81835,35.72869],[139.81842,35.72876],[139.8185,35.72902],[139.81939,35.72923],[139.8197,35.72834],[139.81979,35.72795],[139.81986,35.72723],[139.81977,35.7272],[139.81849,35.72715],[139.81806,35.72719],[139.81733,35.72731],[139.81457,35.72799],[139.81374,35.72805],[139.8134,35.72811],[139.81404,35.73007],[139.81461,35.72989],[139.81772,35.72878]]]}},{"type":"Feature","properties":{"id":"area-13107020002","name":"墨田二丁目"},"geometry":{"type":"Polygon","coordinates":[[[139.81842,35.72876],[139.81835,35.72869],[139.81772,35.72878],[139.81461,35.72989],[139.81404,35.73007],[139.81417,35.73035],[139.81445,35.73075],[139.81658,35.73328],[139.81686,35.73358],[139.81802,35.73454],[139.81811,35.73466],[139.8199,35.7331],[139.81968,35.73286],[139.81942,35.73248],[139.81925,35.73217],[139.81915,35.73192],[139.81907,35.73164],[139.81904,35.73162],[139.819,35.73084],[139.81897,35.73079],[139.81902,35.73045],[139.81911,35.72999],[139.81939,35.72923],[139.8185,35.72902],[139.81842,35.72876]]]}},{"type":"Feature","properties":{"id":"area-13107020003","name":"墨田三丁目"},"geometry":{"type":"Polygon","coordinates":[[[139.8224,35.73097],[139.82421,35.72939],[139.82416,35.72942],[139.82309,35.72933],[139.82056,35.72787],[139.82036,35.72774],[139.82012,35.7274],[139.81986,35.72723],[139.81979,35.72795],[139.8197,35.72834],[139.81911,35.72999],[139.81897,35.73079],[139.819,35.73084],[139.81904,35.73162],[139.81907,35.73164],[139.81915,35.73192],[139.81925,35.73217],[139.81942,35.73248],[139.81968,35.73286],[139.81989,35.73309],[139.82152,35.73169],[139.8224,35.73097]]]}},{"type":"Feature","properties":{"id":"area-13107020004","name":"墨田四丁目"},"geometry":{"type":"Polygon","coordinates":[[[139.82722,35.7305],[139.82515,35.72863],[139.82505,35.72868],[139.81989,35.73309],[139.82082,35.73383],[139.8212,35.73425],[139.82169,35.73491],[139.82157,35.73498],[139.82163,35.73538],[139.82163,35.73564],[139.82158,35.73591],[139.82137,35.73666],[139.82389,35.73777],[139.82512,35.73593],[139.82584,35.73507],[139.82658,35.73423],[139.82811,35.73269],[139.82902,35.73185],[139.82722,35.7305]]]}},{"type":"Feature","properties":{"id":"area-13107020005","name":"墨田五丁目"},"geometry":{"type":"Polygon","coordinates":[[[139.82361,35.73817],[139.82388,35.73777],[139.82137,35.73666],[139.82158,35.73591],[139.82163,35.73564],[139.82163,35.73538],[139.82157,35.73498],[139.82169,35.73491],[139.8212,35.73425],[139.82082,35.73383],[139.8199,35.7331],[139.81811,35.73466],[139.81812,35.73527],[139.81824,35.73634],[139.81824,35.73666],[139.81789,35.73732],[139.81695,35.73924],[139.81655,35.74013],[139.81618,35.74044],[139.81678,35.74124],[139.81796,35.74261],[139.82059,35.74358],[139.82207,35.74086],[139.82361,35.73817]]]}},{"type":"Feature","properties":{"id":"area-13107021001","name":"押上一丁目"},"geometry":{"type":"Polygon","coordinates":[[[139.81608,35.71206],[139.81677,35.71095],[139.81745,35.71003],[139.8179,35.70958],[139.81864,35.70901],[139.81807,35.70832],[139.81746,35.70849],[139.81527,35.70898],[139.81389,35.70964],[139.81352,35.70973],[139.81246,35.70966],[139.80938,35.70937],[139.80904,35.70935],[139.80856,35.70944],[139.80856,35.71033],[139.80912,35.71045],[139.81164,35.71113],[139.81255,35.71117],[139.81297,35.71141],[139.8145,35.71245],[139.81458,35.71239],[139.8149,35.71193],[139.81494,35.71192],[139.81528,35.71223],[139.81575,35.71281],[139.81608,35.71206]]]}},{"type":"Feature","properties":{"id":"area-13107021002","name":"押上二丁目"},"geometry":{"type":"Polygon","coordinates":[[[139.81562,35.71265],[139.81528,35.71223],[139.81494,35.71192],[139.8149,35.71193],[139.81458,35.71239],[139.8145,35.71245],[139.81297,35.71141],[139.81255,35.71117],[139.81164,35.71113],[139.80912,35.71045],[139.80856,35.71033],[139.80855,35.71072],[139.8108,35.712],[139.81283,35.71371],[139.81281,35.71373],[139.81304,35.71393],[139.81675,35.71704],[139.81668,35.71624],[139.8167,35.716],[139.81684,35.71554],[139.81718,35.71492],[139.81648,35.71397],[139.81562,35.71265]]]}},{"type":"Feature","properties":{"id":"area-13107021003","name":"押上三丁目"},"geometry":{"type":"Polygon","coordinates":[[[139.81908,35.71343],[139.82338,35.71188],[139.8212,35.71116],[139.82083,35.71101],[139.81973,35.70995],[139.81869,35.709],[139.81862,35.709],[139.81864,35.70901],[139.81819,35.70934],[139.81769,35.70977],[139.81727,35.71024],[139.81677,35.71095],[139.81606,35.71209],[139.81575,35.71281],[139.81648,35.71397],[139.81718,35.71492],[139.81749,35.7145],[139.81789,35.71412],[139.81826,35.71384],[139.81908,35.71343]]]}},{"type":"Feature","properties":{"id":"area-13107022001","name":"京島一丁目"},"geometry":{"type":"Polygon","coordinates":[[[139.82184,35.71641],[139.81813,35.71393],[139.8181,35.71395],[139.81749,35.7145],[139.81718,35.71492],[139.81691,35.71539],[139.81675,35.71578],[139.8167,35.716],[139.81668,35.71624],[139.81675,35.71704],[139.82051,35.72027],[139.82325,35.71743],[139.82184,35.71641]]]}},{"type":"Feature","properties":{"id":"area-13107022002","name":"京島二丁目"},"geometry":{"type":"Polygon","coordinates":[[[139.82041,35.71518],[139.82342,35.71266],[139.82364,35.712],[139.82332,35.7119],[139.81908,35.71343],[139.81851,35.7137],[139.81813,35.71393],[139.82016,35.7153],[139.82029,35.71527],[139.82041,35.71518]]]}},{"type":"Feature","properties":{"id":"area-13107022003","name":"京島三丁目"},"geometry":{"type":"Polygon","coordinates":[[[139.82325,35.71743],[139.82732,35.7132],[139.82364,35.712],[139.82342,35.71266],[139.82041,35.71518],[139.82029,35.71527],[139.82016,35.7153],[139.82184,35.71641],[139.82325,35.71743]]]}},{"type":"Feature","properties":{"id":"area-13107023001","name":"文花一丁目"},"geometry":{"type":"Polygon","coordinates":[[[139.82537,35.70848],[139.82438,35.70709],[139.82378,35.70604],[139.81905,35.70788],[139.81872,35.70785],[139.8187,35.70806],[139.81807,35.70832],[139.81862,35.709],[139.81869,35.709],[139.81973,35.70995],[139.82083,35.71101],[139.8212,35.71116],[139.82338,35.71188],[139.82376,35.71174],[139.82403,35.71099],[139.82526,35.70884],[139.82537,35.70861],[139.82537,35.70848]]]}},{"type":"Feature","properties":{"id":"area-13107023002","name":"文花二丁目"},"geometry":{"type":"Polygon","coordinates":[[[139.82837,35.71015],[139.82597,35.70514],[139.82378,35.70604],[139.82438,35.70709],[139.82525,35.70827],[139.82537,35.70848],[139.82537,35.70861],[139.82526,35.70884],[139.82403,35.71099],[139.82376,35.71174],[139.82491,35.71134],[139.82518,35.71132],[139.82541,35.71125],[139.82592,35.71107],[139.82707,35.7106],[139.82837,35.71015]]]}},{"type":"Feature","properties":{"id":"area-13107023003","name":"文花三丁目"},"geometry":{"type":"Polygon","coordinates":[[[139.82733,35.71321],[139.82791,35.71258],[139.82793,35.71264],[139.82875,35.7118],[139.82883,35.71163],[139.82891,35.71133],[139.82891,35.71121],[139.82837,35.71015],[139.82707,35.7106],[139.82592,35.71107],[139.82541,35.71125],[139.82518,35.71132],[139.82491,35.71134],[139.82332,35.7119],[139.82733,35.71321]]]}},{"type":"Feature","properties":{"id":"area-13107024001","name":"八広一丁目"},"geometry":{"type":"Polygon","coordinates":[[[139.82341,35.72254],[139.82397,35.72248],[139.82473,35.72219],[139.82527,35.72207],[139.82571,35.72212],[139.82599,35.72225],[139.82635,35.72232],[139.82602,35.72167],[139.82593,35.72117],[139.82548,35.71956],[139.82522,35.71926],[139.82325,35.71743],[139.82052,35.72026],[139.82142,35.72105],[139.82262,35.72218],[139.82283,35.72252],[139.82341,35.72254]]]}},{"type":"Feature","properties":{"id":"area-13107024002","name":"八広二丁目"},"geometry":{"type":"Polygon","coordinates":[[[139.82891,35.7157],[139.82791,35.71258],[139.82325,35.71743],[139.82447,35.71857],[139.82541,35.71836],[139.82619,35.71811],[139.82646,35.71792],[139.82668,35.71784],[139.82846,35.71762],[139.82862,35.71755],[139.82866,35.71744],[139.82947,35.71732],[139.82921,35.71645],[139.82896,35.71574],[139.82891,35.7157]]]}},{"type":"Feature","properties":{"id":"area-13107024003","name":"八広三丁目"},"geometry":{"type":"Polygon","coordinates":[[[139.82593,35.72117],[139.82694,35.72093],[139.82725,35.72094],[139.82815,35.7207],[139.82875,35.72064],[139.82932,35.7205],[139.8304,35.7204],[139.82947,35.71732],[139.82866,35.71744],[139.82862,35.71755],[139.82846,35.71762],[139.82668,35.71784],[139.82646,35.71792],[139.82619,35.71811],[139.82541,35.71836],[139.82447,35.71857],[139.82522,35.71926],[139.82548,35.71956],[139.82593,35.72117]]]}},{"type":"Feature","properties":{"id":"area-13107024004","name":"八広四丁目"},"geometry":{"type":"Polygon","coordinates":[[[139.83133,35.72324],[139.83041,35.7204],[139.82948,35.72047],[139.82875,35.72064],[139.82815,35.7207],[139.82725,35.72094],[139.82694,35.72093],[139.82657,35.72104],[139.8266,35.72101],[139.82591,35.72118],[139.82602,35.72167],[139.82818,35.72604],[139.82942,35.72492],[139.83082,35.72351],[139.83077,35.72329],[139.83133,35.72324]]]}},{"type":"Feature","properties":{"id":"area-13107024005","name":"八広五丁目"},"geometry":{"type":"Polygon","coordinates":[[[139.82818,35.72604],[139.82635,35.72232],[139.82599,35.72225],[139.82571,35.72212],[139.82544,35.72208],[139.82527,35.72207],[139.82493,35.72213],[139.82397,35.72248],[139.82341,35.72254],[139.82283,35.72252],[139.82497,35.72621],[139.82549,35.72698],[139.82612,35.72778],[139.82818,35.72604]]]}},{"type":"Feature","properties":{"id":"area-13107024006","name":"八広六丁目"},"geometry":{"type":"Polygon","coordinates":[[[139.83143,35.72352],[139.83133,35.72324],[139.83077,35.72329],[139.83082,35.72351],[139.82942,35.72492],[139.82783,35.72635],[139.82612,35.72778],[139.82515,35.72863],[139.82722,35.7305],[139.82902,35.73185],[139.83416,35.72695],[139.83193,35.72541],[139.83143,35.72352]]]}},{"type":"Feature","properties":{"id":"area-13107025001","name":"立花一丁目"},"geometry":{"type":"Polygon","coordinates":[[[139.83105,35.70687],[139.83125,35.70686],[139.83187,35.70696],[139.83323,35.70288],[139.83086,35.70293],[139.83073,35.70297],[139.82938,35.70384],[139.82798,35.70434],[139.82597,35.70514],[139.82724,35.7078],[139.8278,35.70758],[139.82804,35.70744],[139.82846,35.70727],[139.82909,35.7072],[139.83105,35.70687]]]}},{"type":"Feature","properties":{"id":"area-13107025002","name":"立花二丁目"},"geometry":{"type":"Polygon","coordinates":[[[139.83188,35.70696],[139.83125,35.70686],[139.83105,35.70687],[139.82909,35.7072],[139.82846,35.70727],[139.82804,35.70744],[139.8278,35.70758],[139.82724,35.7078],[139.82837,35.71015],[139.82908,35.70986],[139.82999,35.7094],[139.83034,35.70913],[139.8309,35.70861],[139.83123,35.70819],[139.83154,35.70771],[139.83188,35.70696]]]}},{"type":"Feature","properties":{"id":"area-13107025003","name":"立花三丁目"},"geometry":{"type":"Polygon","coordinates":[[[139.83772,35.70833],[139.83675,35.70759],[139.83595,35.70687],[139.83512,35.70609],[139.83477,35.70572],[139.83464,35.70545],[139.83455,35.70519],[139.8345,35.70478],[139.83455,35.70448],[139.83462,35.70428],[139.83502,35.70361],[139.83563,35.70307],[139.83521,35.70297],[139.83466,35.70291],[139.83323,35.70288],[139.83187,35.70696],[139.83222,35.70705],[139.83262,35.7072],[139.83418,35.70797],[139.83561,35.70841],[139.83614,35.70841],[139.83642,35.70831],[139.83666,35.70831],[139.83727,35.70866],[139.83772,35.70833]]]}},{"type":"Feature","properties":{"id":"area-13107025004","name":"立花四丁目"},"geometry":{"type":"Polygon","coordinates":[[[139.83727,35.70866],[139.83666,35.70831],[139.83642,35.70831],[139.83614,35.70841],[139.83561,35.70841],[139.83436,35.70804],[139.83382,35.70781],[139.83262,35.7072],[139.83222,35.70705],[139.83188,35.70696],[139.83154,35.70771],[139.83123,35.70819],[139.8309,35.70861],[139.83051,35.70898],[139.82999,35.7094],[139.82908,35.70986],[139.82837,35.71015],[139.82891,35.71121],[139.83147,35.71084],[139.834,35.71038],[139.83552,35.71007],[139.83579,35.70996],[139.83727,35.70866]]]}},{"type":"Feature","properties":{"id":"area-13107025005","name":"立花五丁目"},"geometry":{"type":"Polygon","coordinates":[[[139.83314,35.71132],[139.83308,35.71055],[139.83112,35.7109],[139.82891,35.71121],[139.82891,35.71133],[139.82883,35.71163],[139.82875,35.7118],[139.82793,35.71264],[139.82891,35.7157],[139.82896,35.71574],[139.83263,35.71504],[139.83324,35.71503],[139.83336,35.71463],[139.83368,35.71406],[139.83414,35.71346],[139.8346,35.71307],[139.83342,35.71219],[139.83314,35.71132]]]}},{"type":"Feature","properties":{"id":"area-13107025006","name":"立花六丁目"},"geometry":{"type":"Polygon","coordinates":[[[139.83918,35.70944],[139.83772,35.70833],[139.83727,35.70866],[139.83579,35.70996],[139.83566,35.71002],[139.83528,35.71012],[139.83308,35.71055],[139.83314,35.71132],[139.83342,35.71219],[139.8346,35.71307],[139.83531,35.71254],[139.8359,35.7122],[139.83617,35.71208],[139.83676,35.71191],[139.83764,35.71172],[139.8384,35.71149],[139.83885,35.71129],[139.83931,35.71102],[139.83947,35.71089],[139.83964,35.71066],[139.83969,35.71049],[139.83968,35.71012],[139.8396,35.70989],[139.83918,35.70944]]]}},{"type":"Feature","properties":{"id":"area-13107026001","name":"東墨田一丁目"},"geometry":{"type":"Polygon","coordinates":[[[139.83154,35.71794],[139.83269,35.71783],[139.8332,35.71788],[139.83381,35.71784],[139.83419,35.71775],[139.83461,35.71745],[139.83383,35.71671],[139.83338,35.71604],[139.83326,35.71583],[139.8332,35.71553],[139.83324,35.71503],[139.83263,35.71504],[139.82896,35.71574],[139.82921,35.71645],[139.82962,35.7178],[139.83046,35.71773],[139.83061,35.71791],[139.83087,35.71794],[139.83154,35.71794]]]}},{"type":"Feature","properties":{"id":"area-13107026002","name":"東墨田二丁目"},"geometry":{"type":"Polygon","coordinates":[[[139.83335,35.72064],[139.83332,35.72032],[139.83297,35.71846],[139.83269,35.71783],[139.83123,35.71794],[139.83061,35.71791],[139.83046,35.71773],[139.82962,35.7178],[139.83039,35.7204],[139.83143,35.72352],[139.83193,35.72541],[139.83416,35.72695],[139.83679,35.72449],[139.8345,35.7229],[139.83401,35.72228],[139.83369,35.72181],[139.83349,35.72159],[139.83346,35.72151],[139.83345,35.72127],[139.83348,35.72108],[139.83335,35.72064]]]}},{"type":"Feature","properties":{"id":"area-13107026003","name":"東墨田三丁目"},"geometry":{"type":"Polygon","coordinates":[[[139.84233,35.71915],[139.83901,35.71708],[139.83847,35.71746],[139.83789,35.71773],[139.83705,35.71798],[139.83658,35.71804],[139.83627,35.71804],[139.83578,35.71797],[139.83535,35.71786],[139.83494,35.71769],[139.83461,35.71745],[139.83419,35.71775],[139.83381,35.71784],[139.8332,35.71788],[139.83269,35.71783],[139.83297,35.71846],[139.83332,35.72032],[139.83335,35.72069],[139.83348,35.72108],[139.83345,35.72127],[139.83346,35.72151],[139.83349,35.72159],[139.83369,35.72181],[139.83401,35.72228],[139.8345,35.7229],[139.83678,35.72448],[139.83983,35.72161],[139.84233,35.71915]]]}}]}