{"type":"FeatureCollection","features":[{"type":"Feature","properties":{"id":"area-13105010001","name":"後楽一丁目"},"geometry":{"type":"Polygon","coordinates":[[[139.7519,35.70701],[139.75454,35.70527],[139.75549,35.70206],[139.75449,35.70228],[139.7529,35.70248],[139.75085,35.70263],[139.74921,35.70284],[139.74738,35.70291],[139.74636,35.7029],[139.74603,35.703],[139.74653,35.70666],[139.74666,35.70677],[139.74965,35.707],[139.7519,35.70701]]]}},{"type":"Feature","properties":{"id":"area-13105010002","name":"後楽二丁目"},"geometry":{"type":"Polygon","coordinates":[[[139.74542,35.7026],[139.74512,35.70255],[139.74484,35.70294],[139.74446,35.70421],[139.7445,35.70422],[139.74402,35.70556],[139.74391,35.7058],[139.74375,35.70628],[139.74335,35.7078],[139.74508,35.70805],[139.74666,35.70677],[139.74653,35.70666],[139.74603,35.703],[139.74636,35.7029],[139.74542,35.7026]]]}},{"type":"Feature","properties":{"id":"area-13105011001","name":"春日一丁目"},"geometry":{"type":"Polygon","coordinates":[[[139.74759,35.71001],[139.74968,35.7085],[139.7536,35.70848],[139.75366,35.70837],[139.75381,35.7079],[139.7539,35.70743],[139.75398,35.70725],[139.75454,35.70527],[139.7519,35.70701],[139.74965,35.707],[139.74666,35.70677],[139.74508,35.70805],[139.74573,35.70814],[139.74639,35.71052],[139.74759,35.71001]]]}},{"type":"Feature","properties":{"id":"area-13105011002","name":"春日二丁目"},"geometry":{"type":"Polygon","coordinates":[[[139.74181,35.71343],[139.74327,35.7124],[139.74328,35.71242],[139.74355,35.71221],[139.7451,35.71116],[139.74639,35.71052],[139.74573,35.70814],[139.74512,35.70805],[139.74448,35.70903],[139.74392,35.70941],[139.74384,35.70953],[139.74314,35.70993],[139.74312,35.7099],[139.74282,35.71006],[139.74225,35.71044],[139.741,35.71059],[139.7403,35.7109],[139.74037,35.71095],[139.74082,35.71178],[139.74067,35.71246],[139.74046,35.71258],[139.74014,35.71321],[139.74047,35.7133],[139.7411,35.71385],[139.74168,35.71347],[139.74181,35.71343]]]}},{"type":"Feature","properties":{"id":"area-13105012001","name":"小石川一丁目"},"geometry":{"type":"Polygon","coordinates":[[[139.7526,35.71187],[139.75294,35.71078],[139.75292,35.71074],[139.75323,35.70961],[139.75328,35.70961],[139.7534,35.70924],[139.75337,35.70909],[139.75349,35.70866],[139.75331,35.70847],[139.75183,35.70849],[139.7517,35.71083],[139.75112,35.71305],[139.74827,35.71495],[139.74845,35.71508],[139.74987,35.71512],[139.75196,35.71543],[139.7526,35.71187]]]}},{"type":"Feature","properties":{"id":"area-13105012002","name":"小石川二丁目"},"geometry":{"type":"Polygon","coordinates":[[[139.75121,35.71272],[139.7517,35.71083],[139.75183,35.70849],[139.74968,35.7085],[139.74759,35.71001],[139.74639,35.71052],[139.74655,35.71102],[139.74674,35.71185],[139.74807,35.71167],[139.74853,35.71183],[139.74896,35.71185],[139.74948,35.71213],[139.75033,35.71239],[139.75121,35.71272]]]}},{"type":"Feature","properties":{"id":"area-13105012003","name":"小石川三丁目"},"geometry":{"type":"Polygon","coordinates":[[[139.7476,35.71541],[139.75112,35.71305],[139.75121,35.71272],[139.75033,35.71239],[139.74948,35.71213],[139.74896,35.71185],[139.74853,35.71183],[139.74807,35.71167],[139.74674,35.71185],[139.74655,35.71102],[139.74639,35.71052],[139.7451,35.71116],[139.74524,35.71126],[139.74492,35.7125],[139.74447,35.71248],[139.7443,35.71371],[139.74434,35.71382],[139.74452,35.71405],[139.7446,35.71403],[139.7449,35.71447],[139.74573,35.71494],[139.74599,35.71497],[139.74634,35.71494],[139.74718,35.71574],[139.7476,35.71541]]]}},{"type":"Feature","properties":{"id":"area-13105012004","name":"小石川四丁目"},"geometry":{"type":"Polygon","coordinates":[[[139.74464,35.71727],[139.7448,35.71727],[139.74527,35.717],[139.74571,35.71681],[139.74718,35.71574],[139.74634,35.71494],[139.74599,35.71497],[139.74573,35.71494],[139.7449,35.71447],[139.7446,35.71403],[139.74452,35.71405],[139.74434,35.71382],[139.7443,35.71371],[139.74447,35.71248],[139.74492,35.7125],[139.74524,35.71126],[139.7451,35.71116],[139.74355,35.71221],[139.74328,35.71242],[139.74327,35.7124],[139.74298,35.71259],[139.74181,35.71343],[139.74168,35.71347],[139.7411,35.71385],[139.74112,35.71387],[139.74048,35.71426],[139.73985,35.71537],[139.742,35.71662],[139.74448,35.7174],[139.74464,35.71727]]]}},{"type":"Feature","properties":{"id":"area-13105012005","name":"小石川五丁目"},"geometry":{"type":"Polygon","coordinates":[[[139.74201,35.7191],[139.74323,35.71841],[139.74448,35.7174],[139.742,35.71662],[139.73985,35.71537],[139.73963,35.71577],[139.73641,35.71806],[139.73692,35.71881],[139.73709,35.71877],[139.7372,35.7187],[139.7373,35.7187],[139.73839,35.71972],[139.73883,35.71986],[139.74028,35.72079],[139.74109,35.71994],[139.74201,35.7191]]]}},{"type":"Feature","properties":{"id":"area-13105013001","name":"白山一丁目"},"geometry":{"type":"Polygon","coordinates":[[[139.75336,35.71529],[139.75317,35.71508],[139.75296,35.71518],[139.75208,35.71501],[139.75137,35.71885],[139.75159,35.71992],[139.75267,35.72257],[139.7547,35.71897],[139.75426,35.7187],[139.75358,35.71848],[139.75356,35.71826],[139.75345,35.71807],[139.7534,35.71786],[139.75345,35.71757],[139.75354,35.71738],[139.75421,35.71668],[139.75432,35.71651],[139.75435,35.71633],[139.7543,35.7162],[139.75397,35.71601],[139.7537,35.71577],[139.75336,35.71529]]]}},{"type":"Feature","properties":{"id":"area-13105013002","name":"白山二丁目"},"geometry":{"type":"Polygon","coordinates":[[[139.75137,35.71885],[139.75208,35.71501],[139.75204,35.71501],[139.75196,35.71543],[139.74987,35.71512],[139.74845,35.71508],[139.74827,35.71495],[139.74571,35.71681],[139.74527,35.717],[139.7448,35.71727],[139.74546,35.7179],[139.74678,35.71723],[139.74694,35.71778],[139.748,35.71864],[139.74851,35.71896],[139.74862,35.71901],[139.75004,35.71927],[139.75159,35.71992],[139.75137,35.71885]]]}},{"type":"Feature","properties":{"id":"area-13105013003","name":"白山三丁目"},"geometry":{"type":"Polygon","coordinates":[[[139.74393,35.72155],[139.74523,35.72061],[139.74536,35.72072],[139.74794,35.71859],[139.74694,35.71778],[139.74678,35.71723],[139.74546,35.7179],[139.7448,35.71727],[139.74464,35.71727],[139.74323,35.71841],[139.74201,35.7191],[139.74109,35.71994],[139.74028,35.72079],[139.7407,35.72119],[139.74126,35.72223],[139.74189,35.72314],[139.74327,35.72258],[139.74308,35.72231],[139.74401,35.72171],[139.74393,35.72155]]]}},{"type":"Feature","properties":{"id":"area-13105013004","name":"白山四丁目"},"geometry":{"type":"Polygon","coordinates":[[[139.74626,35.72457],[139.74816,35.72234],[139.75106,35.7197],[139.75004,35.71927],[139.74862,35.71901],[139.74817,35.71876],[139.74794,35.71859],[139.74536,35.72072],[139.74523,35.72061],[139.74393,35.72155],[139.74401,35.72171],[139.74308,35.72231],[139.74354,35.72295],[139.74415,35.72275],[139.74481,35.72321],[139.74544,35.72366],[139.74531,35.72379],[139.74626,35.72457]]]}},{"type":"Feature","properties":{"id":"area-13105013005","name":"白山五丁目"},"geometry":{"type":"Polygon","coordinates":[[[139.75159,35.71992],[139.75106,35.7197],[139.74816,35.72234],[139.74626,35.72457],[139.74571,35.72696],[139.74569,35.72715],[139.74596,35.72729],[139.74665,35.72682],[139.74976,35.72494],[139.75185,35.72385],[139.75214,35.72362],[139.75239,35.7231],[139.75265,35.72265],[139.75267,35.72257],[139.75159,35.71992]]]}},{"type":"Feature","properties":{"id":"area-13105014001","name":"千石一丁目"},"geometry":{"type":"Polygon","coordinates":[[[139.74396,35.72871],[139.74539,35.72759],[139.74552,35.72759],[139.74596,35.72729],[139.74569,35.72715],[139.74571,35.72696],[139.74626,35.72457],[139.74531,35.72379],[139.74544,35.72366],[139.74484,35.72324],[139.74376,35.72423],[139.7435,35.72404],[139.74342,35.7241],[139.74245,35.72488],[139.74239,35.72502],[139.74223,35.72521],[139.74112,35.72613],[139.74396,35.72871]]]}},{"type":"Feature","properties":{"id":"area-13105014002","name":"千石二丁目"},"geometry":{"type":"Polygon","coordinates":[[[139.74245,35.72488],[139.7435,35.72404],[139.74376,35.72423],[139.74484,35.72324],[139.74415,35.72275],[139.74354,35.72295],[139.74327,35.72258],[139.74189,35.72314],[139.74126,35.72223],[139.7407,35.72119],[139.74033,35.72084],[139.73993,35.72118],[139.73955,35.7216],[139.73919,35.72192],[139.73729,35.7234],[139.73718,35.72352],[139.74061,35.72567],[139.74112,35.72613],[139.74223,35.72521],[139.74239,35.72502],[139.74245,35.72488]]]}},{"type":"Feature","properties":{"id":"area-13105014003","name":"千石三丁目"},"geometry":{"type":"Polygon","coordinates":[[[139.73675,35.73019],[139.74123,35.72623],[139.74061,35.72567],[139.73718,35.72352],[139.73582,35.72509],[139.73606,35.72523],[139.73597,35.72538],[139.73595,35.72549],[139.73584,35.72564],[139.73558,35.72582],[139.73536,35.72605],[139.73747,35.72686],[139.73726,35.72725],[139.73693,35.72712],[139.7368,35.72737],[139.73713,35.72754],[139.7368,35.72812],[139.73687,35.72817],[139.73681,35.72824],[139.73675,35.72821],[139.73625,35.72862],[139.73619,35.72858],[139.73598,35.7288],[139.736,35.72882],[139.73573,35.72903],[139.73552,35.72924],[139.73675,35.73019]]]}},{"type":"Feature","properties":{"id":"area-13105014004","name":"千石四丁目"},"geometry":{"type":"Polygon","coordinates":[[[139.73882,35.73198],[139.73916,35.73166],[139.73922,35.7317],[139.73999,35.73104],[139.74062,35.73037],[139.74083,35.7305],[139.74098,35.73033],[139.74165,35.7307],[139.74171,35.73066],[139.74323,35.72928],[139.74396,35.72871],[139.74123,35.72623],[139.73675,35.73019],[139.73687,35.73029],[139.7368,35.73036],[139.73689,35.73043],[139.73692,35.7304],[139.7372,35.73062],[139.73726,35.73057],[139.73736,35.73064],[139.73733,35.73066],[139.73741,35.73073],[139.73747,35.73069],[139.73766,35.73084],[139.73758,35.7309],[139.73766,35.73096],[139.7377,35.73093],[139.73793,35.73109],[139.7379,35.73112],[139.73819,35.73135],[139.73809,35.73144],[139.73882,35.73198]]]}},{"type":"Feature","properties":{"id":"area-13105015001","name":"水道一丁目"},"geometry":{"type":"Polygon","coordinates":[[[139.74282,35.71006],[139.74312,35.7099],[139.74314,35.70993],[139.74384,35.70953],[139.74392,35.70941],[139.74448,35.70903],[139.74512,35.70805],[139.74335,35.7078],[139.74324,35.708],[139.74284,35.70819],[139.74219,35.70833],[139.74138,35.70841],[139.73971,35.70865],[139.74022,35.71086],[139.7403,35.7109],[139.741,35.71059],[139.74225,35.71044],[139.74282,35.71006]]]}},{"type":"Feature","properties":{"id":"area-13105015002","name":"水道二丁目"},"geometry":{"type":"Polygon","coordinates":[[[139.73481,35.71019],[139.73539,35.71006],[139.73559,35.71006],[139.73574,35.7101],[139.73678,35.71065],[139.73702,35.7107],[139.73792,35.71081],[139.73869,35.71071],[139.73955,35.71092],[139.74006,35.71093],[139.74022,35.71086],[139.73971,35.70865],[139.73555,35.70925],[139.73552,35.7091],[139.735,35.70924],[139.73434,35.70944],[139.7315,35.71059],[139.7315,35.71095],[139.73225,35.71101],[139.73358,35.71083],[139.73481,35.71019]]]}},{"type":"Feature","properties":{"id":"area-13105016001","name":"小日向一丁目"},"geometry":{"type":"Polygon","coordinates":[[[139.73734,35.71547],[139.73741,35.71542],[139.73819,35.71543],[139.73885,35.71508],[139.73931,35.71439],[139.73941,35.71402],[139.73967,35.71392],[139.74015,35.71321],[139.74046,35.71258],[139.74067,35.71246],[139.74082,35.71178],[139.74037,35.71095],[139.74022,35.71086],[139.74006,35.71093],[139.73955,35.71092],[139.73869,35.71071],[139.73792,35.71081],[139.73702,35.7107],[139.73678,35.71065],[139.73574,35.7101],[139.73559,35.71006],[139.73539,35.71006],[139.73517,35.7101],[139.73535,35.71104],[139.73587,35.71143],[139.73589,35.71169],[139.73583,35.71225],[139.73602,35.71268],[139.73613,35.7131],[139.73609,35.7131],[139.7361,35.71345],[139.73603,35.71345],[139.73594,35.71407],[139.73582,35.71409],[139.73593,35.71424],[139.73594,35.71432],[139.73693,35.71456],[139.73732,35.71503],[139.73734,35.71547]]]}},{"type":"Feature","properties":{"id":"area-13105016002","name":"小日向二丁目"},"geometry":{"type":"Polygon","coordinates":[[[139.73594,35.71407],[139.73603,35.71345],[139.7361,35.71345],[139.73609,35.7131],[139.73613,35.7131],[139.73602,35.71268],[139.73583,35.71225],[139.73589,35.71169],[139.73587,35.71143],[139.73535,35.71104],[139.73517,35.7101],[139.73481,35.71019],[139.73358,35.71083],[139.73221,35.71101],[139.73199,35.71168],[139.73149,35.71215],[139.73149,35.71248],[139.73143,35.71263],[139.73135,35.71272],[139.73151,35.71274],[139.73142,35.71331],[139.73131,35.71488],[139.73356,35.71501],[139.73405,35.71479],[139.73528,35.71452],[139.73525,35.7144],[139.73549,35.71432],[139.73582,35.71409],[139.73594,35.71407]]]}},{"type":"Feature","properties":{"id":"area-13105016003","name":"小日向三丁目"},"geometry":{"type":"Polygon","coordinates":[[[139.73612,35.71609],[139.73636,35.71599],[139.73679,35.71606],[139.73698,35.71568],[139.73734,35.71547],[139.73732,35.71503],[139.73693,35.71456],[139.73594,35.71432],[139.73593,35.71424],[139.73582,35.71409],[139.73549,35.71432],[139.73525,35.7144],[139.73528,35.71452],[139.73405,35.71479],[139.73356,35.71501],[139.73097,35.71487],[139.7309,35.71507],[139.73092,35.71508],[139.73082,35.71533],[139.73086,35.71536],[139.7313,35.71542],[139.73196,35.71569],[139.73238,35.71594],[139.7327,35.71606],[139.73275,35.7161],[139.73277,35.71607],[139.73309,35.71612],[139.73313,35.71603],[139.73473,35.71625],[139.73542,35.71615],[139.73612,35.71609]]]}},{"type":"Feature","properties":{"id":"area-13105016004","name":"小日向四丁目"},"geometry":{"type":"Polygon","coordinates":[[[139.73963,35.71577],[139.74048,35.71426],[139.74112,35.71387],[139.74047,35.7133],[139.74015,35.71321],[139.73967,35.71392],[139.73941,35.71402],[139.73931,35.71439],[139.73885,35.71508],[139.73819,35.71543],[139.73741,35.71542],[139.73698,35.71568],[139.73679,35.71606],[139.73664,35.7165],[139.73652,35.71699],[139.73653,35.71717],[139.73644,35.71719],[139.7367,35.71786],[139.73963,35.71577]]]}},{"type":"Feature","properties":{"id":"area-13105017001","name":"大塚一丁目"},"geometry":{"type":"Polygon","coordinates":[[[139.73653,35.71717],[139.73655,35.71686],[139.73679,35.71606],[139.73636,35.71599],[139.73612,35.71609],[139.73542,35.71615],[139.73473,35.71625],[139.73313,35.71603],[139.73309,35.71612],[139.73277,35.71607],[139.73275,35.7161],[139.7327,35.71606],[139.73238,35.71594],[139.73196,35.71569],[139.7313,35.71542],[139.73086,35.71536],[139.73076,35.71529],[139.73057,35.71522],[139.73034,35.7152],[139.73007,35.71533],[139.72987,35.71534],[139.72948,35.7162],[139.72943,35.71649],[139.72926,35.71671],[139.72912,35.71723],[139.72912,35.71726],[139.72976,35.71709],[139.73025,35.71707],[139.73308,35.71754],[139.73342,35.71767],[139.73482,35.71901],[139.7367,35.71786],[139.73644,35.71719],[139.73653,35.71717]]]}},{"type":"Feature","properties":{"id":"area-13105017002","name":"大塚二丁目"},"geometry":{"type":"Polygon","coordinates":[[[139.73308,35.71754],[139.73025,35.71707],[139.72976,35.71709],[139.72912,35.71726],[139.7291,35.71745],[139.72895,35.71768],[139.72889,35.71783],[139.72861,35.71795],[139.72853,35.71818],[139.72867,35.71847],[139.72868,35.71855],[139.72857,35.71878],[139.72875,35.71959],[139.72822,35.72052],[139.73135,35.72149],[139.73172,35.7215],[139.73363,35.71974],[139.73482,35.71901],[139.73342,35.71767],[139.73308,35.71754]]]}},{"type":"Feature","properties":{"id":"area-13105017003","name":"大塚三丁目"},"geometry":{"type":"Polygon","coordinates":[[[139.73839,35.71972],[139.7373,35.7187],[139.7372,35.7187],[139.73709,35.71877],[139.73692,35.71881],[139.73641,35.71806],[139.73363,35.71974],[139.73172,35.7215],[139.73366,35.72164],[139.73479,35.72195],[139.73652,35.72284],[139.73729,35.7234],[139.73919,35.72192],[139.73955,35.7216],[139.73993,35.72118],[139.74033,35.72084],[139.73883,35.71986],[139.73839,35.71972]]]}},{"type":"Feature","properties":{"id":"area-13105017004","name":"大塚四丁目"},"geometry":{"type":"Polygon","coordinates":[[[139.72985,35.72621],[139.73,35.72587],[139.7303,35.72596],[139.73035,35.72581],[139.73023,35.72573],[139.73034,35.72548],[139.7307,35.72521],[139.73065,35.72516],[139.73074,35.72496],[139.73092,35.72488],[139.73102,35.72498],[139.7311,35.72492],[139.73097,35.72481],[139.73119,35.72425],[139.73183,35.72443],[139.73201,35.72417],[139.73228,35.72426],[139.7322,35.72436],[139.73207,35.72442],[139.73202,35.72464],[139.73235,35.72468],[139.73274,35.72487],[139.73269,35.72494],[139.73282,35.72497],[139.73275,35.72518],[139.73303,35.72532],[139.73315,35.72516],[139.7333,35.72505],[139.73353,35.72516],[139.73364,35.72517],[139.73358,35.72533],[139.73393,35.72553],[139.73412,35.72535],[139.73418,35.72522],[139.73427,35.72517],[139.73468,35.72538],[139.7348,35.72523],[139.735,35.72532],[139.73511,35.72518],[139.7353,35.72527],[139.73555,35.72494],[139.73582,35.72509],[139.73729,35.7234],[139.73652,35.72284],[139.73479,35.72195],[139.73366,35.72164],[139.73175,35.7215],[139.73026,35.72547],[139.72967,35.72599],[139.72971,35.72604],[139.72964,35.72609],[139.72985,35.72621]]]}},{"type":"Feature","properties":{"id":"area-13105017005","name":"大塚五丁目"},"geometry":{"type":"Polygon","coordinates":[[[139.72967,35.72599],[139.73026,35.72547],[139.73175,35.7215],[139.73135,35.72149],[139.72822,35.72052],[139.72587,35.71974],[139.72559,35.71937],[139.72464,35.71977],[139.72462,35.7198],[139.72465,35.71979],[139.7248,35.71998],[139.72453,35.72015],[139.72436,35.72034],[139.72378,35.72149],[139.72374,35.72194],[139.7237,35.72204],[139.72361,35.72214],[139.72331,35.72227],[139.72316,35.72304],[139.72712,35.7243],[139.72785,35.72462],[139.7277,35.72478],[139.72772,35.72482],[139.72844,35.72527],[139.72862,35.72565],[139.72875,35.72577],[139.72934,35.72556],[139.72967,35.72599]]]}},{"type":"Feature","properties":{"id":"area-13105017006","name":"大塚六丁目"},"geometry":{"type":"Polygon","coordinates":[[[139.72769,35.72656],[139.72819,35.72624],[139.72848,35.72597],[139.72875,35.72577],[139.72862,35.72565],[139.72844,35.72527],[139.72772,35.72482],[139.7277,35.72478],[139.72785,35.72462],[139.72712,35.7243],[139.72316,35.72304],[139.72304,35.72344],[139.72306,35.7238],[139.72301,35.72435],[139.72267,35.72504],[139.72435,35.72544],[139.72438,35.72548],[139.72437,35.72605],[139.72533,35.7261],[139.72529,35.7263],[139.72479,35.72633],[139.72468,35.72641],[139.72467,35.72666],[139.7248,35.72666],[139.72479,35.72657],[139.72491,35.72656],[139.72494,35.72677],[139.72511,35.7267],[139.72499,35.72651],[139.72538,35.72653],[139.72539,35.7267],[139.7255,35.7267],[139.72557,35.72679],[139.72619,35.7265],[139.72636,35.72708],[139.72723,35.72679],[139.72769,35.72656]]]}},{"type":"Feature","properties":{"id":"area-13105018001","name":"関口一丁目"},"geometry":{"type":"Polygon","coordinates":[[[139.72397,35.71182],[139.72561,35.71047],[139.72605,35.71039],[139.72832,35.71019],[139.73113,35.71072],[139.7315,35.71076],[139.7315,35.71059],[139.73306,35.70994],[139.73434,35.70944],[139.73552,35.7091],[139.73533,35.70816],[139.73425,35.7083],[139.73421,35.7081],[139.73413,35.70805],[139.73406,35.70782],[139.73369,35.70788],[139.73365,35.70773],[139.73345,35.70776],[139.73314,35.70767],[139.73297,35.70751],[139.73275,35.70754],[139.73255,35.7075],[139.73235,35.7077],[139.73187,35.70802],[139.7314,35.70809],[139.73161,35.70924],[139.73141,35.70935],[139.73127,35.70936],[139.73127,35.7093],[139.7311,35.70932],[139.73112,35.70946],[139.73093,35.70948],[139.73091,35.70934],[139.73073,35.70936],[139.73075,35.7095],[139.73061,35.70951],[139.73063,35.70937],[139.7303,35.70931],[139.72998,35.70928],[139.72994,35.70944],[139.72988,35.70943],[139.72989,35.70938],[139.72983,35.70938],[139.72981,35.70942],[139.7297,35.70948],[139.72927,35.70939],[139.72926,35.70944],[139.72911,35.70941],[139.72913,35.70933],[139.72863,35.70933],[139.72861,35.70926],[139.72846,35.70925],[139.72835,35.70931],[139.72807,35.70933],[139.72808,35.70941],[139.72795,35.70942],[139.72792,35.7099],[139.72776,35.70991],[139.72775,35.70981],[139.72753,35.7098],[139.72754,35.70993],[139.72689,35.71001],[139.72691,35.71011],[139.72672,35.71012],[139.72657,35.70996],[139.72648,35.70999],[139.72643,35.70968],[139.72603,35.70977],[139.72595,35.70953],[139.72609,35.70951],[139.72611,35.70958],[139.72625,35.70955],[139.72618,35.70927],[139.72586,35.70933],[139.72584,35.70928],[139.72523,35.70947],[139.72536,35.70979],[139.72515,35.70982],[139.72514,35.70979],[139.72499,35.70983],[139.72501,35.70987],[139.72484,35.70994],[139.7248,35.7099],[139.7241,35.71012],[139.72394,35.71007],[139.72389,35.71],[139.72383,35.71002],[139.72385,35.71012],[139.72356,35.7102],[139.72359,35.71028],[139.72342,35.71032],[139.72348,35.71042],[139.72341,35.71054],[139.72342,35.71068],[139.72322,35.71074],[139.72332,35.71102],[139.72293,35.71113],[139.72298,35.71124],[139.72279,35.7113],[139.72275,35.71121],[139.72254,35.71127],[139.7226,35.71135],[139.72259,35.71141],[139.72204,35.71157],[139.72228,35.71192],[139.72233,35.71204],[139.72234,35.71236],[139.723,35.71205],[139.72325,35.71203],[139.72323,35.71193],[139.72397,35.71182]]]}},{"type":"Feature","properties":{"id":"area-13105018002","name":"関口二丁目"},"geometry":{"type":"Polygon","coordinates":[[[139.72828,35.7121],[139.7301,35.7121],[139.73012,35.71206],[139.73018,35.71206],[139.7302,35.71181],[139.73027,35.71182],[139.73032,35.71165],[139.73059,35.71118],[139.73068,35.71109],[139.73092,35.71107],[139.73095,35.71087],[139.73111,35.71088],[139.73113,35.71072],[139.72832,35.71019],[139.72605,35.71039],[139.72561,35.71047],[139.72397,35.71182],[139.72323,35.71193],[139.72343,35.71242],[139.7238,35.71305],[139.72439,35.71384],[139.72517,35.71462],[139.72751,35.71237],[139.72828,35.7121]]]}},{"type":"Feature","properties":{"id":"area-13105018003","name":"関口三丁目"},"geometry":{"type":"Polygon","coordinates":[[[139.72841,35.71536],[139.7301,35.7121],[139.72833,35.71209],[139.72751,35.71237],[139.72517,35.71462],[139.72521,35.71466],[139.72473,35.71508],[139.72472,35.71514],[139.72482,35.71531],[139.72596,35.71519],[139.72743,35.71526],[139.72759,35.71525],[139.72783,35.71534],[139.72841,35.71536]]]}},{"type":"Feature","properties":{"id":"area-13105019001","name":"目白台一丁目"},"geometry":{"type":"Polygon","coordinates":[[[139.72358,35.71271],[139.72325,35.71203],[139.723,35.71205],[139.72234,35.71236],[139.7222,35.71251],[139.72065,35.71345],[139.71998,35.71378],[139.71897,35.71412],[139.71779,35.71431],[139.71754,35.71439],[139.71742,35.71447],[139.71731,35.71459],[139.71727,35.71467],[139.71742,35.7155],[139.71761,35.71597],[139.71775,35.71666],[139.71792,35.71689],[139.72038,35.71596],[139.72473,35.71508],[139.72508,35.71478],[139.72521,35.71466],[139.72439,35.71384],[139.7238,35.71305],[139.72358,35.71271]]]}},{"type":"Feature","properties":{"id":"area-13105019002","name":"目白台二丁目"},"geometry":{"type":"Polygon","coordinates":[[[139.72505,35.7196],[139.72317,35.71876],[139.72302,35.71543],[139.72038,35.71596],[139.71802,35.71685],[139.71792,35.71689],[139.71797,35.71695],[139.71782,35.71703],[139.71787,35.7172],[139.71772,35.71737],[139.71793,35.71755],[139.71827,35.71795],[139.71927,35.71749],[139.71948,35.71787],[139.71951,35.71798],[139.71948,35.71805],[139.71956,35.71831],[139.71984,35.71824],[139.72067,35.71839],[139.72085,35.71855],[139.72107,35.71849],[139.7214,35.71853],[139.72166,35.71869],[139.72156,35.71885],[139.72179,35.71894],[139.7219,35.71882],[139.722,35.71885],[139.72212,35.71869],[139.72279,35.71893],[139.72289,35.71908],[139.72297,35.71905],[139.72303,35.71916],[139.72294,35.7192],[139.72302,35.71947],[139.723,35.71967],[139.72312,35.71975],[139.72428,35.7201],[139.72464,35.71977],[139.72505,35.7196]]]}},{"type":"Feature","properties":{"id":"area-13105019003","name":"目白台三丁目"},"geometry":{"type":"Polygon","coordinates":[[[139.72672,35.71876],[139.72845,35.71537],[139.72783,35.71534],[139.72759,35.71525],[139.72743,35.71526],[139.72596,35.71519],[139.72482,35.71531],[139.72472,35.71514],[139.72473,35.71508],[139.72302,35.71543],[139.72317,35.71876],[139.72505,35.7196],[139.7265,35.71898],[139.72672,35.71876]]]}},{"type":"Feature","properties":{"id":"area-13105020001","name":"音羽一丁目"},"geometry":{"type":"Polygon","coordinates":[[[139.73007,35.71533],[139.73034,35.7152],[139.73057,35.71522],[139.73082,35.71533],[139.73092,35.71508],[139.7309,35.71507],[139.73097,35.71487],[139.73131,35.71488],[139.73142,35.71331],[139.73151,35.71274],[139.73135,35.71272],[139.73143,35.71263],[139.73149,35.71248],[139.73149,35.71215],[139.73199,35.71168],[139.73221,35.71101],[139.7315,35.71095],[139.7315,35.71076],[139.73113,35.71072],[139.73111,35.71088],[139.73095,35.71087],[139.73092,35.71107],[139.73068,35.71109],[139.73059,35.71118],[139.73032,35.71165],[139.73027,35.71182],[139.7302,35.71181],[139.73018,35.71206],[139.73012,35.71206],[139.72905,35.7141],[139.72841,35.71536],[139.72845,35.71537],[139.72769,35.71681],[139.72844,35.71706],[139.72912,35.71723],[139.72926,35.71671],[139.72943,35.71649],[139.72948,35.7162],[139.72987,35.71534],[139.73007,35.71533]]]}},{"type":"Feature","properties":{"id":"area-13105020002","name":"音羽二丁目"},"geometry":{"type":"Polygon","coordinates":[[[139.72912,35.71723],[139.72769,35.71681],[139.72672,35.71876],[139.7265,35.71898],[139.72559,35.71937],[139.72587,35.71974],[139.72822,35.72052],[139.72875,35.71959],[139.72857,35.71878],[139.72868,35.71855],[139.72867,35.71847],[139.72853,35.71818],[139.72861,35.71795],[139.72889,35.71783],[139.72895,35.71768],[139.7291,35.71745],[139.72912,35.71723]]]}},{"type":"Feature","properties":{"id":"area-13105021001","name":"本郷一丁目"},"geometry":{"type":"Polygon","coordinates":[[[139.7539,35.70841],[139.756,35.70734],[139.7571,35.70737],[139.7581,35.70415],[139.75863,35.70158],[139.75763,35.70157],[139.75688,35.70173],[139.75549,35.70206],[139.75489,35.70412],[139.75489,35.70406],[139.75484,35.70431],[139.75398,35.70725],[139.7539,35.70743],[139.75381,35.7079],[139.75366,35.70837],[139.7539,35.70841]]]}},{"type":"Feature","properties":{"id":"area-13105021002","name":"本郷二丁目"},"geometry":{"type":"Polygon","coordinates":[[[139.76198,35.70173],[139.76185,35.70144],[139.7611,35.70157],[139.76075,35.70159],[139.75863,35.70158],[139.7581,35.70415],[139.7571,35.70737],[139.76058,35.70749],[139.7609,35.70531],[139.76175,35.70412],[139.76198,35.70173]]]}},{"type":"Feature","properties":{"id":"area-13105021003","name":"本郷三丁目"},"geometry":{"type":"Polygon","coordinates":[[[139.76432,35.7043],[139.76227,35.7012],[139.76208,35.70134],[139.76185,35.70144],[139.76198,35.70173],[139.76175,35.70412],[139.7609,35.70531],[139.76058,35.70749],[139.76111,35.70755],[139.76375,35.70751],[139.76505,35.70741],[139.76432,35.7043]]]}},{"type":"Feature","properties":{"id":"area-13105021004","name":"本郷四丁目"},"geometry":{"type":"Polygon","coordinates":[[[139.75511,35.71139],[139.75523,35.71101],[139.75539,35.71075],[139.75574,35.71039],[139.75634,35.70984],[139.75795,35.709],[139.75841,35.70881],[139.7585,35.70874],[139.75877,35.70866],[139.75875,35.70869],[139.76037,35.70812],[139.76034,35.70858],[139.76041,35.7086],[139.76092,35.70861],[139.76111,35.70755],[139.76058,35.70749],[139.756,35.70734],[139.7539,35.70841],[139.75366,35.70837],[139.7536,35.70848],[139.75333,35.70848],[139.75349,35.70866],[139.75337,35.70909],[139.7534,35.70924],[139.75328,35.70961],[139.75323,35.70961],[139.75292,35.71074],[139.75294,35.71078],[139.7528,35.71117],[139.75385,35.71133],[139.75401,35.71133],[139.75503,35.71147],[139.75512,35.71145],[139.75511,35.71139]]]}},{"type":"Feature","properties":{"id":"area-13105021005","name":"本郷五丁目"},"geometry":{"type":"Polygon","coordinates":[[[139.75671,35.71206],[139.75677,35.71169],[139.75972,35.71202],[139.76033,35.70962],[139.76074,35.70965],[139.76092,35.70861],[139.76041,35.7086],[139.76034,35.70858],[139.76037,35.70812],[139.75875,35.70869],[139.75877,35.70866],[139.7585,35.70874],[139.75841,35.70881],[139.75795,35.709],[139.75634,35.70984],[139.75574,35.71039],[139.75539,35.71075],[139.75523,35.71101],[139.75511,35.71139],[139.75512,35.71145],[139.75552,35.7119],[139.75635,35.71188],[139.75671,35.71206]]]}},{"type":"Feature","properties":{"id":"area-13105021006","name":"本郷六丁目"},"geometry":{"type":"Polygon","coordinates":[[[139.75885,35.71538],[139.75972,35.71202],[139.75677,35.71169],[139.75671,35.71206],[139.75635,35.71188],[139.75552,35.7119],[139.75699,35.71356],[139.75711,35.71373],[139.75736,35.71462],[139.75873,35.71532],[139.75872,35.71537],[139.75885,35.71538]]]}},{"type":"Feature","properties":{"id":"area-13105021007","name":"本郷七丁目"},"geometry":{"type":"Polygon","coordinates":[[[139.76733,35.71105],[139.76732,35.71079],[139.76721,35.71079],[139.76722,35.71085],[139.76682,35.71085],[139.7668,35.71072],[139.76659,35.71073],[139.76657,35.7104],[139.76521,35.71043],[139.76521,35.70986],[139.7642,35.70987],[139.76418,35.7087],[139.76371,35.7087],[139.76373,35.70751],[139.76111,35.70755],[139.76074,35.70965],[139.76033,35.70962],[139.75885,35.71538],[139.76157,35.7157],[139.76181,35.71556],[139.7621,35.71547],[139.76563,35.71353],[139.76659,35.71319],[139.76691,35.71316],[139.76736,35.713],[139.76752,35.71291],[139.76778,35.7127],[139.76765,35.71215],[139.76759,35.71148],[139.76684,35.71142],[139.76675,35.71137],[139.76695,35.71133],[139.76695,35.7111],[139.76733,35.71105]]]}},{"type":"Feature","properties":{"id":"area-13105022001","name":"湯島一丁目"},"geometry":{"type":"Polygon","coordinates":[[[139.76476,35.70324],[139.7665,35.70282],[139.76806,35.70289],[139.76806,35.70286],[139.76814,35.70286],[139.76815,35.70264],[139.76812,35.70262],[139.76663,35.70246],[139.76668,35.70265],[139.76654,35.70266],[139.76649,35.70256],[139.76646,35.70256],[139.76614,35.7018],[139.76697,35.70129],[139.76694,35.7011],[139.76716,35.70097],[139.76734,35.70113],[139.76791,35.70082],[139.76799,35.70089],[139.76808,35.70081],[139.76815,35.7008],[139.76813,35.70063],[139.76804,35.70064],[139.76802,35.7005],[139.76845,35.70008],[139.76862,35.70008],[139.76859,35.6998],[139.76843,35.6998],[139.76831,35.6995],[139.76755,35.69985],[139.76761,35.69996],[139.76726,35.7001],[139.76701,35.69964],[139.76652,35.69979],[139.7664,35.69952],[139.76406,35.70014],[139.76383,35.70012],[139.76334,35.7003],[139.76294,35.7005],[139.76278,35.70065],[139.76249,35.70104],[139.76229,35.70122],[139.76363,35.70326],[139.76476,35.70324]]]}},{"type":"Feature","properties":{"id":"area-13105022002","name":"湯島二丁目"},"geometry":{"type":"Polygon","coordinates":[[[139.76693,35.70761],[139.76806,35.70727],[139.76792,35.70679],[139.76661,35.70282],[139.7665,35.70282],[139.76476,35.70324],[139.76363,35.70326],[139.76432,35.7043],[139.76505,35.70741],[139.76591,35.70734],[139.76693,35.70761]]]}},{"type":"Feature","properties":{"id":"area-13105022003","name":"湯島三丁目"},"geometry":{"type":"Polygon","coordinates":[[[139.77148,35.70912],[139.77157,35.70831],[139.77246,35.70832],[139.77247,35.7081],[139.77244,35.70805],[139.77234,35.70721],[139.77009,35.70736],[139.77,35.70593],[139.76992,35.7052],[139.7699,35.70469],[139.76981,35.7037],[139.76966,35.70362],[139.76942,35.70369],[139.76932,35.70328],[139.76845,35.70335],[139.76799,35.70332],[139.76806,35.70289],[139.76661,35.70282],[139.76792,35.70679],[139.76806,35.70727],[139.76693,35.70761],[139.76817,35.70824],[139.76919,35.70831],[139.76916,35.7087],[139.76986,35.7088],[139.77146,35.70913],[139.77148,35.70912]]]}},{"type":"Feature","properties":{"id":"area-13105022004","name":"湯島四丁目"},"geometry":{"type":"Polygon","coordinates":[[[139.76808,35.71105],[139.76808,35.71028],[139.76805,35.71025],[139.76728,35.71037],[139.76674,35.71037],[139.76672,35.7103],[139.76687,35.71029],[139.76686,35.70942],[139.76717,35.70942],[139.76717,35.70917],[139.76692,35.70917],[139.7669,35.70865],[139.76782,35.70869],[139.76798,35.70876],[139.76803,35.70869],[139.76808,35.70869],[139.76809,35.70865],[139.76816,35.70863],[139.7683,35.70869],[139.76856,35.70872],[139.76866,35.70878],[139.76877,35.70894],[139.76881,35.70896],[139.76915,35.70876],[139.76919,35.70831],[139.76817,35.70824],[139.76693,35.70761],[139.76591,35.70734],[139.76373,35.70751],[139.76371,35.7087],[139.76418,35.7087],[139.7642,35.70987],[139.76521,35.70986],[139.76521,35.71043],[139.76657,35.7104],[139.76659,35.71073],[139.7668,35.71072],[139.76682,35.71085],[139.76722,35.71085],[139.76721,35.71079],[139.76732,35.71079],[139.76733,35.71105],[139.76781,35.71102],[139.76781,35.71106],[139.76808,35.71105]]]}},{"type":"Feature","properties":{"id":"area-13105023001","name":"西片一丁目"},"geometry":{"type":"Polygon","coordinates":[[[139.75552,35.7138],[139.75628,35.71374],[139.75689,35.71348],[139.75694,35.7135],[139.75512,35.71145],[139.75503,35.71147],[139.75401,35.71133],[139.75385,35.71133],[139.7528,35.71117],[139.7526,35.71187],[139.75204,35.71501],[139.75296,35.71518],[139.7531,35.71513],[139.75331,35.71493],[139.75334,35.71485],[139.75325,35.71451],[139.75338,35.71429],[139.75552,35.7138]]]}},{"type":"Feature","properties":{"id":"area-13105023002","name":"西片二丁目"},"geometry":{"type":"Polygon","coordinates":[[[139.75614,35.71736],[139.75769,35.71603],[139.7586,35.71602],[139.75873,35.71532],[139.75736,35.71462],[139.75711,35.71373],[139.75694,35.7135],[139.75689,35.71348],[139.75628,35.71374],[139.75552,35.7138],[139.75338,35.71429],[139.75325,35.71451],[139.75334,35.71485],[139.75317,35.71508],[139.75363,35.71564],[139.7537,35.71577],[139.75397,35.71601],[139.7543,35.7162],[139.75435,35.71633],[139.75432,35.71651],[139.75421,35.71668],[139.75354,35.71738],[139.75345,35.71757],[139.7534,35.71786],[139.75345,35.71807],[139.75356,35.71826],[139.75358,35.71848],[139.75426,35.7187],[139.75469,35.71896],[139.75568,35.71786],[139.75604,35.71751],[139.75614,35.71736]]]}},{"type":"Feature","properties":{"id":"area-13105024001","name":"向丘一丁目"},"geometry":{"type":"Polygon","coordinates":[[[139.75831,35.71683],[139.75857,35.71602],[139.75769,35.71603],[139.75732,35.71632],[139.75614,35.71736],[139.75604,35.71751],[139.75568,35.71786],[139.75469,35.71896],[139.75266,35.72262],[139.75407,35.72307],[139.75778,35.71836],[139.75834,35.71684],[139.75831,35.71683]]]}},{"type":"Feature","properties":{"id":"area-13105024002","name":"向丘二丁目"},"geometry":{"type":"Polygon","coordinates":[[[139.75927,35.71706],[139.75834,35.71684],[139.75778,35.71836],[139.75407,35.72304],[139.75407,35.72307],[139.7541,35.72308],[139.75377,35.72448],[139.75415,35.72485],[139.75512,35.72568],[139.75555,35.72636],[139.75821,35.72236],[139.75837,35.72166],[139.75842,35.72087],[139.75839,35.72037],[139.75842,35.7202],[139.75846,35.72009],[139.75862,35.71989],[139.75882,35.71932],[139.75927,35.71706]]]}},{"type":"Feature","properties":{"id":"area-13105025001","name":"弥生一丁目"},"geometry":{"type":"Polygon","coordinates":[[[139.75997,35.72065],[139.76002,35.72051],[139.75975,35.72042],[139.75983,35.72018],[139.7601,35.71986],[139.76042,35.71935],[139.76107,35.71921],[139.76107,35.71914],[139.76097,35.71913],[139.76116,35.71887],[139.76166,35.7187],[139.7618,35.71862],[139.76183,35.71841],[139.76178,35.71752],[139.76229,35.71758],[139.76248,35.71757],[139.76258,35.71754],[139.76288,35.71639],[139.76163,35.71566],[139.76157,35.7157],[139.75872,35.71537],[139.7586,35.71602],[139.75857,35.71602],[139.75831,35.71683],[139.75927,35.71706],[139.75882,35.71932],[139.75862,35.71989],[139.75846,35.72009],[139.75842,35.7202],[139.75839,35.72037],[139.75842,35.72054],[139.75965,35.72057],[139.75997,35.72065]]]}},{"type":"Feature","properties":{"id":"area-13105025002","name":"弥生二丁目"},"geometry":{"type":"Polygon","coordinates":[[[139.76215,35.71841],[139.76233,35.71796],[139.76278,35.71815],[139.76298,35.71807],[139.76387,35.71809],[139.76412,35.71798],[139.764,35.71787],[139.76408,35.71783],[139.76427,35.71761],[139.76435,35.71734],[139.76479,35.71765],[139.7649,35.7175],[139.76443,35.71723],[139.76467,35.71686],[139.76532,35.71676],[139.76542,35.71653],[139.76593,35.71572],[139.76598,35.71551],[139.76603,35.71498],[139.76593,35.71496],[139.76591,35.71479],[139.76585,35.71465],[139.76557,35.71425],[139.76574,35.71393],[139.76563,35.71353],[139.7621,35.71547],[139.76181,35.71556],[139.76163,35.71566],[139.76288,35.71639],[139.76258,35.71754],[139.76248,35.71757],[139.76229,35.71758],[139.76178,35.71752],[139.76183,35.71841],[139.7618,35.71862],[139.76166,35.7187],[139.76185,35.71878],[139.76209,35.7187],[139.76226,35.71857],[139.76215,35.71841]]]}},{"type":"Feature","properties":{"id":"area-13105026001","name":"根津一丁目"},"geometry":{"type":"Polygon","coordinates":[[[139.76201,35.72117],[139.76642,35.71666],[139.76636,35.71663],[139.76632,35.71666],[139.766,35.7165],[139.76594,35.7165],[139.7649,35.7175],[139.76479,35.71765],[139.76435,35.71734],[139.76427,35.71761],[139.76408,35.71783],[139.764,35.71787],[139.76412,35.71798],[139.76387,35.71809],[139.76298,35.71807],[139.76278,35.71815],[139.76233,35.71796],[139.76215,35.71841],[139.76226,35.71857],[139.76209,35.7187],[139.76185,35.71878],[139.76166,35.7187],[139.76133,35.71879],[139.76116,35.71887],[139.76097,35.71913],[139.76107,35.71914],[139.76107,35.71921],[139.76042,35.71935],[139.7601,35.71986],[139.75983,35.72018],[139.75975,35.72042],[139.76002,35.72051],[139.75997,35.72065],[139.76201,35.72117]]]}},{"type":"Feature","properties":{"id":"area-13105026002","name":"根津二丁目"},"geometry":{"type":"Polygon","coordinates":[[[139.76357,35.72151],[139.76526,35.7201],[139.76599,35.71942],[139.76613,35.71928],[139.76667,35.71858],[139.76735,35.71791],[139.76789,35.71731],[139.76874,35.71572],[139.76861,35.71567],[139.76819,35.71565],[139.76795,35.71558],[139.76774,35.71561],[139.76676,35.71679],[139.76642,35.71666],[139.76201,35.72117],[139.76255,35.7213],[139.76262,35.72116],[139.76268,35.72116],[139.7631,35.72129],[139.76357,35.72151]]]}},{"type":"Feature","properties":{"id":"area-13105027001","name":"千駄木一丁目"},"geometry":{"type":"Polygon","coordinates":[[[139.75965,35.72057],[139.75842,35.72054],[139.75837,35.72166],[139.75821,35.72236],[139.75686,35.72444],[139.75731,35.72465],[139.76001,35.725],[139.76119,35.72509],[139.76086,35.72464],[139.7603,35.72395],[139.76008,35.72313],[139.75995,35.72281],[139.75972,35.72254],[139.7597,35.7222],[139.75974,35.7206],[139.75965,35.72057]]]}},{"type":"Feature","properties":{"id":"area-13105027002","name":"千駄木二丁目"},"geometry":{"type":"Polygon","coordinates":[[[139.76357,35.72151],[139.7631,35.72129],[139.76268,35.72116],[139.76262,35.72116],[139.76255,35.7213],[139.75972,35.7206],[139.7597,35.72246],[139.75972,35.72254],[139.75995,35.72281],[139.76008,35.72313],[139.7603,35.72395],[139.76086,35.72464],[139.76119,35.72509],[139.76223,35.72516],[139.76313,35.72475],[139.76427,35.72459],[139.7643,35.72455],[139.76417,35.72425],[139.76403,35.7241],[139.76402,35.72388],[139.76393,35.72375],[139.76386,35.72342],[139.76378,35.72325],[139.76381,35.72304],[139.76374,35.72291],[139.7637,35.72263],[139.76367,35.72257],[139.76349,35.72242],[139.76348,35.72236],[139.76357,35.72217],[139.76354,35.72208],[139.76343,35.72199],[139.76342,35.72192],[139.76354,35.72178],[139.76357,35.72151]]]}},{"type":"Feature","properties":{"id":"area-13105027003","name":"千駄木三丁目"},"geometry":{"type":"Polygon","coordinates":[[[139.76256,35.73126],[139.76383,35.72967],[139.76438,35.72879],[139.76482,35.72762],[139.76479,35.72724],[139.76459,35.72668],[139.76448,35.72645],[139.76413,35.7251],[139.76412,35.72498],[139.76427,35.72459],[139.76313,35.72475],[139.76223,35.72516],[139.76133,35.7251],[139.76096,35.72566],[139.7604,35.72807],[139.75966,35.72922],[139.75959,35.7295],[139.76,35.72979],[139.76019,35.72974],[139.76071,35.73013],[139.76122,35.73037],[139.76143,35.73042],[139.76163,35.73058],[139.76168,35.73069],[139.76207,35.73101],[139.76256,35.73126]]]}},{"type":"Feature","properties":{"id":"area-13105027004","name":"千駄木四丁目"},"geometry":{"type":"Polygon","coordinates":[[[139.75996,35.73184],[139.76011,35.73171],[139.76071,35.73198],[139.76097,35.7322],[139.76117,35.73232],[139.76123,35.73229],[139.76132,35.73237],[139.76145,35.73214],[139.76154,35.73188],[139.7616,35.73181],[139.76188,35.73172],[139.76207,35.73172],[139.76228,35.73156],[139.76256,35.73126],[139.76207,35.73101],[139.76168,35.73069],[139.76163,35.73058],[139.76143,35.73042],[139.76122,35.73037],[139.76071,35.73013],[139.76019,35.72974],[139.76,35.72979],[139.75959,35.7295],[139.7595,35.72966],[139.75872,35.72994],[139.75803,35.73079],[139.75772,35.73089],[139.75868,35.73268],[139.7588,35.73264],[139.75935,35.73228],[139.75958,35.73202],[139.75996,35.73184]]]}},{"type":"Feature","properties":{"id":"area-13105027005","name":"千駄木五丁目"},"geometry":{"type":"Polygon","coordinates":[[[139.75731,35.72465],[139.75686,35.72444],[139.75555,35.72636],[139.75618,35.72738],[139.75692,35.72869],[139.75739,35.72982],[139.75764,35.73063],[139.75767,35.73077],[139.7576,35.73083],[139.7577,35.73086],[139.75772,35.73089],[139.75803,35.73079],[139.75872,35.72994],[139.75942,35.7297],[139.7595,35.72966],[139.75954,35.72961],[139.75966,35.72922],[139.7604,35.72807],[139.76096,35.72566],[139.76133,35.7251],[139.76001,35.725],[139.75731,35.72465]]]}},{"type":"Feature","properties":{"id":"area-13105028001","name":"本駒込一丁目"},"geometry":{"type":"Polygon","coordinates":[[[139.7541,35.72308],[139.75266,35.72262],[139.75214,35.72362],[139.75185,35.72385],[139.75016,35.72472],[139.74922,35.72526],[139.74969,35.72652],[139.75,35.72722],[139.75082,35.72819],[139.75205,35.72846],[139.75267,35.72724],[139.75329,35.72661],[139.7541,35.72308]]]}},{"type":"Feature","properties":{"id":"area-13105028002","name":"本駒込二丁目"},"geometry":{"type":"Polygon","coordinates":[[[139.75082,35.72819],[139.75,35.72722],[139.74969,35.72652],[139.74922,35.72526],[139.74665,35.72682],[139.74552,35.72759],[139.74539,35.72759],[139.74391,35.72875],[139.74937,35.73229],[139.75099,35.73052],[139.75205,35.72846],[139.75082,35.72819]]]}},{"type":"Feature","properties":{"id":"area-13105028003","name":"本駒込三丁目"},"geometry":{"type":"Polygon","coordinates":[[[139.75374,35.73092],[139.75597,35.73059],[139.7576,35.73083],[139.75767,35.73077],[139.75739,35.72982],[139.75692,35.72869],[139.75576,35.72668],[139.75512,35.72568],[139.75415,35.72485],[139.75377,35.72448],[139.75329,35.72661],[139.75267,35.72724],[139.75099,35.73052],[139.75332,35.73094],[139.75374,35.73092]]]}},{"type":"Feature","properties":{"id":"area-13105028004","name":"本駒込四丁目"},"geometry":{"type":"Polygon","coordinates":[[[139.7577,35.73086],[139.75597,35.73059],[139.75374,35.73092],[139.75377,35.73135],[139.75386,35.73183],[139.75402,35.7323],[139.75411,35.73246],[139.75423,35.73292],[139.75451,35.7333],[139.75458,35.7337],[139.75468,35.73393],[139.75488,35.73413],[139.75496,35.73426],[139.7557,35.73392],[139.75671,35.73359],[139.75764,35.73306],[139.75803,35.73289],[139.75868,35.73268],[139.7577,35.73086]]]}},{"type":"Feature","properties":{"id":"area-13105028005","name":"本駒込五丁目"},"geometry":{"type":"Polygon","coordinates":[[[139.75268,35.73526],[139.75343,35.735],[139.75353,35.73508],[139.75395,35.73478],[139.75496,35.73426],[139.75488,35.73413],[139.75468,35.73393],[139.75458,35.7337],[139.75451,35.7333],[139.75423,35.73292],[139.75411,35.73246],[139.75402,35.7323],[139.75386,35.73183],[139.75377,35.73135],[139.75374,35.73092],[139.75314,35.73092],[139.75099,35.73052],[139.74931,35.73237],[139.74921,35.73244],[139.74923,35.73246],[139.74901,35.73273],[139.74958,35.73306],[139.74955,35.7331],[139.74968,35.73318],[139.74964,35.73322],[139.74976,35.73328],[139.74982,35.73321],[139.74991,35.73327],[139.74987,35.73333],[139.74997,35.73338],[139.75001,35.73334],[139.75027,35.73351],[139.7502,35.73357],[139.75062,35.73393],[139.75061,35.73402],[139.75018,35.73424],[139.75032,35.7343],[139.75032,35.7344],[139.75059,35.7344],[139.75088,35.73451],[139.75088,35.73468],[139.75128,35.73482],[139.7515,35.73471],[139.75169,35.73494],[139.75268,35.73526]]]}},{"type":"Feature","properties":{"id":"area-13105028006","name":"本駒込六丁目"},"geometry":{"type":"Polygon","coordinates":[[[139.74528,35.73592],[139.74705,35.73511],[139.74705,35.73522],[139.74709,35.73529],[139.74737,35.73548],[139.74777,35.73491],[139.74769,35.73488],[139.74782,35.73471],[139.74772,35.73466],[139.74767,35.73471],[139.74742,35.73458],[139.74821,35.7335],[139.74848,35.73377],[139.74858,35.73365],[139.74862,35.73367],[139.74877,35.73347],[139.74894,35.73353],[139.74904,35.73341],[139.74877,35.73324],[139.74896,35.73299],[139.74904,35.73303],[139.7491,35.73296],[139.74914,35.73298],[139.74922,35.7329],[139.74925,35.73285],[139.74901,35.73273],[139.74923,35.73246],[139.74921,35.73244],[139.74937,35.73229],[139.74391,35.72875],[139.74323,35.72928],[139.74165,35.7307],[139.74122,35.73115],[139.74341,35.73272],[139.74307,35.733],[139.74327,35.73316],[139.74304,35.73336],[139.74296,35.73337],[139.74277,35.73321],[139.74253,35.73339],[139.74247,35.73334],[139.74226,35.73346],[139.74229,35.73352],[139.74221,35.73353],[139.74225,35.7336],[139.74188,35.73382],[139.74213,35.73393],[139.74236,35.7338],[139.74306,35.7348],[139.74337,35.73465],[139.74359,35.73487],[139.74411,35.73509],[139.74442,35.73552],[139.74506,35.73574],[139.74515,35.73571],[139.74528,35.73592]]]}}]}