{"type":"FeatureCollection","features":[{"type":"Feature","properties":{"id":"area-13117001001","name":"王子一丁目"},"geometry":{"type":"Polygon","coordinates":[[[139.74257,35.75655],[139.74291,35.75537],[139.74289,35.75533],[139.74245,35.75509],[139.7424,35.75501],[139.74231,35.75483],[139.74228,35.75463],[139.74241,35.75428],[139.74244,35.75413],[139.74241,35.75401],[139.7419,35.75342],[139.74179,35.75325],[139.7416,35.75282],[139.74146,35.75272],[139.74097,35.75262],[139.74033,35.75254],[139.7396,35.75237],[139.73872,35.75228],[139.73902,35.752],[139.74021,35.75103],[139.74019,35.751],[139.74022,35.75089],[139.73982,35.75087],[139.73927,35.75038],[139.73916,35.74963],[139.73888,35.74897],[139.7381,35.74979],[139.73758,35.75051],[139.73641,35.75188],[139.73631,35.75208],[139.7359,35.75235],[139.73627,35.75275],[139.73648,35.75306],[139.73657,35.75309],[139.73699,35.75311],[139.73714,35.75316],[139.73611,35.7543],[139.73488,35.75607],[139.74017,35.75612],[139.74128,35.75612],[139.74193,35.75606],[139.74215,35.75638],[139.74245,35.7567],[139.74257,35.75655]]]}},{"type":"Feature","properties":{"id":"area-13117001002","name":"王子二丁目"},"geometry":{"type":"Polygon","coordinates":[[[139.73289,35.75946],[139.73733,35.75913],[139.73865,35.75908],[139.7386,35.75865],[139.7386,35.75707],[139.73865,35.75611],[139.73488,35.75607],[139.73404,35.75733],[139.7339,35.75747],[139.73371,35.75777],[139.73334,35.75824],[139.73279,35.75876],[139.73216,35.75918],[139.73249,35.75935],[139.73289,35.75946]]]}},{"type":"Feature","properties":{"id":"area-13117001003","name":"王子三丁目"},"geometry":{"type":"Polygon","coordinates":[[[139.73874,35.76172],[139.73866,35.75908],[139.73733,35.75913],[139.73289,35.75946],[139.73279,35.75976],[139.73276,35.76021],[139.73277,35.76064],[139.73476,35.76056],[139.73594,35.76092],[139.73747,35.76145],[139.73728,35.76182],[139.7374,35.76187],[139.73801,35.76146],[139.73804,35.7632],[139.73874,35.7632],[139.73874,35.76172]]]}},{"type":"Feature","properties":{"id":"area-13117001004","name":"王子四丁目"},"geometry":{"type":"Polygon","coordinates":[[[139.73804,35.76389],[139.73801,35.76146],[139.7374,35.76187],[139.73728,35.76182],[139.73747,35.76145],[139.73594,35.76092],[139.73476,35.76056],[139.73277,35.76064],[139.73277,35.7612],[139.73283,35.76129],[139.73286,35.76175],[139.73285,35.76227],[139.73367,35.76274],[139.73423,35.76299],[139.73457,35.76258],[139.73513,35.76282],[139.73526,35.76283],[139.73575,35.7631],[139.7359,35.76291],[139.736,35.76294],[139.73673,35.7633],[139.73726,35.76361],[139.73786,35.76385],[139.73804,35.76389]]]}},{"type":"Feature","properties":{"id":"area-13117001005","name":"王子五丁目"},"geometry":{"type":"Polygon","coordinates":[[[139.73892,35.76971],[139.7387,35.7689],[139.73868,35.76867],[139.73842,35.76813],[139.73856,35.76804],[139.73861,35.7679],[139.73859,35.76734],[139.73864,35.76602],[139.73823,35.76599],[139.73822,35.76419],[139.73806,35.76417],[139.73806,35.7639],[139.73786,35.76385],[139.73726,35.76361],[139.73673,35.7633],[139.736,35.76294],[139.7359,35.76291],[139.73575,35.7631],[139.73526,35.76283],[139.73513,35.76282],[139.73457,35.76258],[139.73423,35.76299],[139.73418,35.76298],[139.73367,35.76274],[139.73285,35.76227],[139.73268,35.76221],[139.73246,35.76254],[139.73208,35.76337],[139.73164,35.7645],[139.73113,35.76568],[139.73198,35.766],[139.73218,35.76604],[139.73228,35.76603],[139.73355,35.7664],[139.73474,35.76634],[139.73496,35.76636],[139.73515,35.76644],[139.73549,35.76662],[139.73563,35.76675],[139.73612,35.76734],[139.73707,35.76792],[139.73734,35.76834],[139.73759,35.76949],[139.73805,35.76944],[139.73817,35.76987],[139.73892,35.76971]]]}},{"type":"Feature","properties":{"id":"area-13117001006","name":"王子六丁目"},"geometry":{"type":"Polygon","coordinates":[[[139.73892,35.76396],[139.74032,35.76392],[139.74235,35.76393],[139.74231,35.76292],[139.74234,35.76215],[139.7423,35.76038],[139.74226,35.76038],[139.74226,35.75937],[139.74222,35.75895],[139.73866,35.75908],[139.73875,35.76243],[139.73874,35.7632],[139.73804,35.7632],[139.73804,35.76389],[139.73816,35.76393],[139.73892,35.76396]]]}},{"type":"Feature","properties":{"id":"area-13117002001","name":"豊島一丁目"},"geometry":{"type":"Polygon","coordinates":[[[139.74349,35.75882],[139.74146,35.75672],[139.74138,35.75678],[139.74139,35.75666],[139.74112,35.75637],[139.74149,35.7561],[139.74128,35.75612],[139.73865,35.75611],[139.7386,35.75707],[139.7386,35.75865],[139.73865,35.75908],[139.7425,35.75894],[139.7433,35.75888],[139.74349,35.75882]]]}},{"type":"Feature","properties":{"id":"area-13117002002","name":"豊島二丁目"},"geometry":{"type":"Polygon","coordinates":[[[139.74806,35.76018],[139.74885,35.75973],[139.74849,35.75939],[139.74835,35.75916],[139.74825,35.75882],[139.74706,35.75886],[139.74676,35.7588],[139.74648,35.7587],[139.74626,35.75849],[139.74623,35.7584],[139.74641,35.7579],[139.74631,35.75775],[139.74615,35.75768],[139.74615,35.75764],[139.74577,35.7575],[139.74502,35.75734],[139.74451,35.75708],[139.74426,35.75701],[139.74303,35.75692],[139.74272,35.7568],[139.74262,35.75688],[139.74215,35.75638],[139.74193,35.75606],[139.74149,35.7561],[139.74112,35.75637],[139.74139,35.75666],[139.74138,35.75678],[139.74146,35.75672],[139.74349,35.75882],[139.7433,35.75888],[139.74222,35.75895],[139.74225,35.75968],[139.74343,35.75965],[139.74342,35.7596],[139.74514,35.75961],[139.74585,35.75965],[139.74584,35.75986],[139.74695,35.76],[139.74728,35.75999],[139.74779,35.75982],[139.74806,35.76018]]]}},{"type":"Feature","properties":{"id":"area-13117002003","name":"豊島三丁目"},"geometry":{"type":"Polygon","coordinates":[[[139.74302,35.76209],[139.744,35.76208],[139.74493,35.76215],[139.74686,35.76213],[139.74711,35.76209],[139.74783,35.76186],[139.74852,35.76149],[139.74859,35.76127],[139.74888,35.76094],[139.74867,35.76084],[139.74933,35.76004],[139.74885,35.75973],[139.74806,35.76018],[139.74779,35.75982],[139.74728,35.75999],[139.74695,35.76],[139.74584,35.75986],[139.74585,35.75965],[139.74514,35.75961],[139.74342,35.7596],[139.74343,35.75965],[139.74225,35.75968],[139.74226,35.76038],[139.7423,35.76038],[139.74234,35.76215],[139.74302,35.76209]]]}},{"type":"Feature","properties":{"id":"area-13117002004","name":"豊島四丁目"},"geometry":{"type":"Polygon","coordinates":[[[139.748,35.76349],[139.74832,35.76346],[139.74843,35.76329],[139.74889,35.76318],[139.74903,35.76327],[139.74916,35.76345],[139.74947,35.76344],[139.74949,35.76317],[139.74942,35.7628],[139.75058,35.76275],[139.75072,35.76325],[139.75155,35.76325],[139.75164,35.76322],[139.75183,35.76331],[139.75194,35.76332],[139.75195,35.76388],[139.75348,35.76336],[139.75444,35.76284],[139.75251,35.76176],[139.75044,35.76067],[139.74933,35.76004],[139.74867,35.76084],[139.74888,35.76094],[139.74859,35.76127],[139.74852,35.76149],[139.74847,35.76153],[139.74816,35.76167],[139.74783,35.76186],[139.74711,35.76209],[139.74686,35.76213],[139.74583,35.76213],[139.74593,35.76388],[139.74605,35.76392],[139.7471,35.76402],[139.74712,35.76371],[139.74771,35.7636],[139.748,35.76349]]]}},{"type":"Feature","properties":{"id":"area-13117002005","name":"豊島五丁目"},"geometry":{"type":"Polygon","coordinates":[[[139.7588,35.76499],[139.7582,35.76453],[139.75646,35.76375],[139.75583,35.76353],[139.75507,35.7632],[139.75483,35.76308],[139.75444,35.76284],[139.75348,35.76336],[139.75195,35.76388],[139.75194,35.76332],[139.75183,35.76331],[139.75164,35.76322],[139.75155,35.76325],[139.75072,35.76325],[139.75058,35.76275],[139.74942,35.7628],[139.74949,35.76317],[139.74947,35.76344],[139.74944,35.76344],[139.74954,35.76429],[139.74924,35.76437],[139.74823,35.7648],[139.74785,35.7648],[139.74793,35.7659],[139.74783,35.7671],[139.74987,35.76727],[139.75099,35.76741],[139.754,35.76808],[139.75476,35.76828],[139.75549,35.76864],[139.757,35.76951],[139.75762,35.76995],[139.75796,35.77003],[139.75929,35.76918],[139.75953,35.76895],[139.75997,35.76835],[139.7602,35.76763],[139.76025,35.76736],[139.76024,35.76711],[139.76017,35.7667],[139.76,35.76635],[139.75977,35.76604],[139.7588,35.76499]]]}},{"type":"Feature","properties":{"id":"area-13117002006","name":"豊島六丁目"},"geometry":{"type":"Polygon","coordinates":[[[139.74584,35.76712],[139.74704,35.76704],[139.74783,35.7671],[139.74793,35.7659],[139.74785,35.7648],[139.74823,35.7648],[139.74924,35.76437],[139.74954,35.76429],[139.74944,35.76344],[139.74916,35.76345],[139.74903,35.76327],[139.74889,35.76318],[139.74843,35.76329],[139.74832,35.76346],[139.748,35.76349],[139.74771,35.7636],[139.74715,35.7637],[139.74712,35.76371],[139.7471,35.76402],[139.74605,35.76392],[139.74593,35.76388],[139.74578,35.76408],[139.74557,35.76427],[139.74513,35.76421],[139.74516,35.76453],[139.74534,35.76487],[139.74529,35.76523],[139.74537,35.76561],[139.74557,35.76616],[139.74584,35.76712]]]}},{"type":"Feature","properties":{"id":"area-13117002007","name":"豊島七丁目"},"geometry":{"type":"Polygon","coordinates":[[[139.74584,35.76712],[139.74532,35.7654],[139.74529,35.76523],[139.74534,35.76487],[139.74516,35.76453],[139.74513,35.76421],[139.74557,35.76427],[139.74578,35.76408],[139.74593,35.76388],[139.74583,35.76213],[139.74493,35.76215],[139.74436,35.76209],[139.7444,35.76211],[139.74313,35.76207],[139.74234,35.76215],[139.74232,35.76341],[139.74234,35.76343],[139.74235,35.76393],[139.74245,35.7642],[139.7425,35.76453],[139.74246,35.7651],[139.74251,35.76547],[139.74252,35.76612],[139.74219,35.76609],[139.7422,35.76688],[139.74231,35.76738],[139.74251,35.76776],[139.74282,35.76825],[139.74377,35.76782],[139.74472,35.76744],[139.74584,35.76712]]]}},{"type":"Feature","properties":{"id":"area-13117002008","name":"豊島八丁目"},"geometry":{"type":"Polygon","coordinates":[[[139.7422,35.76688],[139.74219,35.76609],[139.74252,35.76612],[139.74251,35.76547],[139.74246,35.7651],[139.7425,35.76453],[139.74245,35.7642],[139.74235,35.76393],[139.74032,35.76392],[139.73892,35.76396],[139.73816,35.76393],[139.73806,35.7639],[139.73806,35.76417],[139.73822,35.76419],[139.73823,35.76599],[139.73864,35.76602],[139.73859,35.76734],[139.73861,35.7679],[139.73856,35.76804],[139.73842,35.76813],[139.73868,35.76867],[139.7387,35.7689],[139.73892,35.76971],[139.73974,35.76951],[139.74046,35.76928],[139.74149,35.76888],[139.74282,35.76825],[139.74251,35.76776],[139.74231,35.76738],[139.7422,35.76688]]]}},{"type":"Feature","properties":{"id":"area-13117003001","name":"堀船一丁目"},"geometry":{"type":"Polygon","coordinates":[[[139.74258,35.75515],[139.74771,35.75117],[139.74677,35.75118],[139.74632,35.75132],[139.74611,35.75144],[139.74581,35.75156],[139.74566,35.7513],[139.74544,35.75134],[139.74526,35.75135],[139.74519,35.75118],[139.74509,35.75116],[139.74433,35.75114],[139.74402,35.75129],[139.74374,35.75134],[139.74307,35.75154],[139.74187,35.75208],[139.74156,35.75176],[139.74128,35.75189],[139.74098,35.75152],[139.74021,35.75103],[139.73902,35.752],[139.73872,35.75228],[139.7396,35.75237],[139.74033,35.75254],[139.74097,35.75262],[139.74146,35.75272],[139.7416,35.75282],[139.74179,35.75325],[139.7419,35.75342],[139.74241,35.75401],[139.74244,35.75413],[139.74241,35.75428],[139.74228,35.75463],[139.74231,35.75483],[139.7424,35.75501],[139.74245,35.75509],[139.74258,35.75515]]]}},{"type":"Feature","properties":{"id":"area-13117003002","name":"堀船二丁目"},"geometry":{"type":"Polygon","coordinates":[[[139.74776,35.75686],[139.74792,35.75648],[139.74794,35.75625],[139.74789,35.75555],[139.74774,35.75414],[139.7475,35.75309],[139.74751,35.75305],[139.74769,35.75298],[139.74773,35.75291],[139.74776,35.75239],[139.74763,35.75165],[139.74749,35.75135],[139.74258,35.75515],[139.74289,35.75533],[139.74291,35.75537],[139.74257,35.75655],[139.74245,35.7567],[139.74262,35.75688],[139.74272,35.7568],[139.74303,35.75692],[139.74426,35.75701],[139.74451,35.75708],[139.74502,35.75734],[139.74577,35.7575],[139.74615,35.75764],[139.74649,35.75747],[139.74676,35.75725],[139.74701,35.75714],[139.74759,35.75705],[139.74776,35.75686]]]}},{"type":"Feature","properties":{"id":"area-13117003003","name":"堀船三丁目"},"geometry":{"type":"Polygon","coordinates":[[[139.74944,35.75112],[139.74958,35.75105],[139.74858,35.75108],[139.74844,35.75084],[139.74825,35.75093],[139.74812,35.75086],[139.74749,35.75135],[139.74763,35.75165],[139.74776,35.75239],[139.74773,35.75291],[139.74769,35.75298],[139.74751,35.75305],[139.7475,35.75309],[139.74774,35.75414],[139.74781,35.75461],[139.74794,35.75625],[139.74792,35.75648],[139.74776,35.75686],[139.74759,35.75705],[139.74701,35.75714],[139.74676,35.75725],[139.74649,35.75747],[139.74615,35.75764],[139.74615,35.75768],[139.74631,35.75775],[139.74641,35.7579],[139.74623,35.7584],[139.74626,35.75849],[139.74648,35.7587],[139.74676,35.7588],[139.74706,35.75886],[139.74825,35.75882],[139.74818,35.75849],[139.74822,35.75813],[139.74837,35.7577],[139.74852,35.75747],[139.74877,35.75724],[139.74943,35.75679],[139.75024,35.75638],[139.75119,35.75601],[139.75151,35.75594],[139.75132,35.75561],[139.75027,35.75426],[139.7502,35.75408],[139.75018,35.75394],[139.75021,35.75391],[139.75105,35.75382],[139.75092,35.75262],[139.75079,35.75253],[139.75066,35.75232],[139.7503,35.75228],[139.75013,35.75198],[139.75003,35.75191],[139.74996,35.75178],[139.74986,35.75177],[139.74966,35.75152],[139.74956,35.75147],[139.74944,35.75112]]]}},{"type":"Feature","properties":{"id":"area-13117003004","name":"堀船四丁目"},"geometry":{"type":"Polygon","coordinates":[[[139.75775,35.75483],[139.75724,35.75319],[139.75659,35.75333],[139.75558,35.75337],[139.75383,35.75353],[139.75362,35.75352],[139.75182,35.75375],[139.75179,35.75362],[139.75137,35.75365],[139.75102,35.7536],[139.75105,35.75382],[139.75021,35.75391],[139.75018,35.75394],[139.75027,35.75426],[139.75132,35.75561],[139.75151,35.75594],[139.75253,35.75571],[139.75627,35.7551],[139.75775,35.75483]]]}},{"type":"Feature","properties":{"id":"area-13117004001","name":"東十条一丁目"},"geometry":{"type":"Polygon","coordinates":[[[139.73246,35.76254],[139.73268,35.76221],[139.73285,35.76227],[139.73287,35.76204],[139.73283,35.76129],[139.73277,35.7612],[139.73276,35.76021],[139.73279,35.75976],[139.73289,35.75946],[139.73249,35.75935],[139.73216,35.75918],[139.72885,35.76151],[139.72917,35.76179],[139.72892,35.762],[139.72889,35.76208],[139.73208,35.76337],[139.73246,35.76254]]]}},{"type":"Feature","properties":{"id":"area-13117004002","name":"東十条二丁目"},"geometry":{"type":"Polygon","coordinates":[[[139.72917,35.76179],[139.72885,35.76151],[139.72812,35.76202],[139.72749,35.76261],[139.72791,35.76292],[139.72869,35.76328],[139.72826,35.76399],[139.7314,35.76504],[139.73164,35.7645],[139.73208,35.76337],[139.72889,35.76208],[139.72892,35.762],[139.72917,35.76179]]]}},{"type":"Feature","properties":{"id":"area-13117004003","name":"東十条三丁目"},"geometry":{"type":"Polygon","coordinates":[[[139.73404,35.76738],[139.73419,35.76691],[139.73429,35.76689],[139.73446,35.76666],[139.73469,35.76672],[139.73491,35.76635],[139.73355,35.7664],[139.73228,35.76603],[139.73218,35.76604],[139.73198,35.766],[139.73113,35.76568],[139.7314,35.76504],[139.72826,35.76399],[139.72869,35.76328],[139.72791,35.76292],[139.72749,35.76261],[139.72654,35.76369],[139.72583,35.76493],[139.72677,35.7653],[139.7301,35.76687],[139.73071,35.7671],[139.73092,35.76715],[139.73154,35.76724],[139.73268,35.76732],[139.73391,35.76757],[139.73396,35.76744],[139.73404,35.76738]]]}},{"type":"Feature","properties":{"id":"area-13117004004","name":"東十条四丁目"},"geometry":{"type":"Polygon","coordinates":[[[139.72677,35.7653],[139.72583,35.76493],[139.72475,35.76685],[139.72606,35.7672],[139.72891,35.76803],[139.72964,35.76821],[139.72979,35.76787],[139.72992,35.76738],[139.7301,35.76687],[139.72677,35.7653]]]}},{"type":"Feature","properties":{"id":"area-13117004005","name":"東十条五丁目"},"geometry":{"type":"Polygon","coordinates":[[[139.72734,35.76944],[139.72798,35.76966],[139.72891,35.76803],[139.72606,35.7672],[139.72475,35.76685],[139.72378,35.7685],[139.72359,35.76866],[139.7234,35.76901],[139.72342,35.76912],[139.7244,35.76945],[139.72682,35.77034],[139.72734,35.76944]]]}},{"type":"Feature","properties":{"id":"area-13117004006","name":"東十条六丁目"},"geometry":{"type":"Polygon","coordinates":[[[139.72571,35.77231],[139.72682,35.77034],[139.7244,35.76945],[139.72342,35.76912],[139.72329,35.76923],[139.72276,35.77025],[139.72247,35.77092],[139.72228,35.77164],[139.72225,35.77164],[139.72221,35.77169],[139.7226,35.7718],[139.72272,35.77162],[139.72359,35.77193],[139.72361,35.77197],[139.7237,35.772],[139.72368,35.77202],[139.72407,35.77216],[139.72413,35.77215],[139.72497,35.77251],[139.72572,35.77253],[139.72571,35.77231]]]}},{"type":"Feature","properties":{"id":"area-13117005001","name":"王子本町一丁目"},"geometry":{"type":"Polygon","coordinates":[[[139.73534,35.75423],[139.73551,35.75407],[139.73572,35.75417],[139.73589,35.75395],[139.73588,35.7539],[139.73627,35.75351],[139.73642,35.75332],[139.73647,35.75325],[139.73641,35.75317],[139.73648,35.75306],[139.73621,35.75267],[139.73586,35.7523],[139.73545,35.75206],[139.73456,35.75214],[139.73416,35.75208],[139.73362,35.75185],[139.73319,35.75182],[139.73275,35.7519],[139.73227,35.75223],[139.73203,35.75233],[139.73186,35.75216],[139.73164,35.75177],[139.73154,35.75172],[139.73141,35.75172],[139.73115,35.75189],[139.73111,35.75199],[139.73111,35.75215],[139.73117,35.75233],[139.73115,35.75253],[139.73112,35.75256],[139.73095,35.75264],[139.73077,35.75266],[139.73036,35.75255],[139.73032,35.75276],[139.73021,35.75302],[139.73239,35.75355],[139.73228,35.75383],[139.73223,35.75432],[139.73225,35.75445],[139.73253,35.75445],[139.73191,35.75514],[139.73217,35.75516],[139.73247,35.75526],[139.73291,35.75544],[139.73331,35.75569],[139.73372,35.75534],[139.73369,35.75525],[139.73398,35.75518],[139.73403,35.75505],[139.73434,35.75495],[139.73445,35.75486],[139.73454,35.7547],[139.73459,35.75447],[139.73501,35.75438],[139.73534,35.75423]]]}},{"type":"Feature","properties":{"id":"area-13117005002","name":"王子本町二丁目"},"geometry":{"type":"Polygon","coordinates":[[[139.73239,35.75355],[139.73021,35.75302],[139.72997,35.75344],[139.72991,35.75357],[139.72975,35.75449],[139.72958,35.75594],[139.73002,35.75631],[139.7303,35.75665],[139.73157,35.75751],[139.73171,35.7575],[139.73256,35.75654],[139.73288,35.7563],[139.73347,35.75577],[139.73283,35.7554],[139.73217,35.75516],[139.73191,35.75514],[139.73253,35.75445],[139.73225,35.75445],[139.73223,35.75432],[139.73228,35.75383],[139.73239,35.75355]]]}},{"type":"Feature","properties":{"id":"area-13117005003","name":"王子本町三丁目"},"geometry":{"type":"Polygon","coordinates":[[[139.72967,35.75511],[139.72991,35.75357],[139.73025,35.75296],[139.72908,35.7527],[139.72793,35.7525],[139.7276,35.75242],[139.72684,35.75214],[139.72649,35.75205],[139.72462,35.75203],[139.7246,35.75211],[139.72462,35.75236],[139.72483,35.75279],[139.72498,35.75285],[139.7268,35.75306],[139.72747,35.753],[139.72774,35.75307],[139.72781,35.75326],[139.72794,35.75334],[139.72825,35.75347],[139.72851,35.75351],[139.72844,35.75385],[139.72804,35.75382],[139.72792,35.75489],[139.72888,35.75496],[139.72887,35.75504],[139.72967,35.75511]]]}},{"type":"Feature","properties":{"id":"area-13117006001","name":"岸町一丁目"},"geometry":{"type":"Polygon","coordinates":[[[139.73613,35.75427],[139.73714,35.75316],[139.73699,35.75311],[139.73657,35.75309],[139.73648,35.75306],[139.73641,35.75317],[139.73647,35.75325],[139.73642,35.75332],[139.73627,35.75351],[139.73588,35.7539],[139.73589,35.75395],[139.73572,35.75417],[139.73551,35.75407],[139.73525,35.75429],[139.73501,35.75438],[139.73459,35.75447],[139.73454,35.7547],[139.73445,35.75486],[139.73434,35.75495],[139.73403,35.75505],[139.73398,35.75518],[139.73369,35.75525],[139.73372,35.75534],[139.73331,35.75569],[139.73347,35.75577],[139.73288,35.7563],[139.73256,35.75654],[139.73181,35.75741],[139.73171,35.7575],[139.73157,35.75751],[139.73164,35.75755],[139.73164,35.75765],[139.73153,35.7578],[139.73153,35.7579],[139.73178,35.75803],[139.73214,35.75828],[139.73266,35.75854],[139.73287,35.75869],[139.73334,35.75824],[139.73371,35.75777],[139.73613,35.75427]]]}},{"type":"Feature","properties":{"id":"area-13117006002","name":"岸町二丁目"},"geometry":{"type":"Polygon","coordinates":[[[139.72759,35.7625],[139.72812,35.76202],[139.73287,35.75869],[139.73266,35.75854],[139.73214,35.75828],[139.73178,35.75803],[139.73153,35.7579],[139.73153,35.7578],[139.73164,35.75765],[139.73164,35.75755],[139.73157,35.75751],[139.73139,35.75775],[139.73138,35.7579],[139.73118,35.75813],[139.73109,35.7582],[139.73103,35.75817],[139.731,35.75819],[139.72963,35.75963],[139.7295,35.75967],[139.72935,35.75982],[139.72918,35.76028],[139.72908,35.7604],[139.72891,35.76049],[139.72867,35.76071],[139.72829,35.76114],[139.72819,35.76121],[139.72772,35.76183],[139.72775,35.76186],[139.72763,35.76198],[139.72771,35.76204],[139.72754,35.76222],[139.72739,35.76216],[139.72729,35.76234],[139.72759,35.7625]]]}},{"type":"Feature","properties":{"id":"area-13117007001","name":"中十条一丁目"},"geometry":{"type":"Polygon","coordinates":[[[139.72963,35.75963],[139.73103,35.75817],[139.73109,35.7582],[139.73118,35.75813],[139.73138,35.7579],[139.73139,35.75775],[139.73157,35.75751],[139.7303,35.75665],[139.73002,35.75631],[139.72958,35.75594],[139.72948,35.75641],[139.72933,35.75751],[139.72901,35.7581],[139.72784,35.75806],[139.72667,35.75807],[139.72671,35.7582],[139.72639,35.75832],[139.72641,35.7584],[139.72708,35.75843],[139.72662,35.75899],[139.7263,35.75924],[139.72616,35.75943],[139.72575,35.75978],[139.72531,35.76029],[139.72573,35.76052],[139.7262,35.76069],[139.72682,35.76098],[139.72695,35.76105],[139.72689,35.76111],[139.72698,35.7612],[139.72758,35.76152],[139.72753,35.76176],[139.72738,35.76198],[139.72741,35.76211],[139.72739,35.76216],[139.72754,35.76222],[139.72771,35.76204],[139.72763,35.76198],[139.72775,35.76186],[139.72772,35.76183],[139.72819,35.76121],[139.72829,35.76114],[139.72867,35.76071],[139.72891,35.76049],[139.72908,35.7604],[139.72918,35.76028],[139.72935,35.75982],[139.7295,35.75967],[139.72963,35.75963]]]}},{"type":"Feature","properties":{"id":"area-13117007002","name":"中十条二丁目"},"geometry":{"type":"Polygon","coordinates":[[[139.72711,35.76302],[139.72759,35.7625],[139.72729,35.76234],[139.72741,35.76211],[139.72738,35.76198],[139.72753,35.76176],[139.72758,35.76152],[139.72698,35.7612],[139.72689,35.76111],[139.72695,35.76105],[139.72682,35.76098],[139.7262,35.76069],[139.72573,35.76052],[139.72531,35.76029],[139.72503,35.76051],[139.72405,35.76112],[139.72413,35.76129],[139.72398,35.76162],[139.72313,35.76153],[139.72237,35.76138],[139.7222,35.76139],[139.72223,35.76167],[139.72223,35.76294],[139.72257,35.76289],[139.72346,35.76286],[139.72449,35.76289],[139.72551,35.76298],[139.72559,35.76279],[139.72632,35.7629],[139.72682,35.76292],[139.72711,35.76302]]]}},{"type":"Feature","properties":{"id":"area-13117007003","name":"中十条三丁目"},"geometry":{"type":"Polygon","coordinates":[[[139.72477,35.76682],[139.72645,35.76382],[139.72711,35.76302],[139.72682,35.76292],[139.72632,35.7629],[139.72559,35.76279],[139.72551,35.76298],[139.72449,35.76289],[139.72346,35.76286],[139.72257,35.76289],[139.72223,35.76294],[139.72224,35.76572],[139.72219,35.76646],[139.72387,35.76657],[139.72477,35.76682]]]}},{"type":"Feature","properties":{"id":"area-13117007004","name":"中十条四丁目"},"geometry":{"type":"Polygon","coordinates":[[[139.72221,35.77169],[139.72225,35.77164],[139.72228,35.77164],[139.72247,35.77092],[139.72276,35.77025],[139.72329,35.76923],[139.72342,35.76912],[139.7234,35.76901],[139.72359,35.76866],[139.72378,35.7685],[139.72477,35.76682],[139.72387,35.76657],[139.72219,35.76646],[139.72211,35.76789],[139.72211,35.76889],[139.72204,35.76965],[139.72206,35.77014],[139.72201,35.77085],[139.72203,35.77169],[139.72221,35.77169]]]}},{"type":"Feature","properties":{"id":"area-13117008001","name":"十条台一丁目"},"geometry":{"type":"Polygon","coordinates":[[[139.72901,35.7581],[139.72934,35.75746],[139.72948,35.75641],[139.72957,35.75599],[139.72967,35.75511],[139.72887,35.75504],[139.72888,35.75496],[139.72792,35.75489],[139.72804,35.75382],[139.72844,35.75385],[139.72851,35.75351],[139.72825,35.75347],[139.72794,35.75334],[139.72781,35.75326],[139.72774,35.75307],[139.72747,35.753],[139.7268,35.75306],[139.72498,35.75285],[139.72483,35.75279],[139.72462,35.75236],[139.7246,35.75211],[139.72462,35.75203],[139.72252,35.752],[139.72251,35.75311],[139.72238,35.75338],[139.72228,35.75338],[139.72224,35.75481],[139.72226,35.75579],[139.72222,35.75766],[139.72543,35.75788],[139.72659,35.75803],[139.72667,35.75807],[139.72784,35.75806],[139.72901,35.7581]]]}},{"type":"Feature","properties":{"id":"area-13117008002","name":"十条台二丁目"},"geometry":{"type":"Polygon","coordinates":[[[139.71976,35.7584],[139.72003,35.75838],[139.72011,35.75833],[139.721,35.75763],[139.72225,35.75683],[139.72224,35.75481],[139.72228,35.75338],[139.722,35.75364],[139.72202,35.75391],[139.72103,35.75427],[139.7212,35.75459],[139.72034,35.75496],[139.72046,35.75515],[139.72044,35.75519],[139.72055,35.75535],[139.72097,35.75518],[139.72114,35.75542],[139.72025,35.7558],[139.72045,35.75613],[139.71949,35.75653],[139.71914,35.75679],[139.71924,35.75689],[139.71875,35.75767],[139.7183,35.75817],[139.71774,35.75856],[139.71781,35.75862],[139.71779,35.75865],[139.71844,35.75931],[139.71976,35.7584]]]}},{"type":"Feature","properties":{"id":"area-13117009001","name":"十条仲原一丁目"},"geometry":{"type":"Polygon","coordinates":[[[139.72223,35.76417],[139.72225,35.76318],[139.72223,35.76167],[139.7222,35.76137],[139.72135,35.76141],[139.7213,35.76157],[139.71971,35.76159],[139.71965,35.76185],[139.71965,35.76196],[139.71951,35.76227],[139.71933,35.76253],[139.719,35.76249],[139.71896,35.76256],[139.71876,35.76345],[139.7187,35.76356],[139.71896,35.76369],[139.71955,35.7639],[139.72084,35.76406],[139.72134,35.76424],[139.72163,35.7643],[139.72184,35.76429],[139.72223,35.76417]]]}},{"type":"Feature","properties":{"id":"area-13117009002","name":"十条仲原二丁目"},"geometry":{"type":"Polygon","coordinates":[[[139.72224,35.76608],[139.72223,35.76417],[139.72184,35.76429],[139.72163,35.7643],[139.72134,35.76424],[139.72084,35.76406],[139.71955,35.7639],[139.71914,35.76376],[139.7187,35.76356],[139.71863,35.76355],[139.7185,35.76379],[139.71848,35.76388],[139.71839,35.76399],[139.71832,35.7642],[139.71797,35.76476],[139.71966,35.76541],[139.72018,35.76572],[139.72129,35.76628],[139.72175,35.76642],[139.72213,35.76648],[139.72219,35.76646],[139.72224,35.76608]]]}},{"type":"Feature","properties":{"id":"area-13117009003","name":"十条仲原三丁目"},"geometry":{"type":"Polygon","coordinates":[[[139.72125,35.76776],[139.72147,35.76724],[139.72165,35.76726],[139.72174,35.76718],[139.72177,35.76712],[139.72217,35.7671],[139.72219,35.76646],[139.72213,35.76648],[139.72175,35.76642],[139.72129,35.76628],[139.72018,35.76572],[139.71966,35.76541],[139.71899,35.76514],[139.71877,35.76583],[139.7188,35.76584],[139.7188,35.76591],[139.71866,35.76644],[139.71855,35.76666],[139.71829,35.76704],[139.71824,35.76726],[139.71809,35.76753],[139.71841,35.76761],[139.71858,35.76761],[139.7186,35.76737],[139.71922,35.76735],[139.72079,35.76764],[139.72125,35.76776]]]}},{"type":"Feature","properties":{"id":"area-13117009004","name":"十条仲原四丁目"},"geometry":{"type":"Polygon","coordinates":[[[139.72204,35.76965],[139.72211,35.76889],[139.72211,35.76789],[139.72217,35.7671],[139.72177,35.76712],[139.72174,35.76718],[139.72165,35.76726],[139.72147,35.76724],[139.72125,35.76776],[139.72079,35.76764],[139.71922,35.76735],[139.7186,35.76737],[139.71858,35.76761],[139.71841,35.76761],[139.71809,35.76753],[139.718,35.76766],[139.71787,35.76773],[139.71745,35.76784],[139.71723,35.76805],[139.71744,35.76817],[139.71791,35.76861],[139.7183,35.76889],[139.71937,35.76952],[139.71951,35.76955],[139.71975,35.76953],[139.72005,35.7696],[139.72096,35.76998],[139.72163,35.77032],[139.72176,35.77031],[139.72206,35.77014],[139.72204,35.76965]]]}},{"type":"Feature","properties":{"id":"area-13117010001","name":"上十条一丁目"},"geometry":{"type":"Polygon","coordinates":[[[139.72398,35.76161],[139.72413,35.76129],[139.72405,35.76112],[139.72503,35.76051],[139.72531,35.76029],[139.72575,35.75978],[139.72616,35.75943],[139.7263,35.75924],[139.72652,35.75909],[139.7269,35.75868],[139.72708,35.75843],[139.72641,35.7584],[139.72639,35.75832],[139.72671,35.7582],[139.72667,35.75807],[139.72659,35.75803],[139.72543,35.75788],[139.72222,35.75766],[139.72225,35.75937],[139.72224,35.75945],[139.72215,35.75945],[139.72221,35.76026],[139.72219,35.76036],[139.72209,35.76038],[139.72199,35.76051],[139.72198,35.7607],[139.72215,35.76088],[139.7222,35.76106],[139.72217,35.76128],[139.7222,35.76139],[139.72237,35.76138],[139.72313,35.76153],[139.72398,35.76161]]]}},{"type":"Feature","properties":{"id":"area-13117010002","name":"上十条二丁目"},"geometry":{"type":"Polygon","coordinates":[[[139.72199,35.76051],[139.72209,35.76038],[139.72219,35.76036],[139.72221,35.76026],[139.72215,35.75945],[139.72224,35.75945],[139.72225,35.75937],[139.72222,35.75766],[139.72225,35.75683],[139.721,35.75763],[139.72011,35.75833],[139.72003,35.75838],[139.71976,35.7584],[139.71833,35.75939],[139.71835,35.75945],[139.71859,35.75961],[139.7187,35.75979],[139.71884,35.76016],[139.71922,35.76069],[139.71969,35.76051],[139.72001,35.76111],[139.72004,35.76158],[139.7213,35.76157],[139.72135,35.76141],[139.7222,35.76137],[139.72217,35.76128],[139.7222,35.76106],[139.72215,35.76088],[139.72198,35.7607],[139.72199,35.76051]]]}},{"type":"Feature","properties":{"id":"area-13117010003","name":"上十条三丁目"},"geometry":{"type":"Polygon","coordinates":[[[139.71876,35.76345],[139.719,35.76249],[139.71933,35.76253],[139.71951,35.76227],[139.71965,35.76196],[139.71965,35.76185],[139.71971,35.76159],[139.72004,35.76158],[139.72001,35.76111],[139.71969,35.76051],[139.71922,35.76069],[139.71884,35.76016],[139.7187,35.75979],[139.71859,35.75961],[139.71835,35.75945],[139.71833,35.75939],[139.71844,35.75931],[139.71779,35.75865],[139.71725,35.75919],[139.71648,35.76041],[139.71627,35.76068],[139.71605,35.7609],[139.71495,35.76166],[139.71558,35.76221],[139.71573,35.76212],[139.71721,35.76324],[139.7178,35.76327],[139.71802,35.76331],[139.71863,35.76355],[139.7187,35.76356],[139.71876,35.76345]]]}},{"type":"Feature","properties":{"id":"area-13117010004","name":"上十条四丁目"},"geometry":{"type":"Polygon","coordinates":[[[139.71719,35.76323],[139.71573,35.76212],[139.71558,35.76221],[139.71495,35.76166],[139.71452,35.76191],[139.71389,35.76247],[139.71362,35.76267],[139.71355,35.76268],[139.71318,35.76317],[139.71269,35.76316],[139.71263,35.7633],[139.71347,35.76357],[139.71667,35.76439],[139.71797,35.76476],[139.71832,35.7642],[139.71839,35.76399],[139.71848,35.76388],[139.7185,35.76379],[139.71863,35.76355],[139.71802,35.76331],[139.71719,35.76323]]]}},{"type":"Feature","properties":{"id":"area-13117010005","name":"上十条五丁目"},"geometry":{"type":"Polygon","coordinates":[[[139.718,35.76766],[139.71824,35.76726],[139.71829,35.76704],[139.71855,35.76666],[139.71866,35.76644],[139.7188,35.76591],[139.7188,35.76584],[139.71877,35.76583],[139.71899,35.76514],[139.71797,35.76476],[139.71721,35.76453],[139.71347,35.76357],[139.71348,35.76372],[139.71343,35.76393],[139.71333,35.76416],[139.71331,35.7643],[139.71345,35.76479],[139.71433,35.76542],[139.71458,35.76554],[139.71459,35.76582],[139.71466,35.76604],[139.71457,35.76625],[139.71457,35.76639],[139.7145,35.76658],[139.71451,35.76674],[139.71478,35.76732],[139.71467,35.76752],[139.71542,35.76759],[139.71679,35.76755],[139.71681,35.76758],[139.71671,35.76768],[139.71723,35.76805],[139.71745,35.76784],[139.71787,35.76773],[139.718,35.76766]]]}},{"type":"Feature","properties":{"id":"area-13117011001","name":"神谷一丁目"},"geometry":{"type":"Polygon","coordinates":[[[139.73817,35.76987],[139.73805,35.76944],[139.73759,35.76949],[139.73734,35.76834],[139.73707,35.76792],[139.73612,35.76734],[139.73563,35.76675],[139.73549,35.76662],[139.73491,35.76635],[139.73469,35.76672],[139.73446,35.76666],[139.73429,35.76689],[139.73419,35.76691],[139.73404,35.76738],[139.73396,35.76744],[139.73391,35.76757],[139.73268,35.76732],[139.73154,35.76724],[139.73092,35.76715],[139.73011,35.76686],[139.72992,35.76738],[139.72979,35.76787],[139.72964,35.76821],[139.73001,35.76833],[139.73002,35.76838],[139.73156,35.76877],[139.73428,35.76953],[139.7362,35.77076],[139.73644,35.77047],[139.73663,35.77033],[139.73682,35.77024],[139.73817,35.76987]]]}},{"type":"Feature","properties":{"id":"area-13117011002","name":"神谷二丁目"},"geometry":{"type":"Polygon","coordinates":[[[139.73015,35.77149],[139.73001,35.76833],[139.72891,35.76803],[139.72798,35.76966],[139.72734,35.76944],[139.72571,35.77231],[139.72572,35.77262],[139.72582,35.77301],[139.72616,35.77502],[139.72832,35.77506],[139.72963,35.77505],[139.72975,35.77388],[139.72985,35.77376],[139.73005,35.77249],[139.73015,35.77149]]]}},{"type":"Feature","properties":{"id":"area-13117011003","name":"神谷三丁目"},"geometry":{"type":"Polygon","coordinates":[[[139.7357,35.77548],[139.73659,35.77492],[139.73604,35.77371],[139.73579,35.77257],[139.73581,35.77191],[139.73602,35.77111],[139.7362,35.77076],[139.73428,35.76953],[139.73156,35.76877],[139.73002,35.76838],[139.73015,35.77149],[139.73005,35.77249],[139.72985,35.77376],[139.72975,35.77388],[139.72963,35.77505],[139.73066,35.77504],[139.73099,35.77498],[139.73223,35.775],[139.73226,35.77526],[139.73238,35.77537],[139.73276,35.77539],[139.7328,35.77545],[139.73486,35.77545],[139.7357,35.77548]]]}},{"type":"Feature","properties":{"id":"area-13117012001","name":"赤羽一丁目"},"geometry":{"type":"Polygon","coordinates":[[[139.7225,35.78202],[139.72253,35.7807],[139.72251,35.7793],[139.72273,35.778],[139.72158,35.77786],[139.72144,35.77778],[139.72202,35.77685],[139.72247,35.77579],[139.72212,35.77561],[139.72201,35.77552],[139.72197,35.77539],[139.72183,35.77532],[139.72177,35.77561],[139.72158,35.77617],[139.72116,35.77672],[139.72098,35.77704],[139.72048,35.77774],[139.71982,35.77876],[139.71985,35.77878],[139.71865,35.78057],[139.71865,35.78068],[139.71825,35.78142],[139.71813,35.78186],[139.71815,35.78185],[139.71863,35.78213],[139.71964,35.78283],[139.72048,35.78359],[139.72059,35.78373],[139.7209,35.78369],[139.72248,35.78336],[139.72248,35.78262],[139.72252,35.7824],[139.7225,35.78202]]]}},{"type":"Feature","properties":{"id":"area-13117012002","name":"赤羽二丁目"},"geometry":{"type":"Polygon","coordinates":[[[139.72305,35.77798],[139.72273,35.778],[139.72251,35.7793],[139.72253,35.7807],[139.72248,35.78336],[139.72675,35.78247],[139.72665,35.78094],[139.72637,35.7796],[139.72626,35.77831],[139.72305,35.77798]]]}},{"type":"Feature","properties":{"id":"area-13117012003","name":"赤羽三丁目"},"geometry":{"type":"Polygon","coordinates":[[[139.71863,35.78213],[139.71815,35.78185],[139.71813,35.78186],[139.71781,35.78258],[139.71765,35.78288],[139.71737,35.78414],[139.71708,35.78481],[139.71679,35.78567],[139.71673,35.78595],[139.71664,35.78672],[139.71673,35.78768],[139.71726,35.78762],[139.71747,35.78753],[139.71989,35.78735],[139.71964,35.78685],[139.71972,35.7868],[139.71975,35.7864],[139.72126,35.78616],[139.72124,35.78584],[139.72119,35.78573],[139.721,35.78542],[139.72065,35.78517],[139.72059,35.78508],[139.72059,35.78484],[139.72055,35.78473],[139.71985,35.78384],[139.72057,35.78371],[139.72048,35.78359],[139.71964,35.78283],[139.71863,35.78213]]]}},{"type":"Feature","properties":{"id":"area-13117013001","name":"西が丘一丁目"},"geometry":{"type":"Polygon","coordinates":[[[139.71302,35.77287],[139.7133,35.77125],[139.71396,35.77145],[139.71412,35.77147],[139.71477,35.77168],[139.71494,35.77175],[139.71515,35.7719],[139.71539,35.77197],[139.71581,35.77202],[139.71575,35.77122],[139.71623,35.76978],[139.71623,35.76966],[139.71648,35.76898],[139.71312,35.76804],[139.71125,35.76756],[139.71007,35.77056],[139.71004,35.77055],[139.71001,35.77061],[139.71097,35.77087],[139.71079,35.77256],[139.71187,35.77273],[139.71302,35.77287]]]}},{"type":"Feature","properties":{"id":"area-13117013002","name":"西が丘二丁目"},"geometry":{"type":"Polygon","coordinates":[[[139.71671,35.76768],[139.71681,35.76758],[139.71679,35.76755],[139.71542,35.76759],[139.71467,35.76752],[139.71478,35.76732],[139.71451,35.76674],[139.7145,35.76658],[139.71457,35.76639],[139.71457,35.76625],[139.71466,35.76604],[139.71459,35.76582],[139.71458,35.76554],[139.71433,35.76542],[139.71345,35.76479],[139.71331,35.7643],[139.71333,35.76416],[139.71343,35.76393],[139.71348,35.76372],[139.71347,35.76357],[139.71299,35.76342],[139.71259,35.76401],[139.71248,35.76447],[139.71138,35.76716],[139.71125,35.76756],[139.71312,35.76804],[139.71648,35.76898],[139.71673,35.76868],[139.71665,35.76858],[139.71671,35.7684],[139.71679,35.76839],[139.71692,35.76832],[139.71721,35.76804],[139.71671,35.76768]]]}},{"type":"Feature","properties":{"id":"area-13117013003","name":"西が丘三丁目"},"geometry":{"type":"Polygon","coordinates":[[[139.71138,35.76716],[139.71248,35.76447],[139.71259,35.76401],[139.71299,35.76342],[139.71263,35.7633],[139.71254,35.76345],[139.71176,35.76351],[139.71135,35.7637],[139.7103,35.76341],[139.70958,35.76508],[139.7094,35.76503],[139.70917,35.76563],[139.70814,35.76536],[139.70783,35.76607],[139.7072,35.76649],[139.70658,35.76704],[139.70635,35.76881],[139.70617,35.76956],[139.70859,35.77021],[139.71007,35.77056],[139.71071,35.76897],[139.71138,35.76716]]]}},{"type":"Feature","properties":{"id":"area-13117014001","name":"赤羽西一丁目"},"geometry":{"type":"Polygon","coordinates":[[[139.71982,35.77876],[139.72048,35.77774],[139.72098,35.77704],[139.72116,35.77672],[139.72158,35.77617],[139.72177,35.77561],[139.72183,35.77532],[139.72165,35.77525],[139.72124,35.77501],[139.7208,35.77489],[139.72046,35.77489],[139.72026,35.77485],[139.72018,35.77478],[139.71977,35.77462],[139.7195,35.77457],[139.71917,35.77423],[139.71916,35.77428],[139.71891,35.77435],[139.71854,35.77455],[139.71745,35.77526],[139.71729,35.7754],[139.71735,35.77552],[139.71716,35.77563],[139.71708,35.77579],[139.7171,35.7759],[139.71699,35.77615],[139.71698,35.77632],[139.71704,35.77653],[139.71682,35.77665],[139.71672,35.77696],[139.71682,35.77718],[139.71725,35.77772],[139.71752,35.77792],[139.71756,35.77803],[139.71755,35.77822],[139.7177,35.7784],[139.71766,35.77843],[139.71791,35.77866],[139.71795,35.77863],[139.71838,35.77902],[139.71861,35.77909],[139.71859,35.77919],[139.71888,35.77942],[139.71898,35.77964],[139.71849,35.78052],[139.71865,35.78057],[139.71985,35.77878],[139.71982,35.77876]]]}},{"type":"Feature","properties":{"id":"area-13117014002","name":"赤羽西二丁目"},"geometry":{"type":"Polygon","coordinates":[[[139.72183,35.77532],[139.72195,35.77379],[139.72203,35.77107],[139.72178,35.77133],[139.7216,35.77161],[139.72146,35.77158],[139.72136,35.77149],[139.72127,35.77132],[139.72114,35.77118],[139.72079,35.77101],[139.71975,35.77078],[139.71928,35.77092],[139.71914,35.77103],[139.7189,35.77115],[139.71845,35.7711],[139.71829,35.77117],[139.71819,35.77126],[139.718,35.77164],[139.71812,35.77221],[139.71816,35.77228],[139.7179,35.77237],[139.71751,35.7724],[139.71753,35.77271],[139.71765,35.77289],[139.71805,35.77312],[139.71886,35.77323],[139.71905,35.77404],[139.71917,35.77423],[139.7195,35.77457],[139.71977,35.77462],[139.72018,35.77478],[139.72026,35.77485],[139.72046,35.77489],[139.7208,35.77489],[139.72124,35.77501],[139.72165,35.77525],[139.72183,35.77532]]]}},{"type":"Feature","properties":{"id":"area-13117014003","name":"赤羽西三丁目"},"geometry":{"type":"Polygon","coordinates":[[[139.71812,35.77221],[139.718,35.77164],[139.71819,35.77126],[139.71829,35.77117],[139.71845,35.7711],[139.7189,35.77115],[139.71914,35.77103],[139.71928,35.77092],[139.71975,35.77078],[139.72079,35.77101],[139.72114,35.77118],[139.72127,35.77132],[139.72136,35.77149],[139.72146,35.77158],[139.7216,35.77161],[139.72178,35.77133],[139.72203,35.77107],[139.72201,35.77085],[139.72206,35.77014],[139.72176,35.77031],[139.72163,35.77032],[139.72096,35.76998],[139.72005,35.7696],[139.71975,35.76953],[139.71951,35.76955],[139.71937,35.76952],[139.7183,35.76889],[139.71791,35.76861],[139.71744,35.76817],[139.71721,35.76804],[139.71692,35.76832],[139.71679,35.76839],[139.71671,35.7684],[139.71665,35.76858],[139.71673,35.76868],[139.71648,35.76898],[139.71623,35.76966],[139.71623,35.76978],[139.71575,35.77122],[139.71581,35.77202],[139.71611,35.77207],[139.71656,35.7722],[139.71701,35.77219],[139.71712,35.77223],[139.71734,35.77237],[139.71751,35.7724],[139.718,35.77235],[139.71816,35.77228],[139.71812,35.77221]]]}},{"type":"Feature","properties":{"id":"area-13117014004","name":"赤羽西四丁目"},"geometry":{"type":"Polygon","coordinates":[[[139.71745,35.77526],[139.71854,35.77455],[139.71891,35.77435],[139.71916,35.77428],[139.71917,35.77423],[139.71905,35.77404],[139.71896,35.77375],[139.71889,35.77327],[139.71886,35.77323],[139.71805,35.77312],[139.71772,35.77294],[139.71765,35.77289],[139.71753,35.77271],[139.71751,35.7724],[139.71734,35.77237],[139.71712,35.77223],[139.71701,35.77219],[139.71656,35.7722],[139.71611,35.77207],[139.71539,35.77197],[139.71515,35.7719],[139.71494,35.77175],[139.71477,35.77168],[139.71412,35.77147],[139.71396,35.77145],[139.7133,35.77125],[139.71302,35.77287],[139.71304,35.77318],[139.71286,35.77355],[139.71284,35.77395],[139.71277,35.77434],[139.71279,35.77441],[139.71298,35.77464],[139.7132,35.7747],[139.71339,35.77462],[139.71352,35.77464],[139.71379,35.7746],[139.71417,35.77414],[139.71428,35.77414],[139.71471,35.77448],[139.71512,35.77495],[139.7152,35.77513],[139.7153,35.7752],[139.7157,35.77522],[139.71596,35.77515],[139.7162,35.77518],[139.71653,35.77531],[139.71672,35.77555],[139.71708,35.77579],[139.71716,35.77563],[139.71735,35.77552],[139.71729,35.7754],[139.71745,35.77526]]]}},{"type":"Feature","properties":{"id":"area-13117014005","name":"赤羽西五丁目"},"geometry":{"type":"Polygon","coordinates":[[[139.71037,35.77489],[139.71056,35.77479],[139.71153,35.7748],[139.71169,35.77475],[139.71209,35.77453],[139.71258,35.77441],[139.71279,35.77441],[139.71277,35.77434],[139.71284,35.77395],[139.71286,35.77355],[139.71304,35.77318],[139.71304,35.77287],[139.71079,35.77256],[139.71097,35.77087],[139.71011,35.77065],[139.71001,35.77061],[139.71004,35.77055],[139.70883,35.77027],[139.70813,35.77572],[139.71084,35.77633],[139.71155,35.77652],[139.71141,35.77612],[139.71117,35.77569],[139.71085,35.77533],[139.71045,35.77494],[139.71037,35.77489]]]}},{"type":"Feature","properties":{"id":"area-13117014006","name":"赤羽西六丁目"},"geometry":{"type":"Polygon","coordinates":[[[139.70832,35.77433],[139.70842,35.77341],[139.70883,35.77027],[139.70617,35.76956],[139.70602,35.77],[139.70571,35.7712],[139.70561,35.77183],[139.70545,35.77232],[139.70496,35.77335],[139.70482,35.77377],[139.70464,35.77376],[139.70437,35.77381],[139.70454,35.77408],[139.70471,35.77417],[139.7047,35.77429],[139.70457,35.77428],[139.70458,35.77454],[139.70465,35.77456],[139.70462,35.77497],[139.70705,35.77547],[139.70811,35.77576],[139.70832,35.77433]]]}},{"type":"Feature","properties":{"id":"area-13117015001","name":"志茂一丁目"},"geometry":{"type":"Polygon","coordinates":[[[139.72935,35.77779],[139.73042,35.77777],[139.73115,35.77766],[139.73271,35.77776],[139.73306,35.77726],[139.73323,35.77691],[139.73333,35.77642],[139.73329,35.77544],[139.7328,35.77545],[139.73276,35.77539],[139.73238,35.77537],[139.73226,35.77526],[139.73223,35.775],[139.73099,35.77498],[139.73066,35.77504],[139.72832,35.77506],[139.72609,35.77502],[139.72602,35.77525],[139.72623,35.77749],[139.72682,35.77748],[139.72935,35.77779]]]}},{"type":"Feature","properties":{"id":"area-13117015002","name":"志茂二丁目"},"geometry":{"type":"Polygon","coordinates":[[[139.73163,35.77923],[139.73271,35.77776],[139.73115,35.77766],[139.73035,35.77778],[139.72935,35.77779],[139.72716,35.77751],[139.72682,35.77748],[139.72623,35.77749],[139.72626,35.77831],[139.72633,35.77919],[139.72643,35.77996],[139.72653,35.78028],[139.72665,35.78094],[139.72675,35.78247],[139.728,35.78219],[139.7286,35.7819],[139.72925,35.78138],[139.73163,35.77923]]]}},{"type":"Feature","properties":{"id":"area-13117015003","name":"志茂三丁目"},"geometry":{"type":"Polygon","coordinates":[[[139.73824,35.77987],[139.73835,35.77954],[139.73843,35.77918],[139.73846,35.77886],[139.73839,35.77837],[139.73824,35.77783],[139.73809,35.77745],[139.73767,35.77666],[139.73659,35.77492],[139.7357,35.77548],[139.73329,35.77544],[139.73333,35.77642],[139.73323,35.77691],[139.73306,35.77726],[139.73286,35.77754],[139.73163,35.77923],[139.73181,35.77931],[139.73206,35.77923],[139.73267,35.77953],[139.73378,35.77959],[139.7342,35.77966],[139.73423,35.77976],[139.73429,35.77981],[139.73471,35.78007],[139.73555,35.78074],[139.73722,35.7814],[139.7375,35.78101],[139.73793,35.78029],[139.73804,35.78021],[139.73824,35.77987]]]}},{"type":"Feature","properties":{"id":"area-13117015004","name":"志茂四丁目"},"geometry":{"type":"Polygon","coordinates":[[[139.73378,35.77959],[139.73267,35.77953],[139.73206,35.77923],[139.73181,35.77931],[139.73163,35.77923],[139.72951,35.78113],[139.72973,35.78136],[139.73006,35.78162],[139.73038,35.7818],[139.7307,35.78194],[139.73122,35.78234],[139.73162,35.78283],[139.73158,35.78287],[139.73187,35.78347],[139.732,35.78367],[139.73232,35.78394],[139.73235,35.78403],[139.73328,35.78379],[139.73422,35.78349],[139.73473,35.78325],[139.73528,35.78292],[139.7358,35.78257],[139.73619,35.7822],[139.73689,35.78126],[139.73555,35.78074],[139.73471,35.78007],[139.73429,35.77981],[139.73423,35.77976],[139.7342,35.77966],[139.73378,35.77959]]]}},{"type":"Feature","properties":{"id":"area-13117015005","name":"志茂五丁目"},"geometry":{"type":"Polygon","coordinates":[[[139.73826,35.78444],[139.73808,35.78387],[139.7373,35.78238],[139.7369,35.78179],[139.73722,35.7814],[139.73689,35.78126],[139.73619,35.7822],[139.7358,35.78257],[139.73528,35.78292],[139.73473,35.78325],[139.73422,35.78349],[139.73328,35.78379],[139.73235,35.78403],[139.73232,35.78394],[139.732,35.78367],[139.73187,35.78347],[139.73158,35.78287],[139.73162,35.78283],[139.73122,35.78234],[139.7307,35.78194],[139.73038,35.7818],[139.73006,35.78162],[139.72973,35.78136],[139.72951,35.78113],[139.7286,35.7819],[139.72834,35.78204],[139.728,35.78219],[139.72676,35.78247],[139.72683,35.78298],[139.72673,35.78305],[139.72678,35.78343],[139.72671,35.78346],[139.7268,35.78383],[139.72684,35.78443],[139.72688,35.78443],[139.72698,35.7848],[139.726,35.78496],[139.72539,35.78501],[139.72588,35.78579],[139.72622,35.78624],[139.72645,35.78664],[139.72647,35.78673],[139.72688,35.7875],[139.72766,35.78773],[139.72883,35.78797],[139.73032,35.78852],[139.73083,35.78877],[139.73204,35.78911],[139.73367,35.78894],[139.73446,35.78873],[139.73528,35.78844],[139.73618,35.78797],[139.73705,35.78729],[139.73769,35.78674],[139.73824,35.78578],[139.73833,35.78515],[139.73826,35.78444]]]}},{"type":"Feature","properties":{"id":"area-131170160","name":"岩淵町"},"geometry":{"type":"Polygon","coordinates":[[[139.72359,35.78698],[139.72495,35.78654],[139.72516,35.78693],[139.72637,35.78651],[139.72622,35.78624],[139.72562,35.78541],[139.72539,35.78501],[139.726,35.78496],[139.72698,35.7848],[139.72688,35.78443],[139.72684,35.78443],[139.7268,35.78383],[139.72671,35.78346],[139.72678,35.78343],[139.72673,35.78305],[139.72683,35.78298],[139.72676,35.78247],[139.7209,35.78369],[139.72019,35.78376],[139.71985,35.78384],[139.72048,35.78463],[139.72059,35.78484],[139.72059,35.78508],[139.72065,35.78517],[139.721,35.78542],[139.72119,35.78573],[139.72126,35.78598],[139.72126,35.78616],[139.71975,35.7864],[139.71972,35.7868],[139.71964,35.78685],[139.71989,35.78735],[139.72285,35.78715],[139.72359,35.78698]]]}},{"type":"Feature","properties":{"id":"area-13117017001","name":"赤羽台一丁目"},"geometry":{"type":"Polygon","coordinates":[[[139.71533,35.78108],[139.71554,35.781],[139.71585,35.781],[139.71609,35.78104],[139.71619,35.78091],[139.71626,35.78088],[139.71679,35.78092],[139.71691,35.78087],[139.71702,35.78075],[139.71717,35.78042],[139.71736,35.78027],[139.71763,35.78058],[139.71791,35.78056],[139.71794,35.78068],[139.71843,35.78064],[139.71898,35.77964],[139.71888,35.77942],[139.71859,35.77919],[139.71861,35.77909],[139.71838,35.77902],[139.71795,35.77863],[139.71791,35.77866],[139.71766,35.77843],[139.7177,35.7784],[139.71755,35.77822],[139.71756,35.77803],[139.71752,35.77792],[139.71725,35.77772],[139.71682,35.77718],[139.71672,35.77696],[139.71673,35.77688],[139.71682,35.77665],[139.71704,35.77653],[139.71698,35.77627],[139.71703,35.77603],[139.7171,35.7759],[139.7171,35.7758],[139.71672,35.77555],[139.71667,35.77546],[139.71342,35.7784],[139.71348,35.77868],[139.71363,35.77898],[139.71533,35.78108]]]}},{"type":"Feature","properties":{"id":"area-13117017002","name":"赤羽台二丁目"},"geometry":{"type":"Polygon","coordinates":[[[139.71653,35.77531],[139.7162,35.77518],[139.71596,35.77515],[139.7157,35.77522],[139.7153,35.7752],[139.7152,35.77513],[139.71512,35.77495],[139.71471,35.77448],[139.71428,35.77414],[139.71417,35.77414],[139.71379,35.7746],[139.71352,35.77464],[139.71339,35.77462],[139.7132,35.7747],[139.71298,35.77464],[139.71279,35.77441],[139.71258,35.77441],[139.71209,35.77453],[139.71169,35.77475],[139.71153,35.7748],[139.71056,35.77479],[139.71037,35.77489],[139.71045,35.77494],[139.71085,35.77533],[139.71117,35.77569],[139.71141,35.77612],[139.71155,35.77652],[139.71184,35.77657],[139.71282,35.77706],[139.713,35.77716],[139.7132,35.77737],[139.71328,35.77762],[139.71338,35.77829],[139.71342,35.7784],[139.71667,35.77546],[139.71653,35.77531]]]}},{"type":"Feature","properties":{"id":"area-13117017003","name":"赤羽台三丁目"},"geometry":{"type":"Polygon","coordinates":[[[139.71755,35.78201],[139.71788,35.78172],[139.71813,35.78186],[139.71825,35.78142],[139.71865,35.78068],[139.71865,35.78057],[139.71849,35.78052],[139.71843,35.78064],[139.71794,35.78068],[139.71791,35.78056],[139.71763,35.78058],[139.71736,35.78027],[139.71717,35.78042],[139.71702,35.78075],[139.71691,35.78087],[139.71679,35.78092],[139.71626,35.78088],[139.71619,35.78091],[139.71609,35.78104],[139.71585,35.781],[139.71554,35.781],[139.71533,35.78108],[139.71363,35.77898],[139.71348,35.77868],[139.71338,35.77829],[139.71328,35.77762],[139.7132,35.77737],[139.713,35.77716],[139.71184,35.77657],[139.71144,35.7765],[139.71161,35.77703],[139.71159,35.77722],[139.71147,35.77757],[139.71135,35.77775],[139.7113,35.77803],[139.71106,35.77826],[139.71092,35.77828],[139.71072,35.77824],[139.71059,35.77856],[139.71051,35.77901],[139.71045,35.7791],[139.70995,35.7795],[139.71096,35.77964],[139.71156,35.77978],[139.71185,35.77992],[139.71193,35.78],[139.71205,35.78004],[139.71262,35.78055],[139.71292,35.78091],[139.71331,35.78126],[139.71339,35.78143],[139.71338,35.78154],[139.71334,35.78159],[139.71295,35.78175],[139.71295,35.7818],[139.71299,35.78179],[139.71327,35.78202],[139.71389,35.78289],[139.71431,35.78378],[139.71437,35.78401],[139.71518,35.78401],[139.71524,35.78373],[139.71547,35.78331],[139.7158,35.78311],[139.71647,35.78287],[139.71698,35.78256],[139.71739,35.78222],[139.71755,35.78201]]]}},{"type":"Feature","properties":{"id":"area-13117017004","name":"赤羽台四丁目"},"geometry":{"type":"Polygon","coordinates":[[[139.71366,35.78558],[139.714,35.78543],[139.7148,35.78525],[139.71523,35.78533],[139.71531,35.7853],[139.7155,35.78546],[139.71567,35.78547],[139.71582,35.78543],[139.7159,35.78537],[139.71615,35.78494],[139.71627,35.78489],[139.71633,35.78499],[139.71646,35.78484],[139.71667,35.78476],[139.71703,35.78424],[139.71728,35.7841],[139.71737,35.78414],[139.71765,35.78288],[139.71781,35.78258],[139.71813,35.78186],[139.71788,35.78172],[139.71755,35.78201],[139.71739,35.78222],[139.71698,35.78256],[139.71647,35.78287],[139.7158,35.78311],[139.71556,35.78324],[139.71547,35.78331],[139.71524,35.78373],[139.71518,35.78401],[139.71441,35.78402],[139.71437,35.78401],[139.71431,35.78378],[139.71389,35.78289],[139.71339,35.78217],[139.71327,35.78202],[139.71299,35.78179],[139.7124,35.78206],[139.71119,35.78272],[139.70994,35.7833],[139.70945,35.7836],[139.70904,35.78393],[139.70892,35.78393],[139.70876,35.78431],[139.70929,35.78449],[139.70976,35.78457],[139.70985,35.78456],[139.71048,35.7848],[139.71205,35.78527],[139.71283,35.78555],[139.7129,35.78547],[139.7133,35.7856],[139.71348,35.78562],[139.71366,35.78558]]]}},{"type":"Feature","properties":{"id":"area-13117018001","name":"赤羽南一丁目"},"geometry":{"type":"Polygon","coordinates":[[[139.72626,35.77831],[139.72615,35.77641],[139.72605,35.77547],[139.72339,35.77526],[139.72347,35.77511],[139.7225,35.77476],[139.72252,35.77533],[139.72247,35.77579],[139.72202,35.77685],[139.72144,35.77778],[139.72158,35.77786],[139.7225,35.77799],[139.72305,35.77798],[139.72626,35.77831]]]}},{"type":"Feature","properties":{"id":"area-13117018002","name":"赤羽南二丁目"},"geometry":{"type":"Polygon","coordinates":[[[139.72252,35.77533],[139.7225,35.77476],[139.72347,35.77511],[139.72339,35.77526],[139.72605,35.77547],[139.72604,35.77515],[139.72609,35.77502],[139.72616,35.77502],[139.72572,35.77253],[139.72497,35.77251],[139.72413,35.77215],[139.72407,35.77216],[139.72368,35.77202],[139.7237,35.772],[139.72361,35.77197],[139.72359,35.77193],[139.72272,35.77162],[139.7226,35.7718],[139.72221,35.77169],[139.72203,35.77169],[139.72195,35.77379],[139.72183,35.77532],[139.72197,35.77539],[139.72201,35.77552],[139.72212,35.77561],[139.72247,35.77579],[139.72252,35.77533]]]}},{"type":"Feature","properties":{"id":"area-13117019001","name":"赤羽北一丁目"},"geometry":{"type":"Polygon","coordinates":[[[139.71182,35.78817],[139.71673,35.78768],[139.71664,35.78672],[139.71673,35.78595],[139.71679,35.78567],[139.71708,35.78481],[139.71737,35.78414],[139.71728,35.7841],[139.71703,35.78424],[139.71667,35.78476],[139.71646,35.78484],[139.71633,35.78499],[139.71627,35.78489],[139.71615,35.78494],[139.7159,35.78537],[139.71582,35.78543],[139.71567,35.78547],[139.7155,35.78546],[139.71531,35.7853],[139.71523,35.78533],[139.7148,35.78525],[139.714,35.78543],[139.71366,35.78558],[139.71348,35.78562],[139.7133,35.7856],[139.7129,35.78547],[139.71283,35.78555],[139.71205,35.78527],[139.71116,35.78499],[139.7103,35.78822],[139.71182,35.78817]]]}},{"type":"Feature","properties":{"id":"area-13117019002","name":"赤羽北二丁目"},"geometry":{"type":"Polygon","coordinates":[[[139.71025,35.78846],[139.71116,35.78499],[139.71048,35.7848],[139.70985,35.78456],[139.70976,35.78457],[139.70929,35.78449],[139.70812,35.7841],[139.70785,35.78384],[139.70742,35.78362],[139.70691,35.7834],[139.70653,35.78329],[139.70642,35.78329],[139.70619,35.78315],[139.70523,35.78282],[139.70393,35.78224],[139.70322,35.78217],[139.7031,35.78268],[139.70295,35.78354],[139.70284,35.78381],[139.70267,35.78404],[139.7024,35.78432],[139.70315,35.78483],[139.70383,35.78536],[139.70592,35.78724],[139.70615,35.7874],[139.70665,35.78766],[139.70733,35.7879],[139.70875,35.78825],[139.71025,35.78846]]]}},{"type":"Feature","properties":{"id":"area-13117019003","name":"赤羽北三丁目"},"geometry":{"type":"Polygon","coordinates":[[[139.70965,35.78348],[139.70945,35.78324],[139.70988,35.78291],[139.70992,35.78284],[139.70926,35.78298],[139.70919,35.78303],[139.70909,35.78318],[139.70905,35.78318],[139.70898,35.78307],[139.70848,35.78305],[139.70828,35.78301],[139.70818,35.7829],[139.70813,35.78273],[139.70798,35.78244],[139.70798,35.78239],[139.70803,35.78195],[139.70801,35.78155],[139.70805,35.78121],[139.70822,35.78072],[139.70762,35.78036],[139.70742,35.7801],[139.70729,35.77987],[139.70713,35.77927],[139.70712,35.77913],[139.7065,35.77911],[139.70625,35.77907],[139.70345,35.77839],[139.70333,35.77897],[139.70315,35.77955],[139.70295,35.77999],[139.70256,35.78137],[139.70254,35.78152],[139.70259,35.78167],[139.7028,35.78196],[139.70312,35.78216],[139.70393,35.78224],[139.70523,35.78282],[139.70619,35.78315],[139.70642,35.78329],[139.70653,35.78329],[139.70691,35.7834],[139.70742,35.78362],[139.70785,35.78384],[139.70812,35.7841],[139.70876,35.78431],[139.70892,35.78393],[139.70904,35.78393],[139.70965,35.78348]]]}},{"type":"Feature","properties":{"id":"area-13117020001","name":"浮間一丁目"},"geometry":{"type":"Polygon","coordinates":[[[139.71184,35.78871],[139.7117,35.78838],[139.71079,35.78841],[139.71026,35.7884],[139.71025,35.78846],[139.70875,35.78825],[139.70789,35.78805],[139.70702,35.7878],[139.70665,35.78766],[139.70615,35.7874],[139.70571,35.78705],[139.70557,35.78717],[139.70549,35.78731],[139.70501,35.78768],[139.70201,35.78989],[139.70163,35.79009],[139.70129,35.79017],[139.70032,35.7903],[139.70117,35.79277],[139.70235,35.79203],[139.70422,35.791],[139.70629,35.7901],[139.7067,35.78993],[139.70803,35.78953],[139.71184,35.78871]]]}},{"type":"Feature","properties":{"id":"area-13117020002","name":"浮間二丁目"},"geometry":{"type":"Polygon","coordinates":[[[139.70169,35.7961],[139.70518,35.79377],[139.7064,35.79316],[139.70769,35.79268],[139.7092,35.7924],[139.71067,35.7922],[139.71203,35.79217],[139.71287,35.7921],[139.71422,35.79211],[139.71651,35.79221],[139.71774,35.79218],[139.71887,35.79208],[139.72017,35.79171],[139.7215,35.79117],[139.7227,35.79054],[139.72401,35.78972],[139.7248,35.78893],[139.72513,35.78841],[139.72532,35.78797],[139.7254,35.78769],[139.7256,35.78741],[139.72576,35.78733],[139.72688,35.7875],[139.72637,35.78651],[139.72516,35.78693],[139.72495,35.78654],[139.72402,35.78686],[139.72285,35.78715],[139.71747,35.78753],[139.71726,35.78762],[139.71673,35.78768],[139.71182,35.78817],[139.7103,35.78822],[139.71026,35.7884],[139.71079,35.78841],[139.7117,35.78838],[139.71184,35.78871],[139.70803,35.78953],[139.7067,35.78993],[139.70575,35.79032],[139.70422,35.791],[139.70235,35.79203],[139.70117,35.79277],[139.70032,35.7903],[139.6933,35.79108],[139.69303,35.79119],[139.69199,35.79199],[139.69299,35.79328],[139.69458,35.79566],[139.69537,35.79534],[139.69546,35.7955],[139.69556,35.7955],[139.69563,35.79546],[139.69624,35.79574],[139.69643,35.79566],[139.69655,35.79569],[139.69698,35.796],[139.69726,35.79633],[139.69755,35.79684],[139.69767,35.79723],[139.69775,35.79811],[139.69771,35.79836],[139.6978,35.79857],[139.6988,35.79795],[139.7,35.79713],[139.70169,35.7961]]]}},{"type":"Feature","properties":{"id":"area-13117020003","name":"浮間三丁目"},"geometry":{"type":"Polygon","coordinates":[[[139.69913,35.78235],[139.69837,35.78211],[139.69836,35.78218],[139.69831,35.7836],[139.69834,35.78638],[139.69839,35.78713],[139.69837,35.78717],[139.69856,35.78787],[139.69871,35.78956],[139.69883,35.79047],[139.70047,35.79028],[139.70129,35.79017],[139.70163,35.79009],[139.70218,35.78977],[139.70301,35.78913],[139.70405,35.7884],[139.70549,35.78731],[139.70557,35.78717],[139.70571,35.78705],[139.70356,35.78514],[139.70218,35.78416],[139.70009,35.78283],[139.69913,35.78235]]]}},{"type":"Feature","properties":{"id":"area-13117020004","name":"浮間四丁目"},"geometry":{"type":"Polygon","coordinates":[[[139.6933,35.79108],[139.69883,35.79047],[139.69871,35.78956],[139.69856,35.78787],[139.69837,35.78717],[139.69839,35.78713],[139.69766,35.78719],[139.69666,35.78741],[139.69644,35.78739],[139.69015,35.78582],[139.68918,35.78714],[139.68993,35.78922],[139.69032,35.79002],[139.69081,35.79077],[139.69199,35.79199],[139.69303,35.79119],[139.6933,35.79108]]]}},{"type":"Feature","properties":{"id":"area-13117020005","name":"浮間五丁目"},"geometry":{"type":"Polygon","coordinates":[[[139.69766,35.78719],[139.69839,35.78713],[139.69834,35.78638],[139.6983,35.78437],[139.69837,35.78211],[139.69821,35.78208],[139.69784,35.7821],[139.6966,35.78227],[139.69614,35.78236],[139.6948,35.78275],[139.69399,35.783],[139.69365,35.78315],[139.69288,35.78355],[139.69221,35.78398],[139.69093,35.7849],[139.69059,35.78526],[139.69015,35.78582],[139.69644,35.78739],[139.69666,35.78741],[139.69766,35.78719]]]}},{"type":"Feature","properties":{"id":"area-13117021001","name":"桐ヶ丘一丁目"},"geometry":{"type":"Polygon","coordinates":[[[139.71059,35.77856],[139.71072,35.77824],[139.71092,35.77828],[139.71106,35.77826],[139.7113,35.77803],[139.71135,35.77775],[139.71147,35.77757],[139.71159,35.77722],[139.71161,35.77703],[139.71144,35.7765],[139.71084,35.77633],[139.70813,35.77572],[139.70811,35.77576],[139.70807,35.77575],[139.70748,35.77556],[139.70633,35.77531],[139.70462,35.77497],[139.70463,35.77485],[139.70434,35.77489],[139.70432,35.77511],[139.70461,35.77516],[139.70458,35.77531],[139.70408,35.77688],[139.70366,35.7778],[139.70345,35.77839],[139.70625,35.77907],[139.7065,35.77911],[139.70703,35.77912],[139.70809,35.77924],[139.70995,35.7795],[139.71045,35.7791],[139.71051,35.77901],[139.71059,35.77856]]]}},{"type":"Feature","properties":{"id":"area-13117021002","name":"桐ヶ丘二丁目"},"geometry":{"type":"Polygon","coordinates":[[[139.70994,35.7833],[139.71119,35.78272],[139.7124,35.78206],[139.71295,35.7818],[139.71295,35.78175],[139.71334,35.78159],[139.71338,35.78154],[139.71339,35.78143],[139.71331,35.78126],[139.71292,35.78091],[139.71262,35.78055],[139.71236,35.78033],[139.71226,35.7802],[139.71222,35.78021],[139.71205,35.78004],[139.71193,35.78],[139.71185,35.77992],[139.71156,35.77978],[139.71096,35.77964],[139.70712,35.77913],[139.70713,35.77927],[139.70729,35.77987],[139.70742,35.7801],[139.70762,35.78036],[139.70822,35.78072],[139.70805,35.78121],[139.70801,35.78155],[139.70803,35.78195],[139.70798,35.78239],[139.70798,35.78244],[139.70813,35.78273],[139.70818,35.7829],[139.70828,35.78301],[139.70848,35.78305],[139.70898,35.78307],[139.70905,35.78318],[139.70909,35.78318],[139.70919,35.78303],[139.70926,35.78298],[139.70992,35.78284],[139.70988,35.78291],[139.70945,35.78324],[139.70965,35.78348],[139.70994,35.7833]]]}},{"type":"Feature","properties":{"id":"area-13117022001","name":"滝野川一丁目"},"geometry":{"type":"Polygon","coordinates":[[[139.73906,35.74876],[139.73893,35.74857],[139.73877,35.74868],[139.73821,35.74802],[139.73814,35.74801],[139.738,35.7478],[139.73762,35.74738],[139.73717,35.747],[139.73646,35.74647],[139.73633,35.74641],[139.73573,35.74566],[139.73545,35.74538],[139.73555,35.74525],[139.73558,35.74514],[139.73545,35.74501],[139.73483,35.74512],[139.73449,35.74511],[139.73434,35.74509],[139.73434,35.74506],[139.73337,35.74495],[139.73285,35.74494],[139.73209,35.74503],[139.73135,35.74508],[139.73065,35.745],[139.7297,35.74499],[139.72908,35.74494],[139.73249,35.74751],[139.73455,35.749],[139.73682,35.75048],[139.73735,35.75079],[139.7381,35.74979],[139.73905,35.74881],[139.73906,35.74876]]]}},{"type":"Feature","properties":{"id":"area-13117022002","name":"滝野川二丁目"},"geometry":{"type":"Polygon","coordinates":[[[139.73141,35.75172],[139.73154,35.75172],[139.73164,35.75177],[139.73186,35.75216],[139.73203,35.75233],[139.73227,35.75223],[139.73275,35.7519],[139.73339,35.75182],[139.73362,35.75185],[139.73416,35.75208],[139.73456,35.75214],[139.73545,35.75206],[139.7357,35.75219],[139.7359,35.75235],[139.73631,35.75208],[139.73641,35.75188],[139.73735,35.75079],[139.73682,35.75048],[139.73455,35.749],[139.7316,35.74685],[139.73115,35.74819],[139.73093,35.74895],[139.73085,35.7494],[139.73082,35.74941],[139.73078,35.74956],[139.73079,35.74965],[139.73076,35.74965],[139.73072,35.74991],[139.73062,35.75083],[139.73062,35.75086],[139.73077,35.7509],[139.73067,35.75126],[139.73042,35.75198],[139.73037,35.75255],[139.73077,35.75266],[139.73095,35.75264],[139.73112,35.75256],[139.73115,35.75253],[139.73117,35.75233],[139.73111,35.75215],[139.73111,35.75199],[139.73115,35.75189],[139.73141,35.75172]]]}},{"type":"Feature","properties":{"id":"area-13117022003","name":"滝野川三丁目"},"geometry":{"type":"Polygon","coordinates":[[[139.73042,35.75198],[139.73077,35.7509],[139.73062,35.75086],[139.73062,35.75083],[139.73072,35.74991],[139.73076,35.74965],[139.73079,35.74965],[139.73078,35.74956],[139.73082,35.74941],[139.73085,35.7494],[139.73093,35.74895],[139.73115,35.74819],[139.7316,35.74685],[139.72908,35.74494],[139.72895,35.74491],[139.7288,35.74492],[139.72847,35.74503],[139.72787,35.7451],[139.72798,35.74552],[139.72785,35.74558],[139.72769,35.74574],[139.72749,35.746],[139.72738,35.74622],[139.72727,35.7465],[139.72712,35.74712],[139.72695,35.74742],[139.72675,35.74795],[139.72672,35.74814],[139.72692,35.74864],[139.72692,35.74874],[139.7269,35.7489],[139.72668,35.74926],[139.7269,35.74943],[139.72692,35.74995],[139.72703,35.75012],[139.72688,35.7502],[139.72746,35.7505],[139.72772,35.75073],[139.72777,35.75084],[139.72795,35.75164],[139.72805,35.7518],[139.72824,35.75193],[139.72838,35.75194],[139.72858,35.75186],[139.72867,35.75177],[139.72879,35.75157],[139.72885,35.75153],[139.72906,35.75153],[139.72948,35.75175],[139.72956,35.75185],[139.72935,35.75207],[139.72976,35.75222],[139.73037,35.75255],[139.73042,35.75198]]]}},{"type":"Feature","properties":{"id":"area-13117022004","name":"滝野川四丁目"},"geometry":{"type":"Polygon","coordinates":[[[139.72935,35.75207],[139.72956,35.75185],[139.72948,35.75175],[139.72906,35.75153],[139.72893,35.75151],[139.72879,35.75157],[139.72867,35.75177],[139.72846,35.75192],[139.72824,35.75193],[139.72814,35.75189],[139.72795,35.75164],[139.72777,35.75084],[139.72772,35.75073],[139.72746,35.7505],[139.72721,35.75035],[139.7267,35.75014],[139.72622,35.75011],[139.72595,35.75013],[139.72572,35.75019],[139.72521,35.75043],[139.72484,35.75067],[139.72425,35.75085],[139.72399,35.75104],[139.72386,35.75119],[139.72368,35.75129],[139.72345,35.75087],[139.72332,35.75073],[139.72309,35.7506],[139.72293,35.75053],[139.72285,35.75053],[139.72278,35.75056],[139.72267,35.75072],[139.72264,35.7508],[139.72261,35.75122],[139.72272,35.75125],[139.72266,35.75153],[139.72276,35.75188],[139.72276,35.75201],[139.72649,35.75205],[139.72684,35.75214],[139.7276,35.75242],[139.72793,35.7525],[139.72908,35.7527],[139.73025,35.75296],[139.73037,35.75255],[139.72976,35.75222],[139.72935,35.75207]]]}},{"type":"Feature","properties":{"id":"area-13117022005","name":"滝野川五丁目"},"geometry":{"type":"Polygon","coordinates":[[[139.72484,35.75067],[139.72521,35.75043],[139.72572,35.75019],[139.72595,35.75013],[139.72622,35.75011],[139.7267,35.75014],[139.72688,35.7502],[139.72703,35.75012],[139.72692,35.74995],[139.7269,35.74943],[139.72668,35.74926],[139.7269,35.7489],[139.72692,35.74874],[139.72692,35.74864],[139.72672,35.74814],[139.72675,35.74795],[139.72695,35.74742],[139.72712,35.74712],[139.72727,35.7465],[139.72738,35.74622],[139.72749,35.746],[139.72769,35.74574],[139.72785,35.74558],[139.72798,35.74552],[139.72772,35.7446],[139.72711,35.74522],[139.72554,35.74619],[139.725,35.74655],[139.72277,35.74795],[139.72197,35.7485],[139.72218,35.74883],[139.72176,35.74903],[139.72206,35.74986],[139.72221,35.75075],[139.72264,35.7508],[139.72267,35.75072],[139.72278,35.75056],[139.72293,35.75053],[139.72332,35.75073],[139.72345,35.75087],[139.72368,35.75129],[139.72386,35.75119],[139.72399,35.75104],[139.72425,35.75085],[139.72484,35.75067]]]}},{"type":"Feature","properties":{"id":"area-13117022006","name":"滝野川六丁目"},"geometry":{"type":"Polygon","coordinates":[[[139.72182,35.74861],[139.72554,35.74619],[139.72711,35.74522],[139.72772,35.7446],[139.72752,35.74383],[139.72726,35.74352],[139.7262,35.74205],[139.72513,35.74244],[139.7248,35.74262],[139.72401,35.74322],[139.72351,35.74345],[139.72307,35.74391],[139.72238,35.74448],[139.72172,35.74511],[139.72165,35.74528],[139.72158,35.74577],[139.72151,35.74595],[139.72109,35.74616],[139.72066,35.74618],[139.72032,35.7463],[139.7202,35.74639],[139.72023,35.74648],[139.72011,35.74654],[139.72024,35.74673],[139.72122,35.7463],[139.72131,35.74681],[139.72133,35.74712],[139.72132,35.74736],[139.72128,35.74737],[139.7213,35.74747],[139.72222,35.74748],[139.72224,35.74777],[139.72202,35.74779],[139.722,35.74798],[139.72173,35.74799],[139.72176,35.74817],[139.72185,35.74832],[139.72182,35.74861]]]}},{"type":"Feature","properties":{"id":"area-13117022007","name":"滝野川七丁目"},"geometry":{"type":"Polygon","coordinates":[[[139.72172,35.74511],[139.72238,35.74448],[139.72307,35.74391],[139.72351,35.74345],[139.72401,35.74322],[139.7248,35.74262],[139.72513,35.74244],[139.7262,35.74205],[139.72456,35.7406],[139.72472,35.74048],[139.72493,35.74015],[139.72512,35.74023],[139.72521,35.74019],[139.72542,35.74024],[139.72563,35.74011],[139.72566,35.73982],[139.7256,35.73966],[139.72531,35.73979],[139.7251,35.73994],[139.72501,35.74004],[139.72465,35.73961],[139.72405,35.73967],[139.72392,35.7399],[139.72359,35.74036],[139.72327,35.74066],[139.72288,35.74093],[139.72185,35.74144],[139.72027,35.74182],[139.72009,35.74199],[139.71999,35.74216],[139.71996,35.74234],[139.72001,35.7428],[139.71997,35.74334],[139.71962,35.74426],[139.71958,35.74445],[139.71962,35.74486],[139.7197,35.74508],[139.71956,35.74508],[139.71952,35.74511],[139.71949,35.74538],[139.7197,35.7454],[139.7197,35.74569],[139.71989,35.7457],[139.7199,35.74581],[139.7202,35.74639],[139.72032,35.7463],[139.72066,35.74618],[139.72117,35.74613],[139.72151,35.74595],[139.72158,35.74577],[139.72165,35.74528],[139.72172,35.74511]]]}},{"type":"Feature","properties":{"id":"area-13117023001","name":"西ヶ原一丁目"},"geometry":{"type":"Polygon","coordinates":[[[139.74538,35.74407],[139.74545,35.744],[139.74558,35.74426],[139.7465,35.74401],[139.74745,35.7438],[139.74817,35.74354],[139.74851,35.74336],[139.74843,35.74313],[139.75003,35.74276],[139.74993,35.74243],[139.74999,35.74236],[139.74997,35.7423],[139.74959,35.74151],[139.74884,35.74054],[139.74846,35.74072],[139.74796,35.73977],[139.74815,35.73965],[139.74783,35.73919],[139.74675,35.73988],[139.74633,35.73877],[139.74599,35.73881],[139.74602,35.73911],[139.74598,35.73915],[139.74581,35.73921],[139.74542,35.73927],[139.74486,35.73928],[139.74453,35.73919],[139.74453,35.73901],[139.74439,35.73887],[139.7442,35.73895],[139.74414,35.73884],[139.74405,35.73887],[139.74412,35.73938],[139.744,35.73942],[139.74404,35.73962],[139.74412,35.73965],[139.74416,35.73984],[139.74415,35.73988],[139.74409,35.7399],[139.74415,35.74033],[139.74424,35.74066],[139.74443,35.74061],[139.74454,35.74081],[139.74451,35.74087],[139.7442,35.74096],[139.74425,35.74113],[139.74415,35.74117],[139.74357,35.74134],[139.74314,35.74141],[139.74258,35.7416],[139.74283,35.74186],[139.74266,35.742],[139.7433,35.74271],[139.74345,35.74297],[139.74321,35.74318],[139.74385,35.74467],[139.74474,35.7444],[139.74538,35.74407]]]}},{"type":"Feature","properties":{"id":"area-13117023002","name":"西ヶ原二丁目"},"geometry":{"type":"Polygon","coordinates":[[[139.74188,35.74909],[139.74225,35.74887],[139.74237,35.7489],[139.74381,35.74817],[139.74461,35.74783],[139.74672,35.74664],[139.74667,35.74659],[139.7467,35.74655],[139.74662,35.74644],[139.74581,35.74675],[139.74569,35.74668],[139.74575,35.74649],[139.74574,35.74632],[139.74582,35.74622],[139.74581,35.74592],[139.74539,35.74492],[139.74536,35.74473],[139.74532,35.74463],[139.74525,35.74465],[139.74503,35.74425],[139.74474,35.7444],[139.74361,35.74476],[139.74336,35.74489],[139.74308,35.74512],[139.7416,35.74516],[139.74136,35.74525],[139.7405,35.74565],[139.73883,35.74633],[139.73845,35.74654],[139.73798,35.74686],[139.73785,35.7471],[139.73762,35.74738],[139.738,35.7478],[139.73814,35.74801],[139.73821,35.74802],[139.73877,35.74868],[139.73893,35.74857],[139.73906,35.74876],[139.73905,35.74881],[139.73888,35.74897],[139.73916,35.74963],[139.73927,35.75038],[139.73969,35.75074],[139.74058,35.75012],[139.74188,35.74909]]]}},{"type":"Feature","properties":{"id":"area-13117023003","name":"西ヶ原三丁目"},"geometry":{"type":"Polygon","coordinates":[[[139.7405,35.74565],[139.7416,35.74516],[139.74308,35.74512],[139.74336,35.74489],[139.74361,35.74476],[139.74388,35.74467],[139.74385,35.74467],[139.74321,35.74318],[139.74345,35.74297],[139.7433,35.74271],[139.74266,35.742],[139.74283,35.74186],[139.74258,35.7416],[139.74186,35.74205],[139.74109,35.74237],[139.74084,35.74222],[139.74025,35.74198],[139.73871,35.7432],[139.7384,35.74334],[139.73767,35.74384],[139.73701,35.74444],[139.73675,35.74474],[139.73651,35.7452],[139.73644,35.74541],[139.73641,35.74556],[139.73646,35.74584],[139.7365,35.7459],[139.73618,35.74622],[139.73633,35.74641],[139.73646,35.74647],[139.73717,35.747],[139.73762,35.74738],[139.73785,35.7471],[139.73798,35.74686],[139.73845,35.74654],[139.73883,35.74633],[139.7405,35.74565]]]}},{"type":"Feature","properties":{"id":"area-13117023004","name":"西ヶ原四丁目"},"geometry":{"type":"Polygon","coordinates":[[[139.73656,35.74511],[139.73675,35.74474],[139.73687,35.74458],[139.73767,35.74384],[139.7384,35.74334],[139.73871,35.7432],[139.74025,35.74198],[139.73845,35.74136],[139.73545,35.74054],[139.73517,35.74071],[139.73508,35.74063],[139.73477,35.74084],[139.73458,35.74103],[139.73445,35.74136],[139.73433,35.74154],[139.73353,35.74223],[139.73293,35.74287],[139.73248,35.74311],[139.73195,35.74319],[139.73238,35.74376],[139.73238,35.74401],[139.73235,35.74401],[139.73238,35.74421],[139.7327,35.74422],[139.73292,35.74465],[139.73285,35.74494],[139.73337,35.74495],[139.73434,35.74506],[139.73434,35.74509],[139.73449,35.74511],[139.73483,35.74512],[139.73545,35.74501],[139.73558,35.74514],[139.73555,35.74525],[139.73545,35.74538],[139.73573,35.74566],[139.73618,35.74622],[139.7365,35.7459],[139.73646,35.74584],[139.73641,35.74556],[139.73656,35.74511]]]}},{"type":"Feature","properties":{"id":"area-131170240","name":"栄町"},"geometry":{"type":"Polygon","coordinates":[[[139.74187,35.75208],[139.74307,35.75154],[139.74374,35.75134],[139.74402,35.75129],[139.74433,35.75114],[139.74509,35.75116],[139.74519,35.75118],[139.74526,35.75135],[139.74544,35.75134],[139.74566,35.7513],[139.74581,35.75156],[139.74656,35.75123],[139.74677,35.75118],[139.74701,35.75117],[139.74687,35.75035],[139.74674,35.75009],[139.74657,35.74985],[139.74634,35.74929],[139.74663,35.74927],[139.74652,35.74901],[139.74652,35.7488],[139.74645,35.74874],[139.74603,35.74881],[139.74575,35.74847],[139.74542,35.74829],[139.74525,35.74809],[139.7451,35.74787],[139.74498,35.74761],[139.74461,35.74783],[139.74381,35.74817],[139.74237,35.7489],[139.74225,35.74887],[139.7422,35.7489],[139.74188,35.74909],[139.74058,35.75012],[139.73969,35.75074],[139.73982,35.75087],[139.74022,35.75089],[139.74019,35.751],[139.74021,35.75103],[139.74098,35.75152],[139.74128,35.75189],[139.74156,35.75176],[139.74187,35.75208]]]}},{"type":"Feature","properties":{"id":"area-13117025001","name":"上中里一丁目"},"geometry":{"type":"Polygon","coordinates":[[[139.74581,35.74675],[139.74662,35.74644],[139.7467,35.74655],[139.74667,35.74659],[139.74672,35.74664],[139.7468,35.74659],[139.74678,35.74656],[139.747,35.74644],[139.74703,35.74648],[139.74733,35.7463],[139.74757,35.7462],[139.74845,35.74574],[139.74885,35.74545],[139.75025,35.74457],[139.75104,35.74415],[139.75181,35.74379],[139.75215,35.74359],[139.75194,35.74338],[139.75113,35.74289],[139.75111,35.74278],[139.75072,35.74203],[139.74997,35.7423],[139.74999,35.74236],[139.74993,35.74243],[139.75003,35.74276],[139.74843,35.74313],[139.74851,35.74336],[139.74817,35.74354],[139.74783,35.74368],[139.74717,35.74388],[139.7465,35.74401],[139.74558,35.74426],[139.74545,35.744],[139.74538,35.74407],[139.74503,35.74425],[139.74525,35.74465],[139.74532,35.74463],[139.74536,35.74473],[139.74539,35.74492],[139.74581,35.74592],[139.74582,35.74622],[139.74574,35.74632],[139.74575,35.74649],[139.74569,35.74668],[139.74581,35.74675]]]}},{"type":"Feature","properties":{"id":"area-13117025002","name":"上中里二丁目"},"geometry":{"type":"Polygon","coordinates":[[[139.7487,35.74894],[139.75131,35.74796],[139.75266,35.74739],[139.75441,35.74671],[139.75514,35.74639],[139.75584,35.74604],[139.75745,35.74503],[139.75747,35.745],[139.75725,35.74476],[139.75687,35.74474],[139.7568,35.74461],[139.75664,35.74421],[139.75639,35.74339],[139.75634,35.74296],[139.7561,35.74224],[139.75584,35.74216],[139.75549,35.74178],[139.75486,35.74216],[139.75475,35.74218],[139.75457,35.74209],[139.75452,35.7421],[139.75432,35.74238],[139.75368,35.74288],[139.75243,35.74343],[139.75181,35.74379],[139.75104,35.74415],[139.75025,35.74457],[139.74885,35.74545],[139.74845,35.74574],[139.74757,35.7462],[139.74733,35.7463],[139.74703,35.74648],[139.747,35.74644],[139.74678,35.74656],[139.7468,35.74659],[139.74498,35.74761],[139.7451,35.74787],[139.74525,35.74809],[139.74542,35.74829],[139.74575,35.74847],[139.74603,35.74881],[139.74645,35.74874],[139.74652,35.7488],[139.74652,35.74901],[139.74663,35.74927],[139.74743,35.74921],[139.7487,35.74894]]]}},{"type":"Feature","properties":{"id":"area-13117025003","name":"上中里三丁目"},"geometry":{"type":"Polygon","coordinates":[[[139.74771,35.75117],[139.74812,35.75086],[139.74825,35.75093],[139.74844,35.75084],[139.74858,35.75108],[139.74958,35.75105],[139.74985,35.75097],[139.74984,35.75078],[139.74942,35.74986],[139.7487,35.74894],[139.74743,35.74921],[139.74634,35.74929],[139.74657,35.74985],[139.74674,35.75009],[139.74687,35.75035],[139.74701,35.75117],[139.74771,35.75117]]]}},{"type":"Feature","properties":{"id":"area-13117026001","name":"中里一丁目"},"geometry":{"type":"Polygon","coordinates":[[[139.75192,35.73662],[139.75116,35.73579],[139.75026,35.73626],[139.7499,35.73648],[139.7495,35.7368],[139.74933,35.73706],[139.74911,35.73752],[139.75158,35.73866],[139.75331,35.73963],[139.75375,35.73981],[139.75425,35.74007],[139.75417,35.73987],[139.75423,35.73976],[139.75422,35.73968],[139.75379,35.73881],[139.75353,35.73843],[139.75269,35.73764],[139.75192,35.73662]]]}},{"type":"Feature","properties":{"id":"area-13117026002","name":"中里二丁目"},"geometry":{"type":"Polygon","coordinates":[[[139.74975,35.7399],[139.75077,35.73957],[139.75081,35.73961],[139.75091,35.7396],[139.75245,35.73914],[139.75158,35.73866],[139.74911,35.73752],[139.74841,35.7388],[139.74783,35.73919],[139.74815,35.73965],[139.74796,35.73977],[139.74846,35.74072],[139.74901,35.74046],[139.74928,35.74028],[139.74975,35.7399]]]}},{"type":"Feature","properties":{"id":"area-13117026003","name":"中里三丁目"},"geometry":{"type":"Polygon","coordinates":[[[139.75452,35.7421],[139.75457,35.74209],[139.75475,35.74218],[139.75486,35.74216],[139.75549,35.74178],[139.75516,35.74152],[139.75516,35.74131],[139.75479,35.74128],[139.75444,35.74092],[139.75455,35.74086],[139.75425,35.74007],[139.75375,35.73981],[139.75331,35.73963],[139.75245,35.73914],[139.75091,35.7396],[139.75081,35.73961],[139.75077,35.73957],[139.75039,35.73967],[139.74975,35.7399],[139.74928,35.74028],[139.74884,35.74054],[139.74959,35.74151],[139.74997,35.7423],[139.75072,35.74203],[139.75111,35.74278],[139.75113,35.74289],[139.75194,35.74338],[139.75215,35.74359],[139.75243,35.74343],[139.75368,35.74288],[139.75432,35.74238],[139.75452,35.7421]]]}},{"type":"Feature","properties":{"id":"area-13117027001","name":"昭和町一丁目"},"geometry":{"type":"Polygon","coordinates":[[[139.75535,35.74749],[139.75797,35.74746],[139.75796,35.74613],[139.75721,35.74518],[139.75584,35.74604],[139.75514,35.74639],[139.75441,35.74671],[139.75469,35.74706],[139.75474,35.74703],[139.7552,35.74757],[139.75535,35.74749]]]}},{"type":"Feature","properties":{"id":"area-13117027002","name":"昭和町二丁目"},"geometry":{"type":"Polygon","coordinates":[[[139.7552,35.74757],[139.75474,35.74703],[139.75469,35.74706],[139.75441,35.74671],[139.75266,35.74739],[139.75131,35.74796],[139.75239,35.74928],[139.75459,35.74918],[139.75458,35.74892],[139.75523,35.74889],[139.7552,35.7481],[139.75492,35.74773],[139.7552,35.74757]]]}},{"type":"Feature","properties":{"id":"area-13117027003","name":"昭和町三丁目"},"geometry":{"type":"Polygon","coordinates":[[[139.74963,35.75029],[139.75103,35.74954],[139.7512,35.74975],[139.75228,35.74916],[139.75131,35.74796],[139.7487,35.74894],[139.74942,35.74986],[139.74963,35.75029]]]}},{"type":"Feature","properties":{"id":"area-13117028001","name":"田端新町一丁目"},"geometry":{"type":"Polygon","coordinates":[[[139.76867,35.73924],[139.76918,35.73896],[139.76943,35.73922],[139.76984,35.73901],[139.76988,35.73904],[139.76999,35.73884],[139.77029,35.73855],[139.7703,35.73841],[139.77061,35.73841],[139.77069,35.73818],[139.77087,35.73795],[139.76976,35.73759],[139.76588,35.73623],[139.76501,35.73866],[139.76536,35.73882],[139.76617,35.73911],[139.76813,35.7391],[139.76864,35.73912],[139.76867,35.73924]]]}},{"type":"Feature","properties":{"id":"area-13117028002","name":"田端新町二丁目"},"geometry":{"type":"Polygon","coordinates":[[[139.76571,35.7416],[139.76689,35.74145],[139.76698,35.74149],[139.7682,35.7414],[139.76817,35.74104],[139.76834,35.74042],[139.76835,35.74021],[139.76842,35.73996],[139.76846,35.73984],[139.76878,35.73988],[139.76864,35.73912],[139.76813,35.7391],[139.76617,35.73911],[139.76536,35.73882],[139.76501,35.73866],[139.7648,35.73919],[139.76451,35.73971],[139.7641,35.74028],[139.76398,35.74033],[139.76399,35.74037],[139.76534,35.74193],[139.76557,35.74189],[139.76571,35.7416]]]}},{"type":"Feature","properties":{"id":"area-13117028003","name":"田端新町三丁目"},"geometry":{"type":"Polygon","coordinates":[[[139.76424,35.7436],[139.76418,35.74348],[139.76415,35.74325],[139.76417,35.74286],[139.76411,35.74278],[139.76446,35.74245],[139.76534,35.74193],[139.76399,35.74037],[139.76271,35.74169],[139.76235,35.74199],[139.76155,35.74256],[139.76009,35.74342],[139.76048,35.74389],[139.76094,35.74365],[139.76114,35.7437],[139.76186,35.74359],[139.76185,35.74354],[139.76232,35.74362],[139.76234,35.74358],[139.76255,35.74368],[139.76268,35.7435],[139.76307,35.74362],[139.76319,35.74369],[139.76312,35.74387],[139.76367,35.74393],[139.76409,35.74411],[139.76417,35.74378],[139.76424,35.7436]]]}},{"type":"Feature","properties":{"id":"area-13117029001","name":"東田端一丁目"},"geometry":{"type":"Polygon","coordinates":[[[139.76451,35.73971],[139.76493,35.73889],[139.76587,35.73624],[139.76546,35.73611],[139.76503,35.73588],[139.7636,35.73538],[139.76351,35.73532],[139.76298,35.73574],[139.76314,35.73587],[139.76287,35.73614],[139.76272,35.73603],[139.76261,35.73606],[139.76219,35.73645],[139.76203,35.73654],[139.76183,35.73662],[139.76165,35.73665],[139.76148,35.73663],[139.76178,35.73675],[139.76181,35.73681],[139.76174,35.73694],[139.76154,35.73713],[139.7613,35.73722],[139.76109,35.73738],[139.76087,35.73766],[139.7605,35.73796],[139.76031,35.73829],[139.76186,35.73928],[139.76171,35.73945],[139.7621,35.73971],[139.76262,35.7397],[139.76279,35.73964],[139.76288,35.7397],[139.76313,35.73972],[139.76312,35.73978],[139.76332,35.73994],[139.76398,35.74033],[139.7641,35.74028],[139.76451,35.73971]]]}},{"type":"Feature","properties":{"id":"area-13117029002","name":"東田端二丁目"},"geometry":{"type":"Polygon","coordinates":[[[139.76332,35.73994],[139.76312,35.73978],[139.76313,35.73972],[139.76288,35.7397],[139.76279,35.73964],[139.76262,35.7397],[139.7621,35.73971],[139.76171,35.73945],[139.76186,35.73928],[139.76031,35.73829],[139.75928,35.73913],[139.75861,35.73956],[139.75864,35.73958],[139.75829,35.73984],[139.75826,35.73981],[139.75799,35.74002],[139.75678,35.74106],[139.75549,35.74178],[139.75584,35.74216],[139.7561,35.74224],[139.75634,35.74296],[139.75639,35.74339],[139.75649,35.74374],[139.75664,35.74421],[139.75687,35.74474],[139.75725,35.74476],[139.75747,35.745],[139.75745,35.74503],[139.75864,35.74428],[139.76155,35.74256],[139.76271,35.74169],[139.76399,35.74037],[139.76398,35.74033],[139.76332,35.73994]]]}},{"type":"Feature","properties":{"id":"area-13117030001","name":"田端一丁目"},"geometry":{"type":"Polygon","coordinates":[[[139.76148,35.73663],[139.76165,35.73665],[139.76183,35.73662],[139.76203,35.73654],[139.76219,35.73645],[139.76261,35.73606],[139.76272,35.73603],[139.76287,35.73614],[139.76314,35.73587],[139.76298,35.73574],[139.76427,35.73469],[139.76434,35.7346],[139.76407,35.7344],[139.76382,35.73416],[139.76369,35.73399],[139.76358,35.73379],[139.76356,35.73368],[139.76331,35.73354],[139.76285,35.7337],[139.7627,35.73371],[139.76254,35.73362],[139.76234,35.73376],[139.76212,35.73397],[139.76148,35.73376],[139.76177,35.73315],[139.76165,35.73308],[139.76184,35.73289],[139.76123,35.73229],[139.76117,35.73232],[139.76071,35.73198],[139.76011,35.73171],[139.75996,35.73184],[139.75958,35.73202],[139.75935,35.73228],[139.7588,35.73264],[139.75861,35.7327],[139.75911,35.7342],[139.75946,35.73647],[139.75951,35.73703],[139.75963,35.73749],[139.75979,35.73779],[139.76005,35.73812],[139.76031,35.73829],[139.7605,35.73796],[139.76087,35.73766],[139.76109,35.73738],[139.7613,35.73722],[139.76154,35.73713],[139.76174,35.73694],[139.76181,35.73681],[139.76178,35.73675],[139.76148,35.73663]]]}},{"type":"Feature","properties":{"id":"area-13117030002","name":"田端二丁目"},"geometry":{"type":"Polygon","coordinates":[[[139.75949,35.73667],[139.75911,35.7342],[139.75861,35.7327],[139.75803,35.73289],[139.75764,35.73306],[139.75672,35.73359],[139.75713,35.7342],[139.75726,35.73498],[139.7573,35.73581],[139.75728,35.73598],[139.75717,35.73624],[139.75735,35.73672],[139.75862,35.73653],[139.75877,35.73675],[139.75949,35.73667]]]}},{"type":"Feature","properties":{"id":"area-13117030003","name":"田端三丁目"},"geometry":{"type":"Polygon","coordinates":[[[139.75642,35.73685],[139.75651,35.73696],[139.75662,35.73681],[139.75696,35.73646],[139.75718,35.73632],[139.75717,35.73624],[139.75728,35.73598],[139.7573,35.73581],[139.75726,35.73498],[139.75713,35.7342],[139.75672,35.73359],[139.7557,35.73392],[139.75476,35.73435],[139.75395,35.73478],[139.75353,35.73508],[139.75343,35.735],[139.75263,35.73527],[139.75247,35.73543],[139.7524,35.73536],[139.75221,35.73548],[139.75243,35.73571],[139.7537,35.73666],[139.75408,35.73693],[139.75454,35.73715],[139.75571,35.73817],[139.75614,35.73719],[139.75642,35.73685]]]}},{"type":"Feature","properties":{"id":"area-13117030004","name":"田端四丁目"},"geometry":{"type":"Polygon","coordinates":[[[139.75408,35.73693],[139.75243,35.73571],[139.75221,35.73548],[139.75204,35.73559],[139.75195,35.73551],[139.75192,35.73551],[139.75155,35.73576],[139.75151,35.73572],[139.75144,35.73577],[139.75136,35.73568],[139.75116,35.73579],[139.75192,35.73662],[139.75269,35.73764],[139.75353,35.73843],[139.75379,35.73881],[139.75412,35.73947],[139.7547,35.73983],[139.75542,35.73901],[139.75553,35.73877],[139.75571,35.73817],[139.75454,35.73715],[139.75408,35.73693]]]}},{"type":"Feature","properties":{"id":"area-13117030005","name":"田端五丁目"},"geometry":{"type":"Polygon","coordinates":[[[139.75951,35.73703],[139.75949,35.73667],[139.75877,35.73675],[139.75862,35.73653],[139.75735,35.73672],[139.75718,35.73632],[139.75707,35.73637],[139.75662,35.73681],[139.75651,35.73696],[139.75642,35.73685],[139.75614,35.73719],[139.75577,35.73802],[139.75553,35.73877],[139.75542,35.73901],[139.7547,35.73983],[139.75498,35.73992],[139.75499,35.74008],[139.75558,35.74031],[139.75579,35.74009],[139.75612,35.73981],[139.7577,35.73873],[139.75845,35.73824],[139.75899,35.73797],[139.75967,35.73757],[139.75951,35.73703]]]}},{"type":"Feature","properties":{"id":"area-13117030006","name":"田端六丁目"},"geometry":{"type":"Polygon","coordinates":[[[139.75747,35.74045],[139.75826,35.73981],[139.75829,35.73984],[139.75864,35.73958],[139.75861,35.73956],[139.75928,35.73913],[139.76031,35.73829],[139.76002,35.73809],[139.75979,35.73779],[139.75967,35.73757],[139.75899,35.73797],[139.75845,35.73824],[139.7577,35.73873],[139.75612,35.73981],[139.75579,35.74009],[139.75558,35.74031],[139.75499,35.74008],[139.75498,35.73992],[139.7547,35.73983],[139.75412,35.73947],[139.75423,35.73976],[139.75417,35.73987],[139.75455,35.74086],[139.75444,35.74092],[139.75479,35.74128],[139.75516,35.74131],[139.75516,35.74152],[139.75549,35.74178],[139.75678,35.74106],[139.75747,35.74045]]]}}]}