{"type":"FeatureCollection","features":[{"type":"Feature","properties":{"id":"area-13119001001","name":"板橋一丁目"},"geometry":{"type":"Polygon","coordinates":[[[139.72222,35.74748],[139.7213,35.74747],[139.72128,35.74737],[139.72132,35.74736],[139.72133,35.74712],[139.72131,35.74681],[139.72122,35.7463],[139.72024,35.74673],[139.72011,35.74654],[139.72023,35.74648],[139.7199,35.74581],[139.71989,35.7457],[139.7197,35.74569],[139.7197,35.7454],[139.71949,35.74538],[139.71951,35.74514],[139.71918,35.74521],[139.71898,35.74529],[139.71786,35.74544],[139.71791,35.74582],[139.71771,35.74584],[139.71766,35.74547],[139.71608,35.74565],[139.71478,35.74598],[139.71516,35.74652],[139.71433,35.74778],[139.71463,35.74867],[139.71482,35.74916],[139.71492,35.7493],[139.71704,35.74905],[139.72138,35.74863],[139.72183,35.74848],[139.72185,35.74832],[139.72176,35.74817],[139.72173,35.74799],[139.722,35.74798],[139.72202,35.74779],[139.72224,35.74777],[139.72222,35.74748]]]}},{"type":"Feature","properties":{"id":"area-13119001002","name":"板橋二丁目"},"geometry":{"type":"Polygon","coordinates":[[[139.70899,35.75219],[139.71168,35.74991],[139.71217,35.74966],[139.71305,35.74952],[139.71492,35.7493],[139.71482,35.74916],[139.71463,35.74867],[139.71433,35.74778],[139.71516,35.74652],[139.71478,35.74598],[139.71476,35.74599],[139.71451,35.74573],[139.71448,35.74567],[139.71459,35.74563],[139.71448,35.74543],[139.71414,35.74546],[139.71406,35.7455],[139.7104,35.74596],[139.71032,35.7461],[139.70981,35.74626],[139.70914,35.74632],[139.70917,35.74666],[139.70925,35.74684],[139.70816,35.74702],[139.70822,35.74908],[139.70836,35.75132],[139.70829,35.75131],[139.70831,35.75217],[139.70899,35.75219]]]}},{"type":"Feature","properties":{"id":"area-13119001003","name":"板橋三丁目"},"geometry":{"type":"Polygon","coordinates":[[[139.71518,35.75057],[139.7143,35.74937],[139.71305,35.74952],[139.71217,35.74966],[139.71168,35.74991],[139.7097,35.75161],[139.71113,35.75232],[139.71285,35.7528],[139.71273,35.75305],[139.71248,35.7533],[139.7114,35.75433],[139.7114,35.75437],[139.71107,35.75468],[139.71162,35.75526],[139.7123,35.75587],[139.71257,35.75577],[139.71579,35.75313],[139.71613,35.75237],[139.71655,35.75177],[139.71518,35.75057]]]}},{"type":"Feature","properties":{"id":"area-13119001004","name":"板橋四丁目"},"geometry":{"type":"Polygon","coordinates":[[[139.71999,35.75248],[139.72027,35.75243],[139.72048,35.75246],[139.72102,35.75272],[139.72117,35.75273],[139.72142,35.75265],[139.72204,35.75209],[139.72216,35.75202],[139.72276,35.75201],[139.72276,35.75188],[139.72266,35.75153],[139.72272,35.75125],[139.72261,35.75122],[139.72264,35.7508],[139.72221,35.75075],[139.72206,35.74986],[139.72176,35.74903],[139.72218,35.74883],[139.72197,35.7485],[139.72182,35.74861],[139.72183,35.74848],[139.72138,35.74863],[139.72101,35.74868],[139.71704,35.74905],[139.7143,35.74937],[139.71518,35.75057],[139.71655,35.75177],[139.71613,35.75237],[139.71579,35.75313],[139.71631,35.75319],[139.71789,35.75325],[139.71999,35.75248]]]}},{"type":"Feature","properties":{"id":"area-13119002001","name":"加賀一丁目"},"geometry":{"type":"Polygon","coordinates":[[[139.72114,35.75542],[139.72097,35.75518],[139.72055,35.75535],[139.72044,35.75519],[139.72046,35.75515],[139.72034,35.75496],[139.7212,35.75459],[139.72103,35.75427],[139.72202,35.75391],[139.722,35.75364],[139.72228,35.75338],[139.72238,35.75338],[139.72251,35.75311],[139.72252,35.752],[139.72216,35.75202],[139.72204,35.75209],[139.72142,35.75265],[139.72117,35.75273],[139.72102,35.75272],[139.72048,35.75246],[139.72027,35.75243],[139.7198,35.75254],[139.71789,35.75325],[139.71631,35.75319],[139.71579,35.75313],[139.71506,35.75374],[139.71518,35.75409],[139.71599,35.75564],[139.7162,35.7559],[139.71664,35.75629],[139.71684,35.75654],[139.71747,35.75783],[139.71762,35.75831],[139.71774,35.75856],[139.7183,35.75817],[139.71875,35.75767],[139.71924,35.75689],[139.71914,35.75679],[139.71949,35.75653],[139.72045,35.75613],[139.72025,35.7558],[139.72114,35.75542]]]}},{"type":"Feature","properties":{"id":"area-13119002002","name":"加賀二丁目"},"geometry":{"type":"Polygon","coordinates":[[[139.71518,35.75409],[139.71506,35.75374],[139.71257,35.75577],[139.71231,35.75587],[139.71316,35.75658],[139.7132,35.75679],[139.71347,35.75721],[139.71302,35.75759],[139.71182,35.7585],[139.71181,35.75857],[139.71417,35.7606],[139.71429,35.76066],[139.71519,35.76148],[139.71605,35.7609],[139.71627,35.76068],[139.71648,35.76041],[139.71725,35.75919],[139.71781,35.75862],[139.71772,35.75854],[139.71747,35.75783],[139.71684,35.75654],[139.71664,35.75629],[139.7162,35.7559],[139.71599,35.75564],[139.71518,35.75409]]]}},{"type":"Feature","properties":{"id":"area-131190030","name":"大山東町"},"geometry":{"type":"Polygon","coordinates":[[[139.70822,35.74908],[139.70816,35.74702],[139.70563,35.74742],[139.70453,35.74764],[139.70409,35.74776],[139.70373,35.74789],[139.70329,35.74811],[139.70319,35.74824],[139.70278,35.7485],[139.70252,35.74871],[139.70222,35.74886],[139.70203,35.74905],[139.70163,35.7496],[139.7021,35.74985],[139.70259,35.75006],[139.70342,35.75036],[139.70554,35.7508],[139.70733,35.75107],[139.70836,35.75132],[139.70822,35.74908]]]}},{"type":"Feature","properties":{"id":"area-131190040","name":"大山金井町"},"geometry":{"type":"Polygon","coordinates":[[[139.70563,35.74742],[139.70925,35.74684],[139.70917,35.74666],[139.70914,35.74632],[139.70981,35.74626],[139.71032,35.7461],[139.7104,35.74596],[139.71021,35.74591],[139.71009,35.74583],[139.7095,35.74492],[139.70917,35.7445],[139.70668,35.74435],[139.70656,35.74484],[139.70395,35.74493],[139.70191,35.74495],[139.69967,35.7467],[139.70209,35.74665],[139.7021,35.74741],[139.70321,35.74733],[139.70322,35.748],[139.70329,35.74811],[139.70373,35.74789],[139.70429,35.74769],[139.70563,35.74742]]]}},{"type":"Feature","properties":{"id":"area-131190050","name":"熊野町"},"geometry":{"type":"Polygon","coordinates":[[[139.70656,35.74484],[139.70668,35.74435],[139.70917,35.7445],[139.70898,35.74424],[139.70891,35.74377],[139.7089,35.7432],[139.70837,35.74203],[139.7072,35.74083],[139.70191,35.74495],[139.70395,35.74493],[139.70656,35.74484]]]}},{"type":"Feature","properties":{"id":"area-131190060","name":"中丸町"},"geometry":{"type":"Polygon","coordinates":[[[139.69965,35.74497],[139.70189,35.74496],[139.7072,35.74083],[139.70509,35.73871],[139.70458,35.73815],[139.70421,35.73839],[139.70356,35.73904],[139.70284,35.73982],[139.70171,35.74179],[139.69965,35.74497]]]}},{"type":"Feature","properties":{"id":"area-131190070","name":"南町"},"geometry":{"type":"Polygon","coordinates":[[[139.70171,35.74179],[139.70284,35.73982],[139.70356,35.73904],[139.70421,35.73839],[139.70458,35.73815],[139.70396,35.73747],[139.70356,35.73577],[139.70197,35.73612],[139.70172,35.73713],[139.70208,35.73724],[139.70077,35.74003],[139.69905,35.73987],[139.69853,35.74344],[139.69954,35.74369],[139.70047,35.74371],[139.70171,35.74179]]]}},{"type":"Feature","properties":{"id":"area-131190080","name":"稲荷台"},"geometry":{"type":"Polygon","coordinates":[[[139.71269,35.76316],[139.71318,35.76317],[139.71355,35.76268],[139.71362,35.76267],[139.71389,35.76247],[139.71452,35.76191],[139.71495,35.76166],[139.71519,35.76148],[139.71429,35.76066],[139.71417,35.7606],[139.7122,35.7589],[139.71205,35.75897],[139.71193,35.75898],[139.71167,35.75896],[139.71136,35.75885],[139.71109,35.75954],[139.71111,35.75963],[139.71102,35.75969],[139.71081,35.75973],[139.71096,35.75985],[139.71091,35.75993],[139.7109,35.76015],[139.7107,35.76098],[139.71042,35.76091],[139.71016,35.76072],[139.71002,35.76066],[139.7095,35.7606],[139.70941,35.76103],[139.70989,35.76116],[139.70981,35.76171],[139.70995,35.76175],[139.70982,35.76235],[139.71266,35.76322],[139.71269,35.76316]]]}},{"type":"Feature","properties":{"id":"area-131190090","name":"仲宿"},"geometry":{"type":"Polygon","coordinates":[[[139.71347,35.75721],[139.7132,35.75679],[139.71316,35.75658],[139.71201,35.75562],[139.71162,35.75526],[139.71107,35.75468],[139.7114,35.75437],[139.7114,35.75433],[139.71248,35.7533],[139.71273,35.75305],[139.71285,35.7528],[139.71113,35.75232],[139.7097,35.75161],[139.70899,35.75219],[139.70831,35.75217],[139.70834,35.75317],[139.70829,35.75363],[139.70697,35.75708],[139.70736,35.75717],[139.7086,35.75719],[139.70905,35.75705],[139.70951,35.7568],[139.70971,35.75678],[139.70982,35.75685],[139.70986,35.75706],[139.70981,35.75721],[139.7096,35.75758],[139.71017,35.75825],[139.71042,35.75842],[139.71081,35.75862],[139.71167,35.75896],[139.71193,35.75898],[139.71205,35.75897],[139.7122,35.7589],[139.71181,35.75857],[139.71182,35.7585],[139.71345,35.75724],[139.71347,35.75721]]]}},{"type":"Feature","properties":{"id":"area-131190100","name":"氷川町"},"geometry":{"type":"Polygon","coordinates":[[[139.70697,35.75708],[139.70829,35.75363],[139.70834,35.75317],[139.70829,35.75131],[139.70733,35.75107],[139.70554,35.7508],[139.70543,35.75121],[139.70513,35.75204],[139.70456,35.75322],[139.70468,35.75329],[139.70412,35.75393],[139.70496,35.75419],[139.70467,35.75489],[139.70453,35.75491],[139.70448,35.75496],[139.70433,35.7553],[139.70457,35.75532],[139.70491,35.75544],[139.70567,35.75608],[139.70639,35.75615],[139.70665,35.75627],[139.7067,35.75638],[139.70665,35.7566],[139.7066,35.75666],[139.70661,35.75675],[139.70668,35.75689],[139.7068,35.75701],[139.70697,35.75708]]]}},{"type":"Feature","properties":{"id":"area-131190110","name":"栄町"},"geometry":{"type":"Polygon","coordinates":[[[139.70321,35.75632],[139.7038,35.75555],[139.70401,35.75541],[139.70433,35.7553],[139.70448,35.75496],[139.70453,35.75491],[139.70467,35.75489],[139.70496,35.75419],[139.70412,35.75393],[139.70468,35.75329],[139.70456,35.75322],[139.70513,35.75204],[139.70543,35.75121],[139.70554,35.7508],[139.70342,35.75036],[139.70259,35.75006],[139.7021,35.74985],[139.70168,35.74963],[139.7008,35.75133],[139.69992,35.75287],[139.6992,35.75366],[139.69865,35.75413],[139.69835,35.75433],[139.70091,35.75437],[139.70062,35.75635],[139.70129,35.75626],[139.70172,35.75626],[139.70292,35.75648],[139.70311,35.7564],[139.70321,35.75632]]]}},{"type":"Feature","properties":{"id":"area-131190120","name":"大山町"},"geometry":{"type":"Polygon","coordinates":[[[139.70105,35.75085],[139.70156,35.74989],[139.70168,35.74963],[139.70163,35.7496],[139.70203,35.74905],[139.70222,35.74886],[139.70252,35.74871],[139.70278,35.7485],[139.70319,35.74824],[139.70329,35.74811],[139.70322,35.748],[139.70321,35.74733],[139.7021,35.74741],[139.70209,35.74665],[139.69959,35.7467],[139.69535,35.75002],[139.69596,35.75072],[139.69872,35.75013],[139.69941,35.75022],[139.70105,35.75085]]]}},{"type":"Feature","properties":{"id":"area-131190130","name":"大山西町"},"geometry":{"type":"Polygon","coordinates":[[[139.6928,35.74353],[139.69274,35.74346],[139.69272,35.74348],[139.6926,35.74344],[139.69257,35.74348],[139.69271,35.74365],[139.69234,35.74421],[139.69228,35.74434],[139.69237,35.74489],[139.69231,35.7451],[139.69273,35.74516],[139.69271,35.74554],[139.69276,35.74593],[139.69275,35.74613],[139.69265,35.74662],[139.69259,35.74674],[139.6926,35.74681],[139.69291,35.74688],[139.69535,35.75002],[139.69929,35.74694],[139.69855,35.74666],[139.69859,35.74662],[139.69771,35.74628],[139.69688,35.74601],[139.69592,35.74566],[139.69561,35.74549],[139.69502,35.74502],[139.69404,35.74448],[139.6928,35.74353]]]}},{"type":"Feature","properties":{"id":"area-131190140","name":"幸町"},"geometry":{"type":"Polygon","coordinates":[[[139.69929,35.74694],[139.69959,35.7467],[139.69967,35.7467],[139.70189,35.74496],[139.69965,35.74497],[139.70047,35.74371],[139.69954,35.74369],[139.69853,35.74344],[139.69868,35.74229],[139.69465,35.74213],[139.69465,35.7431],[139.69427,35.74308],[139.69409,35.743],[139.69409,35.74291],[139.69353,35.74291],[139.69327,35.74305],[139.69274,35.74346],[139.69296,35.74368],[139.69404,35.74448],[139.69502,35.74502],[139.69561,35.74549],[139.69592,35.74566],[139.69688,35.74601],[139.69771,35.74628],[139.69859,35.74662],[139.69855,35.74666],[139.69929,35.74694]]]}},{"type":"Feature","properties":{"id":"area-131190150","name":"中板橋"},"geometry":{"type":"Polygon","coordinates":[[[139.70061,35.75638],[139.70091,35.75437],[139.69835,35.75433],[139.6961,35.75551],[139.69613,35.75555],[139.69599,35.75565],[139.69548,35.75593],[139.69543,35.75595],[139.69523,35.75573],[139.69354,35.7566],[139.69274,35.75708],[139.69296,35.75732],[139.69321,35.75746],[139.69358,35.75754],[139.70061,35.75638]]]}},{"type":"Feature","properties":{"id":"area-131190160","name":"仲町"},"geometry":{"type":"Polygon","coordinates":[[[139.6992,35.75366],[139.69992,35.75287],[139.70019,35.75243],[139.70105,35.75085],[139.69941,35.75022],[139.69872,35.75013],[139.69596,35.75072],[139.69599,35.75142],[139.6962,35.75223],[139.69536,35.75225],[139.69544,35.75316],[139.69511,35.75317],[139.69509,35.75329],[139.69521,35.75329],[139.6952,35.75339],[139.69511,35.75361],[139.69506,35.75388],[139.6951,35.75396],[139.69541,35.75409],[139.69541,35.75437],[139.69528,35.75456],[139.69571,35.75495],[139.69569,35.75546],[139.6961,35.75551],[139.6984,35.7543],[139.69883,35.75399],[139.6992,35.75366]]]}},{"type":"Feature","properties":{"id":"area-131190170","name":"弥生町"},"geometry":{"type":"Polygon","coordinates":[[[139.69354,35.7566],[139.69523,35.75573],[139.69543,35.75595],[139.69613,35.75555],[139.6961,35.75551],[139.69569,35.75546],[139.69571,35.75495],[139.69528,35.75456],[139.69541,35.75437],[139.69541,35.75409],[139.6951,35.75396],[139.69506,35.75388],[139.69511,35.75361],[139.6952,35.75339],[139.69521,35.75329],[139.69509,35.75329],[139.69511,35.75317],[139.69544,35.75316],[139.69536,35.75225],[139.6962,35.75223],[139.69599,35.75142],[139.69596,35.75072],[139.69535,35.75002],[139.68984,35.7538],[139.69105,35.75516],[139.69125,35.75546],[139.69274,35.75708],[139.69354,35.7566]]]}},{"type":"Feature","properties":{"id":"area-131190180","name":"本町"},"geometry":{"type":"Polygon","coordinates":[[[139.70973,35.76287],[139.70995,35.76175],[139.70981,35.76171],[139.70989,35.76116],[139.70941,35.76103],[139.7095,35.7606],[139.71002,35.76066],[139.71016,35.76072],[139.71042,35.76091],[139.7107,35.76098],[139.7109,35.76015],[139.71091,35.75993],[139.71096,35.75985],[139.71081,35.75973],[139.71102,35.75969],[139.71111,35.75963],[139.71109,35.75954],[139.71136,35.75885],[139.71081,35.75862],[139.71042,35.75842],[139.71017,35.75825],[139.7096,35.75758],[139.70981,35.75721],[139.70986,35.75706],[139.70982,35.75685],[139.70971,35.75678],[139.70951,35.7568],[139.70905,35.75705],[139.7086,35.75719],[139.70736,35.75717],[139.7071,35.75711],[139.70702,35.75734],[139.70699,35.75756],[139.70663,35.75857],[139.7059,35.76049],[139.70522,35.76216],[139.70567,35.76203],[139.7066,35.76205],[139.70756,35.7622],[139.70756,35.76238],[139.70761,35.76246],[139.70792,35.76257],[139.70941,35.76277],[139.70973,35.76287]]]}},{"type":"Feature","properties":{"id":"area-131190190","name":"大和町"},"geometry":{"type":"Polygon","coordinates":[[[139.70457,35.75532],[139.70434,35.7553],[139.70391,35.75633],[139.70314,35.75765],[139.7029,35.75846],[139.70288,35.75914],[139.70283,35.7595],[139.70242,35.761],[139.70246,35.7621],[139.7045,35.76232],[139.70522,35.76216],[139.7059,35.76049],[139.70699,35.75756],[139.70702,35.75734],[139.7071,35.75711],[139.7068,35.75701],[139.70668,35.75689],[139.70661,35.75675],[139.7066,35.75666],[139.70665,35.7566],[139.7067,35.75638],[139.70665,35.75627],[139.70639,35.75615],[139.70567,35.75608],[139.70491,35.75544],[139.70457,35.75532]]]}},{"type":"Feature","properties":{"id":"area-131190200","name":"双葉町"},"geometry":{"type":"Polygon","coordinates":[[[139.70283,35.7595],[139.7029,35.75846],[139.70314,35.75765],[139.70391,35.75633],[139.70434,35.7553],[139.70401,35.75541],[139.7038,35.75555],[139.70321,35.75632],[139.70311,35.7564],[139.70292,35.75648],[139.70172,35.75626],[139.70129,35.75626],[139.69492,35.75733],[139.69489,35.75849],[139.69805,35.75933],[139.70256,35.76044],[139.70283,35.7595]]]}},{"type":"Feature","properties":{"id":"area-131190210","name":"富士見町"},"geometry":{"type":"Polygon","coordinates":[[[139.69569,35.76288],[139.69686,35.76259],[139.69782,35.76266],[139.69866,35.7625],[139.69978,35.76211],[139.70044,35.76206],[139.70048,35.76206],[139.70057,35.7625],[139.70083,35.76245],[139.70137,35.76246],[139.70151,35.76244],[139.70202,35.76221],[139.70246,35.7621],[139.70242,35.761],[139.70256,35.76044],[139.69805,35.75933],[139.69489,35.75849],[139.69485,35.75965],[139.69486,35.76034],[139.69517,35.76232],[139.69523,35.76296],[139.69569,35.76288]]]}},{"type":"Feature","properties":{"id":"area-131190220","name":"大谷口上町"},"geometry":{"type":"Polygon","coordinates":[[[139.69235,35.75207],[139.69535,35.75002],[139.69291,35.74688],[139.69119,35.74643],[139.69069,35.74635],[139.69001,35.74632],[139.6886,35.7464],[139.688,35.74648],[139.68775,35.74656],[139.68654,35.74745],[139.6862,35.74775],[139.68644,35.74781],[139.68671,35.74796],[139.68688,35.7482],[139.68691,35.74832],[139.68701,35.74833],[139.68723,35.74827],[139.68813,35.74838],[139.68869,35.74862],[139.68895,35.74884],[139.68913,35.74905],[139.68949,35.74917],[139.68961,35.74918],[139.68959,35.74927],[139.68963,35.74948],[139.68969,35.74955],[139.68981,35.74961],[139.69058,35.74981],[139.69143,35.75035],[139.69158,35.75032],[139.69199,35.75033],[139.69231,35.75039],[139.69236,35.75044],[139.69241,35.75071],[139.69232,35.75146],[139.69225,35.75174],[139.69235,35.75207]]]}},{"type":"Feature","properties":{"id":"area-131190230","name":"大谷口北町"},"geometry":{"type":"Polygon","coordinates":[[[139.69225,35.75174],[139.69232,35.75146],[139.69241,35.75071],[139.69236,35.75044],[139.69231,35.75039],[139.69199,35.75033],[139.69158,35.75032],[139.69143,35.75035],[139.69058,35.74981],[139.68981,35.74961],[139.68969,35.74955],[139.68963,35.74948],[139.68959,35.74927],[139.68961,35.74918],[139.68949,35.74917],[139.68913,35.74905],[139.68874,35.74865],[139.68813,35.74838],[139.68723,35.74827],[139.68701,35.74833],[139.68691,35.74832],[139.68688,35.7482],[139.68671,35.74796],[139.68644,35.74781],[139.6862,35.74775],[139.68499,35.74793],[139.6854,35.74962],[139.68552,35.7518],[139.68741,35.75166],[139.6876,35.75167],[139.68788,35.75176],[139.68809,35.7519],[139.68984,35.7538],[139.69235,35.75207],[139.69225,35.75174]]]}},{"type":"Feature","properties":{"id":"area-13119024001","name":"大谷口一丁目"},"geometry":{"type":"Polygon","coordinates":[[[139.68823,35.74071],[139.68815,35.74148],[139.68816,35.74178],[139.6882,35.74194],[139.6884,35.74235],[139.68907,35.74348],[139.69004,35.74506],[139.69033,35.74549],[139.691,35.74624],[139.69109,35.74641],[139.6926,35.74681],[139.69259,35.74674],[139.69265,35.74662],[139.69275,35.74613],[139.69276,35.74593],[139.69271,35.74554],[139.69273,35.74516],[139.69231,35.7451],[139.69237,35.74489],[139.69228,35.74434],[139.69234,35.74421],[139.69271,35.74365],[139.69257,35.74348],[139.69194,35.7429],[139.68986,35.7414],[139.6894,35.74115],[139.68874,35.74094],[139.68823,35.74071]]]}},{"type":"Feature","properties":{"id":"area-13119024002","name":"大谷口二丁目"},"geometry":{"type":"Polygon","coordinates":[[[139.68897,35.74637],[139.69001,35.74632],[139.69069,35.74635],[139.69109,35.74641],[139.691,35.74624],[139.69033,35.74549],[139.69004,35.74506],[139.6884,35.74235],[139.6882,35.74194],[139.68816,35.74178],[139.68796,35.74179],[139.68787,35.74171],[139.68779,35.74159],[139.6876,35.74154],[139.68718,35.74174],[139.68695,35.74167],[139.68647,35.74205],[139.68684,35.74223],[139.68659,35.74251],[139.68638,35.74372],[139.68623,35.74402],[139.68617,35.74422],[139.68579,35.74487],[139.68588,35.74489],[139.68568,35.74513],[139.68561,35.74516],[139.68549,35.74531],[139.68542,35.74535],[139.68533,35.74552],[139.68535,35.74576],[139.68557,35.74633],[139.6856,35.74656],[139.68547,35.74703],[139.68547,35.7472],[139.68569,35.74783],[139.6862,35.74775],[139.68654,35.74745],[139.68775,35.74656],[139.688,35.74648],[139.68897,35.74637]]]}},{"type":"Feature","properties":{"id":"area-13119025001","name":"向原一丁目"},"geometry":{"type":"Polygon","coordinates":[[[139.68642,35.74351],[139.68659,35.74251],[139.68684,35.74223],[139.68647,35.74205],[139.68695,35.74167],[139.68718,35.74174],[139.6876,35.74154],[139.68779,35.74159],[139.68787,35.74171],[139.68796,35.74179],[139.68816,35.74178],[139.68817,35.74117],[139.68822,35.74071],[139.68813,35.74066],[139.68749,35.74053],[139.68534,35.7399],[139.68507,35.74066],[139.68521,35.74071],[139.68512,35.74095],[139.68422,35.74138],[139.68337,35.74114],[139.68307,35.7417],[139.68294,35.74163],[139.68264,35.74141],[139.68248,35.74185],[139.68238,35.74232],[139.6824,35.74241],[139.68262,35.74278],[139.68268,35.74301],[139.68268,35.74328],[139.68376,35.74347],[139.68382,35.74333],[139.68409,35.74336],[139.68457,35.74328],[139.68473,35.74319],[139.68532,35.74331],[139.68534,35.74339],[139.68564,35.74341],[139.68609,35.74354],[139.68642,35.74351]]]}},{"type":"Feature","properties":{"id":"area-13119025002","name":"向原二丁目"},"geometry":{"type":"Polygon","coordinates":[[[139.6814,35.74252],[139.68156,35.7425],[139.68174,35.74258],[139.68208,35.74266],[139.6821,35.74247],[139.6824,35.74241],[139.68238,35.74232],[139.68243,35.74206],[139.68264,35.74141],[139.68294,35.74163],[139.68307,35.7417],[139.68337,35.74114],[139.68422,35.74138],[139.68512,35.74095],[139.68521,35.74071],[139.68507,35.74066],[139.68534,35.7399],[139.68404,35.73947],[139.68249,35.73903],[139.68022,35.7386],[139.67987,35.73901],[139.6797,35.73932],[139.67945,35.73968],[139.67904,35.74015],[139.67892,35.74043],[139.67898,35.74064],[139.67924,35.74071],[139.67939,35.74098],[139.67952,35.74134],[139.67969,35.74162],[139.68007,35.7414],[139.68018,35.74152],[139.68009,35.74157],[139.68025,35.74158],[139.68026,35.74195],[139.68009,35.74196],[139.68008,35.74162],[139.67992,35.74172],[139.67989,35.74169],[139.67977,35.74176],[139.67991,35.74197],[139.68008,35.74213],[139.68041,35.74195],[139.68048,35.74204],[139.6804,35.74224],[139.68032,35.74221],[139.68038,35.74209],[139.68021,35.74221],[139.6806,35.74241],[139.68061,35.7427],[139.68064,35.74285],[139.68073,35.74299],[139.68077,35.74297],[139.68076,35.74289],[139.68098,35.74281],[139.68135,35.74259],[139.6814,35.74252]]]}},{"type":"Feature","properties":{"id":"area-13119025003","name":"向原三丁目"},"geometry":{"type":"Polygon","coordinates":[[[139.68579,35.74487],[139.68617,35.74422],[139.68623,35.74402],[139.68638,35.74372],[139.68642,35.74351],[139.68609,35.74354],[139.68564,35.74341],[139.68534,35.74339],[139.68532,35.74331],[139.68473,35.74319],[139.68457,35.74328],[139.68409,35.74336],[139.68382,35.74333],[139.68376,35.74347],[139.68273,35.7433],[139.68268,35.74328],[139.68268,35.74301],[139.68262,35.74278],[139.6824,35.74241],[139.6821,35.74247],[139.68208,35.74266],[139.68174,35.74258],[139.68156,35.7425],[139.6814,35.74252],[139.68135,35.74259],[139.68098,35.74281],[139.68076,35.74289],[139.68077,35.74297],[139.68073,35.74299],[139.68097,35.74347],[139.68099,35.74367],[139.68083,35.7445],[139.68143,35.74478],[139.6816,35.74479],[139.68167,35.74474],[139.68174,35.74463],[139.68265,35.74474],[139.68293,35.74504],[139.68361,35.74564],[139.684,35.74613],[139.68405,35.74625],[139.684,35.74659],[139.68427,35.74698],[139.68426,35.74708],[139.68389,35.74715],[139.68382,35.74808],[139.68411,35.74802],[139.68569,35.74783],[139.68547,35.7472],[139.68547,35.74703],[139.6856,35.74656],[139.68557,35.74633],[139.68535,35.74576],[139.68533,35.74552],[139.68542,35.74535],[139.68549,35.74531],[139.68561,35.74516],[139.68568,35.74513],[139.68588,35.74489],[139.68579,35.74487]]]}},{"type":"Feature","properties":{"id":"area-13119026001","name":"小茂根一丁目"},"geometry":{"type":"Polygon","coordinates":[[[139.68382,35.74808],[139.68389,35.74715],[139.68426,35.74708],[139.68427,35.74698],[139.684,35.74659],[139.68405,35.74625],[139.684,35.74613],[139.68361,35.74564],[139.68293,35.74504],[139.68265,35.74474],[139.68174,35.74463],[139.68167,35.74474],[139.6816,35.74479],[139.68143,35.74478],[139.68083,35.7445],[139.68095,35.74393],[139.67577,35.74556],[139.67534,35.74522],[139.67486,35.74545],[139.67807,35.74777],[139.68048,35.7479],[139.68075,35.74791],[139.68086,35.74783],[139.68343,35.74821],[139.68382,35.74808]]]}},{"type":"Feature","properties":{"id":"area-13119026002","name":"小茂根二丁目"},"geometry":{"type":"Polygon","coordinates":[[[139.6854,35.74962],[139.68499,35.74793],[139.68411,35.74802],[139.68343,35.74821],[139.68086,35.74783],[139.68075,35.74791],[139.68048,35.7479],[139.67807,35.74777],[139.68381,35.75192],[139.68552,35.7518],[139.6854,35.74962]]]}},{"type":"Feature","properties":{"id":"area-13119026003","name":"小茂根三丁目"},"geometry":{"type":"Polygon","coordinates":[[[139.68381,35.75192],[139.67893,35.74838],[139.67856,35.74875],[139.67813,35.74989],[139.6779,35.75079],[139.67796,35.75307],[139.67898,35.75236],[139.67937,35.75224],[139.68381,35.75192]]]}},{"type":"Feature","properties":{"id":"area-13119026004","name":"小茂根四丁目"},"geometry":{"type":"Polygon","coordinates":[[[139.67813,35.74989],[139.67856,35.74875],[139.67893,35.74838],[139.67486,35.74545],[139.67477,35.7455],[139.6737,35.74475],[139.67357,35.74505],[139.67304,35.74485],[139.67231,35.74451],[139.67223,35.74486],[139.67222,35.74517],[139.67233,35.74563],[139.67241,35.74581],[139.67296,35.74671],[139.67348,35.748],[139.67383,35.74855],[139.67403,35.74895],[139.6744,35.74986],[139.67639,35.74957],[139.67752,35.74971],[139.67813,35.74989]]]}},{"type":"Feature","properties":{"id":"area-13119026005","name":"小茂根五丁目"},"geometry":{"type":"Polygon","coordinates":[[[139.67796,35.75307],[139.6779,35.75079],[139.67812,35.74989],[139.67752,35.74971],[139.67639,35.74957],[139.6744,35.74986],[139.67443,35.75004],[139.6746,35.75048],[139.67474,35.751],[139.67496,35.75152],[139.675,35.75181],[139.67492,35.75228],[139.67455,35.75267],[139.67444,35.75285],[139.67357,35.75329],[139.67357,35.75382],[139.67371,35.75418],[139.67332,35.75465],[139.67358,35.75494],[139.67378,35.75506],[139.674,35.75508],[139.67542,35.75478],[139.67577,35.75466],[139.67796,35.75307]]]}},{"type":"Feature","properties":{"id":"area-13119027001","name":"常盤台一丁目"},"geometry":{"type":"Polygon","coordinates":[[[139.69117,35.76331],[139.69162,35.76326],[139.69225,35.76314],[139.69307,35.76306],[139.69478,35.76301],[139.69523,35.76296],[139.69517,35.76232],[139.69486,35.76034],[139.69485,35.75965],[139.69492,35.75733],[139.69358,35.75754],[139.69321,35.75746],[139.69296,35.75732],[139.69279,35.75714],[139.6919,35.75761],[139.69057,35.75826],[139.6904,35.75821],[139.68975,35.75849],[139.6892,35.75865],[139.68938,35.759],[139.68934,35.75914],[139.68982,35.75926],[139.69033,35.76332],[139.69117,35.76331]]]}},{"type":"Feature","properties":{"id":"area-13119027002","name":"常盤台二丁目"},"geometry":{"type":"Polygon","coordinates":[[[139.68646,35.76358],[139.6884,35.76353],[139.69033,35.7633],[139.68982,35.75926],[139.68934,35.75914],[139.68938,35.759],[139.6892,35.75865],[139.68906,35.75869],[139.68907,35.75883],[139.68666,35.75954],[139.68681,35.75983],[139.68626,35.76005],[139.68632,35.76022],[139.6863,35.76066],[139.6864,35.76139],[139.68646,35.76229],[139.68647,35.76276],[139.68644,35.7632],[139.68646,35.76358]]]}},{"type":"Feature","properties":{"id":"area-13119027003","name":"常盤台三丁目"},"geometry":{"type":"Polygon","coordinates":[[[139.68425,35.76364],[139.68522,35.76364],[139.68646,35.76358],[139.68644,35.7632],[139.68647,35.76276],[139.68646,35.76229],[139.6864,35.76139],[139.6863,35.76066],[139.68632,35.76022],[139.68626,35.76005],[139.68681,35.75983],[139.68666,35.75954],[139.6846,35.76019],[139.68454,35.7601],[139.68418,35.76019],[139.68256,35.76084],[139.68264,35.76097],[139.68153,35.76141],[139.68182,35.76226],[139.682,35.76301],[139.68218,35.76399],[139.68228,35.76433],[139.68319,35.76406],[139.68405,35.76369],[139.68425,35.76364]]]}},{"type":"Feature","properties":{"id":"area-13119027004","name":"常盤台四丁目"},"geometry":{"type":"Polygon","coordinates":[[[139.68218,35.76399],[139.682,35.76301],[139.68182,35.76226],[139.68153,35.76141],[139.67886,35.76257],[139.67713,35.76346],[139.67714,35.76349],[139.67707,35.76354],[139.67666,35.76372],[139.67653,35.76368],[139.67616,35.76383],[139.67618,35.76496],[139.67606,35.76528],[139.67613,35.76587],[139.6768,35.76578],[139.67809,35.76549],[139.68116,35.76463],[139.68192,35.76445],[139.68228,35.76433],[139.68218,35.76399]]]}},{"type":"Feature","properties":{"id":"area-13119028001","name":"南常盤台一丁目"},"geometry":{"type":"Polygon","coordinates":[[[139.68975,35.75849],[139.6904,35.75821],[139.69057,35.75826],[139.6919,35.75761],[139.69279,35.75714],[139.69125,35.75546],[139.69105,35.75516],[139.68984,35.7538],[139.68743,35.75545],[139.68631,35.75609],[139.68703,35.75736],[139.68745,35.7579],[139.68764,35.75807],[139.68881,35.75889],[139.68907,35.75883],[139.68906,35.75869],[139.68975,35.75849]]]}},{"type":"Feature","properties":{"id":"area-13119028002","name":"南常盤台二丁目"},"geometry":{"type":"Polygon","coordinates":[[[139.68418,35.76019],[139.68454,35.7601],[139.6846,35.76019],[139.68881,35.75889],[139.68764,35.75807],[139.68745,35.7579],[139.68703,35.75736],[139.68631,35.75609],[139.68272,35.75815],[139.683,35.75856],[139.68314,35.75941],[139.68336,35.7605],[139.68418,35.76019]]]}},{"type":"Feature","properties":{"id":"area-13119029001","name":"東新町一丁目"},"geometry":{"type":"Polygon","coordinates":[[[139.68496,35.75643],[139.68505,35.75554],[139.68487,35.75553],[139.68458,35.75556],[139.68435,35.75568],[139.68371,35.75588],[139.68199,35.75622],[139.68198,35.75626],[139.68004,35.75666],[139.67971,35.7572],[139.67978,35.75789],[139.67977,35.75827],[139.67967,35.7586],[139.6796,35.75965],[139.67966,35.76041],[139.67976,35.76091],[139.67971,35.76131],[139.67953,35.76193],[139.67945,35.76231],[139.68015,35.76199],[139.68264,35.76097],[139.68256,35.76084],[139.68336,35.7605],[139.68314,35.75941],[139.683,35.75856],[139.68272,35.75815],[139.68501,35.75683],[139.68496,35.75643]]]}},{"type":"Feature","properties":{"id":"area-13119029002","name":"東新町二丁目"},"geometry":{"type":"Polygon","coordinates":[[[139.68289,35.75603],[139.68371,35.75588],[139.68435,35.75568],[139.68458,35.75556],[139.68487,35.75553],[139.68505,35.75554],[139.68491,35.75481],[139.68483,35.75466],[139.68478,35.75432],[139.68489,35.75385],[139.68426,35.75372],[139.68352,35.75378],[139.68351,35.75296],[139.68345,35.75194],[139.67937,35.75224],[139.67898,35.75236],[139.67796,35.75307],[139.67808,35.75705],[139.67819,35.75753],[139.6792,35.75739],[139.67956,35.75729],[139.67976,35.75713],[139.68004,35.75666],[139.68198,35.75626],[139.68199,35.75622],[139.68291,35.75605],[139.68289,35.75603]]]}},{"type":"Feature","properties":{"id":"area-13119030001","name":"上板橋一丁目"},"geometry":{"type":"Polygon","coordinates":[[[139.67725,35.76304],[139.67785,35.76285],[139.67798,35.763],[139.67886,35.76257],[139.67945,35.76231],[139.67953,35.76193],[139.67971,35.76131],[139.67976,35.76091],[139.67966,35.76041],[139.6796,35.75965],[139.67482,35.76096],[139.67521,35.76204],[139.67528,35.76274],[139.67601,35.76337],[139.67621,35.7633],[139.67646,35.76316],[139.67664,35.7631],[139.67725,35.76304]]]}},{"type":"Feature","properties":{"id":"area-13119030002","name":"上板橋二丁目"},"geometry":{"type":"Polygon","coordinates":[[[139.67269,35.76523],[139.67653,35.76368],[139.67666,35.76372],[139.67707,35.76354],[139.67714,35.76349],[139.67713,35.76346],[139.67799,35.76302],[139.67785,35.76285],[139.67725,35.76304],[139.67664,35.7631],[139.67646,35.76316],[139.67621,35.7633],[139.67601,35.76337],[139.67528,35.76274],[139.67521,35.76204],[139.67482,35.76096],[139.67084,35.76207],[139.67068,35.76225],[139.67019,35.76397],[139.6701,35.76444],[139.66986,35.76505],[139.66947,35.76571],[139.66938,35.7658],[139.66917,35.76672],[139.67269,35.76523]]]}},{"type":"Feature","properties":{"id":"area-13119030003","name":"上板橋三丁目"},"geometry":{"type":"Polygon","coordinates":[[[139.67142,35.76649],[139.67167,35.76645],[139.67237,35.76644],[139.67299,35.76629],[139.67408,35.7661],[139.67486,35.76614],[139.67573,35.76593],[139.67613,35.76587],[139.67606,35.76528],[139.67618,35.76496],[139.67616,35.76383],[139.67269,35.76523],[139.66917,35.76672],[139.66897,35.76717],[139.67061,35.76691],[139.67104,35.76676],[139.67142,35.76649]]]}},{"type":"Feature","properties":{"id":"area-131190310","name":"清水町"},"geometry":{"type":"Polygon","coordinates":[[[139.70783,35.76607],[139.70814,35.76536],[139.70917,35.76563],[139.7094,35.76503],[139.70958,35.76508],[139.7103,35.76341],[139.71135,35.7637],[139.71176,35.76351],[139.71254,35.76345],[139.71266,35.76322],[139.70982,35.76235],[139.70973,35.76287],[139.70941,35.76277],[139.70792,35.76257],[139.70761,35.76246],[139.70756,35.76238],[139.70756,35.7622],[139.7066,35.76205],[139.70567,35.76203],[139.70522,35.76216],[139.70346,35.76678],[139.70455,35.76727],[139.70615,35.7678],[139.70646,35.76787],[139.70658,35.76704],[139.7072,35.76649],[139.70783,35.76607]]]}},{"type":"Feature","properties":{"id":"area-131190320","name":"蓮沼町"},"geometry":{"type":"Polygon","coordinates":[[[139.70458,35.77454],[139.70457,35.77428],[139.7047,35.77429],[139.70471,35.77417],[139.70454,35.77408],[139.70437,35.77381],[139.70464,35.77376],[139.70482,35.77377],[139.70496,35.77335],[139.70545,35.77232],[139.70561,35.77183],[139.70571,35.7712],[139.70602,35.77],[139.7063,35.76907],[139.70646,35.76787],[139.70615,35.7678],[139.70455,35.76727],[139.70346,35.76678],[139.70314,35.76748],[139.703,35.76771],[139.70163,35.76962],[139.69993,35.77155],[139.70038,35.77181],[139.70054,35.77199],[139.7014,35.77275],[139.7022,35.77339],[139.70281,35.77383],[139.70422,35.77446],[139.70458,35.77454]]]}},{"type":"Feature","properties":{"id":"area-131190330","name":"大原町"},"geometry":{"type":"Polygon","coordinates":[[[139.70138,35.76873],[139.69967,35.76872],[139.69927,35.76868],[139.69928,35.76839],[139.69918,35.76809],[139.69909,35.7681],[139.69893,35.76775],[139.69872,35.7678],[139.6982,35.76709],[139.69768,35.76631],[139.69755,35.7664],[139.69616,35.76692],[139.69505,35.76759],[139.69484,35.76766],[139.6946,35.76769],[139.69529,35.76933],[139.6955,35.76969],[139.69603,35.77008],[139.6973,35.77039],[139.69794,35.77051],[139.69837,35.77089],[139.69982,35.77145],[139.69993,35.77155],[139.70163,35.76962],[139.70208,35.76898],[139.70138,35.76873]]]}},{"type":"Feature","properties":{"id":"area-131190340","name":"泉町"},"geometry":{"type":"Polygon","coordinates":[[[139.70208,35.76898],[139.70314,35.76748],[139.70347,35.76676],[139.70374,35.76606],[139.70166,35.76559],[139.70017,35.7651],[139.7,35.76514],[139.69979,35.76513],[139.69937,35.76501],[139.69893,35.76479],[139.69859,35.76498],[139.69841,35.76513],[139.69813,35.76547],[139.69812,35.76563],[139.69803,35.76588],[139.69768,35.76631],[139.6982,35.76709],[139.69872,35.7678],[139.69893,35.76775],[139.69909,35.7681],[139.69918,35.76809],[139.69928,35.76839],[139.69927,35.76868],[139.69967,35.76872],[139.70138,35.76873],[139.70208,35.76898]]]}},{"type":"Feature","properties":{"id":"area-131190350","name":"宮本町"},"geometry":{"type":"Polygon","coordinates":[[[139.70374,35.76606],[139.70522,35.76216],[139.7045,35.76232],[139.70246,35.7621],[139.70184,35.76227],[139.70151,35.76244],[139.70083,35.76245],[139.70057,35.7625],[139.70048,35.76206],[139.69992,35.76209],[139.69954,35.76218],[139.69866,35.7625],[139.69782,35.76266],[139.69755,35.76265],[139.69741,35.76317],[139.69751,35.76324],[139.69704,35.7638],[139.69638,35.76438],[139.69721,35.76469],[139.69743,35.76484],[139.69796,35.76495],[139.69841,35.76512],[139.69859,35.76498],[139.69893,35.76479],[139.69937,35.76501],[139.69979,35.76513],[139.7,35.76514],[139.70017,35.7651],[139.70166,35.76559],[139.70374,35.76606]]]}},{"type":"Feature","properties":{"id":"area-13119036001","name":"志村一丁目"},"geometry":{"type":"Polygon","coordinates":[[[139.69488,35.77629],[139.69598,35.77526],[139.69714,35.77431],[139.69791,35.7736],[139.69993,35.77155],[139.69982,35.77145],[139.69837,35.77089],[139.69794,35.77051],[139.6973,35.77039],[139.69413,35.77371],[139.69393,35.77396],[139.69378,35.77389],[139.69357,35.77372],[139.69306,35.7732],[139.69286,35.77312],[139.69154,35.7733],[139.69018,35.77395],[139.68903,35.7742],[139.68791,35.77405],[139.68783,35.77442],[139.6884,35.7746],[139.6898,35.77589],[139.69003,35.77604],[139.69029,35.77614],[139.69059,35.7762],[139.69098,35.77622],[139.69413,35.77624],[139.69468,35.77625],[139.69488,35.77629]]]}},{"type":"Feature","properties":{"id":"area-13119036002","name":"志村二丁目"},"geometry":{"type":"Polygon","coordinates":[[[139.69451,35.77668],[139.69488,35.77629],[139.69468,35.77625],[139.69413,35.77624],[139.69098,35.77622],[139.69059,35.7762],[139.69029,35.77614],[139.69003,35.77604],[139.6898,35.77589],[139.6884,35.7746],[139.68791,35.77443],[139.68694,35.7743],[139.6866,35.7743],[139.68624,35.77435],[139.68516,35.77462],[139.68538,35.77494],[139.68523,35.77549],[139.68521,35.77602],[139.68531,35.77621],[139.68548,35.77634],[139.68612,35.7766],[139.68751,35.77702],[139.68963,35.77791],[139.69066,35.77827],[139.69086,35.77838],[139.69119,35.77874],[139.69155,35.77896],[139.69157,35.77913],[139.69154,35.77931],[139.69161,35.77939],[139.69275,35.77836],[139.69451,35.77668]]]}},{"type":"Feature","properties":{"id":"area-13119036003","name":"志村三丁目"},"geometry":{"type":"Polygon","coordinates":[[[139.68635,35.77667],[139.68561,35.7764],[139.6853,35.77619],[139.68521,35.77602],[139.68521,35.77569],[139.68523,35.77549],[139.68538,35.77494],[139.68516,35.77462],[139.68509,35.77463],[139.68385,35.77495],[139.68361,35.77517],[139.68183,35.77775],[139.69079,35.78009],[139.69154,35.77931],[139.69157,35.77913],[139.69155,35.77896],[139.69119,35.77874],[139.69086,35.77838],[139.69066,35.77827],[139.68963,35.77791],[139.68751,35.77702],[139.68635,35.77667]]]}},{"type":"Feature","properties":{"id":"area-13119037001","name":"坂下一丁目"},"geometry":{"type":"Polygon","coordinates":[[[139.69079,35.78009],[139.68183,35.77775],[139.67988,35.78056],[139.68833,35.78268],[139.69079,35.78009]]]}},{"type":"Feature","properties":{"id":"area-13119037002","name":"坂下二丁目"},"geometry":{"type":"Polygon","coordinates":[[[139.68651,35.78458],[139.68833,35.78268],[139.67988,35.78056],[139.67903,35.78181],[139.67893,35.7821],[139.67938,35.7852],[139.68478,35.7847],[139.68651,35.78458]]]}},{"type":"Feature","properties":{"id":"area-13119037003","name":"坂下三丁目"},"geometry":{"type":"Polygon","coordinates":[[[139.68622,35.78493],[139.68651,35.78458],[139.68478,35.7847],[139.67938,35.7852],[139.67956,35.78656],[139.67953,35.7866],[139.67969,35.78772],[139.67979,35.78821],[139.68012,35.79077],[139.68005,35.79187],[139.68082,35.79197],[139.68193,35.79205],[139.68308,35.79199],[139.684,35.79177],[139.68466,35.79152],[139.68524,35.79124],[139.68477,35.78841],[139.6852,35.78709],[139.68622,35.78493]]]}},{"type":"Feature","properties":{"id":"area-13119038001","name":"東坂下一丁目"},"geometry":{"type":"Polygon","coordinates":[[[139.69644,35.78096],[139.69079,35.78009],[139.68887,35.78214],[139.68954,35.78262],[139.69184,35.78381],[139.69221,35.78398],[139.69302,35.78347],[139.69399,35.783],[139.69557,35.78251],[139.6966,35.78227],[139.69641,35.78137],[139.69644,35.78096]]]}},{"type":"Feature","properties":{"id":"area-13119038002","name":"東坂下二丁目"},"geometry":{"type":"Polygon","coordinates":[[[139.68945,35.78257],[139.68887,35.78214],[139.68651,35.78458],[139.68622,35.78493],[139.6852,35.78709],[139.68477,35.78841],[139.68524,35.79124],[139.68584,35.79089],[139.68624,35.79061],[139.68683,35.79009],[139.68711,35.78981],[139.68778,35.78906],[139.68897,35.78747],[139.68908,35.78726],[139.69059,35.78526],[139.69093,35.7849],[139.69221,35.78398],[139.69184,35.78381],[139.68945,35.78257]]]}},{"type":"Feature","properties":{"id":"area-13119039001","name":"小豆沢一丁目"},"geometry":{"type":"Polygon","coordinates":[[[139.70465,35.77456],[139.70422,35.77446],[139.70281,35.77383],[139.7022,35.77339],[139.7014,35.77275],[139.70054,35.77199],[139.70038,35.77181],[139.69993,35.77155],[139.69791,35.7736],[139.69731,35.77415],[139.69797,35.77448],[139.70071,35.77569],[139.70427,35.7763],[139.70449,35.77561],[139.70461,35.77516],[139.70432,35.77511],[139.70434,35.77489],[139.70463,35.77485],[139.70465,35.77456]]]}},{"type":"Feature","properties":{"id":"area-13119039002","name":"小豆沢二丁目"},"geometry":{"type":"Polygon","coordinates":[[[139.69797,35.77448],[139.69731,35.77415],[139.69598,35.77526],[139.69488,35.77629],[139.69845,35.778],[139.70314,35.77957],[139.70355,35.77809],[139.70408,35.77688],[139.70427,35.7763],[139.70071,35.77569],[139.69797,35.77448]]]}},{"type":"Feature","properties":{"id":"area-13119039003","name":"小豆沢三丁目"},"geometry":{"type":"Polygon","coordinates":[[[139.69768,35.7794],[139.69821,35.77913],[139.69851,35.7789],[139.69867,35.77873],[139.699,35.77818],[139.69821,35.77788],[139.69488,35.77629],[139.69451,35.77668],[139.69275,35.77836],[139.69161,35.77939],[139.69154,35.77931],[139.69079,35.78009],[139.69647,35.78096],[139.69662,35.7805],[139.69691,35.78],[139.69713,35.77978],[139.69768,35.7794]]]}},{"type":"Feature","properties":{"id":"area-13119039004","name":"小豆沢四丁目"},"geometry":{"type":"Polygon","coordinates":[[[139.70305,35.78212],[139.7028,35.78196],[139.70267,35.78181],[139.70254,35.78152],[139.70256,35.78137],[139.70295,35.77999],[139.70314,35.77957],[139.699,35.77818],[139.69867,35.77873],[139.69851,35.7789],[139.69821,35.77913],[139.69768,35.7794],[139.69713,35.77978],[139.69691,35.78],[139.69671,35.78031],[139.69647,35.78096],[139.69644,35.78096],[139.69641,35.78137],[139.6966,35.78227],[139.69784,35.7821],[139.69821,35.78208],[139.69883,35.78222],[139.69913,35.78235],[139.70009,35.78283],[139.7024,35.78432],[139.70267,35.78404],[139.70284,35.78381],[139.70295,35.78354],[139.7031,35.78268],[139.70322,35.78217],[139.70305,35.78212]]]}},{"type":"Feature","properties":{"id":"area-13119040001","name":"西台一丁目"},"geometry":{"type":"Polygon","coordinates":[[[139.67345,35.77923],[139.67356,35.77894],[139.67374,35.77862],[139.67403,35.7783],[139.67441,35.77804],[139.67596,35.77717],[139.67593,35.77696],[139.67608,35.77676],[139.67591,35.7763],[139.67588,35.77615],[139.6754,35.77559],[139.6749,35.77534],[139.67449,35.77495],[139.67407,35.77477],[139.67393,35.77455],[139.67379,35.77441],[139.67371,35.77426],[139.6737,35.77384],[139.67364,35.77363],[139.67322,35.77281],[139.67321,35.77263],[139.67312,35.77252],[139.673,35.77244],[139.67284,35.77246],[139.67208,35.77218],[139.67207,35.77208],[139.67196,35.77195],[139.6722,35.77182],[139.67195,35.77144],[139.67146,35.77109],[139.6714,35.77099],[139.67122,35.77104],[139.67108,35.77103],[139.67102,35.77118],[139.67114,35.7715],[139.67088,35.77153],[139.67034,35.77176],[139.6705,35.77208],[139.67055,35.77241],[139.67058,35.77335],[139.67053,35.77399],[139.67045,35.7742],[139.67045,35.77433],[139.67047,35.77448],[139.67069,35.77515],[139.6707,35.77532],[139.67059,35.77558],[139.67049,35.77605],[139.67055,35.7761],[139.67066,35.7766],[139.67079,35.77691],[139.67089,35.77709],[139.67112,35.77739],[139.67167,35.77788],[139.67314,35.77905],[139.67335,35.77902],[139.67345,35.77923]]]}},{"type":"Feature","properties":{"id":"area-13119040002","name":"西台二丁目"},"geometry":{"type":"Polygon","coordinates":[[[139.67037,35.78112],[139.67086,35.78113],[139.67229,35.78103],[139.67365,35.78046],[139.67359,35.77968],[139.67351,35.77936],[139.67335,35.77902],[139.67314,35.77905],[139.67167,35.77788],[139.67112,35.77739],[139.67089,35.77709],[139.67079,35.77691],[139.67066,35.7766],[139.67055,35.7761],[139.67051,35.77605],[139.67023,35.77632],[139.66981,35.77657],[139.66925,35.77685],[139.66918,35.77695],[139.66914,35.77709],[139.66916,35.77737],[139.66863,35.77748],[139.66843,35.77748],[139.66808,35.77743],[139.668,35.77738],[139.66791,35.77728],[139.66787,35.7773],[139.66752,35.7776],[139.66742,35.77775],[139.66732,35.77799],[139.66702,35.77802],[139.66696,35.77806],[139.66726,35.77862],[139.66693,35.77896],[139.66507,35.77923],[139.66549,35.78154],[139.66637,35.78144],[139.67037,35.78112]]]}},{"type":"Feature","properties":{"id":"area-13119040003","name":"西台三丁目"},"geometry":{"type":"Polygon","coordinates":[[[139.66787,35.7773],[139.66791,35.77728],[139.668,35.77738],[139.66808,35.77743],[139.66843,35.77748],[139.66863,35.77748],[139.66916,35.77737],[139.66914,35.77709],[139.66918,35.77695],[139.66925,35.77685],[139.66981,35.77657],[139.67023,35.77632],[139.67049,35.77605],[139.67059,35.77558],[139.6707,35.77532],[139.67069,35.77515],[139.67047,35.77448],[139.67045,35.77433],[139.67045,35.7742],[139.67051,35.77408],[139.67054,35.77386],[139.67058,35.77335],[139.67056,35.77279],[139.67055,35.77241],[139.6705,35.77208],[139.67039,35.77185],[139.66989,35.77202],[139.66628,35.77404],[139.66601,35.77429],[139.6659,35.77447],[139.66556,35.77529],[139.66528,35.77565],[139.66517,35.77573],[139.66492,35.77585],[139.66494,35.77587],[139.66448,35.77597],[139.66467,35.7769],[139.66507,35.77923],[139.66693,35.77896],[139.66726,35.77862],[139.66696,35.77806],[139.66702,35.77802],[139.66732,35.77799],[139.66742,35.77775],[139.66752,35.7776],[139.66787,35.7773]]]}},{"type":"Feature","properties":{"id":"area-13119040004","name":"西台四丁目"},"geometry":{"type":"Polygon","coordinates":[[[139.66875,35.76852],[139.66889,35.76734],[139.66799,35.76737],[139.66733,35.7676],[139.66736,35.76825],[139.66727,35.77036],[139.66728,35.77051],[139.66736,35.7708],[139.66752,35.77109],[139.66767,35.77127],[139.66902,35.77251],[139.66989,35.77202],[139.67039,35.77185],[139.67034,35.77176],[139.66991,35.7716],[139.66914,35.77085],[139.66878,35.7704],[139.66864,35.77017],[139.66849,35.7698],[139.66849,35.76956],[139.6687,35.76883],[139.66875,35.76852]]]}},{"type":"Feature","properties":{"id":"area-13119041001","name":"中台一丁目"},"geometry":{"type":"Polygon","coordinates":[[[139.68139,35.76885],[139.68152,35.76878],[139.68164,35.76875],[139.68186,35.76877],[139.68208,35.76869],[139.68221,35.7686],[139.68233,35.76835],[139.68242,35.76799],[139.6824,35.76785],[139.68234,35.76775],[139.68233,35.76754],[139.68226,35.76731],[139.68226,35.76711],[139.68221,35.76664],[139.68249,35.76624],[139.68274,35.76608],[139.68277,35.76602],[139.68277,35.76591],[139.68268,35.76507],[139.68226,35.76434],[139.67809,35.76549],[139.6768,35.76578],[139.6757,35.76594],[139.67567,35.76624],[139.6757,35.76658],[139.67606,35.76772],[139.67637,35.76777],[139.67639,35.7678],[139.67631,35.7683],[139.67635,35.76879],[139.67682,35.7689],[139.67729,35.76894],[139.67822,35.76879],[139.67928,35.76881],[139.67949,35.76887],[139.68054,35.76971],[139.68101,35.7692],[139.68139,35.76885]]]}},{"type":"Feature","properties":{"id":"area-13119041002","name":"中台二丁目"},"geometry":{"type":"Polygon","coordinates":[[[139.68415,35.77254],[139.68299,35.76966],[139.68292,35.76953],[139.68237,35.76907],[139.68208,35.76869],[139.68186,35.76877],[139.68152,35.76878],[139.68139,35.76885],[139.68101,35.7692],[139.68054,35.76971],[139.68003,35.76933],[139.67959,35.76895],[139.67944,35.76951],[139.67938,35.77008],[139.67937,35.77049],[139.67951,35.77094],[139.67987,35.77167],[139.67983,35.7717],[139.68,35.77184],[139.68044,35.77203],[139.68076,35.77213],[139.68085,35.77206],[139.68097,35.77212],[139.68116,35.77227],[139.6815,35.77281],[139.68175,35.77328],[139.68185,35.77359],[139.68188,35.77386],[139.68187,35.77418],[139.68181,35.77448],[139.68182,35.77468],[139.68206,35.7754],[139.68385,35.77495],[139.68385,35.7746],[139.68389,35.77444],[139.68399,35.77429],[139.68407,35.77424],[139.68403,35.77404],[139.68414,35.77373],[139.68413,35.7736],[139.68407,35.77326],[139.68368,35.77266],[139.68415,35.77254]]]}},{"type":"Feature","properties":{"id":"area-13119041003","name":"中台三丁目"},"geometry":{"type":"Polygon","coordinates":[[[139.68116,35.77227],[139.68085,35.77206],[139.68076,35.77213],[139.68044,35.77203],[139.68,35.77184],[139.67983,35.7717],[139.67987,35.77167],[139.67951,35.77094],[139.67937,35.77049],[139.67939,35.76986],[139.67949,35.76927],[139.67959,35.76895],[139.67949,35.76887],[139.67928,35.76881],[139.67822,35.76879],[139.67729,35.76894],[139.67714,35.76894],[139.67682,35.7689],[139.67635,35.76879],[139.67636,35.76896],[139.67625,35.76971],[139.67601,35.77026],[139.67597,35.77056],[139.67596,35.77084],[139.67607,35.77126],[139.6764,35.7721],[139.67682,35.77273],[139.67727,35.77322],[139.6776,35.77385],[139.67775,35.7745],[139.67774,35.77469],[139.67744,35.77517],[139.67694,35.77574],[139.67694,35.77579],[139.67756,35.77618],[139.6782,35.77635],[139.68206,35.7754],[139.68182,35.77468],[139.68181,35.77448],[139.68187,35.77418],[139.68188,35.77386],[139.68185,35.77359],[139.68166,35.77309],[139.68116,35.77227]]]}},{"type":"Feature","properties":{"id":"area-13119042001","name":"若木一丁目"},"geometry":{"type":"Polygon","coordinates":[[[139.67625,35.76971],[139.67636,35.76896],[139.67631,35.7683],[139.67639,35.7678],[139.67637,35.76777],[139.67606,35.76772],[139.6757,35.76658],[139.67567,35.76624],[139.6757,35.76594],[139.67486,35.76614],[139.67408,35.7661],[139.67299,35.76629],[139.67237,35.76644],[139.67167,35.76645],[139.67142,35.76649],[139.67104,35.76676],[139.67089,35.76682],[139.67061,35.76691],[139.66897,35.76717],[139.66889,35.76734],[139.66875,35.76852],[139.6687,35.76883],[139.66854,35.76937],[139.66934,35.76913],[139.66991,35.76886],[139.67039,35.76882],[139.67093,35.76893],[139.67223,35.76896],[139.67299,35.76906],[139.6731,35.76909],[139.67362,35.76945],[139.67376,35.76948],[139.6744,35.76944],[139.67467,35.76948],[139.67506,35.76949],[139.67539,35.76959],[139.67574,35.76976],[139.6759,35.76989],[139.67618,35.76988],[139.67625,35.76971]]]}},{"type":"Feature","properties":{"id":"area-13119042002","name":"若木二丁目"},"geometry":{"type":"Polygon","coordinates":[[[139.67635,35.77202],[139.67607,35.77126],[139.67596,35.77084],[139.67601,35.77026],[139.67618,35.76988],[139.6759,35.76989],[139.67574,35.76976],[139.67539,35.76959],[139.67506,35.76949],[139.67467,35.76948],[139.6744,35.76944],[139.67376,35.76948],[139.67362,35.76945],[139.6731,35.76909],[139.67281,35.76904],[139.67223,35.76896],[139.67093,35.76893],[139.67039,35.76882],[139.66991,35.76886],[139.66934,35.76913],[139.66854,35.76937],[139.66849,35.76956],[139.66849,35.7698],[139.66864,35.77017],[139.66895,35.77063],[139.66991,35.7716],[139.67034,35.77176],[139.67088,35.77153],[139.67114,35.7715],[139.67102,35.77118],[139.67108,35.77103],[139.67122,35.77104],[139.6714,35.77099],[139.67146,35.77109],[139.67195,35.77144],[139.6722,35.77182],[139.67196,35.77195],[139.67207,35.77208],[139.67208,35.77218],[139.67284,35.77246],[139.673,35.77244],[139.67324,35.77235],[139.67326,35.77214],[139.67322,35.77203],[139.67349,35.77157],[139.67357,35.77154],[139.67395,35.77159],[139.67441,35.77173],[139.67477,35.77177],[139.67511,35.77195],[139.67524,35.77206],[139.67527,35.77214],[139.67531,35.77232],[139.67527,35.7724],[139.67529,35.7725],[139.67544,35.77258],[139.67558,35.77259],[139.67651,35.77228],[139.67635,35.77202]]]}},{"type":"Feature","properties":{"id":"area-13119042003","name":"若木三丁目"},"geometry":{"type":"Polygon","coordinates":[[[139.67682,35.77273],[139.67651,35.77228],[139.67558,35.77259],[139.67544,35.77258],[139.67529,35.7725],[139.67527,35.7724],[139.67531,35.77232],[139.67527,35.77214],[139.67524,35.77206],[139.67511,35.77195],[139.67477,35.77177],[139.67441,35.77173],[139.67395,35.77159],[139.67357,35.77154],[139.67349,35.77157],[139.67322,35.77203],[139.67326,35.77214],[139.67324,35.77235],[139.673,35.77244],[139.67321,35.77263],[139.67322,35.77281],[139.67364,35.77363],[139.6737,35.77384],[139.67371,35.77426],[139.67379,35.77441],[139.67393,35.77455],[139.67407,35.77477],[139.67449,35.77495],[139.6749,35.77534],[139.6754,35.77559],[139.67588,35.77615],[139.67591,35.7763],[139.67608,35.77676],[139.67627,35.77656],[139.67645,35.77651],[139.6782,35.77635],[139.67756,35.77618],[139.67694,35.77579],[139.67694,35.77574],[139.67744,35.77517],[139.67774,35.77469],[139.67776,35.77458],[139.6776,35.77385],[139.67727,35.77322],[139.67682,35.77273]]]}},{"type":"Feature","properties":{"id":"area-13119043001","name":"蓮根一丁目"},"geometry":{"type":"Polygon","coordinates":[[[139.67988,35.78056],[139.68074,35.7793],[139.67845,35.77867],[139.6772,35.77858],[139.67744,35.77793],[139.6767,35.77783],[139.67606,35.77781],[139.67596,35.77717],[139.67441,35.77804],[139.67403,35.7783],[139.67374,35.77862],[139.67356,35.77894],[139.67345,35.77923],[139.67359,35.77968],[139.67365,35.78046],[139.67719,35.78025],[139.67988,35.78056]]]}},{"type":"Feature","properties":{"id":"area-13119043002","name":"蓮根二丁目"},"geometry":{"type":"Polygon","coordinates":[[[139.67936,35.78522],[139.67893,35.7821],[139.67903,35.78181],[139.67988,35.78056],[139.67719,35.78025],[139.67369,35.78045],[139.67379,35.78147],[139.67373,35.78177],[139.67379,35.78177],[139.67387,35.78291],[139.67424,35.78575],[139.67936,35.78522]]]}},{"type":"Feature","properties":{"id":"area-13119043003","name":"蓮根三丁目"},"geometry":{"type":"Polygon","coordinates":[[[139.68005,35.79187],[139.68012,35.79077],[139.67936,35.78522],[139.67424,35.78575],[139.67464,35.78861],[139.67292,35.7914],[139.67415,35.79123],[139.67582,35.79121],[139.677,35.79132],[139.68005,35.79187]]]}},{"type":"Feature","properties":{"id":"area-131190440","name":"相生町"},"geometry":{"type":"Polygon","coordinates":[[[139.68361,35.77517],[139.68382,35.77497],[139.67841,35.7763],[139.6782,35.77635],[139.67645,35.77651],[139.67629,35.77655],[139.67593,35.77696],[139.67604,35.77777],[139.67606,35.77781],[139.6767,35.77783],[139.67744,35.77793],[139.6772,35.77858],[139.67845,35.77867],[139.68074,35.7793],[139.68361,35.77517]]]}},{"type":"Feature","properties":{"id":"area-13119045001","name":"前野町一丁目"},"geometry":{"type":"Polygon","coordinates":[[[139.69741,35.76317],[139.69755,35.76265],[139.69725,35.7626],[139.69686,35.76259],[139.69569,35.76288],[139.69498,35.763],[139.69307,35.76306],[139.69225,35.76314],[139.69161,35.76326],[139.69228,35.76463],[139.69349,35.76598],[139.69373,35.76631],[139.69443,35.76726],[139.6946,35.76769],[139.69484,35.76766],[139.69505,35.76759],[139.69616,35.76692],[139.69755,35.7664],[139.69782,35.76617],[139.69803,35.76588],[139.69812,35.76563],[139.69813,35.76547],[139.69841,35.76512],[139.69796,35.76495],[139.69743,35.76484],[139.69721,35.76469],[139.69638,35.76438],[139.69714,35.7637],[139.69751,35.76324],[139.69741,35.76317]]]}},{"type":"Feature","properties":{"id":"area-13119045002","name":"前野町二丁目"},"geometry":{"type":"Polygon","coordinates":[[[139.69228,35.76463],[139.69161,35.76326],[139.69097,35.76333],[139.69009,35.76331],[139.6884,35.76353],[139.68681,35.76357],[139.68661,35.76472],[139.68663,35.76492],[139.68675,35.76567],[139.68696,35.76642],[139.68707,35.76668],[139.6871,35.76686],[139.68741,35.76745],[139.68844,35.76796],[139.68934,35.76865],[139.69048,35.76787],[139.69085,35.76754],[139.69123,35.76741],[139.69119,35.76711],[139.69162,35.76668],[139.69191,35.76653],[139.69171,35.76636],[139.6931,35.76556],[139.69228,35.76463]]]}},{"type":"Feature","properties":{"id":"area-13119045003","name":"前野町三丁目"},"geometry":{"type":"Polygon","coordinates":[[[139.69532,35.77192],[139.69561,35.7719],[139.69583,35.77194],[139.6973,35.77039],[139.69603,35.77008],[139.6955,35.76969],[139.69529,35.76933],[139.69472,35.76802],[139.69443,35.76726],[139.69349,35.76598],[139.6931,35.76556],[139.69171,35.76636],[139.69191,35.76653],[139.69162,35.76668],[139.69119,35.76711],[139.69123,35.76741],[139.69085,35.76754],[139.69049,35.76786],[139.6898,35.76835],[139.68931,35.76864],[139.69368,35.77209],[139.69399,35.77223],[139.69426,35.7723],[139.69437,35.77229],[139.69478,35.77215],[139.69532,35.77192]]]}},{"type":"Feature","properties":{"id":"area-13119045004","name":"前野町四丁目"},"geometry":{"type":"Polygon","coordinates":[[[139.68784,35.77441],[139.68791,35.77405],[139.68903,35.7742],[139.69018,35.77395],[139.69154,35.7733],[139.69286,35.77312],[139.69306,35.7732],[139.69357,35.77372],[139.69378,35.77389],[139.69393,35.77396],[139.69413,35.77371],[139.69583,35.77194],[139.69561,35.7719],[139.6953,35.77192],[139.69478,35.77215],[139.69437,35.77229],[139.69418,35.77228],[139.69382,35.77216],[139.69358,35.77202],[139.68931,35.76864],[139.68898,35.76887],[139.68778,35.76922],[139.68783,35.76963],[139.68796,35.77026],[139.68788,35.77121],[139.68816,35.77155],[139.68846,35.77179],[139.68805,35.77213],[139.68623,35.7742],[139.68624,35.77435],[139.6866,35.7743],[139.68694,35.7743],[139.68784,35.77441]]]}},{"type":"Feature","properties":{"id":"area-13119045005","name":"前野町五丁目"},"geometry":{"type":"Polygon","coordinates":[[[139.68741,35.76851],[139.68694,35.76851],[139.68582,35.76867],[139.68505,35.76874],[139.68492,35.7688],[139.68398,35.76896],[139.68388,35.76904],[139.6836,35.76937],[139.68356,35.76946],[139.68359,35.76963],[139.68369,35.76984],[139.68368,35.76988],[139.68323,35.77024],[139.68415,35.77254],[139.68368,35.77266],[139.68407,35.77326],[139.68413,35.7736],[139.68414,35.77373],[139.68403,35.77404],[139.68407,35.77424],[139.68399,35.77429],[139.68389,35.77444],[139.68385,35.7746],[139.68385,35.77495],[139.68624,35.77436],[139.68623,35.7742],[139.68694,35.77338],[139.68805,35.77213],[139.68846,35.77179],[139.68816,35.77155],[139.68788,35.77121],[139.68796,35.77026],[139.68783,35.76963],[139.68778,35.76922],[139.68843,35.76904],[139.68828,35.76887],[139.68808,35.7687],[139.68779,35.76858],[139.68741,35.76851]]]}},{"type":"Feature","properties":{"id":"area-13119045006","name":"前野町六丁目"},"geometry":{"type":"Polygon","coordinates":[[[139.68694,35.76851],[139.68741,35.76851],[139.68779,35.76858],[139.68808,35.7687],[139.68828,35.76887],[139.68843,35.76904],[139.68898,35.76887],[139.68931,35.76864],[139.68844,35.76796],[139.68741,35.76745],[139.6871,35.76686],[139.68707,35.76668],[139.68696,35.76642],[139.68675,35.76567],[139.68663,35.76492],[139.68661,35.76472],[139.68681,35.76358],[139.68522,35.76364],[139.68425,35.76364],[139.68405,35.76369],[139.68319,35.76406],[139.68226,35.76434],[139.68268,35.76507],[139.68277,35.76602],[139.68274,35.76608],[139.68249,35.76624],[139.68221,35.76664],[139.68226,35.76711],[139.68226,35.76731],[139.68233,35.76754],[139.68234,35.76775],[139.6824,35.76785],[139.68242,35.76799],[139.68233,35.76835],[139.68221,35.7686],[139.68208,35.76869],[139.68237,35.76907],[139.68292,35.76953],[139.68299,35.76966],[139.68323,35.77024],[139.68368,35.76988],[139.68369,35.76984],[139.68359,35.76963],[139.68356,35.76946],[139.68367,35.76926],[139.68396,35.76897],[139.68492,35.7688],[139.68505,35.76874],[139.68582,35.76867],[139.68694,35.76851]]]}},{"type":"Feature","properties":{"id":"area-13119046001","name":"赤塚一丁目"},"geometry":{"type":"Polygon","coordinates":[[[139.64852,35.77349],[139.64911,35.77342],[139.64955,35.77345],[139.65009,35.77364],[139.65054,35.77376],[139.65069,35.77367],[139.65076,35.77322],[139.65092,35.77283],[139.65108,35.7726],[139.65132,35.77174],[139.65179,35.77038],[139.65197,35.76962],[139.65197,35.76942],[139.64979,35.76952],[139.64803,35.76969],[139.64708,35.76985],[139.64581,35.77016],[139.64548,35.77028],[139.64573,35.77136],[139.64618,35.7722],[139.64631,35.77251],[139.64646,35.77331],[139.64695,35.77346],[139.64728,35.77378],[139.64755,35.77371],[139.64794,35.77368],[139.64852,35.77349]]]}},{"type":"Feature","properties":{"id":"area-13119046002","name":"赤塚二丁目"},"geometry":{"type":"Polygon","coordinates":[[[139.64203,35.77458],[139.64271,35.7737],[139.64287,35.77369],[139.64304,35.77374],[139.64367,35.77405],[139.64381,35.77384],[139.64456,35.77354],[139.64523,35.77303],[139.64557,35.77312],[139.64574,35.77313],[139.64645,35.77329],[139.64631,35.77251],[139.64618,35.7722],[139.64573,35.77136],[139.64548,35.77028],[139.64457,35.7706],[139.64139,35.77208],[139.6404,35.77262],[139.63977,35.77302],[139.6371,35.77482],[139.63854,35.77585],[139.63896,35.7761],[139.64173,35.77754],[139.64182,35.77718],[139.64181,35.77695],[139.64158,35.77642],[139.64148,35.77599],[139.64136,35.77579],[139.64138,35.77566],[139.64164,35.77534],[139.64166,35.77521],[139.64203,35.77458]]]}},{"type":"Feature","properties":{"id":"area-13119046003","name":"赤塚三丁目"},"geometry":{"type":"Polygon","coordinates":[[[139.63854,35.77585],[139.6371,35.77482],[139.63494,35.77627],[139.63672,35.77865],[139.63542,35.78005],[139.63556,35.78014],[139.63569,35.78027],[139.63594,35.78082],[139.63637,35.7813],[139.6373,35.78204],[139.63804,35.78248],[139.63793,35.78168],[139.63872,35.78068],[139.63972,35.77963],[139.63938,35.77941],[139.63971,35.77928],[139.64044,35.77873],[139.64123,35.77824],[139.64173,35.77754],[139.63896,35.7761],[139.63854,35.77585]]]}},{"type":"Feature","properties":{"id":"area-13119046004","name":"赤塚四丁目"},"geometry":{"type":"Polygon","coordinates":[[[139.639,35.7809],[139.6387,35.78071],[139.63793,35.78168],[139.63814,35.78335],[139.63785,35.78437],[139.63788,35.78555],[139.63777,35.78769],[139.63779,35.78807],[139.63822,35.7882],[139.63873,35.78807],[139.64014,35.78735],[139.64124,35.78692],[139.64162,35.78681],[139.64193,35.78669],[139.64322,35.78647],[139.64376,35.78622],[139.64327,35.7857],[139.64238,35.78541],[139.64225,35.7853],[139.6419,35.78437],[139.64162,35.78384],[139.64152,35.7835],[139.64163,35.78321],[139.64186,35.78292],[139.64203,35.78262],[139.642,35.7824],[139.64155,35.78213],[139.64095,35.78171],[139.64006,35.7812],[139.639,35.7809]]]}},{"type":"Feature","properties":{"id":"area-13119046005","name":"赤塚五丁目"},"geometry":{"type":"Polygon","coordinates":[[[139.6452,35.77928],[139.64173,35.77754],[139.64123,35.77824],[139.64044,35.77873],[139.63971,35.77928],[139.63938,35.77941],[139.63972,35.77963],[139.6387,35.78071],[139.639,35.7809],[139.64006,35.7812],[139.64095,35.78171],[139.64155,35.78213],[139.642,35.7824],[139.64203,35.78262],[139.64186,35.78292],[139.64163,35.78321],[139.64152,35.7835],[139.64162,35.78384],[139.6419,35.78437],[139.64225,35.7853],[139.64238,35.78541],[139.64327,35.7857],[139.64376,35.78622],[139.64441,35.786],[139.64427,35.78577],[139.64475,35.78408],[139.64474,35.78361],[139.64507,35.78274],[139.64547,35.78204],[139.64571,35.78176],[139.64643,35.78129],[139.64698,35.78047],[139.6472,35.77994],[139.64612,35.77964],[139.6452,35.77928]]]}},{"type":"Feature","properties":{"id":"area-13119046006","name":"赤塚六丁目"},"geometry":{"type":"Polygon","coordinates":[[[139.64661,35.77412],[139.64645,35.77329],[139.64574,35.77313],[139.64557,35.77312],[139.64523,35.77303],[139.64456,35.77354],[139.64381,35.77384],[139.64367,35.77405],[139.64304,35.77374],[139.64287,35.77369],[139.64271,35.7737],[139.64203,35.77458],[139.64166,35.77521],[139.64164,35.77534],[139.64138,35.77566],[139.64136,35.77579],[139.64148,35.77599],[139.64158,35.77642],[139.64181,35.77695],[139.64182,35.77718],[139.64173,35.77754],[139.6452,35.77928],[139.64612,35.77964],[139.6472,35.77994],[139.64739,35.77926],[139.64731,35.77877],[139.64719,35.77834],[139.64695,35.77577],[139.64677,35.77475],[139.64661,35.77412]]]}},{"type":"Feature","properties":{"id":"area-13119046007","name":"赤塚七丁目"},"geometry":{"type":"Polygon","coordinates":[[[139.65058,35.77474],[139.65069,35.77367],[139.65054,35.77376],[139.65009,35.77364],[139.64955,35.77345],[139.64911,35.77342],[139.64852,35.77349],[139.64794,35.77368],[139.64755,35.77371],[139.64728,35.77378],[139.64695,35.77346],[139.64646,35.77331],[139.64659,35.77405],[139.64677,35.77475],[139.64695,35.77577],[139.64719,35.77834],[139.64737,35.77908],[139.64738,35.77935],[139.6472,35.77994],[139.64777,35.78005],[139.64878,35.78016],[139.64963,35.7804],[139.64973,35.78008],[139.64989,35.77976],[139.64998,35.77951],[139.65025,35.77859],[139.65043,35.77685],[139.65053,35.77555],[139.65061,35.775],[139.65058,35.77474]]]}},{"type":"Feature","properties":{"id":"area-13119046008","name":"赤塚八丁目"},"geometry":{"type":"Polygon","coordinates":[[[139.64777,35.78005],[139.6472,35.77994],[139.64698,35.78047],[139.64643,35.78129],[139.64571,35.78176],[139.64547,35.78204],[139.64507,35.78274],[139.64474,35.78361],[139.64475,35.78408],[139.64427,35.78577],[139.64441,35.786],[139.64452,35.786],[139.64498,35.7856],[139.64672,35.78382],[139.64716,35.78331],[139.64861,35.78181],[139.64958,35.78055],[139.64963,35.7804],[139.64878,35.78016],[139.64777,35.78005]]]}},{"type":"Feature","properties":{"id":"area-13119047001","name":"赤塚新町一丁目"},"geometry":{"type":"Polygon","coordinates":[[[139.65215,35.76916],[139.65215,35.76893],[139.65114,35.76901],[139.65114,35.76895],[139.651,35.76896],[139.651,35.76901],[139.65063,35.76903],[139.65012,35.76899],[139.64866,35.76877],[139.6476,35.76869],[139.64746,35.76867],[139.64739,35.76852],[139.64622,35.76882],[139.64555,35.76908],[139.64253,35.7708],[139.64303,35.77133],[139.64457,35.7706],[139.64581,35.77016],[139.64645,35.77],[139.64759,35.76975],[139.64881,35.76959],[139.65033,35.76948],[139.65197,35.76942],[139.65196,35.76931],[139.65215,35.76916]]]}},{"type":"Feature","properties":{"id":"area-13119047002","name":"赤塚新町二丁目"},"geometry":{"type":"Polygon","coordinates":[[[139.64303,35.77133],[139.64248,35.77076],[139.64205,35.7709],[139.64006,35.77136],[139.63848,35.77177],[139.63795,35.77201],[139.63717,35.77245],[139.63644,35.77301],[139.63559,35.77374],[139.6371,35.77482],[139.63873,35.7737],[139.6404,35.77262],[139.64139,35.77208],[139.64303,35.77133]]]}},{"type":"Feature","properties":{"id":"area-13119047003","name":"赤塚新町三丁目"},"geometry":{"type":"Polygon","coordinates":[[[139.63863,35.77171],[139.64248,35.77076],[139.64253,35.7708],[139.64269,35.77072],[139.64151,35.76947],[139.64138,35.76946],[139.64139,35.76928],[139.64112,35.76878],[139.63649,35.76872],[139.63554,35.76874],[139.63451,35.76887],[139.63446,35.7699],[139.63352,35.76995],[139.63355,35.7706],[139.63336,35.77063],[139.63318,35.7707],[139.63236,35.77119],[139.63316,35.77209],[139.6329,35.77269],[139.63381,35.77273],[139.63379,35.77288],[139.63389,35.77303],[139.63496,35.77439],[139.63541,35.7739],[139.63689,35.77264],[139.6374,35.77231],[139.63795,35.77201],[139.63863,35.77171]]]}},{"type":"Feature","properties":{"id":"area-13119048001","name":"四葉一丁目"},"geometry":{"type":"Polygon","coordinates":[[[139.65286,35.77962],[139.65333,35.7796],[139.65379,35.77966],[139.65371,35.77845],[139.65378,35.77735],[139.65377,35.77668],[139.65407,35.77617],[139.6535,35.77594],[139.65207,35.77523],[139.65208,35.77519],[139.65176,35.77511],[139.65165,35.77505],[139.65143,35.77511],[139.65061,35.775],[139.65053,35.77555],[139.65043,35.77685],[139.65025,35.77859],[139.64998,35.77951],[139.64989,35.77976],[139.64973,35.78008],[139.65016,35.78007],[139.65176,35.77993],[139.65197,35.77989],[139.65286,35.77962]]]}},{"type":"Feature","properties":{"id":"area-13119048002","name":"四葉二丁目"},"geometry":{"type":"Polygon","coordinates":[[[139.6532,35.7796],[139.65286,35.77962],[139.65197,35.77989],[139.65176,35.77993],[139.65016,35.78007],[139.64973,35.78008],[139.64958,35.78055],[139.64903,35.78126],[139.64968,35.78162],[139.64971,35.78197],[139.65017,35.78303],[139.65026,35.78316],[139.65061,35.78344],[139.65077,35.78363],[139.65087,35.78416],[139.65107,35.78442],[139.65127,35.78475],[139.6542,35.78394],[139.65414,35.78371],[139.65402,35.78341],[139.65486,35.78307],[139.6544,35.78246],[139.65455,35.78177],[139.65483,35.78172],[139.655,35.78109],[139.65449,35.78096],[139.65469,35.78036],[139.6537,35.78022],[139.65379,35.77966],[139.6532,35.7796]]]}},{"type":"Feature","properties":{"id":"area-131190490","name":"大門"},"geometry":{"type":"Polygon","coordinates":[[[139.64573,35.78596],[139.64972,35.78517],[139.65127,35.78475],[139.65107,35.78442],[139.65087,35.78416],[139.65077,35.78363],[139.65061,35.78344],[139.65026,35.78316],[139.65017,35.78303],[139.64971,35.78197],[139.64968,35.78162],[139.64964,35.78159],[139.64903,35.78126],[139.64901,35.78128],[139.64861,35.78181],[139.64716,35.78331],[139.64672,35.78382],[139.64498,35.7856],[139.64541,35.78571],[139.64566,35.7857],[139.64573,35.78596]]]}},{"type":"Feature","properties":{"id":"area-13119050001","name":"三園一丁目"},"geometry":{"type":"Polygon","coordinates":[[[139.64358,35.79087],[139.64349,35.79047],[139.64344,35.78977],[139.64363,35.78893],[139.64395,35.78801],[139.64437,35.78707],[139.64481,35.78653],[139.64506,35.7864],[139.64579,35.7862],[139.64566,35.7857],[139.64541,35.78571],[139.64498,35.7856],[139.64452,35.786],[139.64441,35.786],[139.64376,35.78622],[139.64322,35.78647],[139.64193,35.78669],[139.64162,35.78681],[139.64124,35.78692],[139.64014,35.78735],[139.63873,35.78807],[139.63822,35.7882],[139.63779,35.78807],[139.63773,35.78839],[139.63763,35.78855],[139.63713,35.78902],[139.63566,35.79061],[139.63585,35.79064],[139.63622,35.79049],[139.63633,35.79052],[139.63661,35.79077],[139.63686,35.79077],[139.63716,35.79072],[139.6372,35.79083],[139.63758,35.79078],[139.63763,35.79081],[139.63762,35.79106],[139.63769,35.79113],[139.63762,35.79126],[139.63768,35.79148],[139.63803,35.7918],[139.63803,35.79201],[139.63809,35.79208],[139.63822,35.79214],[139.6386,35.79224],[139.63891,35.79257],[139.6433,35.79208],[139.6434,35.79198],[139.64394,35.79187],[139.64358,35.79087]]]}},{"type":"Feature","properties":{"id":"area-13119050002","name":"三園二丁目"},"geometry":{"type":"Polygon","coordinates":[[[139.64189,35.79807],[139.64187,35.79748],[139.64195,35.79745],[139.64201,35.79754],[139.64213,35.7975],[139.64208,35.7974],[139.6421,35.79739],[139.64227,35.79744],[139.64552,35.79625],[139.64396,35.79245],[139.64399,35.79223],[139.64404,35.79217],[139.64394,35.79187],[139.6434,35.79198],[139.6433,35.79208],[139.63891,35.79257],[139.63898,35.79271],[139.63887,35.79274],[139.63891,35.79296],[139.63916,35.79354],[139.63921,35.79372],[139.63947,35.79368],[139.63951,35.79383],[139.63985,35.79387],[139.63992,35.79396],[139.6399,35.79413],[139.64009,35.79492],[139.64021,35.7949],[139.64015,35.79513],[139.64026,35.79523],[139.63998,35.7953],[139.63966,35.79543],[139.63965,35.79547],[139.63971,35.79551],[139.63981,35.79546],[139.6399,35.7955],[139.64019,35.79547],[139.64038,35.79563],[139.64054,35.79553],[139.64067,35.79555],[139.64075,35.79561],[139.6407,35.79595],[139.64056,35.7964],[139.64026,35.79672],[139.64032,35.79682],[139.64053,35.7969],[139.64066,35.79724],[139.64055,35.79735],[139.64042,35.79758],[139.64022,35.79803],[139.64022,35.79812],[139.64034,35.79816],[139.64069,35.79786],[139.64077,35.79786],[139.64091,35.79791],[139.64121,35.79835],[139.64189,35.79807]]]}},{"type":"Feature","properties":{"id":"area-13119051001","name":"成増一丁目"},"geometry":{"type":"Polygon","coordinates":[[[139.62982,35.77737],[139.63418,35.77509],[139.63457,35.77481],[139.63496,35.77439],[139.63389,35.77303],[139.63379,35.77288],[139.63381,35.77273],[139.6329,35.77269],[139.63316,35.77209],[139.63236,35.77119],[139.63015,35.77245],[139.62968,35.77193],[139.62921,35.77189],[139.62941,35.77412],[139.6294,35.77419],[139.62933,35.77429],[139.62908,35.77446],[139.6291,35.77465],[139.62945,35.77532],[139.62946,35.77651],[139.62954,35.77695],[139.62958,35.777],[139.62935,35.77708],[139.62933,35.77701],[139.62916,35.77704],[139.62915,35.77697],[139.62858,35.7771],[139.62869,35.77732],[139.62864,35.77739],[139.62823,35.77747],[139.62528,35.77779],[139.6253,35.77809],[139.62558,35.77878],[139.62568,35.77931],[139.62802,35.77835],[139.62982,35.77737]]]}},{"type":"Feature","properties":{"id":"area-13119051002","name":"成増二丁目"},"geometry":{"type":"Polygon","coordinates":[[[139.6371,35.77482],[139.63559,35.77374],[139.63529,35.77402],[139.63457,35.77481],[139.63418,35.77509],[139.63056,35.77697],[139.62802,35.77835],[139.62568,35.77931],[139.62465,35.77995],[139.62451,35.77996],[139.62434,35.78022],[139.62504,35.78061],[139.62489,35.78098],[139.62493,35.78103],[139.62541,35.78112],[139.62555,35.78118],[139.62565,35.78136],[139.62583,35.78146],[139.62581,35.78165],[139.62586,35.78186],[139.62595,35.78201],[139.62618,35.78222],[139.63169,35.77853],[139.63226,35.7783],[139.63238,35.77822],[139.63439,35.77671],[139.63485,35.7764],[139.63494,35.77627],[139.6371,35.77482]]]}},{"type":"Feature","properties":{"id":"area-13119051003","name":"成増三丁目"},"geometry":{"type":"Polygon","coordinates":[[[139.63021,35.78354],[139.63033,35.78309],[139.6306,35.78258],[139.63113,35.7821],[139.63148,35.78187],[139.63188,35.78169],[139.63249,35.78154],[139.63334,35.78117],[139.63432,35.7812],[139.63544,35.78007],[139.63542,35.78005],[139.63672,35.77865],[139.63495,35.77628],[139.63485,35.7764],[139.63439,35.77671],[139.63238,35.77822],[139.63226,35.7783],[139.63169,35.77853],[139.62618,35.78222],[139.62639,35.78238],[139.62682,35.78227],[139.62698,35.78233],[139.62728,35.7826],[139.62752,35.78273],[139.62756,35.78278],[139.62757,35.78291],[139.62739,35.783],[139.62774,35.78341],[139.6278,35.78355],[139.62794,35.78346],[139.62796,35.78348],[139.6279,35.78353],[139.62798,35.78362],[139.62786,35.7837],[139.62791,35.78376],[139.62787,35.78379],[139.62791,35.78393],[139.62802,35.78412],[139.62797,35.78418],[139.62801,35.78436],[139.6289,35.78526],[139.63026,35.78432],[139.63019,35.78389],[139.63021,35.78354]]]}},{"type":"Feature","properties":{"id":"area-13119051004","name":"成増四丁目"},"geometry":{"type":"Polygon","coordinates":[[[139.63637,35.7813],[139.63594,35.78082],[139.63569,35.78027],[139.63556,35.78014],[139.63544,35.78007],[139.63432,35.7812],[139.63334,35.78117],[139.63249,35.78154],[139.63212,35.78162],[139.63171,35.78176],[139.63113,35.7821],[139.63088,35.78231],[139.63155,35.78256],[139.63206,35.78292],[139.63219,35.78311],[139.63227,35.7834],[139.63294,35.7844],[139.63403,35.78643],[139.63424,35.78672],[139.63526,35.78756],[139.63545,35.78757],[139.63757,35.78861],[139.63773,35.78839],[139.63779,35.78807],[139.63777,35.78769],[139.63788,35.78555],[139.63785,35.78437],[139.63814,35.78335],[139.63804,35.78248],[139.6373,35.78204],[139.63637,35.7813]]]}},{"type":"Feature","properties":{"id":"area-13119051005","name":"成増五丁目"},"geometry":{"type":"Polygon","coordinates":[[[139.63535,35.79059],[139.63565,35.79063],[139.63713,35.78902],[139.63757,35.78861],[139.63545,35.78757],[139.63526,35.78756],[139.63424,35.78672],[139.63403,35.78643],[139.63294,35.7844],[139.63227,35.7834],[139.63219,35.78311],[139.63206,35.78292],[139.63155,35.78256],[139.63088,35.78231],[139.6306,35.78258],[139.63033,35.78309],[139.63019,35.78368],[139.63026,35.78432],[139.62893,35.78524],[139.62899,35.7853],[139.62919,35.78523],[139.62955,35.78536],[139.62968,35.78537],[139.62983,35.78532],[139.6302,35.7851],[139.63053,35.78539],[139.63039,35.78556],[139.6303,35.78562],[139.63078,35.78607],[139.63094,35.78595],[139.63136,35.78616],[139.6315,35.78606],[139.63171,35.78618],[139.63176,35.7863],[139.63193,35.78648],[139.63173,35.78694],[139.63169,35.78725],[139.63206,35.78741],[139.63218,35.78715],[139.63233,35.7872],[139.63242,35.7873],[139.63241,35.78739],[139.63227,35.78763],[139.63227,35.78787],[139.63222,35.78801],[139.63205,35.78826],[139.63186,35.78845],[139.63214,35.78871],[139.63226,35.78866],[139.63238,35.78876],[139.63229,35.78885],[139.63241,35.78892],[139.63229,35.78907],[139.63276,35.78933],[139.63283,35.78949],[139.6328,35.78953],[139.63298,35.78963],[139.63308,35.7895],[139.63344,35.78969],[139.6337,35.78934],[139.63384,35.78938],[139.63388,35.78943],[139.63373,35.78961],[139.6337,35.78972],[139.63415,35.79003],[139.63414,35.7901],[139.63418,35.7902],[139.63412,35.7903],[139.63451,35.7905],[139.6346,35.79045],[139.63476,35.79053],[139.63502,35.79068],[139.63509,35.79078],[139.63516,35.79079],[139.63535,35.79059]]]}},{"type":"Feature","properties":{"id":"area-13119052001","name":"徳丸一丁目"},"geometry":{"type":"Polygon","coordinates":[[[139.66733,35.7676],[139.66711,35.7676],[139.66502,35.76806],[139.66436,35.76814],[139.66425,35.76817],[139.66432,35.76839],[139.66356,35.76853],[139.66357,35.76857],[139.66335,35.7686],[139.66335,35.76864],[139.66291,35.76873],[139.66298,35.76985],[139.66278,35.77177],[139.66279,35.77191],[139.66283,35.77206],[139.66356,35.77337],[139.66392,35.77412],[139.66448,35.77597],[139.66494,35.77587],[139.66492,35.77585],[139.66517,35.77573],[139.66528,35.77565],[139.66556,35.77529],[139.6659,35.77447],[139.66601,35.77429],[139.66628,35.77404],[139.66902,35.77251],[139.66767,35.77127],[139.66752,35.77109],[139.66736,35.7708],[139.66728,35.77051],[139.66727,35.77036],[139.66736,35.76825],[139.66733,35.7676]]]}},{"type":"Feature","properties":{"id":"area-13119052002","name":"徳丸二丁目"},"geometry":{"type":"Polygon","coordinates":[[[139.66432,35.76839],[139.66425,35.76817],[139.66382,35.7682],[139.66322,35.76827],[139.66213,35.76851],[139.66146,35.76859],[139.66135,35.7687],[139.66131,35.7688],[139.66106,35.76897],[139.66064,35.76937],[139.66065,35.76941],[139.65991,35.77022],[139.65954,35.77079],[139.65911,35.77151],[139.65902,35.77175],[139.65895,35.7721],[139.65896,35.77226],[139.65909,35.77262],[139.6602,35.77471],[139.66022,35.77488],[139.66017,35.77508],[139.65974,35.77566],[139.66399,35.77596],[139.66446,35.77596],[139.66392,35.77412],[139.66356,35.77337],[139.66283,35.77206],[139.66278,35.77177],[139.66298,35.76985],[139.66291,35.76873],[139.66335,35.76864],[139.66335,35.7686],[139.66357,35.76857],[139.66356,35.76853],[139.66432,35.76839]]]}},{"type":"Feature","properties":{"id":"area-13119052003","name":"徳丸三丁目"},"geometry":{"type":"Polygon","coordinates":[[[139.66064,35.76937],[139.66117,35.76888],[139.66131,35.7688],[139.66135,35.7687],[139.65817,35.7689],[139.658,35.76892],[139.65742,35.76908],[139.6544,35.76927],[139.65448,35.77013],[139.65467,35.77013],[139.65478,35.77101],[139.65557,35.77363],[139.65561,35.77396],[139.65557,35.77463],[139.65547,35.77505],[139.65544,35.77537],[139.65549,35.77546],[139.65585,35.77555],[139.65602,35.77569],[139.65622,35.77604],[139.65629,35.77626],[139.6579,35.77603],[139.65974,35.77566],[139.66002,35.7753],[139.66017,35.77508],[139.66022,35.77488],[139.6602,35.77471],[139.65909,35.77262],[139.65896,35.77226],[139.65897,35.77195],[139.65911,35.77151],[139.65922,35.77131],[139.65991,35.77022],[139.66065,35.76941],[139.66064,35.76937]]]}},{"type":"Feature","properties":{"id":"area-13119052004","name":"徳丸四丁目"},"geometry":{"type":"Polygon","coordinates":[[[139.65544,35.77531],[139.65557,35.77463],[139.65561,35.77396],[139.65557,35.77363],[139.65478,35.77101],[139.65467,35.77013],[139.65448,35.77013],[139.65438,35.76917],[139.6539,35.76919],[139.65362,35.7691],[139.65303,35.76907],[139.65275,35.76894],[139.65258,35.76872],[139.65214,35.76876],[139.65215,35.76916],[139.65196,35.76931],[139.65197,35.76962],[139.65179,35.77038],[139.65132,35.77174],[139.65108,35.7726],[139.65092,35.77283],[139.65076,35.77322],[139.65058,35.77474],[139.65061,35.775],[139.65143,35.77511],[139.65165,35.77505],[139.65176,35.77511],[139.65208,35.77519],[139.65207,35.77523],[139.6535,35.77594],[139.65407,35.77617],[139.65492,35.77633],[139.65629,35.77626],[139.65622,35.77604],[139.65602,35.77569],[139.65585,35.77555],[139.65549,35.77546],[139.65544,35.77531]]]}},{"type":"Feature","properties":{"id":"area-13119052005","name":"徳丸五丁目"},"geometry":{"type":"Polygon","coordinates":[[[139.6587,35.77722],[139.65974,35.77566],[139.6579,35.77603],[139.65629,35.77626],[139.65492,35.77633],[139.65407,35.77617],[139.65377,35.77668],[139.65378,35.77735],[139.65371,35.77845],[139.65379,35.77966],[139.6551,35.77988],[139.65635,35.77981],[139.65734,35.7796],[139.65754,35.77941],[139.65834,35.77841],[139.6587,35.77722]]]}},{"type":"Feature","properties":{"id":"area-13119052006","name":"徳丸六丁目"},"geometry":{"type":"Polygon","coordinates":[[[139.66532,35.78059],[139.66492,35.77842],[139.66467,35.7769],[139.66446,35.77596],[139.66399,35.77596],[139.65974,35.77566],[139.65881,35.777],[139.6587,35.77722],[139.65834,35.77841],[139.65754,35.77941],[139.65734,35.7796],[139.6582,35.77968],[139.65963,35.77967],[139.65983,35.7797],[139.66132,35.78019],[139.6621,35.78034],[139.66411,35.78043],[139.66532,35.78059]]]}},{"type":"Feature","properties":{"id":"area-13119052007","name":"徳丸七丁目"},"geometry":{"type":"Polygon","coordinates":[[[139.66545,35.78135],[139.66532,35.78059],[139.66411,35.78043],[139.66236,35.78036],[139.66173,35.78028],[139.66132,35.78019],[139.65983,35.7797],[139.65963,35.77967],[139.6582,35.77968],[139.65838,35.78016],[139.65841,35.78037],[139.6585,35.78069],[139.65866,35.78094],[139.65892,35.78167],[139.66046,35.78125],[139.66087,35.78232],[139.66545,35.78135]]]}},{"type":"Feature","properties":{"id":"area-13119052008","name":"徳丸八丁目"},"geometry":{"type":"Polygon","coordinates":[[[139.66087,35.78232],[139.66046,35.78125],[139.65892,35.78167],[139.65866,35.78094],[139.6585,35.78069],[139.65841,35.78037],[139.65838,35.78016],[139.6582,35.77968],[139.65734,35.7796],[139.65635,35.77981],[139.6551,35.77988],[139.65379,35.77966],[139.6537,35.78022],[139.65469,35.78036],[139.65449,35.78096],[139.655,35.78109],[139.65483,35.78172],[139.65455,35.78177],[139.6544,35.78246],[139.65486,35.78307],[139.65402,35.78341],[139.65414,35.78371],[139.6542,35.78394],[139.65783,35.78296],[139.66087,35.78232]]]}},{"type":"Feature","properties":{"id":"area-131190530","name":"東山町"},"geometry":{"type":"Polygon","coordinates":[[[139.68984,35.7538],[139.68809,35.7519],[139.68788,35.75176],[139.6876,35.75167],[139.68741,35.75166],[139.68345,35.75194],[139.68351,35.75296],[139.68352,35.75378],[139.68426,35.75372],[139.68489,35.75385],[139.68478,35.75432],[139.68483,35.75466],[139.68491,35.75481],[139.68505,35.75554],[139.68496,35.75643],[139.68501,35.75683],[139.68743,35.75545],[139.68984,35.7538]]]}},{"type":"Feature","properties":{"id":"area-13119054001","name":"桜川一丁目"},"geometry":{"type":"Polygon","coordinates":[[[139.67805,35.75606],[139.67796,35.75307],[139.6757,35.75469],[139.67542,35.75478],[139.674,35.75508],[139.67378,35.75506],[139.67358,35.75494],[139.67332,35.75465],[139.67329,35.7547],[139.67333,35.75478],[139.67334,35.75488],[139.67326,35.75523],[139.6735,35.75637],[139.67355,35.75719],[139.67385,35.75872],[139.67509,35.75829],[139.67805,35.75606]]]}},{"type":"Feature","properties":{"id":"area-13119054002","name":"桜川二丁目"},"geometry":{"type":"Polygon","coordinates":[[[139.67977,35.75777],[139.67972,35.75718],[139.67956,35.75729],[139.67938,35.75735],[139.67819,35.75753],[139.67809,35.75717],[139.67805,35.75606],[139.67531,35.75811],[139.67562,35.7584],[139.67628,35.76058],[139.67962,35.75965],[139.67967,35.7586],[139.67977,35.75827],[139.67977,35.75777]]]}},{"type":"Feature","properties":{"id":"area-13119054003","name":"桜川三丁目"},"geometry":{"type":"Polygon","coordinates":[[[139.67628,35.76058],[139.67562,35.7584],[139.67531,35.75811],[139.67509,35.75829],[139.67351,35.75884],[139.67364,35.75896],[139.67302,35.75959],[139.67303,35.75962],[139.67295,35.7597],[139.67291,35.75968],[139.67226,35.76016],[139.67211,35.76042],[139.67182,35.76053],[139.67188,35.76077],[139.67161,35.76085],[139.67084,35.76207],[139.67628,35.76058]]]}},{"type":"Feature","properties":{"id":"area-13119055001","name":"高島平一丁目"},"geometry":{"type":"Polygon","coordinates":[[[139.66716,35.78746],[139.67037,35.78675],[139.67045,35.78724],[139.67441,35.78686],[139.67387,35.78291],[139.67379,35.78177],[139.67373,35.78177],[139.67379,35.78147],[139.67369,35.78045],[139.67229,35.78103],[139.67086,35.78113],[139.67037,35.78112],[139.66637,35.78144],[139.66549,35.78154],[139.66545,35.78135],[139.66531,35.78138],[139.66574,35.78259],[139.66708,35.78681],[139.66707,35.78687],[139.66715,35.7871],[139.66709,35.78722],[139.66716,35.78746]]]}},{"type":"Feature","properties":{"id":"area-13119055002","name":"高島平二丁目"},"geometry":{"type":"Polygon","coordinates":[[[139.66574,35.78259],[139.66531,35.78138],[139.65792,35.78295],[139.65979,35.78845],[139.65988,35.78874],[139.65983,35.78885],[139.65989,35.78904],[139.66716,35.78747],[139.66709,35.78722],[139.66715,35.7871],[139.66707,35.78687],[139.66708,35.78681],[139.66574,35.78259]]]}},{"type":"Feature","properties":{"id":"area-13119055003","name":"高島平三丁目"},"geometry":{"type":"Polygon","coordinates":[[[139.65979,35.78845],[139.65792,35.78295],[139.65783,35.78296],[139.65122,35.78476],[139.65146,35.78552],[139.65141,35.78563],[139.6515,35.78572],[139.65191,35.78707],[139.65194,35.78722],[139.65199,35.78726],[139.65205,35.78746],[139.65237,35.78865],[139.65233,35.78867],[139.65234,35.78871],[139.65243,35.78876],[139.65247,35.78886],[139.65275,35.78982],[139.6527,35.78987],[139.65274,35.7899],[139.65288,35.79043],[139.65824,35.78939],[139.65989,35.78904],[139.65983,35.78885],[139.65988,35.78874],[139.65979,35.78845]]]}},{"type":"Feature","properties":{"id":"area-13119055004","name":"高島平四丁目"},"geometry":{"type":"Polygon","coordinates":[[[139.65146,35.78552],[139.65122,35.78476],[139.64972,35.78517],[139.64764,35.78561],[139.64783,35.78624],[139.64779,35.78629],[139.64781,35.78634],[139.64788,35.78639],[139.64809,35.78706],[139.64804,35.7871],[139.64828,35.78776],[139.64822,35.78785],[139.64826,35.78794],[139.64834,35.78796],[139.64853,35.78858],[139.64851,35.78864],[139.64855,35.78866],[139.64874,35.78934],[139.6487,35.78936],[139.64877,35.78943],[139.649,35.79015],[139.64896,35.7902],[139.649,35.79021],[139.64909,35.79051],[139.64904,35.79056],[139.64912,35.79058],[139.64929,35.79113],[139.65288,35.79043],[139.65274,35.7899],[139.6527,35.78987],[139.65275,35.78982],[139.65247,35.78886],[139.65243,35.78876],[139.65234,35.78871],[139.65233,35.78867],[139.65237,35.78865],[139.65205,35.78746],[139.65199,35.78726],[139.65194,35.78722],[139.65191,35.78707],[139.6515,35.78572],[139.65141,35.78563],[139.65146,35.78552]]]}},{"type":"Feature","properties":{"id":"area-13119055005","name":"高島平五丁目"},"geometry":{"type":"Polygon","coordinates":[[[139.64764,35.78561],[139.64573,35.78596],[139.64579,35.7862],[139.64486,35.78649],[139.64437,35.78707],[139.64395,35.78801],[139.64381,35.7884],[139.64363,35.78893],[139.64344,35.78977],[139.64349,35.79047],[139.64358,35.79087],[139.64404,35.79217],[139.64929,35.79113],[139.64912,35.79058],[139.64904,35.79056],[139.64909,35.79051],[139.649,35.79021],[139.64896,35.7902],[139.649,35.79015],[139.64877,35.78943],[139.6487,35.78936],[139.64874,35.78934],[139.64855,35.78866],[139.64851,35.78864],[139.64853,35.78858],[139.64834,35.78796],[139.64826,35.78794],[139.64822,35.78785],[139.64828,35.78776],[139.64804,35.7871],[139.64809,35.78706],[139.64788,35.78639],[139.64781,35.78634],[139.64779,35.78629],[139.64783,35.78624],[139.64764,35.78561]]]}},{"type":"Feature","properties":{"id":"area-13119055006","name":"高島平六丁目"},"geometry":{"type":"Polygon","coordinates":[[[139.64552,35.79625],[139.64725,35.79568],[139.64738,35.79591],[139.65061,35.79483],[139.65241,35.7943],[139.65389,35.79394],[139.65377,35.79348],[139.6538,35.79345],[139.6534,35.79207],[139.65327,35.792],[139.65325,35.79195],[139.65323,35.79188],[139.65331,35.79177],[139.65288,35.79043],[139.64404,35.79217],[139.64399,35.79223],[139.64396,35.79245],[139.64552,35.79625]]]}},{"type":"Feature","properties":{"id":"area-13119055007","name":"高島平七丁目"},"geometry":{"type":"Polygon","coordinates":[[[139.66067,35.79099],[139.66007,35.789],[139.65824,35.78939],[139.65288,35.79043],[139.65331,35.79177],[139.65323,35.79188],[139.65325,35.79195],[139.65327,35.792],[139.6534,35.79207],[139.6538,35.79345],[139.65377,35.79348],[139.65389,35.79394],[139.65572,35.79351],[139.65678,35.79332],[139.65853,35.79314],[139.66049,35.79305],[139.66052,35.79255],[139.66009,35.79112],[139.66067,35.79099]]]}},{"type":"Feature","properties":{"id":"area-13119055008","name":"高島平八丁目"},"geometry":{"type":"Polygon","coordinates":[[[139.66449,35.78907],[139.66425,35.78809],[139.66007,35.789],[139.66067,35.79099],[139.66009,35.79112],[139.66052,35.79255],[139.66049,35.79305],[139.66509,35.79292],[139.66491,35.79198],[139.66449,35.78907]]]}},{"type":"Feature","properties":{"id":"area-13119055009","name":"高島平九丁目"},"geometry":{"type":"Polygon","coordinates":[[[139.67464,35.78861],[139.67441,35.78686],[139.67045,35.78724],[139.67037,35.78675],[139.66425,35.78809],[139.66444,35.78876],[139.66491,35.79198],[139.66509,35.79292],[139.66593,35.79287],[139.66687,35.79277],[139.66877,35.79238],[139.67108,35.79178],[139.67292,35.7914],[139.67464,35.78861]]]}},{"type":"Feature","properties":{"id":"area-13119056001","name":"新河岸一丁目"},"geometry":{"type":"Polygon","coordinates":[[[139.69493,35.79949],[139.69522,35.7978],[139.69519,35.79661],[139.69471,35.79585],[139.69297,35.7964],[139.69193,35.79661],[139.69053,35.79674],[139.68918,35.79675],[139.68866,35.7967],[139.68719,35.79645],[139.68639,35.79644],[139.68558,35.79637],[139.68484,35.7962],[139.68378,35.79589],[139.68081,35.7957],[139.67888,35.7957],[139.67723,35.79583],[139.67589,35.79601],[139.67087,35.79684],[139.67078,35.79627],[139.67103,35.79559],[139.67108,35.79528],[139.67136,35.79487],[139.67173,35.79375],[139.67108,35.79178],[139.66877,35.79238],[139.66687,35.79277],[139.66532,35.79291],[139.66381,35.79296],[139.66387,35.79382],[139.66399,35.79459],[139.66431,35.79755],[139.66328,35.7976],[139.66111,35.7975],[139.65966,35.79731],[139.65917,35.79713],[139.6589,35.79708],[139.65738,35.79679],[139.65575,35.79652],[139.65395,35.79629],[139.65254,35.79617],[139.65252,35.79624],[139.6509,35.79618],[139.64955,35.79624],[139.6475,35.79649],[139.64626,35.79684],[139.64569,35.79682],[139.64549,35.79628],[139.64242,35.79738],[139.64255,35.79787],[139.64291,35.7983],[139.64326,35.79846],[139.64392,35.79889],[139.64505,35.79841],[139.64696,35.79775],[139.64799,35.79727],[139.65028,35.79834],[139.6512,35.79884],[139.65166,35.79913],[139.65285,35.80011],[139.6531,35.80026],[139.65343,35.80034],[139.65433,35.80046],[139.65526,35.80053],[139.65943,35.80031],[139.6617,35.80028],[139.66284,35.80035],[139.66427,35.80055],[139.6649,35.80061],[139.66583,35.80053],[139.66736,35.80055],[139.66904,35.80047],[139.67133,35.80028],[139.6727,35.79981],[139.67395,35.79933],[139.67479,35.79917],[139.67622,35.79899],[139.67839,35.79897],[139.67947,35.79905],[139.68096,35.79933],[139.68205,35.79964],[139.6834,35.80014],[139.68471,35.80051],[139.68567,35.80064],[139.6877,35.801],[139.68947,35.80103],[139.69092,35.80095],[139.69367,35.8004],[139.69459,35.80003],[139.69483,35.79985],[139.69493,35.79949]]]}},{"type":"Feature","properties":{"id":"area-13119056002","name":"新河岸二丁目"},"geometry":{"type":"Polygon","coordinates":[[[139.66385,35.79353],[139.66381,35.79296],[139.66049,35.79305],[139.65971,35.79309],[139.6597,35.79413],[139.65973,35.79505],[139.65966,35.79731],[139.66111,35.7975],[139.66161,35.79753],[139.66328,35.7976],[139.66431,35.79755],[139.66385,35.79353]]]}},{"type":"Feature","properties":{"id":"area-13119056003","name":"新河岸三丁目"},"geometry":{"type":"Polygon","coordinates":[[[139.65966,35.79731],[139.65973,35.79505],[139.6597,35.79413],[139.65971,35.79309],[139.65809,35.79318],[139.65678,35.79332],[139.65572,35.79351],[139.65451,35.79378],[139.65241,35.7943],[139.65061,35.79483],[139.64738,35.79591],[139.64725,35.79568],[139.64549,35.79628],[139.64569,35.79682],[139.64626,35.79684],[139.6475,35.79649],[139.64955,35.79624],[139.6509,35.79618],[139.65252,35.79624],[139.65254,35.79617],[139.65298,35.7962],[139.65514,35.79643],[139.65738,35.79679],[139.65917,35.79713],[139.65966,35.79731]]]}},{"type":"Feature","properties":{"id":"area-13119057001","name":"舟渡一丁目"},"geometry":{"type":"Polygon","coordinates":[[[139.6897,35.78863],[139.68918,35.78714],[139.68897,35.78747],[139.68778,35.78906],[139.68711,35.78981],[139.68683,35.79009],[139.68624,35.79061],[139.68584,35.79089],[139.68524,35.79124],[139.68554,35.79367],[139.69022,35.79334],[139.69199,35.79199],[139.69081,35.79077],[139.69032,35.79002],[139.68993,35.78922],[139.68986,35.78899],[139.6897,35.78863]]]}},{"type":"Feature","properties":{"id":"area-13119057002","name":"舟渡二丁目"},"geometry":{"type":"Polygon","coordinates":[[[139.68933,35.79674],[139.69053,35.79674],[139.69193,35.79661],[139.69297,35.7964],[139.69471,35.79585],[139.69299,35.79328],[139.69199,35.79199],[139.69022,35.79334],[139.68554,35.79367],[139.68565,35.7954],[139.68568,35.79539],[139.6857,35.79561],[139.68567,35.79629],[139.68558,35.79637],[139.68639,35.79644],[139.68719,35.79645],[139.68866,35.7967],[139.68933,35.79674]]]}},{"type":"Feature","properties":{"id":"area-13119057003","name":"舟渡三丁目"},"geometry":{"type":"Polygon","coordinates":[[[139.68567,35.79629],[139.68568,35.79539],[139.68565,35.7954],[139.68554,35.79367],[139.68524,35.79124],[139.68466,35.79152],[139.684,35.79177],[139.68308,35.79199],[139.68193,35.79205],[139.68082,35.79197],[139.68005,35.79187],[139.67993,35.7928],[139.67991,35.7933],[139.68002,35.79354],[139.68036,35.79387],[139.68058,35.79417],[139.68069,35.7945],[139.68081,35.7957],[139.68378,35.79589],[139.68484,35.7962],[139.68558,35.79637],[139.68567,35.79629]]]}},{"type":"Feature","properties":{"id":"area-13119057004","name":"舟渡四丁目"},"geometry":{"type":"Polygon","coordinates":[[[139.67867,35.79571],[139.68081,35.7957],[139.68069,35.7945],[139.68058,35.79417],[139.68036,35.79387],[139.68002,35.79354],[139.67991,35.7933],[139.67993,35.7928],[139.68005,35.79187],[139.677,35.79132],[139.67582,35.79121],[139.67503,35.79121],[139.67394,35.79125],[139.67292,35.7914],[139.67108,35.79178],[139.67173,35.79375],[139.67136,35.79487],[139.67108,35.79528],[139.67103,35.79559],[139.67078,35.79627],[139.67087,35.79684],[139.67589,35.79601],[139.67723,35.79583],[139.67867,35.79571]]]}}]}