{"type":"FeatureCollection","features":[{"type":"Feature","properties":{"id":"area-13113001001","name":"恵比寿一丁目"},"geometry":{"type":"Polygon","coordinates":[[[139.71457,35.64793],[139.71518,35.64792],[139.71644,35.6481],[139.71757,35.64816],[139.7177,35.6473],[139.71755,35.64724],[139.71755,35.64718],[139.71647,35.64564],[139.71642,35.64564],[139.71266,35.64618],[139.71263,35.64624],[139.7126,35.64625],[139.71254,35.64625],[139.71245,35.6462],[139.71218,35.64628],[139.71198,35.64623],[139.71115,35.6463],[139.71098,35.64642],[139.71078,35.64679],[139.71045,35.64701],[139.71021,35.64708],[139.70968,35.64784],[139.70957,35.64806],[139.70958,35.64814],[139.70985,35.64828],[139.70988,35.64837],[139.71006,35.6484],[139.71069,35.64876],[139.71098,35.6485],[139.7112,35.64844],[139.71157,35.64841],[139.71205,35.64816],[139.71243,35.6481],[139.71362,35.64805],[139.71457,35.64793]]]}},{"type":"Feature","properties":{"id":"area-13113001002","name":"恵比寿二丁目"},"geometry":{"type":"Polygon","coordinates":[[[139.7231,35.64586],[139.72308,35.64549],[139.723,35.64546],[139.72291,35.64554],[139.72277,35.64551],[139.72298,35.64531],[139.72293,35.64508],[139.72284,35.64491],[139.72277,35.64492],[139.72272,35.64485],[139.7227,35.64471],[139.72202,35.64479],[139.72191,35.64492],[139.72166,35.64488],[139.71967,35.64516],[139.71935,35.64522],[139.71929,35.64528],[139.71903,35.64525],[139.71647,35.64564],[139.71755,35.64718],[139.71755,35.64724],[139.7177,35.6473],[139.71757,35.64816],[139.71779,35.64819],[139.71833,35.64836],[139.71855,35.64839],[139.7191,35.64836],[139.71969,35.64824],[139.72025,35.6481],[139.7206,35.64792],[139.72235,35.64747],[139.72309,35.64741],[139.7232,35.64738],[139.72326,35.64727],[139.72356,35.647],[139.72391,35.64675],[139.72327,35.6461],[139.72323,35.64599],[139.7231,35.64586]]]}},{"type":"Feature","properties":{"id":"area-13113001003","name":"恵比寿三丁目"},"geometry":{"type":"Polygon","coordinates":[[[139.71642,35.64564],[139.71903,35.64525],[139.71929,35.64528],[139.71935,35.64522],[139.71967,35.64516],[139.72166,35.64488],[139.72191,35.64492],[139.72202,35.64479],[139.7227,35.64471],[139.72269,35.64464],[139.72235,35.64448],[139.72238,35.64443],[139.72225,35.64437],[139.72196,35.64437],[139.72154,35.64448],[139.72124,35.64429],[139.72098,35.64416],[139.7209,35.64389],[139.72109,35.64383],[139.72117,35.64377],[139.72118,35.64373],[139.71987,35.64202],[139.71967,35.64194],[139.71907,35.64157],[139.71731,35.64158],[139.71704,35.64171],[139.71676,35.64175],[139.7165,35.64191],[139.7163,35.6421],[139.71622,35.64211],[139.71592,35.64233],[139.7157,35.64254],[139.71561,35.64268],[139.71554,35.64297],[139.71531,35.64325],[139.71526,35.64386],[139.71548,35.6442],[139.71543,35.64436],[139.71554,35.64436],[139.71635,35.64547],[139.71633,35.64552],[139.71642,35.64564]]]}},{"type":"Feature","properties":{"id":"area-13113001004","name":"恵比寿四丁目"},"geometry":{"type":"Polygon","coordinates":[[[139.70968,35.64784],[139.71021,35.64708],[139.71045,35.64701],[139.71078,35.64679],[139.71098,35.64642],[139.71115,35.6463],[139.71198,35.64623],[139.71218,35.64628],[139.71245,35.6462],[139.71254,35.64625],[139.7126,35.64625],[139.71263,35.64624],[139.71266,35.64618],[139.71642,35.64564],[139.71633,35.64552],[139.71635,35.64547],[139.71554,35.64436],[139.71543,35.64436],[139.71548,35.6442],[139.71526,35.64386],[139.71531,35.64325],[139.71554,35.64297],[139.71561,35.64268],[139.7157,35.64254],[139.71551,35.64248],[139.71512,35.64246],[139.71513,35.64227],[139.71503,35.64227],[139.71504,35.6422],[139.71464,35.6422],[139.71465,35.64227],[139.71456,35.64227],[139.71456,35.64234],[139.71445,35.64236],[139.71444,35.64243],[139.71358,35.64239],[139.71383,35.64219],[139.71374,35.64212],[139.71383,35.64204],[139.71362,35.64186],[139.71353,35.64193],[139.71335,35.642],[139.7131,35.64219],[139.71313,35.64221],[139.71306,35.64232],[139.71311,35.64236],[139.71232,35.64233],[139.71212,35.64281],[139.71166,35.64364],[139.71046,35.64563],[139.70933,35.6478],[139.70956,35.64802],[139.70957,35.64806],[139.70968,35.64784]]]}},{"type":"Feature","properties":{"id":"area-13113002001","name":"広尾一丁目"},"geometry":{"type":"Polygon","coordinates":[[[139.71474,35.6494],[139.71599,35.64957],[139.71715,35.64987],[139.71723,35.64908],[139.71732,35.64887],[139.71732,35.64875],[139.71751,35.64849],[139.71757,35.64816],[139.71644,35.6481],[139.71518,35.64792],[139.71496,35.64791],[139.71457,35.64793],[139.71362,35.64805],[139.71243,35.6481],[139.71197,35.64818],[139.71157,35.64841],[139.7112,35.64844],[139.71098,35.6485],[139.71069,35.64876],[139.71094,35.6489],[139.71097,35.64904],[139.71108,35.64917],[139.71137,35.64923],[139.71281,35.65154],[139.71353,35.6506],[139.71445,35.64964],[139.71474,35.6494]]]}},{"type":"Feature","properties":{"id":"area-13113002002","name":"広尾二丁目"},"geometry":{"type":"Polygon","coordinates":[[[139.71786,35.65347],[139.71788,35.65156],[139.71808,35.65152],[139.71811,35.65131],[139.71864,35.65134],[139.71867,35.65094],[139.7191,35.65096],[139.7191,35.65099],[139.71944,35.65101],[139.71945,35.65092],[139.71951,35.65092],[139.71952,35.65045],[139.71917,35.65039],[139.71763,35.64998],[139.71752,35.65],[139.71747,35.64995],[139.71599,35.64957],[139.71477,35.64939],[139.71445,35.64964],[139.71353,35.6506],[139.71281,35.65154],[139.7132,35.65223],[139.71331,35.65271],[139.71324,35.65276],[139.71322,35.65284],[139.71333,35.65294],[139.7135,35.65291],[139.71358,35.65281],[139.71559,35.65227],[139.71561,35.65281],[139.71718,35.65283],[139.71717,35.65367],[139.71796,35.65361],[139.71797,35.65348],[139.71786,35.65347]]]}},{"type":"Feature","properties":{"id":"area-13113002003","name":"広尾三丁目"},"geometry":{"type":"Polygon","coordinates":[[[139.71718,35.65283],[139.71561,35.65281],[139.71559,35.65227],[139.71358,35.65281],[139.7135,35.65291],[139.71333,35.65294],[139.71359,35.65417],[139.71359,35.6543],[139.71353,35.65462],[139.71354,35.65492],[139.71374,35.65596],[139.71402,35.65675],[139.71403,35.65684],[139.71396,35.65711],[139.71433,35.65723],[139.71436,35.65733],[139.71441,35.65737],[139.71472,35.65717],[139.71505,35.65705],[139.71532,35.65698],[139.71671,35.65681],[139.71791,35.65641],[139.71715,35.65498],[139.71718,35.65283]]]}},{"type":"Feature","properties":{"id":"area-13113002004","name":"広尾四丁目"},"geometry":{"type":"Polygon","coordinates":[[[139.71825,35.65707],[139.72204,35.65573],[139.7221,35.65574],[139.72296,35.65636],[139.72298,35.65629],[139.7229,35.65591],[139.72168,35.65392],[139.72165,35.65365],[139.72174,35.65346],[139.72174,35.65329],[139.72178,35.65292],[139.72183,35.65277],[139.72195,35.65261],[139.72173,35.65253],[139.72162,35.6524],[139.72175,35.6524],[139.72185,35.65155],[139.72181,35.65136],[139.72156,35.65117],[139.72141,35.65113],[139.72103,35.65093],[139.71989,35.65053],[139.71952,35.65045],[139.71951,35.65092],[139.71945,35.65092],[139.71944,35.65101],[139.7191,35.65099],[139.7191,35.65096],[139.71867,35.65094],[139.71864,35.65134],[139.71811,35.65131],[139.71808,35.65152],[139.71788,35.65156],[139.71786,35.65347],[139.71797,35.65348],[139.71796,35.65361],[139.71717,35.65367],[139.71717,35.65503],[139.71825,35.65707]]]}},{"type":"Feature","properties":{"id":"area-13113002005","name":"広尾五丁目"},"geometry":{"type":"Polygon","coordinates":[[[139.72208,35.65239],[139.72213,35.65121],[139.72219,35.65102],[139.72258,35.65002],[139.72265,35.64966],[139.7228,35.64969],[139.72285,35.64946],[139.72293,35.64947],[139.723,35.6493],[139.72309,35.64931],[139.72314,35.64921],[139.72276,35.64916],[139.72305,35.6479],[139.72309,35.64741],[139.72235,35.64747],[139.7206,35.64792],[139.72025,35.6481],[139.7191,35.64836],[139.71855,35.64839],[139.71833,35.64836],[139.71779,35.64819],[139.71757,35.64816],[139.71751,35.64849],[139.71732,35.64875],[139.71732,35.64887],[139.71723,35.64908],[139.71715,35.64987],[139.71747,35.64995],[139.71752,35.65],[139.71763,35.64998],[139.71917,35.65039],[139.71989,35.65053],[139.72103,35.65093],[139.72141,35.65113],[139.72156,35.65117],[139.72181,35.65136],[139.72185,35.65155],[139.72175,35.65238],[139.72178,35.65234],[139.72198,35.65236],[139.72198,35.65239],[139.72208,35.65239]]]}},{"type":"Feature","properties":{"id":"area-13113003001","name":"東一丁目"},"geometry":{"type":"Polygon","coordinates":[[[139.71097,35.65582],[139.7079,35.65409],[139.70766,35.65366],[139.70753,35.65347],[139.70726,35.65325],[139.70706,35.65285],[139.70658,35.65219],[139.70547,35.65346],[139.70657,35.65501],[139.70661,35.655],[139.70669,35.65521],[139.7067,35.6553],[139.70828,35.65802],[139.70842,35.65817],[139.70855,35.65821],[139.7101,35.65834],[139.71034,35.65832],[139.71048,35.65823],[139.71058,35.65802],[139.71087,35.65728],[139.71079,35.65719],[139.71097,35.65582]]]}},{"type":"Feature","properties":{"id":"area-13113003002","name":"東二丁目"},"geometry":{"type":"Polygon","coordinates":[[[139.70897,35.65135],[139.70773,35.65084],[139.70749,35.65115],[139.70705,35.65162],[139.70658,35.65219],[139.70706,35.65285],[139.70726,35.65325],[139.70753,35.65347],[139.70766,35.65366],[139.7079,35.65409],[139.71097,35.65582],[139.71119,35.65509],[139.71178,35.65395],[139.7119,35.65275],[139.71205,35.65261],[139.71213,35.65258],[139.71106,35.65231],[139.71096,35.65219],[139.71013,35.65169],[139.70897,35.65135]]]}},{"type":"Feature","properties":{"id":"area-13113003003","name":"東三丁目"},"geometry":{"type":"Polygon","coordinates":[[[139.70956,35.64802],[139.70933,35.64781],[139.70868,35.64914],[139.70773,35.65084],[139.70897,35.65135],[139.71013,35.65169],[139.71096,35.65219],[139.71106,35.65231],[139.71322,35.65284],[139.71324,35.65276],[139.71331,35.65271],[139.7132,35.65223],[139.71306,35.65194],[139.71137,35.64923],[139.71108,35.64917],[139.71097,35.64904],[139.71094,35.6489],[139.71006,35.6484],[139.70988,35.64837],[139.70985,35.64828],[139.70958,35.64814],[139.70956,35.64802]]]}},{"type":"Feature","properties":{"id":"area-13113003004","name":"東四丁目"},"geometry":{"type":"Polygon","coordinates":[[[139.71289,35.65858],[139.7129,35.65845],[139.71297,35.65846],[139.71301,35.65839],[139.71323,35.65823],[139.71322,35.6582],[139.71355,35.65802],[139.71396,35.65764],[139.71441,35.65737],[139.71436,35.65733],[139.71433,35.65723],[139.71396,35.65711],[139.71403,35.65684],[139.71402,35.65675],[139.71374,35.65596],[139.71354,35.65492],[139.71353,35.65462],[139.71359,35.6543],[139.71359,35.65417],[139.71333,35.65294],[139.71322,35.65284],[139.71213,35.65258],[139.71205,35.65261],[139.7119,35.65275],[139.71178,35.65395],[139.71119,35.65509],[139.71097,35.65582],[139.71079,35.65719],[139.71087,35.65728],[139.7127,35.65806],[139.71257,35.65856],[139.71279,35.65854],[139.71284,35.65861],[139.71338,35.65867],[139.71331,35.65862],[139.71289,35.65858]]]}},{"type":"Feature","properties":{"id":"area-13113004001","name":"恵比寿南一丁目"},"geometry":{"type":"Polygon","coordinates":[[[139.712,35.64232],[139.71161,35.64224],[139.71156,35.64262],[139.71113,35.64297],[139.70963,35.64409],[139.70789,35.64576],[139.70755,35.64616],[139.70747,35.64636],[139.70758,35.64638],[139.70816,35.64669],[139.70924,35.64781],[139.70933,35.6478],[139.71046,35.64563],[139.71166,35.64364],[139.71212,35.64281],[139.71232,35.64233],[139.712,35.64232]]]}},{"type":"Feature","properties":{"id":"area-13113004002","name":"恵比寿南二丁目"},"geometry":{"type":"Polygon","coordinates":[[[139.70747,35.64636],[139.70762,35.64605],[139.70789,35.64576],[139.70963,35.64409],[139.71113,35.64297],[139.71156,35.64262],[139.71161,35.64224],[139.71048,35.64201],[139.71037,35.64168],[139.71032,35.64164],[139.70891,35.64207],[139.70874,35.64216],[139.70839,35.64235],[139.70764,35.64286],[139.7074,35.64306],[139.70733,35.64398],[139.70716,35.64431],[139.70727,35.64469],[139.70733,35.64527],[139.70716,35.64558],[139.70676,35.64613],[139.70669,35.64635],[139.70716,35.64633],[139.70747,35.64636]]]}},{"type":"Feature","properties":{"id":"area-13113004003","name":"恵比寿南三丁目"},"geometry":{"type":"Polygon","coordinates":[[[139.70592,35.64639],[139.70669,35.64635],[139.70676,35.64613],[139.70716,35.64558],[139.70733,35.64527],[139.70727,35.64469],[139.70716,35.64431],[139.70733,35.64398],[139.7074,35.64306],[139.70726,35.64302],[139.7069,35.64328],[139.70688,35.64334],[139.70691,35.64342],[139.70596,35.64395],[139.70586,35.64395],[139.70576,35.64402],[139.70577,35.64407],[139.70531,35.64434],[139.70525,35.64443],[139.70497,35.64462],[139.70426,35.64501],[139.70291,35.64603],[139.70243,35.64632],[139.70234,35.64633],[139.70229,35.64638],[139.70219,35.64635],[139.70212,35.64644],[139.70219,35.64647],[139.70204,35.64657],[139.70202,35.64662],[139.70246,35.64683],[139.70263,35.64675],[139.70467,35.64657],[139.70592,35.64639]]]}},{"type":"Feature","properties":{"id":"area-13113005001","name":"恵比寿西一丁目"},"geometry":{"type":"Polygon","coordinates":[[[139.70862,35.64926],[139.70933,35.6478],[139.70924,35.64781],[139.70919,35.64776],[139.70816,35.64669],[139.70758,35.64638],[139.70716,35.64633],[139.70592,35.64639],[139.70467,35.64657],[139.70263,35.64675],[139.70246,35.64683],[139.70194,35.64759],[139.70196,35.64802],[139.70246,35.64784],[139.70307,35.6478],[139.70422,35.64788],[139.70453,35.64797],[139.70528,35.64846],[139.70586,35.64876],[139.7061,35.64881],[139.70656,35.64882],[139.70719,35.64896],[139.70744,35.64915],[139.70798,35.6489],[139.70805,35.64895],[139.70814,35.64913],[139.70826,35.64917],[139.70862,35.64926]]]}},{"type":"Feature","properties":{"id":"area-13113005002","name":"恵比寿西二丁目"},"geometry":{"type":"Polygon","coordinates":[[[139.70862,35.64926],[139.70814,35.64913],[139.70805,35.64895],[139.70798,35.6489],[139.70744,35.64915],[139.70719,35.64896],[139.70656,35.64882],[139.7061,35.64881],[139.70586,35.64876],[139.70528,35.64846],[139.70443,35.64792],[139.70422,35.64788],[139.70324,35.64781],[139.70324,35.64802],[139.70327,35.64806],[139.70405,35.6486],[139.70424,35.64877],[139.70457,35.64916],[139.70471,35.64949],[139.70541,35.65075],[139.70653,35.65225],[139.70705,35.65162],[139.70749,35.65115],[139.70776,35.6508],[139.70798,35.65043],[139.70862,35.64926]]]}},{"type":"Feature","properties":{"id":"area-131130060","name":"代官山町"},"geometry":{"type":"Polygon","coordinates":[[[139.70324,35.64781],[139.70246,35.64784],[139.70196,35.64802],[139.70198,35.6484],[139.70209,35.64878],[139.70259,35.64986],[139.70313,35.65054],[139.70381,35.65113],[139.70425,35.65161],[139.70546,35.65348],[139.70653,35.65225],[139.70541,35.65075],[139.70471,35.64949],[139.70457,35.64916],[139.70424,35.64877],[139.70405,35.6486],[139.70327,35.64806],[139.70324,35.64802],[139.70324,35.64781]]]}},{"type":"Feature","properties":{"id":"area-131130070","name":"猿楽町"},"geometry":{"type":"Polygon","coordinates":[[[139.70519,35.65373],[139.70546,35.65348],[139.70542,35.65339],[139.70425,35.65161],[139.70381,35.65113],[139.70313,35.65054],[139.70259,35.64986],[139.70209,35.64878],[139.70198,35.6484],[139.70194,35.64759],[139.70246,35.64683],[139.70202,35.64662],[139.70197,35.64674],[139.70192,35.64673],[139.70151,35.64702],[139.70096,35.6471],[139.70058,35.64719],[139.7002,35.64733],[139.70021,35.64762],[139.7001,35.64758],[139.6996,35.64786],[139.6998,35.64812],[139.69942,35.64838],[139.69936,35.64829],[139.69892,35.64853],[139.69911,35.64874],[139.69908,35.64876],[139.69909,35.6488],[139.69822,35.64942],[139.69951,35.65048],[139.70166,35.65163],[139.70252,35.65222],[139.70262,35.65222],[139.70433,35.65333],[139.70475,35.65351],[139.70484,35.65361],[139.70519,35.65373]]]}},{"type":"Feature","properties":{"id":"area-131130080","name":"鉢山町"},"geometry":{"type":"Polygon","coordinates":[[[139.69991,35.65212],[139.70005,35.65162],[139.70035,35.65164],[139.70069,35.65171],[139.70092,35.65123],[139.69951,35.65048],[139.69822,35.64942],[139.69673,35.65074],[139.69651,35.65075],[139.69608,35.65086],[139.69616,35.65095],[139.69547,35.6516],[139.69569,35.65175],[139.69628,35.65205],[139.69804,35.65289],[139.69882,35.65351],[139.69915,35.65331],[139.69973,35.65274],[139.69981,35.65262],[139.69987,35.65244],[139.69991,35.65212]]]}},{"type":"Feature","properties":{"id":"area-131130090","name":"鴬谷町"},"geometry":{"type":"Polygon","coordinates":[[[139.70438,35.65448],[139.70519,35.65373],[139.70484,35.65361],[139.70475,35.65351],[139.70433,35.65333],[139.70262,35.65222],[139.70252,35.65222],[139.70166,35.65163],[139.70092,35.65123],[139.70069,35.65171],[139.70035,35.65164],[139.70005,35.65162],[139.69981,35.65262],[139.69973,35.65274],[139.69915,35.65331],[139.69882,35.65351],[139.69913,35.65378],[139.69934,35.6539],[139.69985,35.65411],[139.70012,35.65417],[139.70065,35.65424],[139.70099,35.65423],[139.70152,35.65416],[139.70196,35.65415],[139.70234,35.65416],[139.70281,35.65424],[139.70289,35.65419],[139.70364,35.65418],[139.70391,35.65424],[139.70438,35.65448]]]}},{"type":"Feature","properties":{"id":"area-13113010001","name":"渋谷一丁目"},"geometry":{"type":"Polygon","coordinates":[[[139.7067,35.6621],[139.70725,35.66182],[139.70764,35.66145],[139.70604,35.66038],[139.70575,35.66032],[139.70573,35.66023],[139.70441,35.65993],[139.7027,35.65966],[139.7025,35.65982],[139.70219,35.65984],[139.702,35.65957],[139.70143,35.65952],[139.70115,35.65954],[139.70127,35.66216],[139.70195,35.66201],[139.70208,35.66206],[139.70237,35.66196],[139.70233,35.66248],[139.70295,35.66415],[139.70382,35.66391],[139.70383,35.66387],[139.70532,35.66299],[139.70557,35.6628],[139.7067,35.6621]]]}},{"type":"Feature","properties":{"id":"area-13113010002","name":"渋谷二丁目"},"geometry":{"type":"Polygon","coordinates":[[[139.709,35.65997],[139.70893,35.65922],[139.70842,35.65817],[139.70828,35.65802],[139.70814,35.65803],[139.70804,35.65813],[139.70725,35.65809],[139.70719,35.65805],[139.70701,35.65804],[139.70695,35.65808],[139.7068,35.65808],[139.70471,35.65799],[139.70369,35.65791],[139.70364,35.65778],[139.70323,35.6577],[139.70305,35.65773],[139.70294,35.65766],[139.70276,35.65779],[139.70184,35.65748],[139.70137,35.65826],[139.70115,35.65895],[139.70109,35.65937],[139.70109,35.65949],[139.70115,35.65948],[139.70115,35.65954],[139.70143,35.65952],[139.702,35.65957],[139.70219,35.65984],[139.7025,35.65982],[139.7027,35.65966],[139.70441,35.65993],[139.70573,35.66023],[139.70575,35.66032],[139.70604,35.66038],[139.70764,35.66145],[139.70819,35.66177],[139.70839,35.66154],[139.70839,35.66138],[139.70869,35.661],[139.70898,35.66019],[139.709,35.65997]]]}},{"type":"Feature","properties":{"id":"area-13113010003","name":"渋谷三丁目"},"geometry":{"type":"Polygon","coordinates":[[[139.70804,35.65813],[139.70814,35.65803],[139.70828,35.65802],[139.7067,35.6553],[139.70669,35.65521],[139.70661,35.655],[139.70657,35.65501],[139.70547,35.65346],[139.70438,35.65448],[139.70253,35.65658],[139.70214,35.65704],[139.70184,35.65748],[139.70276,35.65779],[139.70294,35.65766],[139.70305,35.65773],[139.70323,35.6577],[139.70364,35.65778],[139.70369,35.65791],[139.70471,35.65799],[139.7068,35.65808],[139.70695,35.65808],[139.70701,35.65804],[139.70719,35.65805],[139.70725,35.65809],[139.70804,35.65813]]]}},{"type":"Feature","properties":{"id":"area-13113010004","name":"渋谷四丁目"},"geometry":{"type":"Polygon","coordinates":[[[139.71284,35.65861],[139.71279,35.65854],[139.71257,35.65856],[139.7127,35.65806],[139.71087,35.65728],[139.71048,35.65823],[139.71034,35.65832],[139.7101,35.65834],[139.70855,35.65821],[139.70842,35.65817],[139.70893,35.65922],[139.709,35.65997],[139.70898,35.66019],[139.70869,35.661],[139.70839,35.66138],[139.70839,35.66154],[139.70819,35.66177],[139.70963,35.66264],[139.7103,35.66307],[139.71028,35.6631],[139.71045,35.66298],[139.71038,35.66293],[139.71187,35.66126],[139.71195,35.66116],[139.71198,35.66104],[139.7122,35.66081],[139.71398,35.65975],[139.71362,35.65922],[139.71338,35.65867],[139.71284,35.65861]]]}},{"type":"Feature","properties":{"id":"area-131130110","name":"桜丘町"},"geometry":{"type":"Polygon","coordinates":[[[139.70214,35.65704],[139.70439,35.65448],[139.70391,35.65424],[139.70364,35.65418],[139.70289,35.65419],[139.70281,35.65424],[139.70234,35.65416],[139.70196,35.65415],[139.70152,35.65416],[139.70099,35.65423],[139.70065,35.65424],[139.70012,35.65417],[139.69985,35.65411],[139.69955,35.654],[139.699,35.65368],[139.69862,35.65408],[139.69842,35.65439],[139.69818,35.65497],[139.69811,35.65502],[139.69745,35.65601],[139.70072,35.65705],[139.70093,35.65702],[139.70125,35.65722],[139.70146,35.6573],[139.70156,35.6573],[139.70161,35.65735],[139.70187,35.65743],[139.70214,35.65704]]]}},{"type":"Feature","properties":{"id":"area-131130120","name":"南平台町"},"geometry":{"type":"Polygon","coordinates":[[[139.69804,35.65289],[139.69569,35.65175],[139.69547,35.65193],[139.69342,35.65379],[139.69397,35.65425],[139.69488,35.65542],[139.69564,35.65556],[139.69745,35.65601],[139.69811,35.65502],[139.69818,35.65497],[139.69842,35.65439],[139.69862,35.65408],[139.699,35.65368],[139.69804,35.65289]]]}},{"type":"Feature","properties":{"id":"area-13113013001","name":"道玄坂一丁目"},"geometry":{"type":"Polygon","coordinates":[[[139.70046,35.65889],[139.70115,35.65895],[139.70137,35.65826],[139.70187,35.65743],[139.70161,35.65735],[139.70156,35.6573],[139.70146,35.6573],[139.70125,35.65722],[139.70093,35.65702],[139.70072,35.65705],[139.69745,35.65601],[139.69564,35.65556],[139.69488,35.65542],[139.69597,35.65713],[139.69633,35.65758],[139.69773,35.65801],[139.69768,35.65814],[139.69861,35.65842],[139.6991,35.65869],[139.6995,35.65884],[139.70001,35.65896],[139.70003,35.6589],[139.70046,35.65889]]]}},{"type":"Feature","properties":{"id":"area-13113013002","name":"道玄坂二丁目"},"geometry":{"type":"Polygon","coordinates":[[[139.69909,35.65977],[139.69952,35.65958],[139.70026,35.65966],[139.70057,35.65966],[139.7008,35.65953],[139.70109,35.65949],[139.70115,35.65895],[139.70059,35.65889],[139.70003,35.6589],[139.70001,35.65896],[139.6995,35.65884],[139.6991,35.65869],[139.69861,35.65842],[139.69768,35.65814],[139.69773,35.65801],[139.69633,35.65758],[139.6962,35.65744],[139.69587,35.65769],[139.69544,35.65843],[139.69541,35.65889],[139.6955,35.65981],[139.6955,35.66006],[139.69553,35.66016],[139.69562,35.6602],[139.69537,35.66071],[139.69595,35.66102],[139.69623,35.66122],[139.69643,35.66097],[139.69668,35.66075],[139.69712,35.66048],[139.6986,35.65992],[139.69909,35.65977]]]}},{"type":"Feature","properties":{"id":"area-131130140","name":"円山町"},"geometry":{"type":"Polygon","coordinates":[[[139.69597,35.65713],[139.69488,35.65542],[139.69455,35.65499],[139.69352,35.65578],[139.69345,35.65576],[139.6933,35.65607],[139.69323,35.65701],[139.6935,35.65706],[139.69367,35.65713],[139.69388,35.65714],[139.6939,35.65718],[139.69389,35.65731],[139.69362,35.65816],[139.69367,35.65894],[139.69363,35.65908],[139.69421,35.65936],[139.69497,35.65986],[139.6955,35.66006],[139.6955,35.65981],[139.69541,35.65889],[139.69544,35.65843],[139.69587,35.65769],[139.6962,35.65744],[139.69597,35.65713]]]}},{"type":"Feature","properties":{"id":"area-131130150","name":"神泉町"},"geometry":{"type":"Polygon","coordinates":[[[139.6933,35.65607],[139.69345,35.65576],[139.69352,35.65578],[139.69455,35.65499],[139.69397,35.65425],[139.69342,35.65379],[139.69297,35.65422],[139.69204,35.65542],[139.69195,35.65541],[139.69186,35.65553],[139.69182,35.65552],[139.69155,35.6559],[139.69075,35.65682],[139.69004,35.65779],[139.69091,35.65787],[139.69109,35.65792],[139.69363,35.65908],[139.69367,35.65894],[139.69362,35.65816],[139.69389,35.65731],[139.6939,35.65718],[139.69388,35.65714],[139.69367,35.65713],[139.6935,35.65706],[139.69323,35.65701],[139.6933,35.65607]]]}},{"type":"Feature","properties":{"id":"area-13113016001","name":"松涛一丁目"},"geometry":{"type":"Polygon","coordinates":[[[139.69358,35.66267],[139.69403,35.66232],[139.69463,35.66284],[139.69527,35.66232],[139.69623,35.66122],[139.69595,35.66102],[139.69537,35.66071],[139.69562,35.6602],[139.69553,35.66016],[139.6955,35.66006],[139.69497,35.65986],[139.69421,35.65936],[139.69261,35.65862],[139.69211,35.65929],[139.69194,35.65933],[139.69178,35.65948],[139.68945,35.6622],[139.69149,35.66314],[139.69358,35.66267]]]}},{"type":"Feature","properties":{"id":"area-13113016002","name":"松涛二丁目"},"geometry":{"type":"Polygon","coordinates":[[[139.69261,35.65862],[139.69109,35.65792],[139.69091,35.65787],[139.69004,35.65779],[139.68946,35.65845],[139.68935,35.65841],[139.68902,35.65873],[139.68887,35.65909],[139.6888,35.65917],[139.68852,35.65972],[139.68821,35.66],[139.68821,35.66008],[139.68836,35.66018],[139.688,35.66107],[139.68778,35.66124],[139.68945,35.6622],[139.69178,35.65948],[139.69194,35.65933],[139.69211,35.65929],[139.69261,35.65862]]]}},{"type":"Feature","properties":{"id":"area-131130170","name":"神山町"},"geometry":{"type":"Polygon","coordinates":[[[139.69372,35.66606],[139.69552,35.66357],[139.69462,35.66285],[139.69403,35.66232],[139.69351,35.6627],[139.69149,35.66314],[139.68945,35.6622],[139.68803,35.66139],[139.68759,35.66177],[139.68754,35.66192],[139.68753,35.66211],[139.68758,35.66256],[139.68769,35.66308],[139.68776,35.66407],[139.6878,35.66413],[139.688,35.66418],[139.68841,35.66416],[139.68847,35.66425],[139.68901,35.66426],[139.6894,35.66438],[139.69021,35.66518],[139.69076,35.66553],[139.6915,35.66575],[139.69201,35.66572],[139.69322,35.66638],[139.69372,35.66606]]]}},{"type":"Feature","properties":{"id":"area-131130180","name":"宇田川町"},"geometry":{"type":"Polygon","coordinates":[[[139.70069,35.65987],[139.70057,35.65966],[139.70026,35.65966],[139.69952,35.65958],[139.69909,35.65977],[139.6986,35.65992],[139.69712,35.66048],[139.69668,35.66075],[139.69643,35.66097],[139.69527,35.66232],[139.69462,35.66285],[139.69552,35.66357],[139.6968,35.66439],[139.69726,35.6645],[139.69876,35.66473],[139.699,35.66428],[139.69922,35.66335],[139.69928,35.66239],[139.69946,35.66198],[139.70079,35.66098],[139.70079,35.6605],[139.70069,35.65987]]]}},{"type":"Feature","properties":{"id":"area-13113019001","name":"神南一丁目"},"geometry":{"type":"Polygon","coordinates":[[[139.70127,35.66216],[139.70115,35.65948],[139.7008,35.65953],[139.70057,35.65966],[139.70069,35.65987],[139.70075,35.66017],[139.70079,35.6605],[139.70079,35.66098],[139.69946,35.66198],[139.69928,35.66239],[139.69922,35.66335],[139.699,35.66428],[139.69876,35.66473],[139.69934,35.66511],[139.70071,35.66649],[139.70092,35.66659],[139.70117,35.66665],[139.70179,35.66672],[139.70157,35.66514],[139.70153,35.66504],[139.70162,35.66501],[139.70141,35.66355],[139.70127,35.66216]]]}},{"type":"Feature","properties":{"id":"area-13113019002","name":"神南二丁目"},"geometry":{"type":"Polygon","coordinates":[[[139.6968,35.66439],[139.69552,35.66357],[139.69372,35.66606],[139.69357,35.66617],[139.69296,35.66651],[139.69265,35.66672],[139.69183,35.66783],[139.69303,35.66818],[139.70013,35.66845],[139.70203,35.66915],[139.70187,35.66828],[139.70179,35.66672],[139.70117,35.66665],[139.70092,35.66659],[139.70071,35.66649],[139.69934,35.66511],[139.69876,35.66473],[139.69697,35.66444],[139.6968,35.66439]]]}},{"type":"Feature","properties":{"id":"area-131130200","name":"代々木神園町"},"geometry":{"type":"Polygon","coordinates":[[[139.70006,35.68043],[139.70344,35.67874],[139.70354,35.67887],[139.70364,35.67854],[139.70373,35.67803],[139.70381,35.67727],[139.70389,35.67616],[139.70389,35.67568],[139.70384,35.67529],[139.7036,35.67448],[139.70303,35.6729],[139.70298,35.6729],[139.70254,35.67172],[139.70231,35.67072],[139.70226,35.67024],[139.70227,35.66987],[139.70216,35.66946],[139.70203,35.66915],[139.70013,35.66845],[139.69303,35.66818],[139.69183,35.66783],[139.69137,35.66825],[139.69104,35.66871],[139.69083,35.66914],[139.69072,35.66956],[139.69072,35.66998],[139.69078,35.67038],[139.69086,35.67079],[139.69089,35.67077],[139.69114,35.67254],[139.69137,35.67357],[139.69158,35.67445],[139.69203,35.67517],[139.69225,35.67542],[139.69335,35.67727],[139.69375,35.67833],[139.69418,35.67922],[139.69419,35.67929],[139.69461,35.67996],[139.69469,35.67991],[139.69555,35.68008],[139.69609,35.68029],[139.69807,35.68149],[139.70008,35.68049],[139.70006,35.68043]]]}},{"type":"Feature","properties":{"id":"area-13113021001","name":"上原一丁目"},"geometry":{"type":"Polygon","coordinates":[[[139.68811,35.66772],[139.67844,35.6682],[139.67829,35.66827],[139.67932,35.66878],[139.68167,35.66983],[139.68197,35.66992],[139.68277,35.67007],[139.68313,35.67011],[139.68342,35.67011],[139.68407,35.67004],[139.68768,35.66944],[139.68807,35.66942],[139.68811,35.66772]]]}},{"type":"Feature","properties":{"id":"area-13113021002","name":"上原二丁目"},"geometry":{"type":"Polygon","coordinates":[[[139.68282,35.66333],[139.68267,35.66305],[139.68243,35.66309],[139.68192,35.66325],[139.6806,35.66381],[139.68015,35.66393],[139.67954,35.66403],[139.67769,35.66413],[139.67773,35.66433],[139.67799,35.66471],[139.67841,35.66513],[139.67871,35.6653],[139.67984,35.66615],[139.68037,35.66644],[139.68053,35.66657],[139.68157,35.66754],[139.68199,35.66802],[139.68584,35.66783],[139.68495,35.66737],[139.68463,35.66716],[139.68457,35.6666],[139.68457,35.66627],[139.68451,35.66602],[139.68435,35.66564],[139.68322,35.66389],[139.68287,35.66337],[139.68282,35.66333]]]}},{"type":"Feature","properties":{"id":"area-13113021003","name":"上原三丁目"},"geometry":{"type":"Polygon","coordinates":[[[139.67769,35.66413],[139.67512,35.66403],[139.67463,35.66431],[139.67438,35.66463],[139.67379,35.66564],[139.6737,35.66585],[139.67417,35.66616],[139.67604,35.66711],[139.67799,35.66806],[139.67829,35.66827],[139.67844,35.6682],[139.68199,35.66802],[139.68157,35.66754],[139.68053,35.66657],[139.68037,35.66644],[139.67984,35.66615],[139.67871,35.6653],[139.67841,35.66513],[139.67799,35.66471],[139.67773,35.66433],[139.67769,35.66413]]]}},{"type":"Feature","properties":{"id":"area-13113022001","name":"富ケ谷一丁目"},"geometry":{"type":"Polygon","coordinates":[[[139.69003,35.67044],[139.69045,35.67024],[139.69062,35.67036],[139.69078,35.67038],[139.69072,35.66998],[139.69072,35.66956],[139.69083,35.66914],[139.69104,35.66871],[139.69137,35.66825],[139.69183,35.66783],[139.69265,35.66672],[139.69296,35.66651],[139.69322,35.66638],[139.69201,35.66572],[139.6915,35.66575],[139.69076,35.66553],[139.69021,35.66518],[139.6894,35.66438],[139.68901,35.66426],[139.68847,35.66425],[139.68841,35.66416],[139.688,35.66418],[139.6878,35.66413],[139.68788,35.66518],[139.68802,35.66565],[139.68817,35.66637],[139.68806,35.66941],[139.68832,35.66943],[139.68837,35.6694],[139.68898,35.66955],[139.68955,35.66992],[139.68987,35.67022],[139.69003,35.67044]]]}},{"type":"Feature","properties":{"id":"area-13113022002","name":"富ケ谷二丁目"},"geometry":{"type":"Polygon","coordinates":[[[139.68584,35.66783],[139.68811,35.66772],[139.68817,35.66637],[139.68802,35.66565],[139.68788,35.66518],[139.6878,35.66413],[139.68776,35.66407],[139.68769,35.66308],[139.68758,35.66256],[139.68753,35.66211],[139.68754,35.66192],[139.68759,35.66177],[139.68803,35.66139],[139.68778,35.66124],[139.68724,35.66169],[139.68716,35.66165],[139.6868,35.66201],[139.68577,35.66227],[139.68573,35.6623],[139.68583,35.66246],[139.68405,35.66308],[139.68387,35.66309],[139.68296,35.66302],[139.68267,35.66305],[139.68282,35.66335],[139.68287,35.66337],[139.68322,35.66389],[139.68435,35.66564],[139.68451,35.66602],[139.68457,35.66627],[139.68457,35.6666],[139.68463,35.66716],[139.68495,35.66737],[139.68584,35.66783]]]}},{"type":"Feature","properties":{"id":"area-13113023001","name":"西原一丁目"},"geometry":{"type":"Polygon","coordinates":[[[139.68476,35.67377],[139.68423,35.67303],[139.68412,35.67309],[139.68371,35.67293],[139.68351,35.67273],[139.68353,35.67257],[139.68337,35.67252],[139.68289,35.67219],[139.68271,35.67254],[139.68206,35.67345],[139.68157,35.67393],[139.68101,35.67424],[139.68055,35.67439],[139.68027,35.67446],[139.67905,35.67491],[139.67888,35.67503],[139.67871,35.6751],[139.67828,35.67545],[139.67715,35.67626],[139.67815,35.67697],[139.67829,35.67711],[139.67853,35.67718],[139.67862,35.67733],[139.67921,35.6777],[139.67925,35.67779],[139.68026,35.67807],[139.68133,35.67857],[139.68431,35.67508],[139.68542,35.67455],[139.68476,35.67377]]]}},{"type":"Feature","properties":{"id":"area-13113023002","name":"西原二丁目"},"geometry":{"type":"Polygon","coordinates":[[[139.68222,35.67268],[139.682,35.67259],[139.68184,35.67245],[139.68169,35.67239],[139.67986,35.67192],[139.67915,35.67163],[139.67911,35.67219],[139.67901,35.67267],[139.67791,35.67247],[139.67787,35.67243],[139.67664,35.67223],[139.67592,35.67103],[139.67301,35.67217],[139.67329,35.67273],[139.67347,35.67299],[139.67442,35.67393],[139.6756,35.67519],[139.6758,35.67529],[139.67583,35.67531],[139.67579,35.6754],[139.67652,35.67575],[139.67679,35.67594],[139.67715,35.67626],[139.67828,35.67545],[139.67871,35.6751],[139.67888,35.67503],[139.67905,35.67491],[139.68027,35.67446],[139.68055,35.67439],[139.68101,35.67424],[139.68157,35.67393],[139.68206,35.67345],[139.68243,35.67294],[139.68221,35.67284],[139.68222,35.67268]]]}},{"type":"Feature","properties":{"id":"area-13113023003","name":"西原三丁目"},"geometry":{"type":"Polygon","coordinates":[[[139.68271,35.67254],[139.68336,35.67119],[139.68357,35.67057],[139.68355,35.67036],[139.68343,35.6701],[139.68313,35.67011],[139.68277,35.67007],[139.68197,35.66992],[139.68167,35.66983],[139.67932,35.66878],[139.67835,35.66982],[139.6776,35.67027],[139.67592,35.67103],[139.67664,35.67223],[139.67787,35.67243],[139.67791,35.67247],[139.67901,35.67267],[139.67911,35.67219],[139.67915,35.67163],[139.67986,35.67192],[139.68169,35.67239],[139.68184,35.67245],[139.682,35.67259],[139.68222,35.67268],[139.68221,35.67284],[139.68243,35.67294],[139.68271,35.67254]]]}},{"type":"Feature","properties":{"id":"area-131130240","name":"元代々木町"},"geometry":{"type":"Polygon","coordinates":[[[139.68787,35.67356],[139.6879,35.6714],[139.68804,35.67013],[139.68803,35.66942],[139.68768,35.66944],[139.68407,35.67004],[139.68343,35.6701],[139.68355,35.67036],[139.68357,35.67057],[139.68336,35.67119],[139.68289,35.67219],[139.68337,35.67252],[139.68353,35.67257],[139.68351,35.67273],[139.68371,35.67293],[139.68412,35.67309],[139.68423,35.67303],[139.68476,35.67377],[139.68542,35.67455],[139.68787,35.67356]]]}},{"type":"Feature","properties":{"id":"area-131130250","name":"大山町"},"geometry":{"type":"Polygon","coordinates":[[[139.67403,35.66607],[139.6737,35.66585],[139.67325,35.66687],[139.67311,35.66726],[139.6729,35.66823],[139.67271,35.66938],[139.67265,35.6696],[139.67252,35.66982],[139.6725,35.67022],[139.67256,35.67134],[139.67264,35.67174],[139.67283,35.67222],[139.67301,35.67217],[139.67592,35.67103],[139.6776,35.67027],[139.67835,35.66982],[139.67932,35.66878],[139.67829,35.66827],[139.67799,35.66806],[139.67604,35.66711],[139.67403,35.66607]]]}},{"type":"Feature","properties":{"id":"area-13113026001","name":"初台一丁目"},"geometry":{"type":"Polygon","coordinates":[[[139.6886,35.67856],[139.68827,35.67766],[139.68736,35.67774],[139.68738,35.67785],[139.68693,35.6779],[139.68606,35.67789],[139.68504,35.67775],[139.68437,35.67769],[139.68399,35.67758],[139.68364,35.67752],[139.68333,35.67812],[139.68255,35.67785],[139.68211,35.67766],[139.68133,35.67857],[139.68246,35.67909],[139.68272,35.67917],[139.68286,35.67925],[139.68389,35.67966],[139.6848,35.6801],[139.68592,35.68078],[139.68745,35.68176],[139.68741,35.68181],[139.68837,35.68245],[139.68872,35.6821],[139.68865,35.68204],[139.68889,35.68165],[139.68897,35.68133],[139.68899,35.6811],[139.68874,35.67904],[139.6886,35.67856]]]}},{"type":"Feature","properties":{"id":"area-13113026002","name":"初台二丁目"},"geometry":{"type":"Polygon","coordinates":[[[139.68333,35.67812],[139.68364,35.67752],[139.68399,35.67758],[139.68437,35.67769],[139.68504,35.67775],[139.68606,35.67789],[139.68693,35.6779],[139.68738,35.67785],[139.68736,35.67774],[139.68827,35.67766],[139.68791,35.67681],[139.68788,35.67663],[139.68787,35.67356],[139.68542,35.67455],[139.68431,35.67508],[139.68211,35.67766],[139.68255,35.67785],[139.68333,35.67812]]]}},{"type":"Feature","properties":{"id":"area-13113027001","name":"本町一丁目"},"geometry":{"type":"Polygon","coordinates":[[[139.68629,35.68296],[139.68745,35.68176],[139.68557,35.68056],[139.6848,35.6801],[139.68446,35.67994],[139.6835,35.6795],[139.68286,35.67925],[139.68272,35.67917],[139.68246,35.67909],[139.68026,35.67807],[139.67925,35.67779],[139.67918,35.67812],[139.67924,35.679],[139.67921,35.67918],[139.67899,35.67948],[139.67852,35.67983],[139.67844,35.68],[139.6783,35.68046],[139.68069,35.6813],[139.68562,35.68411],[139.68583,35.68362],[139.68629,35.68296]]]}},{"type":"Feature","properties":{"id":"area-13113027002","name":"本町二丁目"},"geometry":{"type":"Polygon","coordinates":[[[139.68565,35.68413],[139.68091,35.68143],[139.68081,35.68158],[139.68107,35.68169],[139.68075,35.68232],[139.68037,35.68292],[139.68033,35.6829],[139.68005,35.68338],[139.67992,35.68362],[139.67994,35.68363],[139.67967,35.68407],[139.67935,35.6845],[139.67971,35.68468],[139.68043,35.68486],[139.6809,35.6851],[139.68115,35.68527],[139.68219,35.68545],[139.68374,35.68603],[139.68425,35.68612],[139.68472,35.68614],[139.68479,35.68584],[139.68497,35.6854],[139.68548,35.68453],[139.68565,35.68413]]]}},{"type":"Feature","properties":{"id":"area-13113027003","name":"本町三丁目"},"geometry":{"type":"Polygon","coordinates":[[[139.68443,35.69062],[139.6844,35.69051],[139.68434,35.69053],[139.68404,35.69018],[139.684,35.69008],[139.68378,35.68997],[139.68371,35.6898],[139.6838,35.68966],[139.68356,35.68953],[139.68342,35.68918],[139.68334,35.68918],[139.68333,35.68909],[139.68339,35.68908],[139.68317,35.6886],[139.68332,35.6885],[139.68336,35.68824],[139.68351,35.68797],[139.68396,35.68742],[139.68572,35.68778],[139.68582,35.68735],[139.68578,35.68729],[139.68555,35.68723],[139.68553,35.68718],[139.68561,35.68673],[139.68563,35.68641],[139.68472,35.68637],[139.68472,35.68614],[139.68425,35.68612],[139.68391,35.68607],[139.68353,35.68597],[139.68345,35.68614],[139.68327,35.68632],[139.6827,35.68668],[139.68222,35.68688],[139.68195,35.68707],[139.68101,35.68792],[139.68101,35.68801],[139.68063,35.68831],[139.6806,35.68837],[139.68061,35.68845],[139.67988,35.68906],[139.6802,35.68954],[139.68112,35.69028],[139.68136,35.69054],[139.6818,35.69071],[139.68197,35.69082],[139.68279,35.69144],[139.68342,35.69206],[139.6835,35.69209],[139.68444,35.69213],[139.68448,35.69211],[139.68446,35.69204],[139.68422,35.6918],[139.68488,35.69139],[139.68486,35.69128],[139.6846,35.69091],[139.68459,35.69083],[139.68455,35.69081],[139.68443,35.69062]]]}},{"type":"Feature","properties":{"id":"area-13113027004","name":"本町四丁目"},"geometry":{"type":"Polygon","coordinates":[[[139.67988,35.68906],[139.68061,35.68845],[139.6806,35.68837],[139.68063,35.68831],[139.68101,35.68801],[139.68101,35.68792],[139.68195,35.68707],[139.68222,35.68688],[139.6827,35.68668],[139.68327,35.68632],[139.68345,35.68614],[139.68353,35.68597],[139.68219,35.68545],[139.68115,35.68527],[139.6809,35.6851],[139.68043,35.68486],[139.67971,35.68468],[139.67927,35.68446],[139.67879,35.68499],[139.67818,35.68536],[139.67795,35.68554],[139.67755,35.68549],[139.67674,35.68609],[139.67628,35.68622],[139.67711,35.68681],[139.6778,35.68736],[139.67858,35.68786],[139.67951,35.68873],[139.67955,35.68873],[139.67965,35.68885],[139.67979,35.68893],[139.67988,35.68906]]]}},{"type":"Feature","properties":{"id":"area-13113027005","name":"本町五丁目"},"geometry":{"type":"Polygon","coordinates":[[[139.67674,35.68609],[139.67755,35.68549],[139.67795,35.68554],[139.67818,35.68536],[139.67879,35.68499],[139.67927,35.68446],[139.67878,35.68408],[139.67842,35.68388],[139.67823,35.6837],[139.67822,35.68358],[139.67831,35.68337],[139.67831,35.68328],[139.6782,35.68301],[139.67759,35.68272],[139.6771,35.68274],[139.67663,35.68262],[139.67622,35.68258],[139.67608,35.6825],[139.67583,35.68214],[139.67538,35.68167],[139.67492,35.68197],[139.67396,35.68288],[139.67336,35.68328],[139.6738,35.68351],[139.67408,35.68359],[139.67423,35.6837],[139.67461,35.68416],[139.67492,35.68441],[139.67485,35.6845],[139.67527,35.68467],[139.67521,35.68475],[139.67585,35.68578],[139.67628,35.68622],[139.67674,35.68609]]]}},{"type":"Feature","properties":{"id":"area-13113027006","name":"本町六丁目"},"geometry":{"type":"Polygon","coordinates":[[[139.67992,35.68362],[139.68033,35.6829],[139.68037,35.68292],[139.68075,35.68232],[139.68107,35.68169],[139.68081,35.68158],[139.68091,35.68143],[139.68069,35.6813],[139.67863,35.68057],[139.67685,35.67998],[139.67668,35.6802],[139.67611,35.6807],[139.67538,35.68167],[139.67583,35.68214],[139.67608,35.6825],[139.67622,35.68258],[139.67663,35.68262],[139.6771,35.68274],[139.67759,35.68272],[139.6782,35.68301],[139.67831,35.68328],[139.67831,35.68337],[139.67822,35.68358],[139.67823,35.6837],[139.67842,35.68388],[139.67878,35.68408],[139.67935,35.6845],[139.67967,35.68407],[139.67994,35.68363],[139.67992,35.68362]]]}},{"type":"Feature","properties":{"id":"area-13113028001","name":"笹塚一丁目"},"geometry":{"type":"Polygon","coordinates":[[[139.67109,35.67546],[139.67125,35.67526],[139.67136,35.67529],[139.67142,35.67521],[139.67132,35.67516],[139.67151,35.67478],[139.6716,35.67453],[139.67147,35.67399],[139.67165,35.67359],[139.67168,35.6734],[139.67163,35.67283],[139.67173,35.67214],[139.67178,35.67212],[139.67182,35.67198],[139.67059,35.67181],[139.67007,35.67169],[139.66912,35.67167],[139.66897,35.67162],[139.66887,35.67153],[139.66857,35.67177],[139.66827,35.67167],[139.66794,35.67168],[139.66716,35.6716],[139.66606,35.67158],[139.6641,35.67142],[139.66326,35.67142],[139.66168,35.67156],[139.66157,35.67165],[139.6615,35.67179],[139.66145,35.67202],[139.66148,35.67257],[139.66146,35.67269],[139.66385,35.67336],[139.66485,35.67368],[139.67055,35.67531],[139.67109,35.67546]]]}},{"type":"Feature","properties":{"id":"area-13113028002","name":"笹塚二丁目"},"geometry":{"type":"Polygon","coordinates":[[[139.66249,35.67297],[139.66146,35.67269],[139.66138,35.67294],[139.66146,35.67306],[139.66153,35.67324],[139.6618,35.67368],[139.66161,35.67429],[139.66146,35.67441],[139.67046,35.67765],[139.67073,35.67633],[139.67088,35.67573],[139.67109,35.67546],[139.66485,35.67368],[139.66249,35.67297]]]}},{"type":"Feature","properties":{"id":"area-13113028003","name":"笹塚三丁目"},"geometry":{"type":"Polygon","coordinates":[[[139.66967,35.6808],[139.67046,35.67765],[139.66146,35.67441],[139.66134,35.67462],[139.66156,35.67481],[139.6618,35.67533],[139.66174,35.67553],[139.66189,35.67568],[139.66326,35.67622],[139.6641,35.6766],[139.6651,35.67695],[139.6653,35.67708],[139.66562,35.67747],[139.66601,35.67825],[139.66619,35.67838],[139.66637,35.67871],[139.66672,35.67898],[139.66755,35.67977],[139.66741,35.67991],[139.66791,35.68021],[139.66827,35.68033],[139.66835,35.68031],[139.66851,35.68034],[139.66888,35.68058],[139.66912,35.68068],[139.66944,35.68072],[139.66967,35.6808]]]}},{"type":"Feature","properties":{"id":"area-13113029001","name":"幡ケ谷一丁目"},"geometry":{"type":"Polygon","coordinates":[[[139.67583,35.67531],[139.6756,35.67519],[139.67442,35.67393],[139.67347,35.67299],[139.67329,35.67273],[139.67301,35.67217],[139.67283,35.67222],[139.67278,35.67212],[139.67182,35.67198],[139.67178,35.67212],[139.67173,35.67214],[139.67163,35.67283],[139.67168,35.6734],[139.67165,35.67359],[139.67147,35.67399],[139.6716,35.67453],[139.67151,35.67478],[139.67132,35.67516],[139.67142,35.67521],[139.67136,35.67529],[139.67125,35.67526],[139.67107,35.67547],[139.67343,35.67615],[139.67712,35.67728],[139.67925,35.67781],[139.67921,35.6777],[139.67862,35.67733],[139.67853,35.67718],[139.67829,35.67711],[139.67815,35.67697],[139.67712,35.67624],[139.67679,35.67594],[139.67652,35.67575],[139.67579,35.6754],[139.67583,35.67531]]]}},{"type":"Feature","properties":{"id":"area-13113029002","name":"幡ケ谷二丁目"},"geometry":{"type":"Polygon","coordinates":[[[139.67343,35.67615],[139.67107,35.67547],[139.67088,35.67573],[139.67073,35.67633],[139.67045,35.67767],[139.67303,35.67857],[139.6759,35.67965],[139.67826,35.68046],[139.6783,35.68046],[139.67844,35.68],[139.67852,35.67983],[139.67899,35.67948],[139.67921,35.67918],[139.67924,35.679],[139.67918,35.67812],[139.67925,35.67781],[139.67712,35.67728],[139.67343,35.67615]]]}},{"type":"Feature","properties":{"id":"area-13113029003","name":"幡ケ谷三丁目"},"geometry":{"type":"Polygon","coordinates":[[[139.67303,35.67857],[139.67045,35.67767],[139.66967,35.6808],[139.67049,35.6811],[139.67134,35.6815],[139.67189,35.68214],[139.67336,35.68328],[139.67396,35.68288],[139.67492,35.68197],[139.67538,35.68167],[139.67611,35.6807],[139.67668,35.6802],[139.67685,35.67998],[139.67446,35.67913],[139.67303,35.67857]]]}},{"type":"Feature","properties":{"id":"area-13113030001","name":"代々木一丁目"},"geometry":{"type":"Polygon","coordinates":[[[139.70169,35.68493],[139.70212,35.68322],[139.70246,35.68251],[139.70316,35.68001],[139.70341,35.67932],[139.70354,35.67887],[139.70344,35.67874],[139.70031,35.68029],[139.70006,35.68043],[139.70008,35.68049],[139.69807,35.68149],[139.69775,35.68129],[139.69702,35.68216],[139.70012,35.68468],[139.70016,35.68464],[139.70055,35.68494],[139.7007,35.68525],[139.70106,35.68549],[139.70088,35.68566],[139.7009,35.68572],[139.70124,35.68593],[139.70143,35.68558],[139.70169,35.68493]]]}},{"type":"Feature","properties":{"id":"area-13113030002","name":"代々木二丁目"},"geometry":{"type":"Polygon","coordinates":[[[139.6994,35.68871],[139.69953,35.68835],[139.69991,35.68849],[139.70058,35.68639],[139.70098,35.68647],[139.70124,35.68593],[139.7009,35.68572],[139.70088,35.68566],[139.70106,35.68549],[139.7007,35.68525],[139.70055,35.68494],[139.70016,35.68464],[139.70012,35.68468],[139.69859,35.68342],[139.69692,35.6821],[139.69689,35.68226],[139.69643,35.68276],[139.69631,35.68301],[139.69598,35.68497],[139.69588,35.68524],[139.69567,35.68606],[139.69536,35.68695],[139.69754,35.68796],[139.6994,35.68871]]]}},{"type":"Feature","properties":{"id":"area-13113030003","name":"代々木三丁目"},"geometry":{"type":"Polygon","coordinates":[[[139.69567,35.68606],[139.69588,35.68524],[139.69598,35.68497],[139.69631,35.68301],[139.69643,35.68276],[139.69689,35.68226],[139.69692,35.6821],[139.69702,35.68216],[139.69775,35.68129],[139.69609,35.68029],[139.69555,35.68008],[139.69469,35.67991],[139.69461,35.67996],[139.69419,35.67929],[139.69174,35.68288],[139.69147,35.68339],[139.69075,35.68405],[139.69133,35.68435],[139.69337,35.68585],[139.69346,35.68578],[139.69386,35.6861],[139.69485,35.68669],[139.69536,35.68695],[139.69567,35.68606]]]}},{"type":"Feature","properties":{"id":"area-13113030004","name":"代々木四丁目"},"geometry":{"type":"Polygon","coordinates":[[[139.69375,35.67833],[139.69342,35.6774],[139.69283,35.67641],[139.69272,35.67644],[139.693,35.67713],[139.69284,35.67717],[139.69258,35.67764],[139.69217,35.67814],[139.69146,35.67804],[139.69133,35.67782],[139.69021,35.67745],[139.68953,35.6775],[139.6895,35.67744],[139.68826,35.67764],[139.6886,35.67856],[139.68873,35.67898],[139.68899,35.6811],[139.68897,35.68133],[139.68889,35.68165],[139.68865,35.68204],[139.68872,35.6821],[139.68837,35.68245],[139.69075,35.68405],[139.69147,35.68339],[139.69174,35.68288],[139.69419,35.67929],[139.69418,35.67922],[139.69375,35.67833]]]}},{"type":"Feature","properties":{"id":"area-13113030005","name":"代々木五丁目"},"geometry":{"type":"Polygon","coordinates":[[[139.69258,35.67764],[139.69284,35.67717],[139.693,35.67713],[139.69272,35.67644],[139.69283,35.67641],[139.69225,35.67542],[139.69203,35.67517],[139.69155,35.67436],[139.69114,35.67254],[139.69089,35.67077],[139.69086,35.67079],[139.69078,35.67038],[139.69062,35.67036],[139.69045,35.67024],[139.69003,35.67044],[139.68987,35.67022],[139.68955,35.66992],[139.68898,35.66955],[139.68837,35.6694],[139.68832,35.66943],[139.68803,35.66942],[139.68804,35.67013],[139.6879,35.6714],[139.68788,35.67222],[139.68787,35.67474],[139.6879,35.67533],[139.68787,35.67649],[139.68791,35.67681],[139.68826,35.67764],[139.6895,35.67744],[139.68953,35.6775],[139.69021,35.67745],[139.69133,35.67782],[139.69146,35.67804],[139.69217,35.67814],[139.69258,35.67764]]]}},{"type":"Feature","properties":{"id":"area-13113031001","name":"千駄ケ谷一丁目"},"geometry":{"type":"Polygon","coordinates":[[[139.71366,35.68149],[139.71426,35.68098],[139.71461,35.68073],[139.71423,35.67996],[139.71406,35.67974],[139.71409,35.67943],[139.71407,35.67909],[139.71379,35.67898],[139.71344,35.67831],[139.71346,35.67811],[139.71343,35.678],[139.71332,35.67787],[139.71283,35.67698],[139.71271,35.67705],[139.71258,35.67706],[139.71243,35.67702],[139.71196,35.67707],[139.71173,35.67697],[139.71156,35.67697],[139.71138,35.67703],[139.71104,35.6772],[139.71006,35.67749],[139.70878,35.67755],[139.70848,35.67774],[139.70843,35.67784],[139.70752,35.67807],[139.70729,35.67817],[139.70757,35.67858],[139.70771,35.67868],[139.70811,35.67929],[139.70798,35.67934],[139.708,35.67938],[139.70925,35.68163],[139.70984,35.68163],[139.71248,35.68122],[139.71322,35.68198],[139.7136,35.68171],[139.71361,35.68164],[139.71373,35.68156],[139.71366,35.68149]]]}},{"type":"Feature","properties":{"id":"area-13113031002","name":"千駄ケ谷二丁目"},"geometry":{"type":"Polygon","coordinates":[[[139.70904,35.67753],[139.71006,35.67749],[139.71104,35.6772],[139.71138,35.67703],[139.71156,35.67697],[139.71173,35.67697],[139.71196,35.67707],[139.71243,35.67702],[139.71258,35.67706],[139.71271,35.67705],[139.71283,35.67698],[139.71263,35.67663],[139.71274,35.67577],[139.71253,35.67575],[139.71248,35.67567],[139.70727,35.67474],[139.70704,35.67483],[139.70694,35.67496],[139.70676,35.67566],[139.70829,35.67591],[139.70913,35.67653],[139.70904,35.67753]]]}},{"type":"Feature","properties":{"id":"area-13113031003","name":"千駄ケ谷三丁目"},"geometry":{"type":"Polygon","coordinates":[[[139.70471,35.6784],[139.70488,35.67833],[139.70526,35.67885],[139.70613,35.67873],[139.70618,35.67866],[139.70682,35.67841],[139.70752,35.67807],[139.70843,35.67784],[139.70848,35.67774],[139.70878,35.67755],[139.70904,35.67753],[139.70913,35.67653],[139.70829,35.67591],[139.70676,35.67566],[139.70694,35.67496],[139.70704,35.67483],[139.70675,35.67459],[139.70607,35.6743],[139.70465,35.67327],[139.70444,35.67316],[139.70374,35.67292],[139.7033,35.67288],[139.70303,35.6729],[139.7038,35.67508],[139.70389,35.67568],[139.70385,35.6768],[139.70373,35.67803],[139.70364,35.67854],[139.70341,35.67932],[139.70368,35.67918],[139.70418,35.67874],[139.70471,35.6784]]]}},{"type":"Feature","properties":{"id":"area-13113031004","name":"千駄ケ谷四丁目"},"geometry":{"type":"Polygon","coordinates":[[[139.70566,35.68146],[139.70682,35.68151],[139.7082,35.68164],[139.70925,35.68163],[139.708,35.67938],[139.70798,35.67934],[139.70811,35.67929],[139.70771,35.67868],[139.70757,35.67858],[139.70729,35.67817],[139.70682,35.67841],[139.70618,35.67866],[139.70613,35.67873],[139.70526,35.67885],[139.70488,35.67833],[139.70438,35.67859],[139.70368,35.67918],[139.70341,35.67932],[139.70316,35.68001],[139.70252,35.68233],[139.70226,35.68294],[139.70278,35.68304],[139.70287,35.68278],[139.70299,35.68262],[139.70322,35.68239],[139.70387,35.68192],[139.70408,35.68181],[139.7047,35.68159],[139.70566,35.68146]]]}},{"type":"Feature","properties":{"id":"area-13113031005","name":"千駄ケ谷五丁目"},"geometry":{"type":"Polygon","coordinates":[[[139.70225,35.68898],[139.70214,35.68833],[139.7025,35.68832],[139.7027,35.68783],[139.70391,35.68803],[139.70418,35.68799],[139.70422,35.68782],[139.70379,35.68774],[139.70456,35.68512],[139.70439,35.68496],[139.70478,35.68468],[139.7056,35.68398],[139.70636,35.68344],[139.7078,35.68266],[139.70984,35.68168],[139.70986,35.68163],[139.7082,35.68164],[139.70581,35.68145],[139.70499,35.68154],[139.70431,35.68171],[139.70387,35.68192],[139.70322,35.68239],[139.70299,35.68262],[139.70287,35.68278],[139.70278,35.68304],[139.70226,35.68294],[139.70212,35.68322],[139.70169,35.68493],[139.70143,35.68558],[139.70137,35.68565],[139.70098,35.68647],[139.70058,35.68639],[139.69991,35.68849],[139.69983,35.68867],[139.70016,35.68876],[139.70014,35.68882],[139.70067,35.6889],[139.70216,35.68933],[139.70225,35.68898]]]}},{"type":"Feature","properties":{"id":"area-13113031006","name":"千駄ケ谷六丁目"},"geometry":{"type":"Polygon","coordinates":[[[139.70517,35.68806],[139.7052,35.68795],[139.70538,35.68796],[139.70545,35.68774],[139.70591,35.68735],[139.70595,35.68703],[139.7061,35.68677],[139.7067,35.68616],[139.70713,35.68462],[139.70742,35.68458],[139.70771,35.68442],[139.70792,35.68435],[139.70908,35.68418],[139.70935,35.68409],[139.70986,35.6838],[139.71012,35.68353],[139.71108,35.68341],[139.71149,35.68318],[139.71213,35.6827],[139.71322,35.68198],[139.71248,35.68122],[139.70986,35.68163],[139.70984,35.68168],[139.70866,35.68223],[139.707,35.68309],[139.70636,35.68344],[139.7056,35.68398],[139.70478,35.68468],[139.70439,35.68496],[139.70456,35.68512],[139.70379,35.68774],[139.70422,35.68782],[139.70418,35.68797],[139.70517,35.68806]]]}},{"type":"Feature","properties":{"id":"area-13113032001","name":"神宮前一丁目"},"geometry":{"type":"Polygon","coordinates":[[[139.7081,35.67288],[139.70827,35.67239],[139.70831,35.6722],[139.70839,35.67217],[139.70715,35.67074],[139.70694,35.67037],[139.70697,35.67035],[139.70563,35.66867],[139.70542,35.66876],[139.70525,35.66874],[139.70321,35.66965],[139.70301,35.66993],[139.70277,35.66996],[139.70274,35.66988],[139.70262,35.66988],[139.70254,35.66984],[139.70227,35.66987],[139.70227,35.67037],[139.70236,35.67099],[139.70254,35.67172],[139.70298,35.6729],[139.7033,35.67288],[139.70374,35.67292],[139.70444,35.67316],[139.70484,35.6734],[139.70607,35.6743],[139.70675,35.67459],[139.70704,35.67483],[139.70738,35.67431],[139.70778,35.67356],[139.7081,35.67288]]]}},{"type":"Feature","properties":{"id":"area-13113032002","name":"神宮前二丁目"},"geometry":{"type":"Polygon","coordinates":[[[139.71274,35.67577],[139.71269,35.67438],[139.71328,35.67448],[139.71353,35.67449],[139.71411,35.67475],[139.71481,35.67489],[139.71536,35.67376],[139.71549,35.6737],[139.71593,35.67387],[139.71667,35.67244],[139.71657,35.67227],[139.71652,35.67224],[139.71645,35.67211],[139.71533,35.67254],[139.71541,35.6727],[139.71499,35.67284],[139.71501,35.67289],[139.71485,35.67295],[139.71461,35.67247],[139.71454,35.67221],[139.71439,35.67199],[139.7142,35.67208],[139.71378,35.67216],[139.71368,35.67221],[139.71257,35.6724],[139.71112,35.67271],[139.71075,35.67266],[139.70926,35.67218],[139.70921,35.67221],[139.70906,35.67219],[139.70891,35.67208],[139.70877,35.67204],[139.70863,35.67208],[139.70831,35.6722],[139.70827,35.67239],[139.7081,35.67288],[139.70778,35.67356],[139.70738,35.67431],[139.70704,35.67483],[139.70727,35.67474],[139.71248,35.67567],[139.71253,35.67575],[139.71274,35.67577]]]}},{"type":"Feature","properties":{"id":"area-13113032003","name":"神宮前三丁目"},"geometry":{"type":"Polygon","coordinates":[[[139.71368,35.67221],[139.71378,35.67216],[139.7142,35.67208],[139.71457,35.67191],[139.7141,35.67115],[139.71411,35.67091],[139.7144,35.67087],[139.71399,35.67036],[139.71507,35.66965],[139.71491,35.66947],[139.71441,35.66924],[139.71393,35.66945],[139.71326,35.6687],[139.71295,35.6683],[139.7123,35.66866],[139.71111,35.66939],[139.71066,35.66896],[139.70997,35.66935],[139.70964,35.66944],[139.70889,35.66984],[139.70883,35.66976],[139.70872,35.66971],[139.70829,35.66972],[139.7074,35.66986],[139.70679,35.67011],[139.70697,35.67035],[139.70694,35.67037],[139.70715,35.67074],[139.70839,35.67217],[139.70877,35.67204],[139.70891,35.67208],[139.70906,35.67219],[139.70921,35.67221],[139.70926,35.67218],[139.71075,35.67266],[139.71112,35.67271],[139.71257,35.6724],[139.71368,35.67221]]]}},{"type":"Feature","properties":{"id":"area-13113032004","name":"神宮前四丁目"},"geometry":{"type":"Polygon","coordinates":[[[139.70829,35.66972],[139.70872,35.66971],[139.70883,35.66976],[139.70889,35.66984],[139.70964,35.66944],[139.70997,35.66935],[139.71066,35.66896],[139.71111,35.66939],[139.7123,35.66866],[139.71295,35.6683],[139.71284,35.66815],[139.7128,35.66817],[139.71184,35.66709],[139.71181,35.6671],[139.71091,35.66609],[139.70567,35.66854],[139.70563,35.66867],[139.70679,35.67011],[139.7074,35.66986],[139.70829,35.66972]]]}},{"type":"Feature","properties":{"id":"area-13113032005","name":"神宮前五丁目"},"geometry":{"type":"Polygon","coordinates":[[[139.707,35.66792],[139.71091,35.66609],[139.71083,35.66598],[139.71056,35.6661],[139.70874,35.66418],[139.7103,35.66307],[139.70764,35.66145],[139.70725,35.66182],[139.7067,35.6621],[139.70616,35.66243],[139.70532,35.66299],[139.70383,35.66387],[139.70382,35.66391],[139.70295,35.66415],[139.70316,35.6645],[139.70335,35.66473],[139.70371,35.66512],[139.7039,35.66528],[139.70502,35.66577],[139.7056,35.66606],[139.70622,35.66682],[139.707,35.66792]]]}},{"type":"Feature","properties":{"id":"area-13113032006","name":"神宮前六丁目"},"geometry":{"type":"Polygon","coordinates":[[[139.70301,35.66993],[139.70321,35.66965],[139.70525,35.66874],[139.70542,35.66876],[139.70563,35.66867],[139.70567,35.66854],[139.707,35.66792],[139.70622,35.66682],[139.7056,35.66606],[139.70502,35.66577],[139.7039,35.66528],[139.70371,35.66512],[139.70316,35.6645],[139.70295,35.66415],[139.70233,35.66248],[139.70237,35.66196],[139.70208,35.66206],[139.70195,35.66201],[139.70127,35.66216],[139.70141,35.66355],[139.70162,35.66501],[139.70153,35.66504],[139.70157,35.66514],[139.70181,35.6668],[139.70187,35.66828],[139.70203,35.66915],[139.70216,35.66946],[139.70227,35.66987],[139.70254,35.66984],[139.70262,35.66988],[139.70274,35.66988],[139.70277,35.66996],[139.70301,35.66993]]]}}]}