{"type":"FeatureCollection","features":[{"type":"Feature","properties":{"id":"area-13110001001","name":"駒場一丁目"},"geometry":{"type":"Polygon","coordinates":[[[139.68823,35.65712],[139.68865,35.65704],[139.68924,35.65703],[139.69058,35.65706],[139.69075,35.65682],[139.69005,35.65532],[139.68962,35.65541],[139.68909,35.65544],[139.68857,35.65542],[139.68761,35.65529],[139.68665,35.65534],[139.68626,35.65538],[139.68525,35.65576],[139.68483,35.65584],[139.68294,35.65571],[139.68286,35.65694],[139.6829,35.6572],[139.68309,35.65822],[139.68317,35.65842],[139.68346,35.65875],[139.68382,35.65875],[139.68418,35.65867],[139.68438,35.65859],[139.68538,35.65836],[139.68827,35.65719],[139.68823,35.65712]]]}},{"type":"Feature","properties":{"id":"area-13110001002","name":"駒場二丁目"},"geometry":{"type":"Polygon","coordinates":[[[139.68295,35.65881],[139.68337,35.65873],[139.68346,35.65875],[139.68317,35.65842],[139.68309,35.65822],[139.6829,35.6572],[139.68286,35.65694],[139.68294,35.65571],[139.68176,35.65559],[139.68145,35.65559],[139.68058,35.65568],[139.68055,35.6566],[139.68016,35.65672],[139.67953,35.65709],[139.67886,35.65808],[139.6784,35.6586],[139.67778,35.65968],[139.67896,35.65958],[139.68223,35.65903],[139.68259,35.65895],[139.68295,35.65881]]]}},{"type":"Feature","properties":{"id":"area-13110001003","name":"駒場三丁目"},"geometry":{"type":"Polygon","coordinates":[[[139.68243,35.66309],[139.68296,35.66302],[139.68387,35.66309],[139.68405,35.66308],[139.68583,35.66246],[139.68573,35.6623],[139.68577,35.66227],[139.6868,35.66201],[139.68716,35.66165],[139.68724,35.66169],[139.688,35.66107],[139.68836,35.66018],[139.68821,35.66008],[139.68821,35.66],[139.68852,35.65972],[139.6888,35.65917],[139.68887,35.65909],[139.68902,35.65873],[139.68935,35.65841],[139.68946,35.65845],[139.68959,35.65832],[139.69015,35.65766],[139.69058,35.65706],[139.68865,35.65704],[139.68823,35.65712],[139.68827,35.65719],[139.68538,35.65836],[139.68438,35.65859],[139.68418,35.65867],[139.68382,35.65875],[139.68322,35.65875],[139.68295,35.65881],[139.68259,35.65895],[139.68125,35.65918],[139.68132,35.65932],[139.68145,35.65943],[139.68129,35.65963],[139.68102,35.65974],[139.68192,35.66325],[139.68243,35.66309]]]}},{"type":"Feature","properties":{"id":"area-13110001004","name":"駒場四丁目"},"geometry":{"type":"Polygon","coordinates":[[[139.67487,35.66416],[139.67512,35.66403],[139.6757,35.66404],[139.67769,35.66413],[139.67967,35.66401],[139.6806,35.66381],[139.68192,35.66325],[139.68102,35.65974],[139.68129,35.65963],[139.68145,35.65943],[139.68132,35.65932],[139.68125,35.65918],[139.67896,35.65958],[139.67778,35.65968],[139.67765,35.65984],[139.67662,35.65993],[139.67622,35.66158],[139.67617,35.66193],[139.67593,35.66276],[139.67563,35.66324],[139.67505,35.66379],[139.67498,35.66376],[139.67474,35.66397],[139.67487,35.66416]]]}},{"type":"Feature","properties":{"id":"area-13110002001","name":"青葉台一丁目"},"geometry":{"type":"Polygon","coordinates":[[[139.69892,35.64853],[139.69936,35.64829],[139.69942,35.64838],[139.6998,35.64812],[139.6996,35.64786],[139.7001,35.64758],[139.70021,35.64762],[139.7002,35.64733],[139.69973,35.64723],[139.69935,35.64721],[139.69912,35.64715],[139.69851,35.64732],[139.69831,35.64708],[139.69795,35.64651],[139.6973,35.64568],[139.69382,35.64773],[139.69467,35.64867],[139.69517,35.64882],[139.69544,35.64892],[139.69561,35.64904],[139.69634,35.64989],[139.69682,35.65061],[139.69688,35.65061],[139.69822,35.64942],[139.69909,35.6488],[139.69908,35.64876],[139.69911,35.64874],[139.69892,35.64853]]]}},{"type":"Feature","properties":{"id":"area-13110002002","name":"青葉台二丁目"},"geometry":{"type":"Polygon","coordinates":[[[139.69651,35.65075],[139.69673,35.65074],[139.69688,35.65061],[139.69682,35.65061],[139.69634,35.64989],[139.69561,35.64904],[139.69544,35.64892],[139.69517,35.64882],[139.69467,35.64867],[139.69382,35.64773],[139.69216,35.64873],[139.69265,35.64978],[139.69282,35.65008],[139.69276,35.65042],[139.69362,35.65123],[139.69314,35.65166],[139.69307,35.65178],[139.69319,35.65276],[139.69317,35.65278],[139.69392,35.65333],[139.69569,35.65175],[139.69547,35.6516],[139.69616,35.65095],[139.69608,35.65086],[139.69651,35.65075]]]}},{"type":"Feature","properties":{"id":"area-13110002003","name":"青葉台三丁目"},"geometry":{"type":"Polygon","coordinates":[[[139.69254,35.64954],[139.69216,35.64873],[139.69139,35.64914],[139.691,35.64943],[139.68951,35.65079],[139.68945,35.65256],[139.69262,35.65349],[139.69337,35.65383],[139.69392,35.65333],[139.69317,35.65278],[139.69319,35.65276],[139.69307,35.65178],[139.69314,35.65166],[139.69362,35.65123],[139.69276,35.65042],[139.69282,35.65008],[139.69254,35.64954]]]}},{"type":"Feature","properties":{"id":"area-13110002004","name":"青葉台四丁目"},"geometry":{"type":"Polygon","coordinates":[[[139.69155,35.6559],[139.69182,35.65552],[139.69186,35.65553],[139.69195,35.65541],[139.69204,35.65542],[139.69297,35.65422],[139.69337,35.65383],[139.69262,35.65349],[139.68945,35.65256],[139.6894,35.6533],[139.68941,35.65375],[139.6895,35.65416],[139.69075,35.65682],[139.69155,35.6559]]]}},{"type":"Feature","properties":{"id":"area-13110003001","name":"東山一丁目"},"geometry":{"type":"Polygon","coordinates":[[[139.69216,35.64873],[139.69717,35.64576],[139.6965,35.64576],[139.6954,35.64607],[139.69518,35.64607],[139.69489,35.646],[139.69443,35.6461],[139.69394,35.64602],[139.69332,35.64575],[139.69215,35.64466],[139.69183,35.64429],[139.69134,35.64422],[139.69109,35.64421],[139.69043,35.64428],[139.6901,35.64422],[139.68968,35.64466],[139.68925,35.64495],[139.68906,35.64523],[139.68896,35.64546],[139.68879,35.64557],[139.68816,35.64588],[139.68825,35.64594],[139.68884,35.64603],[139.68964,35.6461],[139.69,35.64657],[139.69046,35.64702],[139.6909,35.64758],[139.6912,35.64785],[139.69163,35.64807],[139.6918,35.64829],[139.69191,35.6483],[139.69216,35.64873]]]}},{"type":"Feature","properties":{"id":"area-13110003002","name":"東山二丁目"},"geometry":{"type":"Polygon","coordinates":[[[139.69216,35.64873],[139.69191,35.6483],[139.6918,35.64829],[139.69163,35.64807],[139.6912,35.64785],[139.6909,35.64758],[139.69046,35.64702],[139.69,35.64657],[139.68964,35.6461],[139.68884,35.64603],[139.68825,35.64594],[139.68813,35.64586],[139.68735,35.64468],[139.68713,35.64478],[139.68653,35.64398],[139.68602,35.64297],[139.68555,35.64306],[139.68492,35.64286],[139.6846,35.64355],[139.68424,35.64455],[139.68555,35.64498],[139.68494,35.64621],[139.68442,35.64603],[139.6844,35.64666],[139.68448,35.64675],[139.6875,35.64774],[139.68712,35.64856],[139.688,35.64852],[139.68822,35.64849],[139.68837,35.64876],[139.68873,35.64876],[139.68902,35.64872],[139.68906,35.64999],[139.69043,35.64995],[139.691,35.64943],[139.69139,35.64914],[139.69216,35.64873]]]}},{"type":"Feature","properties":{"id":"area-13110003003","name":"東山三丁目"},"geometry":{"type":"Polygon","coordinates":[[[139.68906,35.64999],[139.68902,35.64872],[139.68873,35.64876],[139.68837,35.64876],[139.68822,35.64849],[139.688,35.64852],[139.68712,35.64856],[139.6875,35.64774],[139.68448,35.64675],[139.68453,35.64681],[139.68445,35.64732],[139.68437,35.64757],[139.68407,35.64898],[139.68406,35.64928],[139.68433,35.64987],[139.68435,35.64996],[139.68427,35.65005],[139.68446,35.6503],[139.68453,35.65053],[139.68471,35.65057],[139.68598,35.65123],[139.68704,35.65042],[139.68753,35.65016],[139.68804,35.65003],[139.68906,35.64999]]]}},{"type":"Feature","properties":{"id":"area-13110004001","name":"大橋一丁目"},"geometry":{"type":"Polygon","coordinates":[[[139.68949,35.65082],[139.69043,35.64995],[139.68826,35.65001],[139.68784,35.65007],[139.68753,35.65016],[139.68722,35.65031],[139.68598,35.65123],[139.68658,35.65155],[139.6872,35.65182],[139.68945,35.65254],[139.68949,35.65082]]]}},{"type":"Feature","properties":{"id":"area-13110004002","name":"大橋二丁目"},"geometry":{"type":"Polygon","coordinates":[[[139.68754,35.6553],[139.68857,35.65542],[139.68909,35.65544],[139.68962,35.65541],[139.69005,35.65532],[139.68955,35.65431],[139.68943,35.6539],[139.6894,35.6533],[139.68945,35.65254],[139.68777,35.65201],[139.68696,35.65172],[139.6863,35.65141],[139.68592,35.65118],[139.68471,35.65057],[139.68453,35.65053],[139.68466,35.65089],[139.68458,35.65136],[139.68444,35.6514],[139.68439,35.6516],[139.68237,35.65221],[139.68253,35.65258],[139.68251,35.65275],[139.68407,35.65285],[139.68407,35.65296],[139.68314,35.65294],[139.68313,35.65304],[139.68297,35.65304],[139.68294,35.65412],[139.68314,35.65412],[139.68312,35.6544],[139.68288,35.6544],[139.68287,35.65455],[139.68183,35.65452],[139.68176,35.65559],[139.68483,35.65584],[139.68525,35.65576],[139.68626,35.65538],[139.68754,35.6553]]]}},{"type":"Feature","properties":{"id":"area-13110005001","name":"上目黒一丁目"},"geometry":{"type":"Polygon","coordinates":[[[139.7002,35.64733],[139.70058,35.64719],[139.70096,35.6471],[139.70151,35.64702],[139.70192,35.64673],[139.70197,35.64674],[139.70204,35.64657],[139.70219,35.64647],[139.70185,35.64628],[139.7017,35.64608],[139.7016,35.64588],[139.70151,35.64447],[139.70145,35.64421],[139.7009,35.64284],[139.70071,35.64247],[139.69981,35.64354],[139.6973,35.64568],[139.69795,35.64651],[139.69831,35.64708],[139.69851,35.64732],[139.69912,35.64715],[139.69935,35.64721],[139.69973,35.64723],[139.70001,35.64731],[139.7002,35.64733]]]}},{"type":"Feature","properties":{"id":"area-13110005002","name":"上目黒二丁目"},"geometry":{"type":"Polygon","coordinates":[[[139.70071,35.64247],[139.70047,35.642],[139.69949,35.64125],[139.69934,35.64106],[139.69838,35.63972],[139.69778,35.63853],[139.6977,35.63838],[139.6975,35.63818],[139.69741,35.63825],[139.69668,35.63862],[139.69605,35.6389],[139.69584,35.63903],[139.69546,35.63956],[139.69463,35.64043],[139.69449,35.64068],[139.69441,35.64099],[139.69411,35.64139],[139.69341,35.6417],[139.69348,35.64218],[139.6956,35.6422],[139.69633,35.6421],[139.69678,35.6422],[139.697,35.64228],[139.6972,35.64238],[139.69744,35.64257],[139.69784,35.64312],[139.69814,35.64343],[139.69854,35.6437],[139.69922,35.64404],[139.69984,35.64351],[139.70071,35.64247]]]}},{"type":"Feature","properties":{"id":"area-13110005003","name":"上目黒三丁目"},"geometry":{"type":"Polygon","coordinates":[[[139.69443,35.6461],[139.69489,35.646],[139.69518,35.64607],[139.6954,35.64607],[139.6965,35.64576],[139.69717,35.64576],[139.69737,35.64562],[139.69923,35.64405],[139.69854,35.6437],[139.69814,35.64343],[139.69784,35.64312],[139.69744,35.64257],[139.6972,35.64238],[139.69678,35.6422],[139.69633,35.6421],[139.6956,35.6422],[139.69348,35.64218],[139.69349,35.6422],[139.69211,35.64221],[139.69095,35.64239],[139.69107,35.64263],[139.69104,35.64269],[139.69089,35.64284],[139.69074,35.64292],[139.6907,35.64302],[139.69058,35.64409],[139.69059,35.64427],[139.69109,35.64421],[139.69156,35.64424],[139.69183,35.64429],[139.69215,35.64466],[139.69332,35.64575],[139.69394,35.64602],[139.69443,35.6461]]]}},{"type":"Feature","properties":{"id":"area-13110005004","name":"上目黒四丁目"},"geometry":{"type":"Polygon","coordinates":[[[139.69037,35.64246],[139.69211,35.64221],[139.69349,35.6422],[139.69341,35.6417],[139.69411,35.64139],[139.69436,35.64107],[139.69443,35.6409],[139.69386,35.64058],[139.6934,35.64027],[139.69272,35.6396],[139.69244,35.63924],[139.69159,35.63937],[139.6897,35.63981],[139.68953,35.64013],[139.68938,35.64019],[139.68779,35.63979],[139.68761,35.63977],[139.68694,35.64025],[139.68674,35.64043],[139.68706,35.64083],[139.68719,35.64109],[139.68724,35.64111],[139.68734,35.64128],[139.68741,35.64148],[139.68749,35.64158],[139.68767,35.64177],[139.68796,35.64196],[139.68831,35.64207],[139.68851,35.64209],[139.68853,35.64213],[139.68891,35.64219],[139.68913,35.6423],[139.68919,35.64228],[139.68939,35.64238],[139.68958,35.64242],[139.69037,35.64246]]]}},{"type":"Feature","properties":{"id":"area-13110005005","name":"上目黒五丁目"},"geometry":{"type":"Polygon","coordinates":[[[139.68925,35.64495],[139.68968,35.64466],[139.6901,35.64422],[139.69043,35.64428],[139.69059,35.64427],[139.69058,35.64409],[139.6907,35.64302],[139.69074,35.64292],[139.69089,35.64284],[139.69104,35.64269],[139.69107,35.64263],[139.69095,35.64239],[139.6903,35.64246],[139.68958,35.64242],[139.68939,35.64238],[139.68919,35.64228],[139.68913,35.6423],[139.68891,35.64219],[139.68853,35.64213],[139.68851,35.64209],[139.68831,35.64207],[139.68796,35.64196],[139.68767,35.64177],[139.68749,35.64158],[139.68741,35.64148],[139.68734,35.64128],[139.68724,35.64111],[139.68719,35.64109],[139.68706,35.64083],[139.68661,35.64028],[139.68652,35.64018],[139.68628,35.64004],[139.68607,35.63996],[139.68602,35.63986],[139.68596,35.6399],[139.68585,35.64012],[139.68583,35.64071],[139.68539,35.64136],[139.68515,35.64136],[139.68471,35.64253],[139.68435,35.64241],[139.68429,35.64253],[139.68496,35.64275],[139.68492,35.64286],[139.68555,35.64306],[139.68602,35.64297],[139.68653,35.64398],[139.68713,35.64478],[139.68735,35.64468],[139.68816,35.64588],[139.68879,35.64557],[139.68896,35.64546],[139.68916,35.64506],[139.68925,35.64495]]]}},{"type":"Feature","properties":{"id":"area-13110006001","name":"中目黒一丁目"},"geometry":{"type":"Polygon","coordinates":[[[139.70212,35.64644],[139.70219,35.64635],[139.70229,35.64638],[139.70234,35.64633],[139.70243,35.64632],[139.70291,35.64603],[139.70426,35.64501],[139.70497,35.64462],[139.70525,35.64443],[139.70498,35.64393],[139.7047,35.64393],[139.7046,35.64368],[139.70421,35.64372],[139.70411,35.64366],[139.70406,35.64343],[139.70388,35.6432],[139.70332,35.64282],[139.70337,35.64276],[139.70304,35.64258],[139.7027,35.64188],[139.70269,35.64161],[139.70286,35.6414],[139.70285,35.64135],[139.70255,35.64114],[139.70204,35.64086],[139.70071,35.64247],[139.7009,35.64284],[139.70145,35.64421],[139.70151,35.64447],[139.7016,35.64588],[139.7017,35.64608],[139.70185,35.64628],[139.70212,35.64644]]]}},{"type":"Feature","properties":{"id":"area-13110006002","name":"中目黒二丁目"},"geometry":{"type":"Polygon","coordinates":[[[139.70596,35.64395],[139.70691,35.64342],[139.70688,35.64334],[139.7069,35.64328],[139.70726,35.64302],[139.7074,35.64306],[139.70764,35.64286],[139.70839,35.64235],[139.70874,35.64216],[139.70891,35.64207],[139.7102,35.64168],[139.71005,35.6414],[139.70973,35.64101],[139.7086,35.63993],[139.70765,35.63909],[139.70621,35.63806],[139.70506,35.63729],[139.70415,35.63831],[139.70352,35.63912],[139.70204,35.64086],[139.70255,35.64114],[139.70285,35.64135],[139.70286,35.6414],[139.70269,35.64161],[139.7027,35.64188],[139.70304,35.64258],[139.70337,35.64276],[139.70332,35.64282],[139.70388,35.6432],[139.70406,35.64343],[139.70411,35.64366],[139.70421,35.64372],[139.7046,35.64368],[139.7047,35.64393],[139.70498,35.64393],[139.70525,35.64443],[139.70531,35.64434],[139.70577,35.64407],[139.70576,35.64402],[139.70586,35.64395],[139.70596,35.64395]]]}},{"type":"Feature","properties":{"id":"area-13110006003","name":"中目黒三丁目"},"geometry":{"type":"Polygon","coordinates":[[[139.70352,35.63912],[139.70225,35.63839],[139.70224,35.63835],[139.7012,35.63823],[139.70109,35.63798],[139.70098,35.63785],[139.70071,35.63762],[139.69977,35.63691],[139.69928,35.63725],[139.6985,35.63767],[139.6983,35.63787],[139.69812,35.63799],[139.69758,35.63825],[139.69778,35.63853],[139.69838,35.63972],[139.69934,35.64106],[139.69949,35.64125],[139.70047,35.642],[139.70071,35.64247],[139.70278,35.63995],[139.70352,35.63912]]]}},{"type":"Feature","properties":{"id":"area-13110006004","name":"中目黒四丁目"},"geometry":{"type":"Polygon","coordinates":[[[139.70415,35.63831],[139.70506,35.63729],[139.7051,35.6373],[139.70567,35.63661],[139.70601,35.63614],[139.70611,35.63605],[139.70608,35.63606],[139.7056,35.63583],[139.70511,35.6359],[139.70488,35.63586],[139.70442,35.63555],[139.70421,35.63547],[139.70385,35.63554],[139.70369,35.63552],[139.70338,35.63535],[139.70287,35.63564],[139.70195,35.63607],[139.70111,35.63621],[139.70062,35.63634],[139.69977,35.63691],[139.70071,35.63762],[139.70098,35.63785],[139.70109,35.63798],[139.7012,35.63823],[139.70224,35.63835],[139.70225,35.63839],[139.70352,35.63912],[139.70415,35.63831]]]}},{"type":"Feature","properties":{"id":"area-13110006005","name":"中目黒五丁目"},"geometry":{"type":"Polygon","coordinates":[[[139.70338,35.63535],[139.70312,35.63514],[139.70296,35.63509],[139.70168,35.63521],[139.70159,35.63511],[139.70131,35.63512],[139.70107,35.63506],[139.7007,35.63477],[139.69984,35.63426],[139.69863,35.63366],[139.69823,35.63352],[139.69813,35.63386],[139.698,35.63467],[139.69789,35.63501],[139.69773,35.63532],[139.69713,35.63526],[139.69617,35.63508],[139.69604,35.63508],[139.6955,35.6352],[139.6948,35.63523],[139.69412,35.63531],[139.6932,35.6356],[139.69585,35.63686],[139.69758,35.63825],[139.69812,35.63799],[139.6983,35.63787],[139.6985,35.63767],[139.69928,35.63725],[139.69999,35.63674],[139.70062,35.63634],[139.70111,35.63621],[139.70195,35.63607],[139.70287,35.63564],[139.70338,35.63535]]]}},{"type":"Feature","properties":{"id":"area-13110007001","name":"三田一丁目"},"geometry":{"type":"Polygon","coordinates":[[[139.71592,35.64233],[139.71622,35.64211],[139.7163,35.6421],[139.7165,35.64191],[139.71676,35.64175],[139.71704,35.64171],[139.71731,35.64158],[139.71774,35.64159],[139.71775,35.64132],[139.71743,35.6413],[139.71665,35.64109],[139.71594,35.64071],[139.71591,35.64077],[139.7158,35.64076],[139.71565,35.6407],[139.71565,35.64065],[139.71553,35.64063],[139.71543,35.64037],[139.71537,35.64039],[139.71533,35.6403],[139.7152,35.64024],[139.71473,35.63915],[139.71432,35.63856],[139.71427,35.63839],[139.71392,35.63809],[139.71386,35.63814],[139.7137,35.63803],[139.71352,35.63798],[139.71362,35.63784],[139.71352,35.63778],[139.71307,35.63844],[139.71264,35.63899],[139.71242,35.63936],[139.71161,35.64224],[139.712,35.64232],[139.71311,35.64236],[139.71306,35.64232],[139.71313,35.64221],[139.7131,35.64219],[139.71335,35.642],[139.71353,35.64193],[139.71362,35.64186],[139.71383,35.64204],[139.71374,35.64212],[139.71383,35.64219],[139.71358,35.64239],[139.71444,35.64243],[139.71445,35.64236],[139.71456,35.64234],[139.71456,35.64227],[139.71465,35.64227],[139.71464,35.6422],[139.71504,35.6422],[139.71503,35.64227],[139.71513,35.64227],[139.71512,35.64246],[139.71551,35.64248],[139.7157,35.64254],[139.71592,35.64233]]]}},{"type":"Feature","properties":{"id":"area-13110007002","name":"三田二丁目"},"geometry":{"type":"Polygon","coordinates":[[[139.71161,35.64224],[139.71242,35.63936],[139.71264,35.63899],[139.71307,35.63844],[139.71133,35.63752],[139.71065,35.63784],[139.71045,35.63764],[139.70956,35.63779],[139.70919,35.63794],[139.70897,35.63768],[139.70771,35.63667],[139.70621,35.63806],[139.70765,35.63909],[139.7086,35.63993],[139.70973,35.64101],[139.71005,35.6414],[139.7102,35.64168],[139.71032,35.64164],[139.71037,35.64168],[139.71048,35.64201],[139.71161,35.64224]]]}},{"type":"Feature","properties":{"id":"area-13110008001","name":"目黒一丁目"},"geometry":{"type":"Polygon","coordinates":[[[139.71362,35.63765],[139.7133,35.6375],[139.7135,35.63708],[139.71375,35.63589],[139.71361,35.63585],[139.71367,35.63572],[139.71378,35.63575],[139.71387,35.6353],[139.71425,35.63457],[139.71449,35.63457],[139.71453,35.63436],[139.71471,35.63438],[139.71451,35.63403],[139.71455,35.63395],[139.7145,35.63387],[139.71333,35.63431],[139.71297,35.6344],[139.71246,35.63444],[139.71218,35.6344],[139.71202,35.63435],[139.71118,35.63397],[139.71085,35.63377],[139.70771,35.63667],[139.70897,35.63768],[139.70919,35.63794],[139.70956,35.63779],[139.71045,35.63764],[139.71065,35.63784],[139.71133,35.63752],[139.71307,35.63844],[139.71362,35.63765]]]}},{"type":"Feature","properties":{"id":"area-13110008002","name":"目黒二丁目"},"geometry":{"type":"Polygon","coordinates":[[[139.7093,35.63312],[139.70826,35.63259],[139.70698,35.63452],[139.70705,35.63465],[139.70649,35.63552],[139.70611,35.63605],[139.70601,35.63614],[139.70567,35.63661],[139.7051,35.6373],[139.70621,35.63806],[139.71085,35.63377],[139.71048,35.63354],[139.7093,35.63312]]]}},{"type":"Feature","properties":{"id":"area-13110008003","name":"目黒三丁目"},"geometry":{"type":"Polygon","coordinates":[[[139.70611,35.63605],[139.70649,35.63552],[139.70705,35.63465],[139.70698,35.63452],[139.70826,35.63259],[139.70748,35.63216],[139.70638,35.63175],[139.70487,35.63149],[139.70461,35.63212],[139.70444,35.63275],[139.70405,35.6327],[139.70401,35.6329],[139.70347,35.63295],[139.70339,35.63353],[139.70318,35.63375],[139.70265,35.63419],[139.70204,35.63496],[139.70163,35.63516],[139.70168,35.63521],[139.70296,35.63509],[139.70312,35.63514],[139.70344,35.63539],[139.70369,35.63552],[139.70385,35.63554],[139.70421,35.63547],[139.70442,35.63555],[139.70488,35.63586],[139.70511,35.6359],[139.7056,35.63583],[139.70608,35.63606],[139.70611,35.63605]]]}},{"type":"Feature","properties":{"id":"area-13110008004","name":"目黒四丁目"},"geometry":{"type":"Polygon","coordinates":[[[139.70163,35.63516],[139.70204,35.63496],[139.70265,35.63419],[139.70318,35.63375],[139.70339,35.63353],[139.70347,35.63295],[139.70401,35.6329],[139.70405,35.6327],[139.70444,35.63275],[139.70461,35.63212],[139.70487,35.63149],[139.70183,35.63069],[139.70132,35.6305],[139.70094,35.63096],[139.70032,35.63147],[139.69989,35.632],[139.69943,35.63247],[139.69909,35.63276],[139.69863,35.63366],[139.69984,35.63426],[139.7007,35.63477],[139.70107,35.63506],[139.70131,35.63512],[139.70159,35.63511],[139.70163,35.63516]]]}},{"type":"Feature","properties":{"id":"area-13110009001","name":"下目黒一丁目"},"geometry":{"type":"Polygon","coordinates":[[[139.71442,35.63323],[139.71441,35.63296],[139.7143,35.63291],[139.71421,35.6331],[139.71412,35.63307],[139.71409,35.63312],[139.714,35.6331],[139.71425,35.63251],[139.71444,35.63256],[139.71448,35.63247],[139.71462,35.63205],[139.71456,35.63204],[139.71458,35.63192],[139.71442,35.63184],[139.71442,35.63177],[139.71445,35.63176],[139.71453,35.63147],[139.7146,35.63136],[139.71491,35.63066],[139.71505,35.63043],[139.71511,35.63044],[139.71527,35.6299],[139.71439,35.62943],[139.71301,35.63135],[139.71227,35.63228],[139.71176,35.6329],[139.71086,35.63377],[139.71118,35.63397],[139.71218,35.6344],[139.71246,35.63444],[139.71297,35.6344],[139.71373,35.63418],[139.71444,35.63389],[139.71436,35.63369],[139.71442,35.63323]]]}},{"type":"Feature","properties":{"id":"area-13110009002","name":"下目黒二丁目"},"geometry":{"type":"Polygon","coordinates":[[[139.71453,35.62921],[139.7123,35.62825],[139.71111,35.62889],[139.71073,35.62921],[139.70826,35.63259],[139.7093,35.63312],[139.71048,35.63354],[139.71086,35.63377],[139.71176,35.6329],[139.71301,35.63135],[139.71453,35.62921]]]}},{"type":"Feature","properties":{"id":"area-13110009003","name":"下目黒三丁目"},"geometry":{"type":"Polygon","coordinates":[[[139.70837,35.62618],[139.70811,35.62613],[139.70793,35.62616],[139.70777,35.62606],[139.70772,35.62614],[139.70779,35.62624],[139.70768,35.62646],[139.70764,35.62685],[139.70765,35.62711],[139.70779,35.62714],[139.70772,35.62755],[139.70754,35.62768],[139.70754,35.62777],[139.70773,35.62803],[139.70757,35.62837],[139.70755,35.62926],[139.70737,35.62989],[139.70671,35.63186],[139.70748,35.63216],[139.70826,35.63259],[139.71073,35.62921],[139.71111,35.62889],[139.7123,35.62825],[139.71182,35.62805],[139.71191,35.62782],[139.71001,35.62686],[139.70899,35.62641],[139.70837,35.62618]]]}},{"type":"Feature","properties":{"id":"area-13110009004","name":"下目黒四丁目"},"geometry":{"type":"Polygon","coordinates":[[[139.70689,35.62694],[139.70659,35.62691],[139.70586,35.62694],[139.70509,35.62734],[139.7055,35.62768],[139.70535,35.62822],[139.70486,35.62908],[139.70501,35.62912],[139.70476,35.62953],[139.70342,35.63111],[139.70487,35.63149],[139.70638,35.63175],[139.70671,35.63186],[139.70737,35.62989],[139.70755,35.62926],[139.70757,35.62837],[139.70773,35.62803],[139.70754,35.62777],[139.70754,35.62768],[139.70772,35.62755],[139.70779,35.62714],[139.70689,35.62694]]]}},{"type":"Feature","properties":{"id":"area-13110009005","name":"下目黒五丁目"},"geometry":{"type":"Polygon","coordinates":[[[139.70586,35.62694],[139.70659,35.62691],[139.70708,35.62696],[139.70765,35.62711],[139.70764,35.62685],[139.70768,35.62646],[139.70779,35.62624],[139.70772,35.62614],[139.70749,35.62595],[139.70735,35.62559],[139.70654,35.62546],[139.70636,35.62557],[139.70475,35.62507],[139.70474,35.62503],[139.70401,35.62479],[139.70371,35.62531],[139.70352,35.62528],[139.70352,35.62516],[139.70249,35.62484],[139.7023,35.62555],[139.70216,35.62559],[139.70214,35.62567],[139.70195,35.6257],[139.7017,35.62594],[139.70192,35.62626],[139.70161,35.62648],[139.70119,35.62748],[139.70069,35.62933],[139.70074,35.62936],[139.70113,35.63],[139.70115,35.63043],[139.70183,35.63069],[139.70342,35.63111],[139.70476,35.62953],[139.70501,35.62912],[139.70486,35.62908],[139.70535,35.62822],[139.7055,35.62768],[139.70509,35.62734],[139.70586,35.62694]]]}},{"type":"Feature","properties":{"id":"area-13110009006","name":"下目黒六丁目"},"geometry":{"type":"Polygon","coordinates":[[[139.70192,35.62626],[139.7017,35.62594],[139.70166,35.62599],[139.7015,35.62602],[139.70075,35.62613],[139.70054,35.62611],[139.69977,35.62586],[139.69967,35.62579],[139.69887,35.6257],[139.69885,35.62584],[139.69867,35.62586],[139.69842,35.62605],[139.69833,35.62616],[139.69834,35.62619],[139.69811,35.62646],[139.69783,35.6269],[139.69741,35.62713],[139.69695,35.62744],[139.6966,35.62772],[139.69645,35.6279],[139.69637,35.62808],[139.69638,35.62831],[139.69633,35.6284],[139.69599,35.62849],[139.69592,35.62875],[139.69937,35.62966],[139.70115,35.63043],[139.70113,35.63],[139.70074,35.62936],[139.70069,35.62933],[139.70119,35.62748],[139.70161,35.62648],[139.70192,35.62626]]]}},{"type":"Feature","properties":{"id":"area-13110010001","name":"中町一丁目"},"geometry":{"type":"Polygon","coordinates":[[[139.69937,35.62966],[139.69587,35.62875],[139.69524,35.6292],[139.69438,35.62989],[139.69386,35.63048],[139.69357,35.63086],[139.69431,35.63139],[139.69459,35.63155],[139.69587,35.6321],[139.6976,35.63325],[139.69823,35.63352],[139.69863,35.63366],[139.69909,35.63276],[139.69943,35.63247],[139.69989,35.632],[139.70032,35.63147],[139.70094,35.63096],[139.70132,35.6305],[139.69937,35.62966]]]}},{"type":"Feature","properties":{"id":"area-13110010002","name":"中町二丁目"},"geometry":{"type":"Polygon","coordinates":[[[139.6932,35.6356],[139.69412,35.63531],[139.6948,35.63523],[139.6955,35.6352],[139.69604,35.63508],[139.69617,35.63508],[139.69713,35.63526],[139.69773,35.63532],[139.69789,35.63501],[139.698,35.63467],[139.69813,35.63386],[139.69823,35.63352],[139.6976,35.63325],[139.69587,35.6321],[139.69479,35.63165],[139.69431,35.63139],[139.69357,35.63086],[139.69341,35.63111],[139.69321,35.63152],[139.69237,35.63232],[139.69188,35.63261],[139.68951,35.63374],[139.69287,35.6355],[139.69293,35.63548],[139.6932,35.6356]]]}},{"type":"Feature","properties":{"id":"area-13110011001","name":"五本木一丁目"},"geometry":{"type":"Polygon","coordinates":[[[139.68694,35.64025],[139.68761,35.63977],[139.68779,35.63979],[139.68938,35.64019],[139.68953,35.64013],[139.6897,35.63981],[139.69159,35.63937],[139.69244,35.63924],[139.69199,35.63872],[139.69131,35.63781],[139.69111,35.63791],[139.69089,35.63759],[139.69062,35.63729],[139.69058,35.63709],[139.69019,35.63661],[139.69019,35.63657],[139.69027,35.63649],[139.68972,35.63585],[139.68856,35.63596],[139.68788,35.6362],[139.68736,35.63631],[139.68642,35.6363],[139.68562,35.63639],[139.68531,35.63646],[139.68548,35.63683],[139.6862,35.63796],[139.6866,35.63938],[139.68611,35.63961],[139.68601,35.63961],[139.68602,35.63986],[139.68607,35.63996],[139.68652,35.64018],[139.68674,35.64043],[139.68694,35.64025]]]}},{"type":"Feature","properties":{"id":"area-13110011002","name":"五本木二丁目"},"geometry":{"type":"Polygon","coordinates":[[[139.68638,35.63631],[139.68736,35.63631],[139.68788,35.6362],[139.68845,35.63599],[139.68885,35.63591],[139.68972,35.63585],[139.69085,35.63566],[139.6926,35.6356],[139.69287,35.6355],[139.68811,35.63301],[139.68662,35.63218],[139.68671,35.63272],[139.68611,35.63288],[139.68381,35.63375],[139.68414,35.63423],[139.68461,35.63532],[139.68531,35.63646],[139.68562,35.63639],[139.68638,35.63631]]]}},{"type":"Feature","properties":{"id":"area-13110011003","name":"五本木三丁目"},"geometry":{"type":"Polygon","coordinates":[[[139.68662,35.63218],[139.6809,35.62899],[139.68099,35.62912],[139.68125,35.62995],[139.68135,35.63013],[139.68206,35.63134],[139.68289,35.63249],[139.68321,35.63302],[139.68368,35.63356],[139.68381,35.63375],[139.68611,35.63288],[139.68671,35.63272],[139.68662,35.63218]]]}},{"type":"Feature","properties":{"id":"area-13110012001","name":"祐天寺一丁目"},"geometry":{"type":"Polygon","coordinates":[[[139.69741,35.63825],[139.6975,35.63818],[139.697,35.6378],[139.69674,35.63755],[139.6961,35.63705],[139.69553,35.63737],[139.69525,35.63748],[139.69476,35.63762],[139.69439,35.63769],[139.69387,35.63771],[139.69304,35.63779],[139.69282,35.6379],[139.69214,35.63799],[139.69156,35.63818],[139.69272,35.6396],[139.69319,35.64008],[139.69363,35.64044],[139.69443,35.6409],[139.69449,35.64068],[139.69463,35.64043],[139.69546,35.63956],[139.69584,35.63903],[139.69605,35.6389],[139.69741,35.63825]]]}},{"type":"Feature","properties":{"id":"area-13110012002","name":"祐天寺二丁目"},"geometry":{"type":"Polygon","coordinates":[[[139.69282,35.6379],[139.69304,35.63779],[139.69387,35.63771],[139.69439,35.63769],[139.69476,35.63762],[139.69525,35.63748],[139.69553,35.63737],[139.6961,35.63705],[139.69585,35.63686],[139.6956,35.63673],[139.69293,35.63548],[139.6926,35.6356],[139.69085,35.63566],[139.68972,35.63585],[139.69027,35.63649],[139.69019,35.63657],[139.69019,35.63661],[139.69058,35.63709],[139.69062,35.63729],[139.69089,35.63759],[139.69111,35.63791],[139.69131,35.63781],[139.6916,35.63818],[139.69194,35.63804],[139.69214,35.63799],[139.69282,35.6379]]]}},{"type":"Feature","properties":{"id":"area-13110013001","name":"中央町一丁目"},"geometry":{"type":"Polygon","coordinates":[[[139.69449,35.62835],[139.69247,35.62727],[139.69233,35.62733],[139.69207,35.62731],[139.68982,35.62682],[139.68935,35.6269],[139.68977,35.62922],[139.68979,35.62951],[139.69033,35.62957],[139.69121,35.62991],[139.69197,35.63011],[139.69276,35.63054],[139.69357,35.63085],[139.69438,35.62989],[139.69492,35.62945],[139.69587,35.62875],[139.69449,35.62835]]]}},{"type":"Feature","properties":{"id":"area-13110013002","name":"中央町二丁目"},"geometry":{"type":"Polygon","coordinates":[[[139.69321,35.63152],[139.69357,35.63085],[139.69276,35.63054],[139.69197,35.63011],[139.69121,35.62991],[139.69033,35.62957],[139.68979,35.62951],[139.68977,35.62951],[139.6897,35.62977],[139.68973,35.62978],[139.68971,35.62992],[139.68974,35.63024],[139.6892,35.63034],[139.68897,35.63044],[139.68864,35.63043],[139.68836,35.63051],[139.68775,35.63077],[139.68731,35.63064],[139.68714,35.63064],[139.68711,35.63085],[139.6866,35.6309],[139.68655,35.6308],[139.6864,35.63089],[139.68595,35.63092],[139.68472,35.63081],[139.68418,35.63062],[139.68383,35.63063],[139.68811,35.63301],[139.68951,35.63374],[139.69188,35.63261],[139.69237,35.63232],[139.69321,35.63152]]]}},{"type":"Feature","properties":{"id":"area-13110014001","name":"目黒本町一丁目"},"geometry":{"type":"Polygon","coordinates":[[[139.69842,35.62605],[139.69867,35.62586],[139.69885,35.62584],[139.69887,35.6257],[139.69857,35.62555],[139.69816,35.62543],[139.69808,35.62537],[139.69796,35.62521],[139.6979,35.62518],[139.69781,35.62526],[139.69766,35.62528],[139.69708,35.62522],[139.69666,35.62504],[139.69622,35.62497],[139.69631,35.62493],[139.69619,35.62484],[139.694,35.62649],[139.69382,35.62667],[139.69324,35.62769],[139.69449,35.62835],[139.69592,35.62875],[139.69599,35.62849],[139.69633,35.6284],[139.69638,35.62831],[139.69637,35.62808],[139.69645,35.6279],[139.6966,35.62772],[139.69695,35.62744],[139.69741,35.62713],[139.69783,35.6269],[139.69811,35.62646],[139.69834,35.62619],[139.69833,35.62616],[139.69842,35.62605]]]}},{"type":"Feature","properties":{"id":"area-13110014002","name":"目黒本町二丁目"},"geometry":{"type":"Polygon","coordinates":[[[139.694,35.62649],[139.69549,35.62537],[139.69548,35.62458],[139.69447,35.62445],[139.69296,35.62396],[139.68986,35.62197],[139.6897,35.62222],[139.68965,35.62242],[139.68951,35.62412],[139.68935,35.62557],[139.69324,35.62769],[139.69382,35.62667],[139.694,35.62649]]]}},{"type":"Feature","properties":{"id":"area-13110014003","name":"目黒本町三丁目"},"geometry":{"type":"Polygon","coordinates":[[[139.70356,35.62225],[139.70392,35.62206],[139.70404,35.62196],[139.70393,35.62174],[139.70386,35.62167],[139.70314,35.62172],[139.70308,35.62167],[139.70311,35.62166],[139.7031,35.6216],[139.70298,35.62162],[139.70285,35.62157],[139.70288,35.62138],[139.70285,35.62123],[139.70252,35.62063],[139.70246,35.62042],[139.70228,35.62021],[139.69968,35.6222],[139.69972,35.62219],[139.69619,35.62484],[139.69631,35.62493],[139.69702,35.62468],[139.69801,35.62457],[139.69835,35.62431],[139.69911,35.6241],[139.69998,35.62382],[139.70096,35.62363],[139.70164,35.6233],[139.70244,35.62275],[139.70285,35.62254],[139.70356,35.62225]]]}},{"type":"Feature","properties":{"id":"area-13110014004","name":"目黒本町四丁目"},"geometry":{"type":"Polygon","coordinates":[[[139.69549,35.62537],[139.69972,35.62219],[139.69842,35.62239],[139.69753,35.6224],[139.69658,35.62217],[139.69619,35.622],[139.69554,35.6216],[139.69412,35.62102],[139.69313,35.62068],[139.69292,35.6203],[139.69281,35.62025],[139.69275,35.62027],[139.69261,35.6204],[139.69247,35.6206],[139.69236,35.62083],[139.69234,35.62095],[139.69237,35.62109],[139.69245,35.62127],[139.69259,35.62139],[139.69275,35.62145],[139.69285,35.62156],[139.69221,35.62349],[139.69296,35.62396],[139.69392,35.62429],[139.69447,35.62445],[139.69548,35.62458],[139.69549,35.62537]]]}},{"type":"Feature","properties":{"id":"area-13110014005","name":"目黒本町五丁目"},"geometry":{"type":"Polygon","coordinates":[[[139.69752,35.62239],[139.69842,35.62239],[139.69968,35.6222],[139.70228,35.62021],[139.6996,35.6172],[139.69998,35.61704],[139.69945,35.61642],[139.69909,35.61605],[139.69903,35.61604],[139.69853,35.61655],[139.69716,35.61815],[139.69746,35.61813],[139.69752,35.62239]]]}},{"type":"Feature","properties":{"id":"area-13110014006","name":"目黒本町六丁目"},"geometry":{"type":"Polygon","coordinates":[[[139.69752,35.62239],[139.69746,35.61813],[139.69705,35.61818],[139.69281,35.61799],[139.69287,35.61937],[139.69286,35.62023],[139.69281,35.62025],[139.69292,35.6203],[139.69313,35.62068],[139.69412,35.62102],[139.69554,35.6216],[139.69619,35.622],[139.69658,35.62217],[139.69752,35.62239]]]}},{"type":"Feature","properties":{"id":"area-13110015001","name":"原町一丁目"},"geometry":{"type":"Polygon","coordinates":[[[139.69877,35.6163],[139.69903,35.61604],[139.69871,35.61569],[139.69854,35.61556],[139.6983,35.61523],[139.6975,35.61469],[139.69572,35.61619],[139.69567,35.61618],[139.69567,35.6162],[139.69275,35.6166],[139.69281,35.61799],[139.69705,35.61818],[139.69716,35.61815],[139.69877,35.6163]]]}},{"type":"Feature","properties":{"id":"area-13110015002","name":"原町二丁目"},"geometry":{"type":"Polygon","coordinates":[[[139.69359,35.61313],[139.69355,35.6131],[139.69054,35.61352],[139.69059,35.61385],[139.69025,35.61678],[139.69005,35.61785],[139.69282,35.61796],[139.69271,35.61569],[139.6927,35.61492],[139.69359,35.61313]]]}},{"type":"Feature","properties":{"id":"area-13110016001","name":"洗足一丁目"},"geometry":{"type":"Polygon","coordinates":[[[139.69567,35.6162],[139.69567,35.61618],[139.69572,35.61619],[139.69724,35.61492],[139.69639,35.61437],[139.69577,35.61362],[139.6956,35.61248],[139.69491,35.61249],[139.69489,35.61254],[139.69347,35.61254],[139.69353,35.61301],[139.69355,35.6131],[139.69359,35.61313],[139.6927,35.61492],[139.69275,35.6166],[139.69567,35.6162]]]}},{"type":"Feature","properties":{"id":"area-13110016002","name":"洗足二丁目"},"geometry":{"type":"Polygon","coordinates":[[[139.69355,35.6131],[139.69347,35.61254],[139.69489,35.61254],[139.69491,35.61249],[139.6956,35.61248],[139.69557,35.61198],[139.69575,35.61187],[139.69597,35.61077],[139.69588,35.60963],[139.69563,35.6096],[139.6957,35.60905],[139.69561,35.60905],[139.69568,35.60851],[139.69556,35.6085],[139.6956,35.60814],[139.6952,35.6081],[139.69497,35.60846],[139.69423,35.6092],[139.69355,35.60969],[139.69345,35.60962],[139.69334,35.60969],[139.6914,35.61109],[139.69103,35.61113],[139.69106,35.61116],[139.6908,35.61121],[139.69079,35.61116],[139.69052,35.61115],[139.69054,35.61124],[139.69041,35.61126],[139.69039,35.61117],[139.69035,35.61117],[139.69028,35.61109],[139.69024,35.61112],[139.69024,35.61119],[139.69021,35.61119],[139.69045,35.61269],[139.69041,35.61269],[139.69055,35.61351],[139.69243,35.61327],[139.69355,35.6131]]]}},{"type":"Feature","properties":{"id":"area-13110017001","name":"南一丁目"},"geometry":{"type":"Polygon","coordinates":[[[139.69045,35.61269],[139.69021,35.61119],[139.68975,35.61127],[139.68776,35.6126],[139.68667,35.61324],[139.68662,35.61331],[139.68676,35.61342],[139.68682,35.61357],[139.68729,35.61421],[139.68831,35.61546],[139.68866,35.61686],[139.68863,35.61723],[139.68853,35.61746],[139.68828,35.61776],[139.69005,35.61785],[139.69025,35.61678],[139.69059,35.61385],[139.69041,35.61269],[139.69045,35.61269]]]}},{"type":"Feature","properties":{"id":"area-13110017002","name":"南二丁目"},"geometry":{"type":"Polygon","coordinates":[[[139.68676,35.61342],[139.68662,35.61331],[139.68411,35.61516],[139.68332,35.61578],[139.6878,35.61741],[139.68832,35.61769],[139.68853,35.61746],[139.68863,35.61723],[139.68866,35.61686],[139.68831,35.61546],[139.68729,35.61421],[139.68682,35.61357],[139.68676,35.61342]]]}},{"type":"Feature","properties":{"id":"area-13110017003","name":"南三丁目"},"geometry":{"type":"Polygon","coordinates":[[[139.68667,35.61324],[139.68776,35.6126],[139.68975,35.61127],[139.68917,35.61128],[139.6886,35.61123],[139.68781,35.61135],[139.68747,35.61152],[139.68696,35.61165],[139.68674,35.61162],[139.68607,35.61171],[139.68585,35.61179],[139.68555,35.61198],[139.68539,35.61209],[139.6854,35.61221],[139.68509,35.61232],[139.68509,35.61242],[139.68494,35.61251],[139.68458,35.61287],[139.68452,35.61286],[139.68447,35.61304],[139.6844,35.61303],[139.68439,35.6131],[139.68423,35.61309],[139.68413,35.61352],[139.68409,35.61354],[139.68369,35.61471],[139.6835,35.61516],[139.68319,35.61574],[139.68332,35.61578],[139.68411,35.61516],[139.68662,35.61331],[139.68667,35.61324]]]}},{"type":"Feature","properties":{"id":"area-13110018001","name":"碑文谷一丁目"},"geometry":{"type":"Polygon","coordinates":[[[139.69282,35.61796],[139.68828,35.61776],[139.68756,35.61892],[139.68757,35.61894],[139.68665,35.61992],[139.68818,35.62086],[139.69221,35.62349],[139.69285,35.62156],[139.69275,35.62145],[139.69259,35.62139],[139.69245,35.62127],[139.69237,35.62109],[139.69234,35.62095],[139.69236,35.62083],[139.69247,35.6206],[139.69261,35.6204],[139.69275,35.62027],[139.69286,35.62023],[139.69287,35.61937],[139.69282,35.61796]]]}},{"type":"Feature","properties":{"id":"area-13110018002","name":"碑文谷二丁目"},"geometry":{"type":"Polygon","coordinates":[[[139.68818,35.62086],[139.68665,35.61992],[139.68555,35.62105],[139.68524,35.62148],[139.68498,35.62197],[139.68466,35.62295],[139.68935,35.62557],[139.68951,35.62412],[139.68965,35.62242],[139.6897,35.62222],[139.68986,35.62197],[139.68818,35.62086]]]}},{"type":"Feature","properties":{"id":"area-13110018003","name":"碑文谷三丁目"},"geometry":{"type":"Polygon","coordinates":[[[139.6878,35.61741],[139.68332,35.61578],[139.68324,35.61588],[139.68222,35.61759],[139.68359,35.61833],[139.68666,35.61991],[139.68757,35.61894],[139.68756,35.61892],[139.68832,35.61769],[139.6878,35.61741]]]}},{"type":"Feature","properties":{"id":"area-13110018004","name":"碑文谷四丁目"},"geometry":{"type":"Polygon","coordinates":[[[139.68666,35.61991],[139.68222,35.61759],[139.68146,35.61878],[139.68107,35.61927],[139.6804,35.62037],[139.68085,35.62081],[139.68466,35.62295],[139.68498,35.62197],[139.68524,35.62148],[139.68555,35.62105],[139.68666,35.61991]]]}},{"type":"Feature","properties":{"id":"area-13110018005","name":"碑文谷五丁目"},"geometry":{"type":"Polygon","coordinates":[[[139.67909,35.6251],[139.6794,35.62504],[139.67944,35.62526],[139.68287,35.62499],[139.68565,35.62449],[139.68684,35.62418],[139.68085,35.62081],[139.6804,35.62037],[139.67985,35.62173],[139.67939,35.62298],[139.67859,35.62462],[139.6782,35.62532],[139.67869,35.62524],[139.67909,35.6251]]]}},{"type":"Feature","properties":{"id":"area-13110018006","name":"碑文谷六丁目"},"geometry":{"type":"Polygon","coordinates":[[[139.68549,35.62714],[139.68492,35.62463],[139.68287,35.62499],[139.67944,35.62526],[139.67949,35.62571],[139.67958,35.62598],[139.68013,35.62732],[139.68044,35.62797],[139.68447,35.62725],[139.68549,35.62714]]]}},{"type":"Feature","properties":{"id":"area-13110019001","name":"鷹番一丁目"},"geometry":{"type":"Polygon","coordinates":[[[139.69248,35.62726],[139.68684,35.62418],[139.68565,35.62449],[139.68492,35.62463],[139.68549,35.62714],[139.68752,35.62697],[139.68849,35.62706],[139.68982,35.62682],[139.69207,35.62731],[139.69233,35.62733],[139.69248,35.62726]]]}},{"type":"Feature","properties":{"id":"area-13110019002","name":"鷹番二丁目"},"geometry":{"type":"Polygon","coordinates":[[[139.68711,35.63085],[139.68712,35.63064],[139.68731,35.63064],[139.68775,35.63077],[139.68836,35.63051],[139.68864,35.63043],[139.68897,35.63044],[139.6892,35.63034],[139.68974,35.63024],[139.68971,35.62992],[139.68973,35.62978],[139.6897,35.62977],[139.68977,35.62951],[139.68979,35.62951],[139.68977,35.62922],[139.68935,35.6269],[139.68849,35.62706],[139.68752,35.62697],[139.68549,35.62714],[139.68607,35.62898],[139.68614,35.62991],[139.68584,35.62997],[139.68643,35.63088],[139.68655,35.6308],[139.6866,35.6309],[139.68711,35.63085]]]}},{"type":"Feature","properties":{"id":"area-13110019003","name":"鷹番三丁目"},"geometry":{"type":"Polygon","coordinates":[[[139.68643,35.63088],[139.68584,35.62997],[139.68614,35.62991],[139.68607,35.62898],[139.68549,35.62714],[139.68447,35.62725],[139.68044,35.62797],[139.68074,35.62872],[139.6809,35.62899],[139.68383,35.63063],[139.68418,35.63062],[139.68472,35.63081],[139.68595,35.63092],[139.68643,35.63088]]]}},{"type":"Feature","properties":{"id":"area-13110020001","name":"平町一丁目"},"geometry":{"type":"Polygon","coordinates":[[[139.68146,35.61878],[139.68256,35.61703],[139.68064,35.61622],[139.67907,35.61548],[139.67887,35.61586],[139.67786,35.61573],[139.67764,35.61605],[139.67751,35.61616],[139.67595,35.61712],[139.67596,35.61717],[139.67703,35.61832],[139.67776,35.61917],[139.67809,35.61928],[139.67882,35.61959],[139.6804,35.62037],[139.68107,35.61927],[139.68146,35.61878]]]}},{"type":"Feature","properties":{"id":"area-13110020002","name":"平町二丁目"},"geometry":{"type":"Polygon","coordinates":[[[139.68319,35.61574],[139.6835,35.61516],[139.68369,35.61471],[139.68409,35.61354],[139.68341,35.61342],[139.6829,35.61328],[139.68219,35.61317],[139.68187,35.61316],[139.68161,35.6132],[139.68108,35.61317],[139.68059,35.61322],[139.6799,35.61321],[139.67893,35.61302],[139.67849,35.61424],[139.67786,35.61573],[139.67887,35.61586],[139.67907,35.61548],[139.68064,35.61622],[139.68256,35.61703],[139.68332,35.61578],[139.68319,35.61574]]]}},{"type":"Feature","properties":{"id":"area-13110021001","name":"大岡山一丁目"},"geometry":{"type":"Polygon","coordinates":[[[139.68413,35.61352],[139.68432,35.61267],[139.68456,35.61075],[139.68458,35.61026],[139.68465,35.61001],[139.68476,35.60976],[139.68484,35.60907],[139.68286,35.60888],[139.6798,35.60853],[139.67969,35.60899],[139.67983,35.60975],[139.67985,35.61029],[139.67893,35.61302],[139.6799,35.61321],[139.68059,35.61322],[139.68108,35.61317],[139.68161,35.6132],[139.68187,35.61316],[139.68219,35.61317],[139.6829,35.61328],[139.68388,35.61352],[139.68413,35.61352]]]}},{"type":"Feature","properties":{"id":"area-13110021002","name":"大岡山二丁目"},"geometry":{"type":"Polygon","coordinates":[[[139.6851,35.60693],[139.6843,35.60225],[139.68388,35.60231],[139.68343,35.60243],[139.68302,35.60263],[139.68282,35.60305],[139.68289,35.60314],[139.68287,35.60322],[139.68282,35.60337],[139.68272,35.60338],[139.68263,35.60365],[139.68289,35.60402],[139.68284,35.60407],[139.68265,35.60399],[139.68221,35.60405],[139.68224,35.60424],[139.68191,35.60424],[139.68192,35.6042],[139.68116,35.60416],[139.68102,35.60424],[139.68068,35.60416],[139.68057,35.60498],[139.6802,35.6059],[139.68015,35.60613],[139.68022,35.60649],[139.6798,35.60853],[139.68286,35.60888],[139.68484,35.60907],[139.68486,35.60875],[139.68477,35.60782],[139.68494,35.60754],[139.68504,35.60747],[139.68509,35.60728],[139.6851,35.60693]]]}},{"type":"Feature","properties":{"id":"area-13110022001","name":"緑が丘一丁目"},"geometry":{"type":"Polygon","coordinates":[[[139.67893,35.61302],[139.67985,35.61029],[139.67983,35.60975],[139.67969,35.60899],[139.68022,35.60649],[139.68017,35.60622],[139.67892,35.60664],[139.67841,35.60676],[139.67835,35.60685],[139.67784,35.60727],[139.6777,35.60745],[139.67752,35.60758],[139.67733,35.60778],[139.67718,35.60801],[139.6771,35.60807],[139.67643,35.60831],[139.6761,35.6084],[139.67578,35.60843],[139.67569,35.60894],[139.67587,35.61071],[139.67597,35.61229],[139.67631,35.61226],[139.67664,35.61234],[139.67745,35.61265],[139.67893,35.61302]]]}},{"type":"Feature","properties":{"id":"area-13110022002","name":"緑が丘二丁目"},"geometry":{"type":"Polygon","coordinates":[[[139.67597,35.61229],[139.67577,35.60956],[139.67575,35.60956],[139.67569,35.60894],[139.67578,35.60843],[139.67545,35.60849],[139.67503,35.60832],[139.6742,35.60819],[139.67394,35.60818],[139.67374,35.60825],[139.67343,35.60823],[139.67302,35.60809],[139.67269,35.60791],[139.67161,35.60763],[139.67133,35.60752],[139.67156,35.61229],[139.67176,35.61259],[139.67213,35.61303],[139.67597,35.61229]]]}},{"type":"Feature","properties":{"id":"area-13110022003","name":"緑が丘三丁目"},"geometry":{"type":"Polygon","coordinates":[[[139.68064,35.60413],[139.68082,35.60321],[139.68083,35.603],[139.68067,35.60148],[139.68077,35.60111],[139.68115,35.60066],[139.68079,35.60055],[139.68027,35.60061],[139.6802,35.60187],[139.68028,35.60201],[139.68018,35.60314],[139.67997,35.60313],[139.67991,35.60358],[139.67974,35.60355],[139.6797,35.60374],[139.6794,35.60371],[139.67939,35.60382],[139.67969,35.60384],[139.67947,35.60549],[139.67926,35.60589],[139.67882,35.6062],[139.67868,35.60651],[139.67841,35.60676],[139.67892,35.60664],[139.68015,35.60622],[139.6802,35.6059],[139.68057,35.60498],[139.68068,35.60416],[139.68064,35.60413]]]}},{"type":"Feature","properties":{"id":"area-13110023001","name":"自由が丘一丁目"},"geometry":{"type":"Polygon","coordinates":[[[139.66847,35.60655],[139.66811,35.60654],[139.66826,35.60789],[139.66822,35.60794],[139.66866,35.61381],[139.66929,35.61377],[139.66988,35.61366],[139.67213,35.61303],[139.67176,35.61259],[139.67156,35.61229],[139.67133,35.60752],[139.671,35.60741],[139.67056,35.6072],[139.66847,35.60655]]]}},{"type":"Feature","properties":{"id":"area-13110023002","name":"自由が丘二丁目"},"geometry":{"type":"Polygon","coordinates":[[[139.66826,35.60789],[139.66811,35.60654],[139.6676,35.60657],[139.66729,35.60664],[139.6654,35.60726],[139.66569,35.60961],[139.66569,35.61033],[139.66567,35.61171],[139.6654,35.61385],[139.66648,35.61392],[139.66704,35.61399],[139.6675,35.61411],[139.66769,35.61399],[139.66823,35.61387],[139.66866,35.61381],[139.66822,35.60794],[139.66826,35.60789]]]}},{"type":"Feature","properties":{"id":"area-13110023003","name":"自由が丘三丁目"},"geometry":{"type":"Polygon","coordinates":[[[139.66284,35.61386],[139.66455,35.6138],[139.6654,35.61385],[139.66567,35.61171],[139.66569,35.61033],[139.66569,35.60961],[139.6654,35.60726],[139.66331,35.60852],[139.66345,35.60897],[139.66317,35.60904],[139.66321,35.60916],[139.66305,35.60919],[139.66306,35.60927],[139.66326,35.60927],[139.66333,35.60952],[139.66342,35.60951],[139.66351,35.60976],[139.66402,35.60965],[139.66401,35.60986],[139.66386,35.60997],[139.66331,35.61056],[139.66324,35.61074],[139.66318,35.61084],[139.66318,35.61124],[139.66327,35.61125],[139.66328,35.61153],[139.66346,35.61164],[139.66348,35.61177],[139.66324,35.61179],[139.6631,35.61188],[139.66302,35.61179],[139.66284,35.6118],[139.66282,35.61192],[139.66285,35.61192],[139.66286,35.61206],[139.66267,35.61207],[139.6629,35.61221],[139.66291,35.61228],[139.6631,35.61228],[139.6631,35.61234],[139.66333,35.61253],[139.66265,35.61253],[139.66273,35.61295],[139.66281,35.61377],[139.66284,35.61386]]]}},{"type":"Feature","properties":{"id":"area-13110024001","name":"中根一丁目"},"geometry":{"type":"Polygon","coordinates":[[[139.67703,35.61832],[139.67353,35.61451],[139.67304,35.61407],[139.67213,35.61303],[139.66988,35.61366],[139.66929,35.61377],[139.66866,35.61381],[139.66823,35.61387],[139.66766,35.614],[139.6675,35.61411],[139.66975,35.61498],[139.67072,35.61539],[139.67163,35.61593],[139.6734,35.61708],[139.67484,35.61797],[139.67524,35.61817],[139.6757,35.61832],[139.67717,35.61895],[139.67776,35.61917],[139.67703,35.61832]]]}},{"type":"Feature","properties":{"id":"area-13110024002","name":"中根二丁目"},"geometry":{"type":"Polygon","coordinates":[[[139.67664,35.61234],[139.67631,35.61226],[139.67597,35.61229],[139.67213,35.61303],[139.67304,35.61407],[139.67353,35.61451],[139.67593,35.61714],[139.67751,35.61616],[139.67764,35.61605],[139.67778,35.61587],[139.67849,35.61424],[139.67893,35.61302],[139.67745,35.61265],[139.67664,35.61234]]]}},{"type":"Feature","properties":{"id":"area-13110025001","name":"柿の木坂一丁目"},"geometry":{"type":"Polygon","coordinates":[[[139.6757,35.61832],[139.67547,35.61824],[139.67489,35.61883],[139.67443,35.62033],[139.67431,35.6205],[139.67355,35.62243],[139.67565,35.62288],[139.67788,35.62358],[139.67902,35.62377],[139.67939,35.62298],[139.67985,35.62173],[139.6804,35.62037],[139.67882,35.61959],[139.67809,35.61928],[139.67752,35.61909],[139.6757,35.61832]]]}},{"type":"Feature","properties":{"id":"area-13110025002","name":"柿の木坂二丁目"},"geometry":{"type":"Polygon","coordinates":[[[139.6772,35.62694],[139.6783,35.6253],[139.6782,35.62532],[139.67859,35.62462],[139.67902,35.62377],[139.67788,35.62358],[139.67565,35.62288],[139.67355,35.62243],[139.6722,35.62635],[139.67658,35.62748],[139.6768,35.62732],[139.6772,35.62694]]]}},{"type":"Feature","properties":{"id":"area-13110025003","name":"柿の木坂三丁目"},"geometry":{"type":"Polygon","coordinates":[[[139.67658,35.62748],[139.6722,35.62635],[139.67167,35.62795],[139.67169,35.62821],[139.672,35.62918],[139.67216,35.62948],[139.67239,35.62972],[139.67278,35.62949],[139.67491,35.62842],[139.67658,35.62748]]]}},{"type":"Feature","properties":{"id":"area-13110026001","name":"八雲一丁目"},"geometry":{"type":"Polygon","coordinates":[[[139.67355,35.62243],[139.67431,35.6205],[139.67443,35.62033],[139.67489,35.61883],[139.67547,35.61824],[139.67524,35.61817],[139.67466,35.61786],[139.67237,35.61642],[139.67227,35.61675],[139.67171,35.61754],[139.6719,35.61769],[139.67214,35.618],[139.6717,35.61856],[139.67141,35.61922],[139.67102,35.61965],[139.67025,35.62157],[139.67355,35.62243]]]}},{"type":"Feature","properties":{"id":"area-13110026002","name":"八雲二丁目"},"geometry":{"type":"Polygon","coordinates":[[[139.67093,35.61549],[139.66971,35.61496],[139.66714,35.6205],[139.67025,35.62157],[139.67102,35.61965],[139.67141,35.61922],[139.6717,35.61856],[139.67214,35.618],[139.6719,35.61769],[139.67171,35.61754],[139.67227,35.61675],[139.67237,35.61642],[139.67093,35.61549]]]}},{"type":"Feature","properties":{"id":"area-13110026003","name":"八雲三丁目"},"geometry":{"type":"Polygon","coordinates":[[[139.66714,35.6205],[139.66971,35.61496],[139.6675,35.61411],[139.66704,35.61399],[139.66648,35.61392],[139.66455,35.6138],[139.66284,35.61386],[139.66307,35.61506],[139.66321,35.61505],[139.66322,35.61535],[139.66333,35.61545],[139.66334,35.61565],[139.66362,35.61576],[139.66378,35.61576],[139.66406,35.61586],[139.66401,35.61618],[139.6641,35.61621],[139.66425,35.61638],[139.66457,35.61644],[139.66449,35.61677],[139.66474,35.61683],[139.66438,35.61743],[139.6648,35.61838],[139.66639,35.61858],[139.66628,35.6192],[139.666,35.61984],[139.66586,35.62006],[139.66714,35.6205]]]}},{"type":"Feature","properties":{"id":"area-13110026004","name":"八雲四丁目"},"geometry":{"type":"Polygon","coordinates":[[[139.67355,35.62243],[139.67025,35.62157],[139.66974,35.6233],[139.66914,35.6247],[139.66875,35.62547],[139.6722,35.62635],[139.67355,35.62243]]]}},{"type":"Feature","properties":{"id":"area-13110026005","name":"八雲五丁目"},"geometry":{"type":"Polygon","coordinates":[[[139.66914,35.6247],[139.66974,35.6233],[139.67025,35.62157],[139.66586,35.62006],[139.66572,35.6204],[139.66586,35.62085],[139.66636,35.62083],[139.66644,35.6209],[139.66609,35.62122],[139.66602,35.62137],[139.66577,35.62156],[139.66588,35.62166],[139.66596,35.62167],[139.66609,35.62177],[139.66592,35.62191],[139.66565,35.62184],[139.66532,35.62261],[139.66517,35.62259],[139.66463,35.62305],[139.6639,35.62427],[139.66487,35.62453],[139.66491,35.62452],[139.66551,35.62468],[139.66588,35.62474],[139.66872,35.62548],[139.66875,35.62547],[139.66914,35.6247]]]}},{"type":"Feature","properties":{"id":"area-13110027001","name":"東が丘一丁目"},"geometry":{"type":"Polygon","coordinates":[[[139.67167,35.62795],[139.6722,35.62635],[139.66872,35.62548],[139.66814,35.62632],[139.66808,35.62632],[139.66766,35.62696],[139.66756,35.62712],[139.66758,35.62723],[139.66732,35.62762],[139.66717,35.62756],[139.66698,35.62849],[139.66652,35.62857],[139.6652,35.63037],[139.66482,35.63094],[139.66458,35.6317],[139.66462,35.63199],[139.66575,35.63166],[139.66629,35.63159],[139.66715,35.63133],[139.66773,35.63126],[139.66874,35.63086],[139.66948,35.63069],[139.67041,35.63041],[139.67194,35.62989],[139.67216,35.62988],[139.67239,35.62972],[139.67216,35.62948],[139.672,35.62918],[139.67169,35.62821],[139.67167,35.62795]]]}},{"type":"Feature","properties":{"id":"area-13110027002","name":"東が丘二丁目"},"geometry":{"type":"Polygon","coordinates":[[[139.66698,35.62849],[139.66717,35.62756],[139.66732,35.62762],[139.66758,35.62723],[139.66756,35.62712],[139.66766,35.62696],[139.66808,35.62632],[139.66814,35.62632],[139.66873,35.62547],[139.66588,35.62474],[139.66551,35.62468],[139.66491,35.62452],[139.66487,35.62453],[139.6639,35.62427],[139.66378,35.62449],[139.66384,35.62452],[139.66392,35.62485],[139.66385,35.62527],[139.66367,35.62639],[139.66346,35.62695],[139.66313,35.62727],[139.66292,35.62729],[139.6628,35.62735],[139.66268,35.62746],[139.66184,35.62796],[139.66201,35.62804],[139.66221,35.62868],[139.66215,35.62914],[139.66231,35.62938],[139.66249,35.63029],[139.66161,35.63195],[139.66249,35.63204],[139.66353,35.6321],[139.66462,35.63199],[139.66458,35.6317],[139.66482,35.63094],[139.6652,35.63037],[139.66652,35.62857],[139.66698,35.62849]]]}}]}