{"type":"FeatureCollection","features":[{"type":"Feature","properties":{"id":"area-13115001001","name":"方南一丁目"},"geometry":{"type":"Polygon","coordinates":[[[139.6618,35.68013],[139.66202,35.67982],[139.6622,35.67984],[139.6624,35.6797],[139.66251,35.67958],[139.66271,35.67962],[139.6629,35.67953],[139.66297,35.67953],[139.66305,35.6796],[139.66378,35.67958],[139.66388,35.67963],[139.66397,35.67956],[139.66397,35.67936],[139.66386,35.67904],[139.66384,35.67888],[139.66481,35.67891],[139.66473,35.67794],[139.6646,35.67794],[139.66453,35.67774],[139.66362,35.67794],[139.6634,35.67802],[139.66341,35.67761],[139.66352,35.67722],[139.66368,35.67727],[139.66401,35.67656],[139.66326,35.67622],[139.66189,35.67568],[139.66174,35.67553],[139.6618,35.67533],[139.66156,35.67481],[139.66134,35.67462],[139.66146,35.67441],[139.66161,35.67429],[139.6618,35.67368],[139.66153,35.67324],[139.66146,35.67306],[139.66138,35.67294],[139.66143,35.67281],[139.6607,35.67261],[139.65865,35.67668],[139.6574,35.67907],[139.65731,35.67942],[139.65722,35.6803],[139.65765,35.68036],[139.65861,35.68028],[139.65935,35.68003],[139.65953,35.67988],[139.65975,35.6798],[139.65985,35.6798],[139.66166,35.68038],[139.66169,35.68023],[139.6618,35.68013]]]}},{"type":"Feature","properties":{"id":"area-13115001002","name":"方南二丁目"},"geometry":{"type":"Polygon","coordinates":[[[139.65988,35.68478],[139.6602,35.6849],[139.66052,35.68423],[139.66016,35.68414],[139.65999,35.68384],[139.65995,35.68365],[139.65958,35.68365],[139.65943,35.68353],[139.65935,35.68341],[139.65926,35.68319],[139.65942,35.68317],[139.6594,35.68261],[139.65935,35.6822],[139.6596,35.68217],[139.66001,35.68204],[139.65993,35.68176],[139.66019,35.6817],[139.66011,35.68132],[139.66034,35.68127],[139.66059,35.68116],[139.66057,35.68113],[139.66061,35.68111],[139.66045,35.68087],[139.66024,35.68075],[139.66007,35.6805],[139.65982,35.6804],[139.65973,35.68039],[139.6597,35.68031],[139.65978,35.68026],[139.65959,35.68008],[139.6595,35.68008],[139.65946,35.68011],[139.65936,35.68008],[139.65935,35.68003],[139.65861,35.68028],[139.6584,35.68031],[139.65765,35.68036],[139.65722,35.6803],[139.65712,35.68183],[139.6568,35.68488],[139.65676,35.6851],[139.65664,35.68531],[139.65625,35.68632],[139.6567,35.68649],[139.65728,35.68659],[139.65916,35.68664],[139.6592,35.68603],[139.65931,35.68601],[139.65943,35.6858],[139.65954,35.68572],[139.65938,35.68514],[139.65979,35.68512],[139.65979,35.68493],[139.65988,35.68478]]]}},{"type":"Feature","properties":{"id":"area-13115002001","name":"和泉一丁目"},"geometry":{"type":"Polygon","coordinates":[[[139.6574,35.67907],[139.6601,35.67385],[139.66072,35.67259],[139.65987,35.67239],[139.65744,35.67172],[139.65709,35.67159],[139.65691,35.67192],[139.6568,35.67207],[139.65616,35.67275],[139.65568,35.67338],[139.65496,35.67466],[139.65428,35.67558],[139.6533,35.67656],[139.65276,35.67703],[139.65336,35.67702],[139.65428,35.67691],[139.6543,35.67696],[139.65556,35.67679],[139.65601,35.67689],[139.65604,35.67714],[139.65619,35.67757],[139.65628,35.67767],[139.6572,35.67834],[139.65717,35.67884],[139.65728,35.67965],[139.6574,35.67907]]]}},{"type":"Feature","properties":{"id":"area-13115002002","name":"和泉二丁目"},"geometry":{"type":"Polygon","coordinates":[[[139.65496,35.67466],[139.65568,35.67338],[139.65616,35.67275],[139.6568,35.67207],[139.65691,35.67192],[139.65709,35.67159],[139.6568,35.67149],[139.65673,35.67131],[139.65534,35.67081],[139.65444,35.67063],[139.65434,35.67093],[139.65264,35.67074],[139.65017,35.67031],[139.65004,35.67091],[139.64991,35.67132],[139.64953,35.6718],[139.64905,35.67218],[139.64629,35.67412],[139.64637,35.67418],[139.64665,35.67403],[139.64676,35.67402],[139.64706,35.67444],[139.64726,35.67454],[139.64759,35.67477],[139.64773,35.67496],[139.64777,35.67514],[139.64798,35.67547],[139.64815,35.67593],[139.64833,35.67604],[139.64848,35.67618],[139.64853,35.67636],[139.64854,35.67657],[139.64848,35.67686],[139.64848,35.67704],[139.64862,35.67737],[139.6486,35.6778],[139.64868,35.67804],[139.64886,35.67833],[139.6492,35.67813],[139.64994,35.67791],[139.65035,35.67768],[139.6516,35.67749],[139.65276,35.67703],[139.6533,35.67656],[139.65428,35.67558],[139.65496,35.67466]]]}},{"type":"Feature","properties":{"id":"area-13115002003","name":"和泉三丁目"},"geometry":{"type":"Polygon","coordinates":[[[139.64985,35.68266],[139.65187,35.68261],[139.65227,35.68268],[139.65228,35.68263],[139.65216,35.68245],[139.65203,35.68236],[139.65091,35.68187],[139.6507,35.68168],[139.65056,35.68143],[139.65043,35.68104],[139.65009,35.68062],[139.64991,35.68048],[139.64956,35.68004],[139.6495,35.67994],[139.64951,35.67949],[139.64937,35.6793],[139.6492,35.67916],[139.64895,35.67868],[139.64886,35.67833],[139.64868,35.67804],[139.6486,35.6778],[139.64862,35.67737],[139.64848,35.67704],[139.64848,35.67686],[139.64854,35.67657],[139.64853,35.67636],[139.64848,35.67618],[139.64833,35.67604],[139.64815,35.67593],[139.64798,35.67547],[139.64777,35.67514],[139.64773,35.67496],[139.64759,35.67477],[139.64726,35.67454],[139.64706,35.67444],[139.64676,35.67402],[139.64665,35.67403],[139.64637,35.67418],[139.64629,35.67412],[139.64624,35.67413],[139.64457,35.6753],[139.64365,35.67584],[139.64399,35.67643],[139.64394,35.67647],[139.64404,35.67677],[139.64411,35.67712],[139.64411,35.67737],[139.64408,35.67764],[139.64392,35.67814],[139.64383,35.67869],[139.64361,35.68025],[139.64361,35.68049],[139.64353,35.68078],[139.6435,35.6811],[139.64352,35.68137],[139.64335,35.68193],[139.64732,35.68284],[139.64781,35.68292],[139.64802,35.68292],[139.64985,35.68266]]]}},{"type":"Feature","properties":{"id":"area-13115002004","name":"和泉四丁目"},"geometry":{"type":"Polygon","coordinates":[[[139.65604,35.67714],[139.65601,35.67689],[139.65556,35.67679],[139.6543,35.67696],[139.65428,35.67691],[139.65336,35.67702],[139.65276,35.67703],[139.6516,35.67749],[139.65035,35.67768],[139.64994,35.67791],[139.6492,35.67813],[139.64886,35.67833],[139.64895,35.67868],[139.6492,35.67916],[139.64937,35.6793],[139.64951,35.67949],[139.6495,35.67994],[139.6497,35.68024],[139.64991,35.68048],[139.65009,35.68062],[139.65043,35.68104],[139.65056,35.68143],[139.6507,35.68168],[139.65091,35.68187],[139.65203,35.68236],[139.65216,35.68245],[139.65228,35.68263],[139.65227,35.68268],[139.65336,35.68297],[139.6545,35.68315],[139.65694,35.68344],[139.65712,35.68183],[139.65714,35.68129],[139.65728,35.67965],[139.65717,35.67884],[139.6572,35.67834],[139.65628,35.67767],[139.65619,35.67757],[139.65604,35.67714]]]}},{"type":"Feature","properties":{"id":"area-13115003001","name":"下高井戸一丁目"},"geometry":{"type":"Polygon","coordinates":[[[139.63926,35.66749],[139.64009,35.66751],[139.64133,35.66759],[139.64147,35.66668],[139.64038,35.66635],[139.63931,35.66588],[139.63846,35.66594],[139.63809,35.66592],[139.63687,35.66612],[139.63684,35.66626],[139.63695,35.66666],[139.63644,35.6668],[139.63543,35.66728],[139.63452,35.66765],[139.63423,35.66775],[139.63333,35.66797],[139.63269,35.66822],[139.62978,35.66871],[139.62824,35.66893],[139.62671,35.66912],[139.62487,35.66925],[139.6248,35.67036],[139.62482,35.67041],[139.62531,35.67038],[139.62874,35.67002],[139.63269,35.66945],[139.63423,35.66895],[139.6354,35.66848],[139.63786,35.66767],[139.63844,35.66754],[139.63926,35.66749]]]}},{"type":"Feature","properties":{"id":"area-13115003002","name":"下高井戸二丁目"},"geometry":{"type":"Polygon","coordinates":[[[139.64153,35.67013],[139.64222,35.67013],[139.64169,35.66902],[139.64159,35.6687],[139.64156,35.66799],[139.64159,35.66762],[139.6399,35.6675],[139.63891,35.66749],[139.63844,35.66754],[139.63786,35.66767],[139.63611,35.66825],[139.6354,35.66848],[139.63388,35.66907],[139.63507,35.67059],[139.63652,35.67255],[139.63671,35.67244],[139.63682,35.67243],[139.63696,35.67231],[139.63711,35.67229],[139.63875,35.67091],[139.63911,35.67069],[139.63955,35.67052],[139.64067,35.67025],[139.64107,35.67017],[139.64153,35.67013]]]}},{"type":"Feature","properties":{"id":"area-13115003003","name":"下高井戸三丁目"},"geometry":{"type":"Polygon","coordinates":[[[139.63436,35.67532],[139.63521,35.67456],[139.63554,35.67416],[139.63574,35.67352],[139.63593,35.67329],[139.63649,35.67282],[139.63639,35.67256],[139.63648,35.67249],[139.63507,35.67059],[139.63388,35.66907],[139.63269,35.66945],[139.63084,35.66971],[139.63085,35.66993],[139.63113,35.67086],[139.63141,35.67211],[139.63129,35.67218],[139.63148,35.67261],[139.63155,35.67325],[139.63139,35.67325],[139.63138,35.67392],[139.63125,35.67463],[139.63104,35.67461],[139.63081,35.67468],[139.63075,35.6754],[139.63075,35.67594],[139.63261,35.67615],[139.63317,35.67615],[139.63336,35.6761],[139.63353,35.67601],[139.63436,35.67532]]]}},{"type":"Feature","properties":{"id":"area-13115003004","name":"下高井戸四丁目"},"geometry":{"type":"Polygon","coordinates":[[[139.63075,35.67589],[139.63075,35.6754],[139.63081,35.67468],[139.63104,35.67461],[139.63125,35.67463],[139.63138,35.67392],[139.63139,35.67325],[139.63155,35.67325],[139.63148,35.67261],[139.63129,35.67218],[139.63141,35.67211],[139.63113,35.67086],[139.63085,35.66993],[139.63084,35.66971],[139.62874,35.67002],[139.6256,35.67035],[139.62568,35.6707],[139.62569,35.671],[139.62562,35.67128],[139.62517,35.67188],[139.62491,35.67229],[139.62468,35.67282],[139.62462,35.67306],[139.62472,35.67349],[139.62498,35.67404],[139.62526,35.6746],[139.62534,35.6747],[139.62555,35.67486],[139.6264,35.67493],[139.6265,35.67497],[139.62678,35.67536],[139.62709,35.67531],[139.62757,35.67537],[139.6289,35.67572],[139.62921,35.67562],[139.62948,35.67563],[139.62982,35.67574],[139.62984,35.67578],[139.63075,35.67589]]]}},{"type":"Feature","properties":{"id":"area-13115003005","name":"下高井戸五丁目"},"geometry":{"type":"Polygon","coordinates":[[[139.62336,35.67758],[139.6256,35.67587],[139.6262,35.67558],[139.62658,35.67541],[139.62678,35.67536],[139.6265,35.67497],[139.6264,35.67493],[139.62575,35.67489],[139.62555,35.67486],[139.62546,35.67481],[139.62526,35.6746],[139.62469,35.67339],[139.62462,35.67306],[139.62468,35.67282],[139.62475,35.67264],[139.62491,35.67229],[139.62517,35.67188],[139.62562,35.67128],[139.62567,35.67111],[139.62568,35.6707],[139.6256,35.67035],[139.62482,35.67041],[139.6248,35.67036],[139.62313,35.67061],[139.62313,35.67145],[139.62344,35.67171],[139.62268,35.67234],[139.62016,35.67465],[139.61946,35.67519],[139.61917,35.67537],[139.61806,35.67595],[139.61846,35.67641],[139.6187,35.67656],[139.61971,35.67672],[139.62129,35.67706],[139.6223,35.67744],[139.62296,35.67744],[139.62336,35.67758]]]}},{"type":"Feature","properties":{"id":"area-13115004001","name":"永福一丁目"},"geometry":{"type":"Polygon","coordinates":[[[139.64503,35.668],[139.64161,35.66756],[139.64156,35.66799],[139.64159,35.6687],[139.64169,35.66902],[139.64222,35.67013],[139.64264,35.67194],[139.6428,35.67368],[139.6429,35.67407],[139.64324,35.67494],[139.64365,35.67584],[139.64457,35.6753],[139.64905,35.67218],[139.64953,35.6718],[139.64991,35.67132],[139.65004,35.67091],[139.65017,35.67031],[139.65018,35.67009],[139.64964,35.6699],[139.6479,35.66891],[139.64656,35.66838],[139.64599,35.6682],[139.6455,35.66809],[139.64503,35.668]]]}},{"type":"Feature","properties":{"id":"area-13115004002","name":"永福二丁目"},"geometry":{"type":"Polygon","coordinates":[[[139.64222,35.67013],[139.64138,35.67013],[139.64107,35.67017],[139.63934,35.67059],[139.63875,35.67091],[139.63711,35.67229],[139.63696,35.67231],[139.63682,35.67243],[139.63671,35.67244],[139.63652,35.67255],[139.63806,35.67464],[139.64056,35.67787],[139.64384,35.67619],[139.64347,35.67547],[139.6429,35.67407],[139.6428,35.67368],[139.64264,35.67194],[139.64222,35.67013]]]}},{"type":"Feature","properties":{"id":"area-13115004003","name":"永福三丁目"},"geometry":{"type":"Polygon","coordinates":[[[139.6361,35.68013],[139.64055,35.67786],[139.63806,35.67464],[139.63648,35.67249],[139.63639,35.67256],[139.63649,35.67282],[139.63593,35.67329],[139.63574,35.67352],[139.63554,35.67416],[139.63519,35.67457],[139.63523,35.67464],[139.63481,35.67505],[139.63454,35.67576],[139.63452,35.67656],[139.63376,35.67653],[139.63369,35.6772],[139.63363,35.67741],[139.63364,35.67778],[139.63361,35.67785],[139.63346,35.678],[139.63393,35.67847],[139.63416,35.67882],[139.63442,35.67939],[139.63492,35.67926],[139.63514,35.67959],[139.63539,35.67984],[139.63546,35.67981],[139.6361,35.68013]]]}},{"type":"Feature","properties":{"id":"area-13115004004","name":"永福四丁目"},"geometry":{"type":"Polygon","coordinates":[[[139.64392,35.67814],[139.64408,35.67764],[139.64411,35.67712],[139.64404,35.67677],[139.64394,35.67647],[139.64399,35.67643],[139.64384,35.67619],[139.6361,35.68013],[139.63624,35.6802],[139.64335,35.68193],[139.64352,35.68137],[139.6435,35.6811],[139.64353,35.68078],[139.64361,35.68049],[139.64361,35.68025],[139.64392,35.67814]]]}},{"type":"Feature","properties":{"id":"area-13115005001","name":"浜田山一丁目"},"geometry":{"type":"Polygon","coordinates":[[[139.62916,35.68104],[139.63433,35.6792],[139.63416,35.67882],[139.63393,35.67847],[139.63346,35.678],[139.63361,35.67785],[139.63364,35.67778],[139.63363,35.67741],[139.63369,35.6772],[139.63376,35.67653],[139.63452,35.67656],[139.63454,35.67576],[139.6347,35.67529],[139.63481,35.67505],[139.63523,35.67464],[139.63519,35.67457],[139.63376,35.67584],[139.63336,35.6761],[139.63317,35.67615],[139.63261,35.67615],[139.63075,35.67594],[139.63075,35.67589],[139.62984,35.67578],[139.62982,35.67574],[139.62948,35.67563],[139.62921,35.67562],[139.6289,35.67572],[139.62757,35.67537],[139.62723,35.67532],[139.62709,35.67531],[139.62678,35.67537],[139.62747,35.67635],[139.62778,35.67699],[139.62872,35.67877],[139.62901,35.67996],[139.62916,35.68104]]]}},{"type":"Feature","properties":{"id":"area-13115005002","name":"浜田山二丁目"},"geometry":{"type":"Polygon","coordinates":[[[139.62747,35.67635],[139.62678,35.67537],[139.62658,35.67541],[139.6256,35.67587],[139.62336,35.67758],[139.62405,35.67819],[139.62435,35.67838],[139.6245,35.67852],[139.62551,35.68003],[139.62514,35.68138],[139.62544,35.68209],[139.62648,35.68197],[139.62702,35.68184],[139.62789,35.68155],[139.62916,35.68104],[139.62901,35.67996],[139.62872,35.67877],[139.62778,35.67699],[139.62747,35.67635]]]}},{"type":"Feature","properties":{"id":"area-13115005003","name":"浜田山三丁目"},"geometry":{"type":"Polygon","coordinates":[[[139.63616,35.68016],[139.63546,35.67981],[139.63539,35.67984],[139.63514,35.67959],[139.63492,35.67926],[139.63442,35.67939],[139.63432,35.6792],[139.62915,35.68105],[139.62789,35.68155],[139.62702,35.68184],[139.62648,35.68197],[139.62544,35.68209],[139.62584,35.68309],[139.62489,35.68493],[139.62442,35.68576],[139.62707,35.68479],[139.63616,35.68016]]]}},{"type":"Feature","properties":{"id":"area-13115005004","name":"浜田山四丁目"},"geometry":{"type":"Polygon","coordinates":[[[139.63509,35.68072],[139.63394,35.68128],[139.62707,35.68479],[139.62442,35.68576],[139.62399,35.68653],[139.62498,35.68819],[139.62641,35.6876],[139.62829,35.68697],[139.62874,35.68675],[139.63003,35.68622],[139.63364,35.68482],[139.63514,35.68402],[139.6359,35.68367],[139.63553,35.6822],[139.63509,35.68072]]]}},{"type":"Feature","properties":{"id":"area-13115006001","name":"和田一丁目"},"geometry":{"type":"Polygon","coordinates":[[[139.66445,35.69542],[139.66455,35.69533],[139.66472,35.69533],[139.66492,35.69538],[139.66507,35.69525],[139.66542,35.69465],[139.66587,35.69479],[139.66638,35.69402],[139.66649,35.69372],[139.66656,35.69374],[139.6667,35.69346],[139.66689,35.6935],[139.66739,35.69375],[139.66727,35.69329],[139.66732,35.69281],[139.66752,35.69186],[139.66769,35.69187],[139.66781,35.69137],[139.66696,35.69119],[139.667,35.69092],[139.66681,35.69084],[139.66636,35.69041],[139.66437,35.68938],[139.66396,35.68913],[139.66386,35.68904],[139.66376,35.68884],[139.66364,35.68842],[139.66343,35.68802],[139.66188,35.68718],[139.66162,35.68818],[139.66101,35.68947],[139.66089,35.69013],[139.65969,35.6898],[139.6599,35.69045],[139.65977,35.69096],[139.65907,35.69191],[139.65828,35.6936],[139.65884,35.69373],[139.65912,35.69372],[139.65943,35.69381],[139.65992,35.69423],[139.66094,35.69482],[139.66145,35.69506],[139.66217,35.6952],[139.66279,35.69523],[139.66373,35.69534],[139.66422,35.69537],[139.66445,35.69542]]]}},{"type":"Feature","properties":{"id":"area-13115006002","name":"和田二丁目"},"geometry":{"type":"Polygon","coordinates":[[[139.6599,35.69045],[139.65969,35.6898],[139.66089,35.69013],[139.66101,35.68947],[139.66162,35.68818],[139.66188,35.68718],[139.66127,35.68685],[139.66087,35.68676],[139.65918,35.68669],[139.65916,35.68664],[139.65728,35.68659],[139.6567,35.68649],[139.65624,35.68631],[139.65525,35.68903],[139.65494,35.69063],[139.65486,35.69085],[139.6547,35.69176],[139.65496,35.69183],[139.65542,35.6921],[139.65581,35.69223],[139.65652,35.69238],[139.65667,35.69246],[139.65775,35.69334],[139.65828,35.6936],[139.65907,35.69191],[139.65977,35.69096],[139.6599,35.69045]]]}},{"type":"Feature","properties":{"id":"area-13115006003","name":"和田三丁目"},"geometry":{"type":"Polygon","coordinates":[[[139.66199,35.69738],[139.66193,35.697],[139.66097,35.69719],[139.66098,35.69689],[139.66105,35.6966],[139.66038,35.69646],[139.66084,35.69546],[139.66096,35.69483],[139.65992,35.69423],[139.65943,35.69381],[139.65912,35.69372],[139.65884,35.69373],[139.65828,35.6936],[139.65775,35.69334],[139.65667,35.69246],[139.65652,35.69238],[139.65581,35.69223],[139.65542,35.6921],[139.65496,35.69183],[139.6547,35.69176],[139.6544,35.6935],[139.65436,35.69416],[139.65449,35.69565],[139.65482,35.69777],[139.65484,35.69809],[139.65724,35.69813],[139.65803,35.69807],[139.66197,35.6975],[139.66199,35.69738]]]}},{"type":"Feature","properties":{"id":"area-13115007001","name":"堀ノ内一丁目"},"geometry":{"type":"Polygon","coordinates":[[[139.65143,35.68491],[139.65195,35.68483],[139.6533,35.68485],[139.6537,35.68494],[139.6543,35.68514],[139.65625,35.68632],[139.65664,35.68531],[139.65676,35.6851],[139.6568,35.68488],[139.65694,35.68344],[139.6545,35.68315],[139.65336,35.68297],[139.65212,35.68264],[139.65187,35.68261],[139.64985,35.68266],[139.64802,35.68292],[139.64781,35.68292],[139.64732,35.68284],[139.64716,35.68295],[139.64715,35.68363],[139.64742,35.68383],[139.64752,35.68399],[139.64729,35.68413],[139.64717,35.68426],[139.64667,35.68457],[139.64636,35.68465],[139.64551,35.68471],[139.64813,35.68868],[139.64934,35.68823],[139.64959,35.68807],[139.65088,35.68617],[139.651,35.68591],[139.65122,35.68513],[139.65134,35.68496],[139.65143,35.68491]]]}},{"type":"Feature","properties":{"id":"area-13115007002","name":"堀ノ内二丁目"},"geometry":{"type":"Polygon","coordinates":[[[139.64888,35.69063],[139.64967,35.69013],[139.65077,35.6901],[139.65135,35.68996],[139.65146,35.68996],[139.65252,35.69014],[139.65325,35.69046],[139.65364,35.69055],[139.65405,35.69052],[139.65494,35.69062],[139.65525,35.68903],[139.65624,35.6863],[139.6543,35.68514],[139.6537,35.68494],[139.6533,35.68485],[139.65195,35.68483],[139.65143,35.68491],[139.65134,35.68496],[139.65122,35.68513],[139.651,35.68591],[139.65088,35.68617],[139.64959,35.68807],[139.64934,35.68823],[139.64686,35.68914],[139.64651,35.68922],[139.64621,35.68922],[139.64607,35.68977],[139.64631,35.68982],[139.64622,35.69033],[139.64614,35.69031],[139.64603,35.69087],[139.64602,35.69102],[139.64611,35.6917],[139.64709,35.69151],[139.64783,35.69107],[139.64791,35.69097],[139.6485,35.69072],[139.64888,35.69063]]]}},{"type":"Feature","properties":{"id":"area-13115007003","name":"堀ノ内三丁目"},"geometry":{"type":"Polygon","coordinates":[[[139.65339,35.69474],[139.65436,35.69416],[139.6544,35.6935],[139.65486,35.69085],[139.65494,35.69062],[139.65405,35.69052],[139.65364,35.69055],[139.65325,35.69046],[139.65252,35.69014],[139.65146,35.68996],[139.65135,35.68996],[139.65077,35.6901],[139.6498,35.69011],[139.64957,35.69018],[139.64888,35.69063],[139.6485,35.69072],[139.64791,35.69097],[139.64783,35.69107],[139.64709,35.69151],[139.64612,35.6917],[139.64629,35.69203],[139.64647,35.69257],[139.64646,35.69293],[139.64633,35.69357],[139.64637,35.69388],[139.64717,35.69517],[139.64769,35.69503],[139.64801,35.69502],[139.64798,35.6949],[139.64865,35.69495],[139.64868,35.69493],[139.64842,35.69431],[139.64918,35.69455],[139.64958,35.69472],[139.65002,35.69492],[139.65011,35.69507],[139.65114,35.69529],[139.65161,35.69533],[139.65165,35.69531],[139.65163,35.69478],[139.65339,35.69474]]]}},{"type":"Feature","properties":{"id":"area-13115008001","name":"松ノ木一丁目"},"geometry":{"type":"Polygon","coordinates":[[[139.64151,35.69005],[139.64389,35.69002],[139.64391,35.6899],[139.64417,35.68939],[139.64454,35.68904],[139.64437,35.6889],[139.64427,35.6887],[139.64427,35.68853],[139.64471,35.68707],[139.64474,35.68692],[139.64474,35.68673],[139.64416,35.68484],[139.64256,35.685],[139.64251,35.68519],[139.64126,35.68499],[139.6412,35.68477],[139.64072,35.68498],[139.64051,35.68544],[139.64039,35.68562],[139.63997,35.686],[139.63991,35.6861],[139.63983,35.68671],[139.63978,35.68681],[139.63977,35.68695],[139.6398,35.68706],[139.63996,35.68725],[139.64005,35.68741],[139.64012,35.68746],[139.64031,35.68768],[139.64034,35.68775],[139.64033,35.68792],[139.64015,35.68817],[139.63986,35.68871],[139.63962,35.68896],[139.63959,35.68917],[139.63976,35.68919],[139.63984,35.68928],[139.64,35.6893],[139.64155,35.68936],[139.64151,35.69005]]]}},{"type":"Feature","properties":{"id":"area-13115008002","name":"松ノ木二丁目"},"geometry":{"type":"Polygon","coordinates":[[[139.64437,35.69252],[139.64543,35.69242],[139.64642,35.69239],[139.64629,35.69203],[139.64611,35.6917],[139.64602,35.69102],[139.64614,35.69031],[139.64622,35.69033],[139.64631,35.68982],[139.64607,35.68977],[139.64621,35.68922],[139.64479,35.68914],[139.64454,35.68904],[139.64417,35.68939],[139.64391,35.6899],[139.64389,35.69002],[139.64151,35.69005],[139.64155,35.68936],[139.64,35.6893],[139.63984,35.68928],[139.63976,35.68919],[139.63959,35.68917],[139.63971,35.6896],[139.63981,35.68966],[139.6399,35.68982],[139.64016,35.68999],[139.64031,35.69014],[139.64097,35.69043],[139.64109,35.69055],[139.64124,35.69085],[139.64112,35.69133],[139.64115,35.69201],[139.64123,35.69232],[139.64133,35.69232],[139.64145,35.69214],[139.64201,35.69251],[139.64349,35.69246],[139.64437,35.69252]]]}},{"type":"Feature","properties":{"id":"area-13115008003","name":"松ノ木三丁目"},"geometry":{"type":"Polygon","coordinates":[[[139.64804,35.69583],[139.64801,35.69502],[139.64769,35.69503],[139.64717,35.69517],[139.64637,35.69388],[139.64633,35.69357],[139.64647,35.6928],[139.64647,35.69257],[139.64642,35.69239],[139.64543,35.69242],[139.64437,35.69252],[139.64349,35.69246],[139.64201,35.69251],[139.64207,35.69262],[139.64216,35.69298],[139.64221,35.69328],[139.6422,35.69358],[139.64204,35.69387],[139.64184,35.69414],[139.64149,35.69447],[139.64503,35.69563],[139.6462,35.69608],[139.64741,35.69643],[139.6478,35.69667],[139.64807,35.69681],[139.64812,35.69675],[139.64798,35.69591],[139.64804,35.69583]]]}},{"type":"Feature","properties":{"id":"area-13115009001","name":"大宮一丁目"},"geometry":{"type":"Polygon","coordinates":[[[139.64813,35.68868],[139.64551,35.68471],[139.64636,35.68465],[139.64667,35.68457],[139.64717,35.68426],[139.64729,35.68413],[139.64752,35.68399],[139.64742,35.68383],[139.64715,35.68363],[139.64716,35.68295],[139.64732,35.68284],[139.64335,35.68193],[139.64308,35.68262],[139.64292,35.68282],[139.6425,35.68311],[139.64249,35.68353],[139.64256,35.685],[139.64416,35.68484],[139.64474,35.68673],[139.64474,35.68692],[139.64471,35.68707],[139.64427,35.68853],[139.64427,35.6887],[139.64437,35.6889],[139.64466,35.6891],[139.64479,35.68914],[139.64651,35.68922],[139.64686,35.68914],[139.64813,35.68868]]]}},{"type":"Feature","properties":{"id":"area-13115009002","name":"大宮二丁目"},"geometry":{"type":"Polygon","coordinates":[[[139.64072,35.68498],[139.6412,35.68477],[139.64126,35.68499],[139.64251,35.68519],[139.64256,35.685],[139.64249,35.68353],[139.6425,35.68311],[139.64292,35.68282],[139.64308,35.68262],[139.64335,35.68193],[139.64027,35.6812],[139.63616,35.68016],[139.63509,35.68071],[139.63553,35.6822],[139.6359,35.68367],[139.63629,35.68345],[139.63708,35.68292],[139.63714,35.68296],[139.63727,35.68346],[139.63765,35.6843],[139.63774,35.68497],[139.63783,35.68514],[139.63762,35.68547],[139.63765,35.68574],[139.63761,35.68609],[139.63745,35.68672],[139.63766,35.68681],[139.63813,35.68685],[139.63845,35.68673],[139.63897,35.68642],[139.63965,35.6863],[139.63991,35.6861],[139.63997,35.686],[139.64039,35.68562],[139.64051,35.68544],[139.64072,35.68498]]]}},{"type":"Feature","properties":{"id":"area-13115010001","name":"梅里一丁目"},"geometry":{"type":"Polygon","coordinates":[[[139.65484,35.69808],[139.65482,35.69777],[139.65449,35.69565],[139.65436,35.69416],[139.65339,35.69474],[139.65163,35.69478],[139.65165,35.69531],[139.65161,35.69533],[139.65114,35.69529],[139.65011,35.69507],[139.65002,35.69492],[139.64958,35.69472],[139.64918,35.69455],[139.64842,35.69431],[139.64868,35.69493],[139.64865,35.69495],[139.64798,35.6949],[139.64802,35.69505],[139.64804,35.69583],[139.64798,35.69591],[139.64812,35.69675],[139.64807,35.69681],[139.64807,35.69734],[139.64813,35.69789],[139.65165,35.69806],[139.65484,35.69808]]]}},{"type":"Feature","properties":{"id":"area-13115010002","name":"梅里二丁目"},"geometry":{"type":"Polygon","coordinates":[[[139.64243,35.69782],[139.64813,35.69789],[139.64807,35.69734],[139.64807,35.69681],[139.6478,35.69667],[139.64741,35.69643],[139.6462,35.69608],[139.64503,35.69563],[139.64149,35.69447],[139.64105,35.69493],[139.64093,35.69547],[139.64079,35.69581],[139.64055,35.69624],[139.63903,35.69789],[139.63922,35.69824],[139.64036,35.69796],[139.64243,35.69782]]]}},{"type":"Feature","properties":{"id":"area-13115011001","name":"高円寺南一丁目"},"geometry":{"type":"Polygon","coordinates":[[[139.65497,35.70171],[139.6582,35.70111],[139.66145,35.70118],[139.66151,35.70099],[139.66155,35.70068],[139.66155,35.70022],[139.66178,35.70022],[139.66177,35.70006],[139.66197,35.69999],[139.66197,35.69976],[139.66186,35.69954],[139.6618,35.69932],[139.66217,35.69931],[139.66218,35.69922],[139.66234,35.69892],[139.6624,35.69869],[139.66237,35.69836],[139.66222,35.69812],[139.66212,35.69804],[139.662,35.6977],[139.66197,35.6975],[139.65825,35.69805],[139.65764,35.69811],[139.65484,35.69809],[139.65497,35.70171]]]}},{"type":"Feature","properties":{"id":"area-13115011002","name":"高円寺南二丁目"},"geometry":{"type":"Polygon","coordinates":[[[139.65484,35.69808],[139.651,35.69804],[139.64765,35.69788],[139.64739,35.70019],[139.6475,35.70087],[139.64771,35.70179],[139.64785,35.70226],[139.64839,35.70298],[139.65497,35.70171],[139.65484,35.69808]]]}},{"type":"Feature","properties":{"id":"area-13115011003","name":"高円寺南三丁目"},"geometry":{"type":"Polygon","coordinates":[[[139.64765,35.69788],[139.64388,35.69783],[139.64368,35.69912],[139.64371,35.70016],[139.64368,35.70092],[139.64372,35.70167],[139.64391,35.70275],[139.6439,35.70325],[139.64487,35.70485],[139.64493,35.70523],[139.6449,35.70523],[139.6481,35.70534],[139.64935,35.70546],[139.64871,35.70357],[139.64839,35.70298],[139.64785,35.70226],[139.64771,35.70179],[139.6475,35.70087],[139.64739,35.70019],[139.64765,35.69788]]]}},{"type":"Feature","properties":{"id":"area-13115011004","name":"高円寺南四丁目"},"geometry":{"type":"Polygon","coordinates":[[[139.6549,35.70552],[139.65504,35.70406],[139.65497,35.70171],[139.64839,35.70298],[139.64871,35.70357],[139.64935,35.70546],[139.65089,35.70549],[139.65197,35.70546],[139.6549,35.70552]]]}},{"type":"Feature","properties":{"id":"area-13115011005","name":"高円寺南五丁目"},"geometry":{"type":"Polygon","coordinates":[[[139.6582,35.7056],[139.65817,35.70545],[139.658,35.70518],[139.65801,35.70516],[139.66099,35.7048],[139.66115,35.70251],[139.66102,35.70229],[139.66085,35.70162],[139.66071,35.70137],[139.66085,35.70136],[139.66108,35.70141],[139.66134,35.70134],[139.66145,35.70118],[139.6582,35.70111],[139.65497,35.70171],[139.65504,35.70406],[139.6549,35.70552],[139.6582,35.7056]]]}},{"type":"Feature","properties":{"id":"area-13115012001","name":"高円寺北一丁目"},"geometry":{"type":"Polygon","coordinates":[[[139.65628,35.70925],[139.65628,35.70913],[139.65801,35.7092],[139.65804,35.7076],[139.6582,35.7056],[139.6549,35.70552],[139.65489,35.7056],[139.65479,35.70576],[139.65455,35.70764],[139.65442,35.7091],[139.65517,35.70908],[139.65517,35.70923],[139.65521,35.70923],[139.65532,35.70915],[139.65589,35.70916],[139.65593,35.70908],[139.65605,35.70909],[139.65612,35.70911],[139.65611,35.70924],[139.65628,35.70925]]]}},{"type":"Feature","properties":{"id":"area-13115012002","name":"高円寺北二丁目"},"geometry":{"type":"Polygon","coordinates":[[[139.65094,35.70942],[139.65101,35.70903],[139.65128,35.70906],[139.65129,35.70897],[139.65149,35.70899],[139.6515,35.70904],[139.65162,35.70905],[139.65163,35.70901],[139.65405,35.70928],[139.65411,35.70907],[139.65442,35.7091],[139.65455,35.70764],[139.65479,35.70576],[139.65489,35.7056],[139.6549,35.70552],[139.65197,35.70546],[139.65089,35.70549],[139.6494,35.70546],[139.64973,35.70619],[139.64993,35.70738],[139.64962,35.70741],[139.64983,35.70924],[139.64995,35.70968],[139.65094,35.70942]]]}},{"type":"Feature","properties":{"id":"area-13115012003","name":"高円寺北三丁目"},"geometry":{"type":"Polygon","coordinates":[[[139.6481,35.70534],[139.64493,35.70524],[139.64562,35.70712],[139.64585,35.70846],[139.64585,35.70974],[139.64591,35.70994],[139.64601,35.7108],[139.64802,35.7102],[139.64995,35.70968],[139.64983,35.70924],[139.64962,35.70741],[139.64993,35.70738],[139.64973,35.70619],[139.6494,35.70546],[139.6481,35.70534]]]}},{"type":"Feature","properties":{"id":"area-13115012004","name":"高円寺北四丁目"},"geometry":{"type":"Polygon","coordinates":[[[139.64585,35.70974],[139.64585,35.70846],[139.64562,35.70712],[139.64493,35.70524],[139.64257,35.70518],[139.6422,35.70542],[139.64199,35.70563],[139.64197,35.70578],[139.64199,35.706],[139.64189,35.70636],[139.6419,35.70641],[139.64251,35.70812],[139.64308,35.71006],[139.64353,35.71148],[139.64601,35.7108],[139.64591,35.70994],[139.64585,35.70974]]]}},{"type":"Feature","properties":{"id":"area-13115013001","name":"阿佐谷南一丁目"},"geometry":{"type":"Polygon","coordinates":[[[139.63999,35.70283],[139.64107,35.70212],[139.6423,35.70211],[139.64265,35.70208],[139.64315,35.70193],[139.64372,35.70167],[139.64368,35.70092],[139.64371,35.69988],[139.64367,35.69929],[139.64388,35.69783],[139.64217,35.69783],[139.64036,35.69796],[139.6401,35.698],[139.63922,35.69824],[139.63919,35.69822],[139.638,35.69859],[139.63661,35.69908],[139.63561,35.69947],[139.63675,35.70423],[139.63701,35.70424],[139.63746,35.70409],[139.63796,35.70384],[139.63827,35.70363],[139.63916,35.7033],[139.63999,35.70283]]]}},{"type":"Feature","properties":{"id":"area-13115013002","name":"阿佐谷南二丁目"},"geometry":{"type":"Polygon","coordinates":[[[139.64493,35.70523],[139.64487,35.70485],[139.6439,35.70325],[139.64391,35.70275],[139.64372,35.70167],[139.64315,35.70193],[139.64265,35.70208],[139.6423,35.70211],[139.64107,35.70212],[139.63999,35.70283],[139.63916,35.7033],[139.63827,35.70363],[139.63796,35.70384],[139.63734,35.70415],[139.63701,35.70424],[139.63675,35.70423],[139.63671,35.70506],[139.64493,35.70523]]]}},{"type":"Feature","properties":{"id":"area-13115013003","name":"阿佐谷南三丁目"},"geometry":{"type":"Polygon","coordinates":[[[139.63675,35.70423],[139.63562,35.69949],[139.63226,35.70085],[139.63081,35.70146],[139.62983,35.70192],[139.6284,35.70274],[139.62779,35.70315],[139.62747,35.70332],[139.6245,35.70462],[139.63377,35.70489],[139.63528,35.70501],[139.6367,35.70508],[139.63673,35.70506],[139.63675,35.70423]]]}},{"type":"Feature","properties":{"id":"area-13115014001","name":"阿佐谷北一丁目"},"geometry":{"type":"Polygon","coordinates":[[[139.64088,35.70696],[139.64189,35.70636],[139.64199,35.706],[139.64197,35.70578],[139.64199,35.70563],[139.6422,35.70542],[139.64257,35.70518],[139.63673,35.70506],[139.6367,35.70508],[139.63637,35.70648],[139.63615,35.70647],[139.63472,35.70788],[139.63467,35.70803],[139.63463,35.7084],[139.63459,35.70941],[139.63441,35.70966],[139.63542,35.71022],[139.63615,35.7104],[139.63641,35.71042],[139.63736,35.71037],[139.6384,35.71009],[139.63843,35.70984],[139.63855,35.70965],[139.63876,35.70908],[139.63886,35.70897],[139.63937,35.7086],[139.63946,35.70847],[139.63956,35.7082],[139.63957,35.70803],[139.63954,35.70773],[139.63957,35.70765],[139.63989,35.70734],[139.64088,35.70696]]]}},{"type":"Feature","properties":{"id":"area-13115014002","name":"阿佐谷北二丁目"},"geometry":{"type":"Polygon","coordinates":[[[139.63472,35.70788],[139.63615,35.70647],[139.63637,35.70648],[139.6367,35.70508],[139.63528,35.70501],[139.63377,35.70489],[139.62898,35.70473],[139.62938,35.70559],[139.62961,35.70586],[139.62979,35.706],[139.62995,35.7062],[139.63024,35.70666],[139.63033,35.70694],[139.63041,35.70704],[139.63067,35.70718],[139.63066,35.70773],[139.63142,35.70771],[139.63184,35.70767],[139.63236,35.70746],[139.6327,35.70778],[139.63293,35.70789],[139.63404,35.70819],[139.6345,35.70838],[139.63463,35.7084],[139.63467,35.70803],[139.63472,35.70788]]]}},{"type":"Feature","properties":{"id":"area-13115014003","name":"阿佐谷北三丁目"},"geometry":{"type":"Polygon","coordinates":[[[139.6327,35.70778],[139.63236,35.70746],[139.63184,35.70767],[139.63142,35.70771],[139.63066,35.70773],[139.62998,35.70906],[139.62981,35.70979],[139.62937,35.71113],[139.62911,35.71178],[139.6313,35.71211],[139.63402,35.71269],[139.63386,35.71169],[139.63385,35.71126],[139.63391,35.71082],[139.63404,35.71039],[139.63426,35.70986],[139.63459,35.70941],[139.63463,35.7084],[139.6345,35.70838],[139.63404,35.70819],[139.63293,35.70789],[139.6327,35.70778]]]}},{"type":"Feature","properties":{"id":"area-13115014004","name":"阿佐谷北四丁目"},"geometry":{"type":"Polygon","coordinates":[[[139.6388,35.71166],[139.63841,35.71008],[139.63736,35.71037],[139.63641,35.71042],[139.63615,35.7104],[139.63542,35.71022],[139.63441,35.70966],[139.63426,35.70986],[139.63404,35.71039],[139.63391,35.71082],[139.63385,35.71126],[139.63386,35.71169],[139.63402,35.71269],[139.63413,35.71272],[139.6345,35.71335],[139.63455,35.71338],[139.63487,35.71415],[139.63719,35.71332],[139.63918,35.71277],[139.6388,35.71166]]]}},{"type":"Feature","properties":{"id":"area-13115014005","name":"阿佐谷北五丁目"},"geometry":{"type":"Polygon","coordinates":[[[139.64353,35.71148],[139.64251,35.70812],[139.64189,35.70636],[139.64088,35.70696],[139.63989,35.70734],[139.63957,35.70765],[139.63954,35.70773],[139.63957,35.70803],[139.63956,35.7082],[139.63946,35.70847],[139.63937,35.7086],[139.63886,35.70897],[139.63876,35.70908],[139.63855,35.70965],[139.63843,35.70984],[139.63839,35.71001],[139.6388,35.71166],[139.63918,35.71277],[139.64353,35.71148]]]}},{"type":"Feature","properties":{"id":"area-13115014006","name":"阿佐谷北六丁目"},"geometry":{"type":"Polygon","coordinates":[[[139.64226,35.71214],[139.6428,35.7117],[139.63975,35.71262],[139.63719,35.71332],[139.63487,35.71415],[139.63513,35.71458],[139.63534,35.715],[139.63557,35.7155],[139.63602,35.7167],[139.63703,35.71658],[139.6373,35.71651],[139.63816,35.71598],[139.64009,35.71543],[139.64122,35.71504],[139.64161,35.71486],[139.64155,35.71465],[139.64153,35.71347],[139.64142,35.71277],[139.6422,35.71225],[139.64226,35.71214]]]}},{"type":"Feature","properties":{"id":"area-13115015001","name":"天沼一丁目"},"geometry":{"type":"Polygon","coordinates":[[[139.62911,35.71178],[139.62937,35.71113],[139.62981,35.70979],[139.62998,35.70906],[139.63066,35.70774],[139.63067,35.70718],[139.63041,35.70704],[139.63033,35.70694],[139.63024,35.70666],[139.62995,35.7062],[139.62979,35.706],[139.62961,35.70586],[139.62938,35.70559],[139.62898,35.70473],[139.62643,35.70467],[139.62625,35.70478],[139.62612,35.7049],[139.62588,35.70528],[139.62592,35.70587],[139.62646,35.70706],[139.62719,35.70847],[139.62705,35.7092],[139.62696,35.70994],[139.62693,35.71068],[139.62696,35.71115],[139.62693,35.71166],[139.62911,35.71178]]]}},{"type":"Feature","properties":{"id":"area-13115015002","name":"天沼二丁目"},"geometry":{"type":"Polygon","coordinates":[[[139.62643,35.70467],[139.6245,35.70462],[139.62339,35.70509],[139.62311,35.70518],[139.62269,35.70524],[139.62297,35.70679],[139.62312,35.70722],[139.62315,35.70757],[139.62313,35.70766],[139.62305,35.70775],[139.62286,35.70778],[139.62281,35.70834],[139.62269,35.70889],[139.62268,35.70952],[139.62272,35.71049],[139.62267,35.71103],[139.62371,35.71125],[139.62693,35.71166],[139.62696,35.71115],[139.62693,35.71068],[139.62696,35.70994],[139.62705,35.7092],[139.62719,35.70847],[139.62646,35.70706],[139.62592,35.70587],[139.62588,35.70528],[139.62612,35.7049],[139.62625,35.70478],[139.62643,35.70467]]]}},{"type":"Feature","properties":{"id":"area-13115015003","name":"天沼三丁目"},"geometry":{"type":"Polygon","coordinates":[[[139.62281,35.70834],[139.62286,35.70778],[139.62305,35.70775],[139.62313,35.70766],[139.62315,35.70757],[139.62312,35.70722],[139.62297,35.70679],[139.62269,35.70524],[139.62079,35.70535],[139.61997,35.70557],[139.61919,35.70587],[139.61801,35.70646],[139.61615,35.70751],[139.61561,35.70785],[139.61689,35.70871],[139.6174,35.70899],[139.62087,35.71051],[139.62116,35.71062],[139.62267,35.71103],[139.62272,35.71049],[139.62268,35.70952],[139.62269,35.70889],[139.62281,35.70834]]]}},{"type":"Feature","properties":{"id":"area-13115016001","name":"本天沼一丁目"},"geometry":{"type":"Polygon","coordinates":[[[139.6313,35.71211],[139.62911,35.71178],[139.62877,35.71274],[139.62849,35.71299],[139.62818,35.71336],[139.62836,35.71361],[139.62874,35.71425],[139.62913,35.71501],[139.62955,35.71569],[139.63121,35.71509],[139.63487,35.71416],[139.63455,35.71338],[139.6345,35.71335],[139.63413,35.71272],[139.6313,35.71211]]]}},{"type":"Feature","properties":{"id":"area-13115016002","name":"本天沼二丁目"},"geometry":{"type":"Polygon","coordinates":[[[139.62911,35.71178],[139.627,35.71167],[139.62551,35.71149],[139.62371,35.71125],[139.62282,35.71106],[139.62291,35.71143],[139.62348,35.71307],[139.62408,35.7143],[139.62411,35.71486],[139.62407,35.71532],[139.62418,35.71621],[139.62467,35.7173],[139.62464,35.71731],[139.62783,35.71633],[139.62897,35.71593],[139.62955,35.71569],[139.62913,35.71501],[139.62874,35.71425],[139.62836,35.71361],[139.62818,35.71336],[139.62849,35.71299],[139.62877,35.71274],[139.62911,35.71178]]]}},{"type":"Feature","properties":{"id":"area-13115016003","name":"本天沼三丁目"},"geometry":{"type":"Polygon","coordinates":[[[139.62219,35.71807],[139.62467,35.7173],[139.62418,35.71621],[139.62407,35.71532],[139.62411,35.71486],[139.62408,35.7143],[139.62348,35.71307],[139.62291,35.71143],[139.62282,35.71106],[139.62112,35.7106],[139.621,35.71072],[139.62087,35.71077],[139.62046,35.71081],[139.62022,35.71088],[139.61979,35.71125],[139.61934,35.71251],[139.61916,35.71288],[139.62088,35.71463],[139.62111,35.71493],[139.62124,35.71518],[139.62152,35.71615],[139.62154,35.71633],[139.62111,35.71836],[139.62219,35.71807]]]}},{"type":"Feature","properties":{"id":"area-13115017001","name":"成田西一丁目"},"geometry":{"type":"Polygon","coordinates":[[[139.63509,35.68609],[139.63666,35.68611],[139.63764,35.68581],[139.63762,35.68547],[139.63783,35.68514],[139.63774,35.68497],[139.63765,35.6843],[139.63727,35.68346],[139.63714,35.68296],[139.63708,35.68292],[139.63629,35.68345],[139.6359,35.68367],[139.63514,35.68402],[139.63364,35.68482],[139.63003,35.68623],[139.63025,35.68749],[139.63013,35.68786],[139.63023,35.6883],[139.6304,35.68883],[139.63046,35.68932],[139.63023,35.68989],[139.63024,35.69004],[139.63081,35.69097],[139.63156,35.69122],[139.63299,35.69183],[139.63323,35.69186],[139.63344,35.69185],[139.63277,35.69028],[139.63273,35.69009],[139.63277,35.6896],[139.63241,35.68843],[139.63238,35.68804],[139.63243,35.68789],[139.63252,35.68777],[139.63337,35.68688],[139.6337,35.68668],[139.6345,35.68627],[139.63478,35.68614],[139.63509,35.68609]]]}},{"type":"Feature","properties":{"id":"area-13115017002","name":"成田西二丁目"},"geometry":{"type":"Polygon","coordinates":[[[139.63081,35.69097],[139.63024,35.69004],[139.63023,35.68989],[139.63046,35.68932],[139.6304,35.68883],[139.63023,35.6883],[139.63013,35.68786],[139.63025,35.68749],[139.63003,35.68623],[139.62874,35.68675],[139.62829,35.68697],[139.62641,35.6876],[139.62499,35.68818],[139.62453,35.68841],[139.62379,35.68883],[139.62305,35.68918],[139.6222,35.68952],[139.62141,35.6901],[139.62287,35.69056],[139.62369,35.69053],[139.62453,35.69055],[139.62469,35.69058],[139.62495,35.69071],[139.62559,35.69082],[139.62655,35.69077],[139.62783,35.69064],[139.62888,35.6907],[139.62973,35.69072],[139.63014,35.69078],[139.63081,35.69097]]]}},{"type":"Feature","properties":{"id":"area-13115017003","name":"成田西三丁目"},"geometry":{"type":"Polygon","coordinates":[[[139.63404,35.69332],[139.63345,35.69185],[139.63299,35.69183],[139.63156,35.69122],[139.63014,35.69078],[139.62973,35.69072],[139.62888,35.6907],[139.62783,35.69064],[139.62655,35.69077],[139.62559,35.69082],[139.62495,35.69071],[139.62469,35.69058],[139.62453,35.69055],[139.62369,35.69053],[139.62287,35.69056],[139.62158,35.69014],[139.62141,35.6901],[139.62132,35.69017],[139.62219,35.69132],[139.62364,35.6921],[139.62403,35.69242],[139.62426,35.69265],[139.62435,35.69282],[139.62442,35.69289],[139.62455,35.69292],[139.62476,35.69289],[139.62493,35.69251],[139.62516,35.69211],[139.62551,35.69164],[139.6258,35.69141],[139.6259,35.69136],[139.62619,35.69131],[139.62634,35.69132],[139.62658,35.69139],[139.6268,35.69154],[139.62756,35.69227],[139.6278,35.69244],[139.62979,35.69317],[139.63,35.69332],[139.63014,35.69346],[139.63033,35.69392],[139.6305,35.69419],[139.63089,35.69447],[139.63212,35.69524],[139.63244,35.69538],[139.63272,35.69536],[139.63303,35.69521],[139.63314,35.69512],[139.63378,35.69423],[139.63402,35.69382],[139.63406,35.69368],[139.63404,35.69332]]]}},{"type":"Feature","properties":{"id":"area-13115017004","name":"成田西四丁目"},"geometry":{"type":"Polygon","coordinates":[[[139.62979,35.69317],[139.6278,35.69244],[139.62756,35.69227],[139.6268,35.69154],[139.62658,35.69139],[139.62634,35.69132],[139.62619,35.69131],[139.6259,35.69136],[139.62551,35.69164],[139.62516,35.69211],[139.62493,35.69251],[139.62476,35.69289],[139.62566,35.69265],[139.6262,35.69269],[139.62702,35.69313],[139.62764,35.69368],[139.62771,35.69379],[139.62789,35.6943],[139.62836,35.69479],[139.62869,35.69528],[139.62867,35.69529],[139.62885,35.69556],[139.62901,35.69591],[139.62929,35.6961],[139.62994,35.69636],[139.63042,35.6966],[139.63057,35.69671],[139.631,35.69718],[139.632,35.6977],[139.63207,35.6975],[139.6323,35.69629],[139.6324,35.69561],[139.6324,35.69538],[139.63244,35.69536],[139.63225,35.69532],[139.63212,35.69524],[139.63089,35.69447],[139.6305,35.69419],[139.63033,35.69392],[139.63014,35.69346],[139.63,35.69332],[139.62979,35.69317]]]}},{"type":"Feature","properties":{"id":"area-13115018001","name":"成田東一丁目"},"geometry":{"type":"Polygon","coordinates":[[[139.64197,35.69249],[139.64145,35.69214],[139.64133,35.69232],[139.64123,35.69232],[139.64115,35.69201],[139.64112,35.69133],[139.64124,35.69085],[139.64103,35.69046],[139.64031,35.69014],[139.64016,35.68999],[139.6399,35.68982],[139.63981,35.68966],[139.63971,35.6896],[139.63959,35.6892],[139.6396,35.68901],[139.63986,35.68871],[139.63997,35.68853],[139.64015,35.68817],[139.64033,35.68792],[139.64034,35.68775],[139.64031,35.68768],[139.64012,35.68746],[139.64005,35.68741],[139.63996,35.68725],[139.6398,35.68706],[139.63977,35.68695],[139.63978,35.68681],[139.63983,35.68671],[139.63991,35.6861],[139.63965,35.6863],[139.63897,35.68642],[139.63845,35.68673],[139.63813,35.68685],[139.63766,35.68681],[139.63745,35.68672],[139.6372,35.68787],[139.63679,35.68883],[139.63649,35.68966],[139.63699,35.69121],[139.63726,35.69217],[139.63792,35.69227],[139.63839,35.69245],[139.64111,35.69429],[139.64149,35.69447],[139.64184,35.69414],[139.64204,35.69387],[139.6422,35.69358],[139.64221,35.69328],[139.64216,35.69298],[139.64207,35.69262],[139.64197,35.69249]]]}},{"type":"Feature","properties":{"id":"area-13115018002","name":"成田東二丁目"},"geometry":{"type":"Polygon","coordinates":[[[139.63726,35.69217],[139.63649,35.68966],[139.63679,35.68883],[139.6372,35.68787],[139.63761,35.68609],[139.63764,35.68581],[139.63666,35.68611],[139.63509,35.68609],[139.63478,35.68614],[139.6337,35.68668],[139.63337,35.68688],[139.63252,35.68777],[139.63243,35.68789],[139.63238,35.68804],[139.63238,35.68819],[139.63241,35.68843],[139.63277,35.6896],[139.63273,35.69009],[139.63277,35.69028],[139.63344,35.69185],[139.63404,35.69178],[139.6342,35.69179],[139.63629,35.69212],[139.63726,35.69217]]]}},{"type":"Feature","properties":{"id":"area-13115018003","name":"成田東三丁目"},"geometry":{"type":"Polygon","coordinates":[[[139.64094,35.69541],[139.64105,35.69493],[139.64149,35.69447],[139.64111,35.69429],[139.63839,35.69245],[139.63792,35.69227],[139.63761,35.69221],[139.63629,35.69212],[139.6342,35.69179],[139.63404,35.69178],[139.63345,35.69185],[139.63398,35.69314],[139.63406,35.69345],[139.63406,35.69368],[139.63402,35.69382],[139.63376,35.69426],[139.63421,35.69443],[139.63492,35.69477],[139.63576,35.69497],[139.63602,35.69501],[139.63658,35.69493],[139.6372,35.69513],[139.63758,35.69518],[139.63784,35.69518],[139.638,35.69524],[139.63844,35.69533],[139.63971,35.69592],[139.64054,35.69623],[139.64079,35.69581],[139.64094,35.69541]]]}},{"type":"Feature","properties":{"id":"area-13115018004","name":"成田東四丁目"},"geometry":{"type":"Polygon","coordinates":[[[139.638,35.69859],[139.63919,35.69822],[139.63903,35.69789],[139.64055,35.69624],[139.63971,35.69592],[139.63844,35.69533],[139.638,35.69524],[139.63784,35.69518],[139.63758,35.69518],[139.6372,35.69513],[139.63658,35.69493],[139.63602,35.69501],[139.63576,35.69497],[139.63492,35.69477],[139.63421,35.69443],[139.63376,35.69426],[139.63314,35.69512],[139.63303,35.69521],[139.63272,35.69536],[139.6324,35.69538],[139.6324,35.69561],[139.63234,35.69606],[139.63207,35.6975],[139.632,35.6977],[139.63188,35.6979],[139.63189,35.69792],[139.63254,35.69823],[139.6328,35.69842],[139.63338,35.69864],[139.63364,35.69868],[139.63436,35.69862],[139.63485,35.69862],[139.63519,35.69853],[139.63553,35.69917],[139.63561,35.69947],[139.63661,35.69908],[139.638,35.69859]]]}},{"type":"Feature","properties":{"id":"area-13115018005","name":"成田東五丁目"},"geometry":{"type":"Polygon","coordinates":[[[139.63553,35.69917],[139.63519,35.69853],[139.63485,35.69862],[139.63436,35.69862],[139.63364,35.69868],[139.63338,35.69864],[139.6328,35.69842],[139.63254,35.69823],[139.63189,35.69792],[139.63188,35.6979],[139.632,35.6977],[139.631,35.69718],[139.63057,35.69671],[139.63042,35.6966],[139.62994,35.69636],[139.62929,35.6961],[139.62901,35.69591],[139.62889,35.69605],[139.62883,35.69642],[139.62851,35.69722],[139.62851,35.69768],[139.62836,35.69824],[139.62832,35.69872],[139.62815,35.69958],[139.62814,35.70007],[139.62819,35.70079],[139.62826,35.70124],[139.62822,35.70131],[139.62803,35.70138],[139.62822,35.70242],[139.62829,35.70261],[139.6284,35.70274],[139.62983,35.70192],[139.63081,35.70146],[139.63562,35.69949],[139.63553,35.69917]]]}},{"type":"Feature","properties":{"id":"area-13115019001","name":"荻窪一丁目"},"geometry":{"type":"Polygon","coordinates":[[[139.62869,35.69528],[139.62836,35.69479],[139.62789,35.6943],[139.62771,35.69379],[139.62764,35.69368],[139.62702,35.69313],[139.6262,35.69269],[139.62581,35.69265],[139.62566,35.69265],[139.62497,35.69285],[139.62455,35.69292],[139.62442,35.69289],[139.62435,35.69282],[139.62426,35.69265],[139.62403,35.69242],[139.62364,35.6921],[139.62219,35.69132],[139.62132,35.69017],[139.62086,35.69058],[139.61982,35.69123],[139.61938,35.69147],[139.61839,35.69182],[139.61805,35.692],[139.61693,35.69274],[139.6171,35.69357],[139.6174,35.69451],[139.61804,35.69438],[139.61902,35.69465],[139.62016,35.69506],[139.62109,35.69512],[139.62225,35.69549],[139.62397,35.69525],[139.62425,35.69525],[139.62517,35.69556],[139.62551,35.69562],[139.62628,35.69568],[139.62718,35.69569],[139.62801,35.69558],[139.62869,35.69528]]]}},{"type":"Feature","properties":{"id":"area-13115019002","name":"荻窪二丁目"},"geometry":{"type":"Polygon","coordinates":[[[139.62353,35.69603],[139.62342,35.69533],[139.62225,35.69549],[139.62109,35.69512],[139.62016,35.69506],[139.61902,35.69465],[139.61804,35.69438],[139.6174,35.69451],[139.61788,35.69622],[139.61742,35.69884],[139.61934,35.6989],[139.62107,35.69918],[139.62166,35.69924],[139.62195,35.69939],[139.62265,35.70043],[139.62393,35.69988],[139.62371,35.69952],[139.62372,35.69927],[139.62355,35.69881],[139.62359,35.69866],[139.62365,35.69813],[139.62351,35.69768],[139.62349,35.69717],[139.62353,35.69603]]]}},{"type":"Feature","properties":{"id":"area-13115019003","name":"荻窪三丁目"},"geometry":{"type":"Polygon","coordinates":[[[139.62634,35.70354],[139.62705,35.70352],[139.62779,35.70315],[139.6284,35.70274],[139.62829,35.70261],[139.62822,35.70242],[139.62803,35.70138],[139.62822,35.70131],[139.62826,35.70124],[139.62819,35.70079],[139.62814,35.70007],[139.62815,35.69958],[139.62832,35.69872],[139.62836,35.69824],[139.62851,35.69768],[139.62851,35.69722],[139.62883,35.69642],[139.62889,35.69605],[139.62901,35.69591],[139.62885,35.69556],[139.62867,35.69529],[139.62801,35.69558],[139.62718,35.69569],[139.62628,35.69568],[139.62551,35.69562],[139.62517,35.69556],[139.62425,35.69525],[139.62397,35.69525],[139.62342,35.69533],[139.62353,35.69603],[139.62349,35.69717],[139.62351,35.69768],[139.62365,35.69813],[139.62359,35.69866],[139.62355,35.69881],[139.62372,35.69927],[139.62371,35.69952],[139.62393,35.69988],[139.62265,35.70043],[139.62311,35.70083],[139.62416,35.70162],[139.62461,35.70208],[139.62493,35.70254],[139.62527,35.7031],[139.62552,35.70373],[139.62634,35.70354]]]}},{"type":"Feature","properties":{"id":"area-13115019004","name":"荻窪四丁目"},"geometry":{"type":"Polygon","coordinates":[[[139.62443,35.70464],[139.62705,35.70352],[139.62634,35.70354],[139.62552,35.70373],[139.62527,35.7031],[139.62493,35.70254],[139.62461,35.70208],[139.62416,35.70162],[139.62311,35.70083],[139.62265,35.70043],[139.62195,35.69939],[139.62179,35.69929],[139.62151,35.69921],[139.62107,35.69918],[139.61934,35.6989],[139.61742,35.69884],[139.61725,35.69992],[139.61818,35.70051],[139.61934,35.70117],[139.62124,35.70249],[139.62198,35.70329],[139.62237,35.70359],[139.62244,35.70384],[139.62241,35.70458],[139.62443,35.70464]]]}},{"type":"Feature","properties":{"id":"area-13115019005","name":"荻窪五丁目"},"geometry":{"type":"Polygon","coordinates":[[[139.62066,35.70463],[139.62241,35.70458],[139.62243,35.70375],[139.62237,35.70359],[139.62232,35.70354],[139.62198,35.70329],[139.62124,35.70249],[139.61934,35.70117],[139.61818,35.70051],[139.61725,35.69992],[139.61691,35.70131],[139.61693,35.7013],[139.61612,35.70439],[139.61815,35.70456],[139.61945,35.70461],[139.62066,35.70463]]]}},{"type":"Feature","properties":{"id":"area-13115020001","name":"南荻窪一丁目"},"geometry":{"type":"Polygon","coordinates":[[[139.6171,35.69357],[139.61693,35.69276],[139.61655,35.69303],[139.61606,35.69349],[139.61546,35.69398],[139.61374,35.69513],[139.61318,35.69542],[139.61266,35.69564],[139.61067,35.69643],[139.61233,35.6976],[139.61445,35.69814],[139.61663,35.69881],[139.61742,35.69881],[139.61788,35.69622],[139.6171,35.69357]]]}},{"type":"Feature","properties":{"id":"area-13115020002","name":"南荻窪二丁目"},"geometry":{"type":"Polygon","coordinates":[[[139.61366,35.69972],[139.61445,35.69814],[139.61233,35.6976],[139.61067,35.69643],[139.60877,35.69728],[139.60588,35.69849],[139.60646,35.69977],[139.60723,35.70129],[139.60855,35.701],[139.61346,35.70021],[139.61366,35.69972]]]}},{"type":"Feature","properties":{"id":"area-13115020003","name":"南荻窪三丁目"},"geometry":{"type":"Polygon","coordinates":[[[139.61299,35.70166],[139.61346,35.70021],[139.60855,35.701],[139.60722,35.70128],[139.60791,35.70315],[139.60815,35.70348],[139.60808,35.70354],[139.60868,35.70417],[139.61336,35.70433],[139.61299,35.70166]]]}},{"type":"Feature","properties":{"id":"area-13115020004","name":"南荻窪四丁目"},"geometry":{"type":"Polygon","coordinates":[[[139.61683,35.70171],[139.61725,35.69992],[139.61742,35.69881],[139.61663,35.69881],[139.61443,35.69814],[139.61366,35.69972],[139.61346,35.70021],[139.61299,35.70166],[139.61336,35.70433],[139.6161,35.70442],[139.61683,35.70171]]]}},{"type":"Feature","properties":{"id":"area-13115021001","name":"上荻一丁目"},"geometry":{"type":"Polygon","coordinates":[[[139.62079,35.70535],[139.62265,35.70524],[139.62311,35.70518],[139.62339,35.70509],[139.62443,35.70464],[139.62222,35.70458],[139.62066,35.70463],[139.61945,35.70461],[139.61815,35.70456],[139.61612,35.70439],[139.61581,35.70556],[139.61535,35.7069],[139.61513,35.70781],[139.61509,35.70816],[139.61615,35.70751],[139.6175,35.70674],[139.61861,35.70615],[139.61934,35.70581],[139.61997,35.70557],[139.62079,35.70535]]]}},{"type":"Feature","properties":{"id":"area-13115021002","name":"上荻二丁目"},"geometry":{"type":"Polygon","coordinates":[[[139.6161,35.70442],[139.61088,35.70423],[139.61064,35.70461],[139.61033,35.70492],[139.60991,35.70518],[139.61059,35.70721],[139.61144,35.71005],[139.61326,35.70921],[139.61509,35.70816],[139.61513,35.70781],[139.61535,35.7069],[139.61581,35.70556],[139.6161,35.70442]]]}},{"type":"Feature","properties":{"id":"area-13115021003","name":"上荻三丁目"},"geometry":{"type":"Polygon","coordinates":[[[139.61059,35.70721],[139.60991,35.70518],[139.60779,35.70622],[139.60763,35.70631],[139.60754,35.70641],[139.60744,35.70663],[139.60752,35.70701],[139.60786,35.70792],[139.60785,35.70806],[139.60779,35.70829],[139.60762,35.70845],[139.60738,35.70856],[139.60679,35.70859],[139.6078,35.71118],[139.60903,35.71097],[139.60961,35.71081],[139.61049,35.71047],[139.61144,35.71005],[139.61059,35.70721]]]}},{"type":"Feature","properties":{"id":"area-13115021004","name":"上荻四丁目"},"geometry":{"type":"Polygon","coordinates":[[[139.6078,35.71118],[139.60679,35.70859],[139.60399,35.70868],[139.60332,35.70865],[139.6026,35.70823],[139.60186,35.70807],[139.60199,35.7104],[139.60197,35.71059],[139.60164,35.71135],[139.60166,35.71162],[139.60187,35.7123],[139.60245,35.71211],[139.60495,35.71155],[139.6078,35.71118]]]}},{"type":"Feature","properties":{"id":"area-13115022001","name":"西荻南一丁目"},"geometry":{"type":"Polygon","coordinates":[[[139.60515,35.69902],[139.60361,35.6951],[139.60126,35.6963],[139.60027,35.69685],[139.60217,35.70112],[139.60377,35.70003],[139.60515,35.69902]]]}},{"type":"Feature","properties":{"id":"area-13115022002","name":"西荻南二丁目"},"geometry":{"type":"Polygon","coordinates":[[[139.60217,35.70112],[139.60027,35.69685],[139.59843,35.69791],[139.59842,35.69788],[139.59801,35.69812],[139.59766,35.69832],[139.59764,35.69836],[139.5998,35.70288],[139.60157,35.70154],[139.60217,35.70112]]]}},{"type":"Feature","properties":{"id":"area-13115022003","name":"西荻南三丁目"},"geometry":{"type":"Polygon","coordinates":[[[139.60484,35.70363],[139.60325,35.70039],[139.6018,35.70137],[139.5998,35.70288],[139.59913,35.7033],[139.59855,35.70361],[139.59813,35.70364],[139.59813,35.70388],[139.59898,35.70393],[139.60192,35.70396],[139.60502,35.70406],[139.60484,35.70363]]]}},{"type":"Feature","properties":{"id":"area-13115022004","name":"西荻南四丁目"},"geometry":{"type":"Polygon","coordinates":[[[139.60646,35.69977],[139.60588,35.69849],[139.60571,35.69856],[139.60457,35.69946],[139.60325,35.70039],[139.60484,35.70363],[139.60502,35.70406],[139.60868,35.70417],[139.60808,35.70354],[139.60815,35.70348],[139.60791,35.70315],[139.60723,35.70129],[139.60646,35.69977]]]}},{"type":"Feature","properties":{"id":"area-13115023001","name":"西荻北一丁目"},"geometry":{"type":"Polygon","coordinates":[[[139.61088,35.70423],[139.60502,35.70406],[139.60678,35.70859],[139.60738,35.70856],[139.60762,35.70845],[139.60779,35.70829],[139.60785,35.70806],[139.60786,35.70792],[139.60752,35.70701],[139.60744,35.70671],[139.60744,35.70663],[139.60754,35.70641],[139.60763,35.70631],[139.6102,35.70502],[139.61064,35.70461],[139.61088,35.70423]]]}},{"type":"Feature","properties":{"id":"area-13115023002","name":"西荻北二丁目"},"geometry":{"type":"Polygon","coordinates":[[[139.60192,35.70396],[139.6006,35.70395],[139.60082,35.70521],[139.60181,35.70749],[139.60186,35.70807],[139.6026,35.70823],[139.60332,35.70865],[139.60399,35.70868],[139.60678,35.70859],[139.60502,35.70406],[139.60192,35.70396]]]}},{"type":"Feature","properties":{"id":"area-13115023003","name":"西荻北三丁目"},"geometry":{"type":"Polygon","coordinates":[[[139.59988,35.70753],[139.60021,35.70752],[139.60038,35.70755],[139.60087,35.70778],[139.60135,35.70794],[139.60186,35.70805],[139.60181,35.70749],[139.60082,35.70521],[139.6006,35.70395],[139.59898,35.70393],[139.5964,35.70379],[139.59443,35.70374],[139.5955,35.70568],[139.59648,35.70501],[139.5979,35.70764],[139.59864,35.70836],[139.59938,35.70772],[139.59952,35.70764],[139.59988,35.70753]]]}},{"type":"Feature","properties":{"id":"area-13115023004","name":"西荻北四丁目"},"geometry":{"type":"Polygon","coordinates":[[[139.59745,35.71006],[139.59855,35.70843],[139.59864,35.70836],[139.5979,35.70764],[139.59648,35.70501],[139.59492,35.70608],[139.59348,35.70689],[139.5931,35.70713],[139.5908,35.70914],[139.59353,35.70918],[139.59411,35.70922],[139.59601,35.70954],[139.59652,35.70969],[139.59745,35.71006]]]}},{"type":"Feature","properties":{"id":"area-13115023005","name":"西荻北五丁目"},"geometry":{"type":"Polygon","coordinates":[[[139.60038,35.70755],[139.60021,35.70752],[139.59988,35.70753],[139.59952,35.70764],[139.59938,35.70772],[139.59855,35.70843],[139.59745,35.71006],[139.59932,35.71083],[139.60165,35.71148],[139.60164,35.71135],[139.60197,35.71059],[139.60199,35.7104],[139.60186,35.70805],[139.60135,35.70794],[139.60087,35.70778],[139.60038,35.70755]]]}},{"type":"Feature","properties":{"id":"area-13115024001","name":"今川一丁目"},"geometry":{"type":"Polygon","coordinates":[[[139.61107,35.71486],[139.61086,35.71911],[139.6141,35.7191],[139.61442,35.71507],[139.61107,35.71486]]]}},{"type":"Feature","properties":{"id":"area-13115024002","name":"今川二丁目"},"geometry":{"type":"Polygon","coordinates":[[[139.60596,35.7191],[139.61086,35.71911],[139.61106,35.71486],[139.60801,35.71466],[139.60768,35.71576],[139.60637,35.71755],[139.60627,35.71773],[139.60618,35.71804],[139.60596,35.7191]]]}},{"type":"Feature","properties":{"id":"area-13115024003","name":"今川三丁目"},"geometry":{"type":"Polygon","coordinates":[[[139.60768,35.71576],[139.60801,35.71466],[139.60234,35.71463],[139.60201,35.71824],[139.60596,35.7191],[139.60618,35.71804],[139.60627,35.71773],[139.60637,35.71755],[139.60768,35.71576]]]}},{"type":"Feature","properties":{"id":"area-13115024004","name":"今川四丁目"},"geometry":{"type":"Polygon","coordinates":[[[139.60234,35.71463],[139.59886,35.71447],[139.5982,35.71529],[139.5971,35.71674],[139.59688,35.71696],[139.59668,35.71708],[139.60201,35.71824],[139.60234,35.71463]]]}},{"type":"Feature","properties":{"id":"area-13115025001","name":"清水一丁目"},"geometry":{"type":"Polygon","coordinates":[[[139.61689,35.70871],[139.61564,35.70784],[139.61509,35.70816],[139.6147,35.71235],[139.61782,35.71249],[139.61942,35.7123],[139.61979,35.71125],[139.62022,35.71088],[139.62046,35.71081],[139.62087,35.71077],[139.621,35.71072],[139.62112,35.7106],[139.6174,35.70899],[139.61689,35.70871]]]}},{"type":"Feature","properties":{"id":"area-13115025002","name":"清水二丁目"},"geometry":{"type":"Polygon","coordinates":[[[139.61916,35.71288],[139.61942,35.7123],[139.61782,35.71249],[139.6147,35.71235],[139.61443,35.71507],[139.62038,35.71545],[139.62084,35.71539],[139.62127,35.71527],[139.62111,35.71493],[139.62088,35.71463],[139.61916,35.71288]]]}},{"type":"Feature","properties":{"id":"area-13115025003","name":"清水三丁目"},"geometry":{"type":"Polygon","coordinates":[[[139.61796,35.71928],[139.62112,35.71836],[139.62154,35.71633],[139.62152,35.71615],[139.62127,35.71527],[139.62084,35.71539],[139.62038,35.71545],[139.61442,35.71507],[139.61409,35.71911],[139.61796,35.71928]]]}},{"type":"Feature","properties":{"id":"area-13115026001","name":"桃井一丁目"},"geometry":{"type":"Polygon","coordinates":[[[139.61443,35.71507],[139.61509,35.70816],[139.61326,35.70921],[139.61133,35.7101],[139.61107,35.71486],[139.61443,35.71507]]]}},{"type":"Feature","properties":{"id":"area-13115026002","name":"桃井二丁目"},"geometry":{"type":"Polygon","coordinates":[[[139.61107,35.71486],[139.61133,35.7101],[139.61049,35.71047],[139.60961,35.71081],[139.60903,35.71097],[139.60779,35.71119],[139.60835,35.71353],[139.60801,35.71466],[139.61107,35.71486]]]}},{"type":"Feature","properties":{"id":"area-13115026003","name":"桃井三丁目"},"geometry":{"type":"Polygon","coordinates":[[[139.60801,35.71466],[139.60835,35.71353],[139.60779,35.71119],[139.60511,35.71152],[139.60431,35.71171],[139.60474,35.71465],[139.60801,35.71466]]]}},{"type":"Feature","properties":{"id":"area-13115026004","name":"桃井四丁目"},"geometry":{"type":"Polygon","coordinates":[[[139.60474,35.71465],[139.60431,35.71171],[139.60245,35.71211],[139.60059,35.71276],[139.60036,35.71288],[139.60003,35.71312],[139.59972,35.71345],[139.59886,35.71447],[139.60204,35.71463],[139.60474,35.71465]]]}},{"type":"Feature","properties":{"id":"area-13115027001","name":"井草一丁目"},"geometry":{"type":"Polygon","coordinates":[[[139.62722,35.72408],[139.62752,35.72361],[139.62625,35.72376],[139.62615,35.72379],[139.62413,35.72407],[139.62398,35.72403],[139.62151,35.72435],[139.62187,35.73042],[139.62275,35.73035],[139.62332,35.73023],[139.62411,35.73017],[139.62444,35.73008],[139.62425,35.72953],[139.62605,35.72613],[139.62722,35.72408]]]}},{"type":"Feature","properties":{"id":"area-13115027002","name":"井草二丁目"},"geometry":{"type":"Polygon","coordinates":[[[139.62023,35.73145],[139.61987,35.73019],[139.62029,35.73036],[139.62076,35.73042],[139.62126,35.73045],[139.62187,35.73042],[139.62151,35.72435],[139.62005,35.72449],[139.61712,35.72463],[139.61721,35.72463],[139.61722,35.72482],[139.61746,35.7284],[139.61766,35.72896],[139.61719,35.72925],[139.61704,35.72939],[139.61699,35.72952],[139.61698,35.72965],[139.617,35.73003],[139.61714,35.73004],[139.61683,35.73055],[139.61783,35.73093],[139.62023,35.73145]]]}},{"type":"Feature","properties":{"id":"area-13115027003","name":"井草三丁目"},"geometry":{"type":"Polygon","coordinates":[[[139.61574,35.73015],[139.61592,35.72994],[139.61582,35.72985],[139.61591,35.72979],[139.617,35.73003],[139.61698,35.72965],[139.61699,35.72952],[139.61704,35.72939],[139.61719,35.72925],[139.61766,35.72896],[139.61746,35.7284],[139.61721,35.72463],[139.6154,35.72478],[139.61358,35.72482],[139.6138,35.7293],[139.61366,35.72957],[139.61351,35.72954],[139.61349,35.72959],[139.61532,35.73014],[139.61541,35.7301],[139.61545,35.73012],[139.61549,35.73008],[139.61574,35.73015]]]}},{"type":"Feature","properties":{"id":"area-13115027004","name":"井草四丁目"},"geometry":{"type":"Polygon","coordinates":[[[139.6138,35.7293],[139.61358,35.72482],[139.60988,35.72496],[139.60871,35.72818],[139.60906,35.72837],[139.60961,35.72856],[139.61065,35.72878],[139.61366,35.72957],[139.6138,35.7293]]]}},{"type":"Feature","properties":{"id":"area-13115027005","name":"井草五丁目"},"geometry":{"type":"Polygon","coordinates":[[[139.60871,35.72818],[139.60988,35.72496],[139.60387,35.72526],[139.60378,35.72538],[139.6037,35.72539],[139.60369,35.72532],[139.60193,35.72542],[139.6018,35.72577],[139.60222,35.72591],[139.60435,35.72684],[139.60508,35.72706],[139.60767,35.72772],[139.6083,35.72793],[139.60871,35.72818]]]}},{"type":"Feature","properties":{"id":"area-13115028001","name":"下井草一丁目"},"geometry":{"type":"Polygon","coordinates":[[[139.63602,35.7167],[139.63557,35.7155],[139.63534,35.715],[139.63513,35.71458],[139.63487,35.71416],[139.63191,35.7149],[139.63087,35.71521],[139.62897,35.71593],[139.62783,35.71633],[139.62702,35.71657],[139.62698,35.71682],[139.63136,35.71811],[139.63149,35.7179],[139.63189,35.71743],[139.63207,35.71734],[139.6321,35.71712],[139.63602,35.7167]]]}},{"type":"Feature","properties":{"id":"area-13115028002","name":"下井草二丁目"},"geometry":{"type":"Polygon","coordinates":[[[139.62413,35.72407],[139.62615,35.72379],[139.62625,35.72376],[139.62752,35.72361],[139.62806,35.72247],[139.62816,35.72191],[139.62883,35.72097],[139.6295,35.72039],[139.63014,35.72066],[139.63044,35.72084],[139.6306,35.72063],[139.63076,35.72065],[139.63156,35.71998],[139.63162,35.71989],[139.63164,35.71973],[139.63154,35.7194],[139.63126,35.71901],[139.63115,35.71852],[139.63111,35.71849],[139.63136,35.71811],[139.62698,35.71682],[139.62653,35.71894],[139.62579,35.72039],[139.6257,35.72072],[139.62557,35.72135],[139.62551,35.72232],[139.62492,35.72246],[139.62479,35.72255],[139.62464,35.72275],[139.62388,35.72405],[139.62398,35.72403],[139.62413,35.72407]]]}},{"type":"Feature","properties":{"id":"area-13115028003","name":"下井草三丁目"},"geometry":{"type":"Polygon","coordinates":[[[139.62653,35.71894],[139.62703,35.71659],[139.62219,35.71807],[139.62139,35.72223],[139.62154,35.72434],[139.62388,35.72405],[139.62464,35.72275],[139.62479,35.72255],[139.62492,35.72246],[139.62551,35.72232],[139.62557,35.72135],[139.6257,35.72072],[139.62579,35.72039],[139.62653,35.71894]]]}},{"type":"Feature","properties":{"id":"area-13115028004","name":"下井草四丁目"},"geometry":{"type":"Polygon","coordinates":[[[139.61721,35.72462],[139.62055,35.72445],[139.62154,35.72434],[139.62139,35.72223],[139.62219,35.71807],[139.61796,35.71928],[139.6169,35.71924],[139.61705,35.72248],[139.61719,35.72328],[139.61721,35.72462]]]}},{"type":"Feature","properties":{"id":"area-13115028005","name":"下井草五丁目"},"geometry":{"type":"Polygon","coordinates":[[[139.61627,35.7247],[139.61642,35.72471],[139.61721,35.72462],[139.61719,35.72328],[139.61705,35.72248],[139.6169,35.71924],[139.61409,35.71911],[139.61425,35.72338],[139.61434,35.72482],[139.6154,35.72478],[139.61627,35.7247]]]}},{"type":"Feature","properties":{"id":"area-13115029001","name":"上井草一丁目"},"geometry":{"type":"Polygon","coordinates":[[[139.60988,35.72496],[139.61434,35.72482],[139.61425,35.72338],[139.61409,35.7191],[139.61086,35.71911],[139.61031,35.7238],[139.60988,35.72496]]]}},{"type":"Feature","properties":{"id":"area-13115029002","name":"上井草二丁目"},"geometry":{"type":"Polygon","coordinates":[[[139.61031,35.7238],[139.61086,35.71911],[139.60596,35.7191],[139.60512,35.7215],[139.60387,35.72526],[139.60988,35.72496],[139.61031,35.7238]]]}},{"type":"Feature","properties":{"id":"area-13115029003","name":"上井草三丁目"},"geometry":{"type":"Polygon","coordinates":[[[139.60193,35.72542],[139.60369,35.72532],[139.6037,35.72539],[139.60378,35.72538],[139.60387,35.72526],[139.60512,35.7215],[139.60596,35.7191],[139.60016,35.71784],[139.59971,35.71903],[139.59842,35.72263],[139.59825,35.7232],[139.59862,35.72337],[139.59977,35.72374],[139.60023,35.72402],[139.60147,35.72536],[139.60195,35.72534],[139.60193,35.72542]]]}},{"type":"Feature","properties":{"id":"area-13115029004","name":"上井草四丁目"},"geometry":{"type":"Polygon","coordinates":[[[139.60018,35.71784],[139.59668,35.71708],[139.59622,35.71727],[139.5945,35.71768],[139.5942,35.71783],[139.59392,35.71803],[139.59504,35.72018],[139.59582,35.72157],[139.59578,35.72203],[139.59676,35.72219],[139.59693,35.72229],[139.59756,35.72283],[139.59825,35.7232],[139.59842,35.72263],[139.59971,35.71903],[139.60018,35.71784]]]}},{"type":"Feature","properties":{"id":"area-13115030001","name":"善福寺一丁目"},"geometry":{"type":"Polygon","coordinates":[[[139.59601,35.70954],[139.59547,35.70944],[139.59435,35.71391],[139.59383,35.71544],[139.59384,35.71623],[139.59672,35.71706],[139.59688,35.71696],[139.5971,35.71674],[139.5986,35.71478],[139.59972,35.71345],[139.60003,35.71312],[139.60036,35.71288],[139.60059,35.71276],[139.60187,35.7123],[139.60166,35.71162],[139.60165,35.71148],[139.59932,35.71083],[139.59652,35.70969],[139.59601,35.70954]]]}},{"type":"Feature","properties":{"id":"area-13115030002","name":"善福寺二丁目"},"geometry":{"type":"Polygon","coordinates":[[[139.59383,35.71544],[139.59435,35.71391],[139.59547,35.70944],[139.59411,35.70922],[139.59353,35.70918],[139.5908,35.70914],[139.58894,35.71033],[139.58749,35.71143],[139.58672,35.71174],[139.58702,35.71263],[139.59039,35.71456],[139.59384,35.71623],[139.59383,35.71544]]]}},{"type":"Feature","properties":{"id":"area-13115030003","name":"善福寺三丁目"},"geometry":{"type":"Polygon","coordinates":[[[139.5942,35.71783],[139.5945,35.71768],[139.59622,35.71727],[139.59672,35.71706],[139.59384,35.71623],[139.5935,35.71608],[139.59039,35.71456],[139.58702,35.71263],[139.5868,35.71365],[139.58652,35.71431],[139.58638,35.71456],[139.58613,35.71481],[139.58569,35.71542],[139.5854,35.71595],[139.5877,35.71708],[139.59009,35.71779],[139.5912,35.71769],[139.59288,35.71796],[139.5942,35.71783]]]}},{"type":"Feature","properties":{"id":"area-13115030004","name":"善福寺四丁目"},"geometry":{"type":"Polygon","coordinates":[[[139.59392,35.71803],[139.5942,35.71783],[139.59288,35.71796],[139.5912,35.71769],[139.59009,35.71779],[139.5877,35.71708],[139.5854,35.71595],[139.58511,35.71634],[139.58504,35.7169],[139.58515,35.7179],[139.58535,35.71824],[139.58591,35.71885],[139.586,35.71903],[139.58608,35.71912],[139.58633,35.71923],[139.58712,35.71973],[139.58762,35.71991],[139.58852,35.72014],[139.58966,35.72027],[139.59021,35.72027],[139.59061,35.72011],[139.59106,35.71985],[139.59273,35.71849],[139.59349,35.71812],[139.59368,35.71806],[139.59392,35.71803]]]}},{"type":"Feature","properties":{"id":"area-13115031001","name":"松庵一丁目"},"geometry":{"type":"Polygon","coordinates":[[[139.59757,35.69564],[139.59622,35.6928],[139.594,35.69334],[139.59354,35.6935],[139.59263,35.6939],[139.59007,35.69482],[139.5914,35.69789],[139.59757,35.69564]]]}},{"type":"Feature","properties":{"id":"area-13115031002","name":"松庵二丁目"},"geometry":{"type":"Polygon","coordinates":[[[139.59842,35.69788],[139.59757,35.69564],[139.5914,35.69789],[139.59272,35.70094],[139.5958,35.69942],[139.59744,35.69849],[139.59766,35.69832],[139.59842,35.69788]]]}},{"type":"Feature","properties":{"id":"area-13115031003","name":"松庵三丁目"},"geometry":{"type":"Polygon","coordinates":[[[139.5998,35.70288],[139.59764,35.69836],[139.5958,35.69942],[139.59284,35.70087],[139.59411,35.70321],[139.59437,35.70349],[139.59443,35.70374],[139.5964,35.70379],[139.59813,35.70388],[139.59813,35.70364],[139.59855,35.70361],[139.59913,35.7033],[139.5998,35.70288]]]}},{"type":"Feature","properties":{"id":"area-13115032001","name":"宮前一丁目"},"geometry":{"type":"Polygon","coordinates":[[[139.61655,35.69012],[139.61634,35.68876],[139.61441,35.68947],[139.61286,35.68969],[139.61214,35.68954],[139.6117,35.6894],[139.60992,35.68904],[139.60864,35.68884],[139.6089,35.69002],[139.60944,35.69204],[139.60948,35.69234],[139.61033,35.69196],[139.61295,35.69093],[139.61399,35.69055],[139.61498,35.69031],[139.61655,35.69012]]]}},{"type":"Feature","properties":{"id":"area-13115032002","name":"宮前二丁目"},"geometry":{"type":"Polygon","coordinates":[[[139.6168,35.69192],[139.61655,35.69012],[139.61517,35.69028],[139.61439,35.69044],[139.61323,35.69082],[139.61033,35.69196],[139.60948,35.69234],[139.60948,35.6924],[139.61175,35.696],[139.61318,35.69542],[139.61406,35.69493],[139.61546,35.69398],[139.61606,35.69349],[139.61655,35.69303],[139.61693,35.69276],[139.6168,35.6922],[139.6168,35.69192]]]}},{"type":"Feature","properties":{"id":"area-13115032003","name":"宮前三丁目"},"geometry":{"type":"Polygon","coordinates":[[[139.60948,35.6924],[139.60948,35.69234],[139.60651,35.6938],[139.60435,35.69474],[139.60361,35.6951],[139.60515,35.69902],[139.60571,35.69856],[139.60608,35.6984],[139.60877,35.69728],[139.61078,35.69638],[139.61175,35.696],[139.60948,35.6924]]]}},{"type":"Feature","properties":{"id":"area-13115032004","name":"宮前四丁目"},"geometry":{"type":"Polygon","coordinates":[[[139.60896,35.69021],[139.60864,35.68884],[139.60759,35.68874],[139.60663,35.6889],[139.60599,35.68906],[139.60518,35.68935],[139.6047,35.68956],[139.60351,35.69021],[139.60187,35.69126],[139.60347,35.69517],[139.60435,35.69474],[139.60651,35.6938],[139.60948,35.69234],[139.60944,35.69204],[139.60896,35.69021]]]}},{"type":"Feature","properties":{"id":"area-13115032005","name":"宮前五丁目"},"geometry":{"type":"Polygon","coordinates":[[[139.60347,35.69517],[139.60187,35.69126],[139.60158,35.69145],[139.60112,35.69168],[139.60058,35.69183],[139.59934,35.69213],[139.59868,35.69219],[139.59622,35.6928],[139.59757,35.69564],[139.59843,35.69791],[139.60074,35.69658],[139.60347,35.69517]]]}},{"type":"Feature","properties":{"id":"area-13115033001","name":"久我山一丁目"},"geometry":{"type":"Polygon","coordinates":[[[139.59611,35.68454],[139.5981,35.68397],[139.59923,35.6835],[139.60007,35.683],[139.60064,35.68258],[139.60176,35.68193],[139.60258,35.6814],[139.60314,35.68113],[139.60412,35.68082],[139.60401,35.68053],[139.60366,35.68052],[139.60363,35.68035],[139.60364,35.68029],[139.60374,35.68019],[139.60352,35.68013],[139.6032,35.6804],[139.60302,35.68062],[139.60281,35.68073],[139.60065,35.6814],[139.5988,35.68187],[139.59881,35.68183],[139.59817,35.68199],[139.59598,35.68221],[139.59451,35.68234],[139.59403,35.6823],[139.59291,35.68288],[139.59311,35.68321],[139.59242,35.68402],[139.59204,35.68432],[139.59222,35.68455],[139.59242,35.68447],[139.59258,35.68473],[139.59241,35.6848],[139.59256,35.68511],[139.59149,35.68542],[139.59151,35.68578],[139.59611,35.68454]]]}},{"type":"Feature","properties":{"id":"area-13115033002","name":"久我山二丁目"},"geometry":{"type":"Polygon","coordinates":[[[139.60655,35.68075],[139.60648,35.6802],[139.60558,35.68039],[139.60314,35.68113],[139.60258,35.6814],[139.60176,35.68193],[139.60064,35.68258],[139.60007,35.683],[139.5996,35.68329],[139.59907,35.68357],[139.59811,35.68395],[139.59951,35.68627],[139.59971,35.68694],[139.59968,35.68714],[139.59971,35.68751],[139.59985,35.68788],[139.60126,35.68705],[139.60168,35.68685],[139.60795,35.68459],[139.60712,35.68339],[139.60671,35.68288],[139.60645,35.6824],[139.60638,35.6821],[139.60636,35.68164],[139.6065,35.6811],[139.60655,35.68075]]]}},{"type":"Feature","properties":{"id":"area-13115033003","name":"久我山三丁目"},"geometry":{"type":"Polygon","coordinates":[[[139.5974,35.68932],[139.5983,35.68881],[139.59832,35.68889],[139.59843,35.68884],[139.59868,35.6886],[139.59864,35.68861],[139.59986,35.68789],[139.59971,35.68751],[139.59968,35.68714],[139.59971,35.68694],[139.59951,35.68627],[139.59811,35.68396],[139.59554,35.6847],[139.59151,35.68578],[139.59152,35.6859],[139.5917,35.68593],[139.59168,35.68606],[139.59054,35.68687],[139.59128,35.68751],[139.59179,35.68778],[139.59205,35.68786],[139.59283,35.68795],[139.59304,35.68828],[139.59295,35.68834],[139.5929,35.68846],[139.59282,35.68899],[139.59309,35.68903],[139.59333,35.68884],[139.59363,35.68868],[139.5938,35.68882],[139.59341,35.68926],[139.59351,35.6894],[139.59286,35.68994],[139.59239,35.69043],[139.59239,35.69052],[139.59141,35.69128],[139.59129,35.69148],[139.59599,35.68988],[139.5974,35.68932]]]}},{"type":"Feature","properties":{"id":"area-13115033004","name":"久我山四丁目"},"geometry":{"type":"Polygon","coordinates":[[[139.60011,35.68893],[139.6,35.68835],[139.59986,35.68789],[139.59864,35.68861],[139.59868,35.6886],[139.59843,35.68884],[139.59832,35.68889],[139.5983,35.68881],[139.5974,35.68932],[139.59659,35.68966],[139.59129,35.69148],[139.59054,35.69194],[139.59016,35.69212],[139.58985,35.69238],[139.58964,35.6925],[139.58805,35.6931],[139.58768,35.6934],[139.58754,35.69357],[139.58718,35.69369],[139.58701,35.69382],[139.58681,35.69404],[139.58676,35.69414],[139.58813,35.69558],[139.58818,35.69559],[139.59038,35.6947],[139.59263,35.6939],[139.59354,35.6935],[139.594,35.69334],[139.59868,35.69219],[139.59957,35.69209],[139.60058,35.69183],[139.60107,35.69168],[139.60068,35.69049],[139.60011,35.68893]]]}},{"type":"Feature","properties":{"id":"area-13115033005","name":"久我山五丁目"},"geometry":{"type":"Polygon","coordinates":[[[139.60351,35.69021],[139.6047,35.68956],[139.60518,35.68935],[139.60599,35.68906],[139.60663,35.6889],[139.60759,35.68874],[139.60864,35.68884],[139.60847,35.68808],[139.60831,35.68683],[139.60812,35.6858],[139.60805,35.68484],[139.60795,35.68459],[139.60168,35.68685],[139.60126,35.68705],[139.59985,35.68788],[139.6,35.68835],[139.60017,35.68912],[139.60068,35.69049],[139.60107,35.69168],[139.60112,35.69168],[139.60158,35.69145],[139.60351,35.69021]]]}},{"type":"Feature","properties":{"id":"area-13115034001","name":"高井戸東一丁目"},"geometry":{"type":"Polygon","coordinates":[[[139.62296,35.67744],[139.6223,35.67744],[139.62129,35.67706],[139.61971,35.67672],[139.6187,35.67656],[139.61846,35.67641],[139.61806,35.67595],[139.61746,35.67623],[139.61761,35.67651],[139.61824,35.67796],[139.61864,35.67874],[139.61895,35.67987],[139.61902,35.68032],[139.61904,35.68073],[139.61901,35.68084],[139.61877,35.68129],[139.61873,35.68148],[139.61901,35.68192],[139.61926,35.68292],[139.6204,35.68275],[139.62544,35.68209],[139.62514,35.68138],[139.62551,35.68003],[139.6245,35.67852],[139.62435,35.67838],[139.62405,35.67819],[139.62336,35.67758],[139.62296,35.67744]]]}},{"type":"Feature","properties":{"id":"area-13115034002","name":"高井戸東二丁目"},"geometry":{"type":"Polygon","coordinates":[[[139.61824,35.67796],[139.61746,35.67623],[139.61667,35.67663],[139.61606,35.67688],[139.61442,35.67739],[139.61467,35.68021],[139.6149,35.68102],[139.61574,35.68335],[139.61714,35.68326],[139.61926,35.68292],[139.61901,35.68192],[139.61873,35.68148],[139.61877,35.68129],[139.61901,35.68084],[139.61904,35.68073],[139.61902,35.68032],[139.61895,35.67987],[139.61864,35.67874],[139.61824,35.67796]]]}},{"type":"Feature","properties":{"id":"area-13115034003","name":"高井戸東三丁目"},"geometry":{"type":"Polygon","coordinates":[[[139.62584,35.68309],[139.62544,35.68209],[139.6204,35.68275],[139.61714,35.68326],[139.61574,35.68335],[139.61576,35.68354],[139.61568,35.68452],[139.61602,35.68687],[139.61634,35.68873],[139.62441,35.68578],[139.62489,35.68493],[139.62584,35.68309]]]}},{"type":"Feature","properties":{"id":"area-13115034004","name":"高井戸東四丁目"},"geometry":{"type":"Polygon","coordinates":[[[139.62399,35.68653],[139.62441,35.68578],[139.61634,35.68873],[139.6168,35.69192],[139.6168,35.6922],[139.61693,35.69274],[139.61805,35.692],[139.61839,35.69182],[139.61938,35.69147],[139.61982,35.69123],[139.62086,35.69058],[139.62144,35.69006],[139.6222,35.68952],[139.62305,35.68918],[139.62379,35.68883],[139.62453,35.68841],[139.62498,35.68819],[139.62399,35.68653]]]}},{"type":"Feature","properties":{"id":"area-13115035001","name":"高井戸西一丁目"},"geometry":{"type":"Polygon","coordinates":[[[139.61467,35.68021],[139.61441,35.67744],[139.61364,35.67779],[139.61282,35.67825],[139.61219,35.67852],[139.61106,35.67888],[139.60922,35.67959],[139.60653,35.68042],[139.60655,35.68075],[139.6065,35.6811],[139.60636,35.68164],[139.60638,35.6821],[139.60645,35.6824],[139.60671,35.68288],[139.60712,35.68339],[139.60795,35.68459],[139.60933,35.6841],[139.61102,35.68357],[139.61127,35.68353],[139.612,35.68345],[139.61571,35.68327],[139.6149,35.68102],[139.61467,35.68021]]]}},{"type":"Feature","properties":{"id":"area-13115035002","name":"高井戸西二丁目"},"geometry":{"type":"Polygon","coordinates":[[[139.61576,35.68354],[139.61571,35.68327],[139.612,35.68345],[139.61127,35.68353],[139.61102,35.68357],[139.60933,35.6841],[139.60795,35.68459],[139.60805,35.68484],[139.60812,35.6858],[139.60831,35.68683],[139.60847,35.68808],[139.60913,35.68792],[139.61069,35.68759],[139.61223,35.68713],[139.61275,35.68701],[139.61481,35.68661],[139.61595,35.68642],[139.61568,35.68452],[139.61576,35.68354]]]}},{"type":"Feature","properties":{"id":"area-13115035003","name":"高井戸西三丁目"},"geometry":{"type":"Polygon","coordinates":[[[139.61286,35.68969],[139.61441,35.68947],[139.61634,35.68876],[139.61595,35.68642],[139.61481,35.68661],[139.61275,35.68701],[139.61223,35.68713],[139.61069,35.68759],[139.60913,35.68792],[139.60847,35.68808],[139.60864,35.68884],[139.60992,35.68904],[139.6106,35.68918],[139.6117,35.6894],[139.61272,35.68967],[139.61286,35.68969]]]}},{"type":"Feature","properties":{"id":"area-13115036001","name":"上高井戸一丁目"},"geometry":{"type":"Polygon","coordinates":[[[139.60898,35.67666],[139.60945,35.67608],[139.60995,35.67567],[139.60998,35.67568],[139.60999,35.67587],[139.60998,35.67668],[139.61,35.67674],[139.61012,35.67665],[139.61147,35.67494],[139.61177,35.67465],[139.61191,35.67457],[139.61282,35.67426],[139.61302,35.67409],[139.61332,35.67389],[139.61344,35.67372],[139.61338,35.67328],[139.61336,35.67282],[139.61462,35.67274],[139.61669,35.67255],[139.61664,35.67156],[139.61649,35.67158],[139.6164,35.67063],[139.61639,35.67039],[139.61647,35.66991],[139.61607,35.66941],[139.61595,35.66923],[139.61595,35.66915],[139.6156,35.66914],[139.61539,35.66902],[139.61529,35.66912],[139.61564,35.66942],[139.61569,35.66951],[139.61569,35.66956],[139.61566,35.66957],[139.61555,35.66957],[139.6153,35.66938],[139.61479,35.66916],[139.61421,35.66962],[139.61374,35.67019],[139.6136,35.67064],[139.61349,35.67066],[139.61347,35.67049],[139.61247,35.67029],[139.61129,35.66998],[139.61126,35.67027],[139.61143,35.6703],[139.6114,35.67046],[139.6107,35.67052],[139.61063,35.67087],[139.60998,35.67072],[139.60936,35.67067],[139.6094,35.67025],[139.60923,35.67023],[139.60909,35.67066],[139.60896,35.6719],[139.60902,35.67273],[139.60894,35.67404],[139.60936,35.67405],[139.60932,35.67425],[139.60928,35.67473],[139.60886,35.67472],[139.60883,35.67477],[139.60882,35.67489],[139.60913,35.6749],[139.60915,35.67508],[139.60866,35.67611],[139.60849,35.67612],[139.60848,35.67643],[139.60768,35.67637],[139.60771,35.67606],[139.60751,35.67605],[139.60746,35.6763],[139.60722,35.67698],[139.60709,35.67721],[139.6068,35.67758],[139.60703,35.67751],[139.60819,35.67701],[139.60881,35.6768],[139.60898,35.67666]]]}},{"type":"Feature","properties":{"id":"area-13115036002","name":"上高井戸二丁目"},"geometry":{"type":"Polygon","coordinates":[[[139.6051,35.68052],[139.60648,35.6802],[139.60653,35.68042],[139.60922,35.67959],[139.61106,35.67888],[139.61219,35.67852],[139.6126,35.67835],[139.61364,35.67779],[139.61441,35.67744],[139.61396,35.67532],[139.61329,35.67545],[139.61327,35.67555],[139.6128,35.67582],[139.61261,35.67602],[139.6125,35.67603],[139.61221,35.67549],[139.61193,35.6755],[139.61194,35.67606],[139.61189,35.67622],[139.6106,35.67655],[139.61022,35.67652],[139.61,35.67674],[139.60998,35.67668],[139.60998,35.67568],[139.60991,35.67569],[139.60945,35.67608],[139.60925,35.67629],[139.60898,35.67666],[139.60881,35.6768],[139.60819,35.67701],[139.60703,35.67751],[139.6068,35.67758],[139.60608,35.67821],[139.60566,35.67851],[139.60543,35.67881],[139.60352,35.68013],[139.60374,35.68019],[139.60364,35.68029],[139.60363,35.68035],[139.60366,35.68052],[139.60401,35.68053],[139.60412,35.68082],[139.6051,35.68052]]]}},{"type":"Feature","properties":{"id":"area-13115036003","name":"上高井戸三丁目"},"geometry":{"type":"Polygon","coordinates":[[[139.62344,35.67171],[139.62318,35.67149],[139.62319,35.67155],[139.62214,35.67223],[139.62114,35.6728],[139.61956,35.67344],[139.61725,35.67423],[139.61712,35.67423],[139.61493,35.6749],[139.61396,35.67532],[139.61444,35.67759],[139.61442,35.67739],[139.61606,35.67688],[139.61667,35.67663],[139.61858,35.67569],[139.61946,35.67519],[139.62035,35.67449],[139.62268,35.67234],[139.62344,35.67171]]]}}]}