{"type":"FeatureCollection","features":[{"type":"Feature","properties":{"id":"area-13118001001","name":"南千住一丁目"},"geometry":{"type":"Polygon","coordinates":[[[139.79283,35.73253],[139.79237,35.73141],[139.78872,35.73187],[139.78777,35.73244],[139.78918,35.73453],[139.78857,35.73494],[139.78854,35.73547],[139.78847,35.73576],[139.78946,35.73581],[139.78995,35.73575],[139.79425,35.73436],[139.79283,35.73253]]]}},{"type":"Feature","properties":{"id":"area-13118001002","name":"南千住二丁目"},"geometry":{"type":"Polygon","coordinates":[[[139.79861,35.73114],[139.79963,35.72894],[139.79519,35.72877],[139.79508,35.72979],[139.7943,35.72978],[139.79426,35.73033],[139.79313,35.73037],[139.79269,35.73008],[139.7924,35.73037],[139.7925,35.73086],[139.79217,35.73104],[139.79237,35.73141],[139.79303,35.73133],[139.79316,35.73139],[139.7945,35.73119],[139.79518,35.73112],[139.79573,35.73113],[139.79609,35.73118],[139.79645,35.73127],[139.79731,35.73166],[139.79771,35.73197],[139.79816,35.73239],[139.79855,35.73138],[139.79861,35.73114]]]}},{"type":"Feature","properties":{"id":"area-13118001003","name":"南千住三丁目"},"geometry":{"type":"Polygon","coordinates":[[[139.8084,35.73325],[139.80839,35.733],[139.80859,35.7335],[139.80997,35.73302],[139.81105,35.73252],[139.8102,35.73003],[139.80977,35.72815],[139.80976,35.72795],[139.80538,35.72849],[139.80153,35.72905],[139.80129,35.72906],[139.79963,35.72894],[139.79857,35.73128],[139.79855,35.73138],[139.79895,35.73137],[139.79952,35.73007],[139.80681,35.73218],[139.80595,35.73407],[139.80653,35.73419],[139.80689,35.73422],[139.80804,35.73412],[139.80807,35.7339],[139.80834,35.73352],[139.8084,35.73325]]]}},{"type":"Feature","properties":{"id":"area-13118001004","name":"南千住四丁目"},"geometry":{"type":"Polygon","coordinates":[[[139.80481,35.73845],[139.80488,35.73832],[139.80491,35.73803],[139.80506,35.73545],[139.80516,35.73525],[139.80553,35.73481],[139.80568,35.73458],[139.80681,35.73218],[139.79952,35.73007],[139.79895,35.73137],[139.79855,35.73138],[139.79853,35.7314],[139.79812,35.73248],[139.79851,35.73293],[139.7985,35.73342],[139.79899,35.73356],[139.79915,35.7338],[139.79921,35.73382],[139.79953,35.73433],[139.79997,35.73519],[139.80026,35.73593],[139.80035,35.73598],[139.80048,35.73634],[139.80084,35.73757],[139.80091,35.73772],[139.80108,35.7378],[139.80269,35.73803],[139.80395,35.7384],[139.80443,35.73844],[139.80467,35.7384],[139.80481,35.73845]]]}},{"type":"Feature","properties":{"id":"area-13118001005","name":"南千住五丁目"},"geometry":{"type":"Polygon","coordinates":[[[139.79696,35.73148],[139.79645,35.73127],[139.79625,35.73122],[139.79573,35.73113],[139.79547,35.73112],[139.79484,35.73114],[139.79316,35.73139],[139.79303,35.73133],[139.79237,35.73141],[139.79283,35.73253],[139.79395,35.734],[139.79425,35.73436],[139.79508,35.73505],[139.79671,35.73666],[139.79681,35.73681],[139.79803,35.73274],[139.79816,35.73239],[139.79747,35.73177],[139.79696,35.73148]]]}},{"type":"Feature","properties":{"id":"area-13118001006","name":"南千住六丁目"},"geometry":{"type":"Polygon","coordinates":[[[139.79671,35.73666],[139.79508,35.73505],[139.79425,35.73436],[139.78995,35.73575],[139.78946,35.73581],[139.78888,35.73579],[139.78865,35.73622],[139.78858,35.73704],[139.78845,35.7373],[139.78838,35.73737],[139.78891,35.73819],[139.78985,35.73943],[139.7902,35.74015],[139.7904,35.74069],[139.79061,35.7409],[139.79101,35.74117],[139.79143,35.74139],[139.79245,35.74074],[139.79358,35.74029],[139.7948,35.7399],[139.79559,35.73969],[139.79696,35.73948],[139.79747,35.73937],[139.79712,35.73856],[139.79697,35.73806],[139.7969,35.737],[139.79671,35.73666]]]}},{"type":"Feature","properties":{"id":"area-13118001007","name":"南千住七丁目"},"geometry":{"type":"Polygon","coordinates":[[[139.79851,35.73293],[139.79812,35.73248],[139.79681,35.73681],[139.7969,35.737],[139.79697,35.73806],[139.79712,35.73856],[139.79747,35.73937],[139.79844,35.73917],[139.80127,35.73872],[139.8011,35.73824],[139.80119,35.7382],[139.80108,35.7378],[139.80091,35.73772],[139.80084,35.73757],[139.80048,35.73634],[139.80035,35.73598],[139.80026,35.73593],[139.79997,35.73519],[139.79953,35.73433],[139.79921,35.73382],[139.79915,35.7338],[139.79899,35.73356],[139.7985,35.73342],[139.79851,35.73293]]]}},{"type":"Feature","properties":{"id":"area-13118001008","name":"南千住八丁目"},"geometry":{"type":"Polygon","coordinates":[[[139.81458,35.73905],[139.81464,35.73793],[139.8146,35.73736],[139.8145,35.73693],[139.81424,35.73637],[139.81388,35.73584],[139.81335,35.73523],[139.81219,35.73406],[139.81157,35.73337],[139.8112,35.73287],[139.81104,35.73253],[139.80997,35.73302],[139.80859,35.7335],[139.80839,35.733],[139.8084,35.73325],[139.80838,35.73341],[139.80834,35.73352],[139.80807,35.7339],[139.80804,35.73412],[139.80689,35.73422],[139.80653,35.73419],[139.80595,35.73407],[139.80568,35.73458],[139.80553,35.73481],[139.80516,35.73525],[139.80506,35.73545],[139.80491,35.73803],[139.80488,35.73832],[139.80481,35.73845],[139.80467,35.7384],[139.80443,35.73844],[139.80395,35.7384],[139.80245,35.73798],[139.80108,35.7378],[139.80119,35.7382],[139.8011,35.73824],[139.80127,35.73872],[139.80183,35.73868],[139.80247,35.7387],[139.80342,35.7389],[139.80512,35.73942],[139.80872,35.74073],[139.80924,35.74085],[139.80998,35.74109],[139.81055,35.74121],[139.81129,35.74123],[139.81275,35.7409],[139.81315,35.74077],[139.81339,35.74064],[139.81366,35.74048],[139.81386,35.74029],[139.81418,35.73988],[139.81458,35.73905]]]}},{"type":"Feature","properties":{"id":"area-13118002001","name":"荒川一丁目"},"geometry":{"type":"Polygon","coordinates":[[[139.78845,35.7373],[139.78858,35.73704],[139.78865,35.73622],[139.78888,35.73579],[139.78847,35.73576],[139.78854,35.73547],[139.78857,35.73494],[139.78918,35.73453],[139.78777,35.73244],[139.78872,35.73187],[139.78511,35.73234],[139.78404,35.73244],[139.78419,35.73301],[139.7848,35.7347],[139.78497,35.73478],[139.78481,35.73518],[139.78484,35.73536],[139.78519,35.73639],[139.78493,35.73664],[139.78481,35.73681],[139.7847,35.73716],[139.78645,35.73715],[139.78644,35.73785],[139.78731,35.73768],[139.78823,35.7374],[139.78835,35.73738],[139.78845,35.7373]]]}},{"type":"Feature","properties":{"id":"area-13118002002","name":"荒川二丁目"},"geometry":{"type":"Polygon","coordinates":[[[139.7829,35.74066],[139.78477,35.74061],[139.78474,35.73716],[139.7847,35.73716],[139.78481,35.73681],[139.78493,35.73664],[139.78519,35.73639],[139.78484,35.73536],[139.78481,35.73518],[139.78497,35.73478],[139.78483,35.73482],[139.78475,35.73478],[139.78192,35.7356],[139.78186,35.73633],[139.78186,35.73673],[139.78166,35.73797],[139.78169,35.74056],[139.78208,35.74056],[139.7825,35.74064],[139.7829,35.74066]]]}},{"type":"Feature","properties":{"id":"area-13118002003","name":"荒川三丁目"},"geometry":{"type":"Polygon","coordinates":[[[139.78176,35.73565],[139.78475,35.73478],[139.78483,35.73482],[139.78497,35.73478],[139.7848,35.7347],[139.78419,35.73301],[139.78404,35.73244],[139.78241,35.73265],[139.78191,35.73274],[139.78001,35.73297],[139.77874,35.73319],[139.77873,35.7335],[139.77866,35.73393],[139.77868,35.73393],[139.77859,35.7341],[139.77741,35.73565],[139.7767,35.73652],[139.77664,35.73664],[139.77666,35.73676],[139.77709,35.7371],[139.78032,35.73614],[139.78045,35.73607],[139.78176,35.73565]]]}},{"type":"Feature","properties":{"id":"area-13118002004","name":"荒川四丁目"},"geometry":{"type":"Polygon","coordinates":[[[139.78167,35.74037],[139.78169,35.73994],[139.78165,35.7391],[139.78168,35.73867],[139.78166,35.73797],[139.78186,35.73673],[139.78186,35.73633],[139.78192,35.7356],[139.78045,35.73607],[139.78032,35.73614],[139.77709,35.7371],[139.77701,35.7372],[139.77699,35.73729],[139.77712,35.73757],[139.77769,35.73835],[139.77791,35.73876],[139.77874,35.74003],[139.77967,35.73998],[139.78057,35.73999],[139.78074,35.74002],[139.78109,35.74019],[139.78129,35.74019],[139.78139,35.74024],[139.78158,35.74054],[139.78169,35.74056],[139.78167,35.74037]]]}},{"type":"Feature","properties":{"id":"area-13118002005","name":"荒川五丁目"},"geometry":{"type":"Polygon","coordinates":[[[139.77629,35.74023],[139.77696,35.7406],[139.7771,35.74043],[139.77731,35.74052],[139.7776,35.74049],[139.77789,35.74039],[139.77826,35.74018],[139.77874,35.74003],[139.77791,35.73876],[139.77769,35.73835],[139.77712,35.73757],[139.77699,35.73729],[139.77701,35.7372],[139.77709,35.7371],[139.77563,35.73733],[139.77467,35.73752],[139.77465,35.73746],[139.77459,35.73753],[139.77296,35.73779],[139.7731,35.73832],[139.77318,35.73851],[139.77329,35.73866],[139.77376,35.73908],[139.77335,35.73937],[139.7736,35.73979],[139.7741,35.74085],[139.77451,35.74071],[139.77629,35.74023]]]}},{"type":"Feature","properties":{"id":"area-13118002006","name":"荒川六丁目"},"geometry":{"type":"Polygon","coordinates":[[[139.77676,35.74377],[139.77711,35.74363],[139.77753,35.74353],[139.7793,35.74314],[139.78062,35.74291],[139.7806,35.74281],[139.78038,35.74254],[139.77945,35.74106],[139.77904,35.74048],[139.77889,35.74036],[139.77885,35.74016],[139.7787,35.74004],[139.77826,35.74018],[139.77789,35.74039],[139.7776,35.74049],[139.77731,35.74052],[139.7771,35.74043],[139.77696,35.7406],[139.7763,35.74023],[139.77451,35.74071],[139.77404,35.74088],[139.77411,35.74115],[139.77459,35.74163],[139.77468,35.74185],[139.77496,35.74214],[139.77518,35.74245],[139.77531,35.74257],[139.77521,35.74269],[139.77538,35.74313],[139.77508,35.74345],[139.77539,35.74385],[139.77562,35.74377],[139.77574,35.74446],[139.77639,35.74399],[139.77676,35.74377]]]}},{"type":"Feature","properties":{"id":"area-13118002007","name":"荒川七丁目"},"geometry":{"type":"Polygon","coordinates":[[[139.78434,35.74349],[139.78435,35.74343],[139.78476,35.74347],[139.78477,35.74343],[139.78478,35.74266],[139.78474,35.74115],[139.78477,35.74061],[139.78323,35.74067],[139.7825,35.74064],[139.78208,35.74056],[139.78179,35.74057],[139.78158,35.74054],[139.78139,35.74024],[139.78129,35.74019],[139.78109,35.74019],[139.78074,35.74002],[139.78057,35.73999],[139.77967,35.73998],[139.7787,35.74004],[139.77885,35.74016],[139.77889,35.74036],[139.77904,35.74048],[139.77972,35.74148],[139.78038,35.74254],[139.78063,35.74287],[139.78073,35.74286],[139.78078,35.7429],[139.78186,35.74265],[139.78244,35.74301],[139.78304,35.74326],[139.78345,35.74337],[139.78434,35.74349]]]}},{"type":"Feature","properties":{"id":"area-13118002008","name":"荒川八丁目"},"geometry":{"type":"Polygon","coordinates":[[[139.78956,35.73908],[139.78838,35.73737],[139.78731,35.73768],[139.78644,35.73785],[139.78645,35.73715],[139.78474,35.73716],[139.78477,35.74059],[139.78474,35.74115],[139.78478,35.74266],[139.78477,35.74343],[139.78574,35.74365],[139.78639,35.74367],[139.78723,35.74377],[139.78811,35.74382],[139.78863,35.74391],[139.78912,35.7441],[139.79079,35.74201],[139.79114,35.74162],[139.79143,35.74139],[139.79101,35.74117],[139.79061,35.7409],[139.7904,35.74069],[139.7902,35.74015],[139.78985,35.73943],[139.78956,35.73908]]]}},{"type":"Feature","properties":{"id":"area-13118003001","name":"町屋一丁目"},"geometry":{"type":"Polygon","coordinates":[[[139.78629,35.74662],[139.78636,35.74548],[139.78842,35.74556],[139.7886,35.74507],[139.78912,35.7441],[139.78863,35.74391],[139.78811,35.74382],[139.78723,35.74377],[139.78639,35.74367],[139.78574,35.74365],[139.78477,35.74343],[139.78476,35.74347],[139.78435,35.74343],[139.78434,35.74349],[139.78345,35.74337],[139.78274,35.74315],[139.78219,35.74288],[139.78186,35.74265],[139.78078,35.7429],[139.78073,35.74286],[139.78066,35.74286],[139.78339,35.74706],[139.78349,35.74678],[139.78629,35.74662]]]}},{"type":"Feature","properties":{"id":"area-13118003002","name":"町屋二丁目"},"geometry":{"type":"Polygon","coordinates":[[[139.77683,35.74568],[139.77706,35.74554],[139.77713,35.74556],[139.77734,35.74574],[139.77755,35.74562],[139.77786,35.74555],[139.77775,35.74517],[139.77829,35.74511],[139.77845,35.74519],[139.77874,35.7452],[139.77945,35.74533],[139.77989,35.74552],[139.78006,35.74555],[139.7805,35.74545],[139.78169,35.74535],[139.78191,35.74536],[139.78226,35.7453],[139.78066,35.74286],[139.78062,35.74291],[139.7793,35.74314],[139.77711,35.74363],[139.77692,35.74369],[139.77655,35.74389],[139.77574,35.74446],[139.77587,35.74484],[139.77574,35.74492],[139.77581,35.74514],[139.77622,35.74571],[139.77621,35.74578],[139.77606,35.74588],[139.77609,35.74601],[139.77683,35.74568]]]}},{"type":"Feature","properties":{"id":"area-13118003003","name":"町屋三丁目"},"geometry":{"type":"Polygon","coordinates":[[[139.78519,35.74965],[139.78397,35.74785],[139.78397,35.74792],[139.78226,35.7453],[139.78191,35.74536],[139.78169,35.74535],[139.7805,35.74545],[139.78016,35.74555],[139.77989,35.74552],[139.7798,35.74593],[139.7798,35.74612],[139.77988,35.74651],[139.78,35.74666],[139.78025,35.74676],[139.78028,35.74733],[139.78025,35.74809],[139.78037,35.74821],[139.78038,35.74853],[139.78047,35.74867],[139.78044,35.74882],[139.78045,35.74965],[139.78505,35.7497],[139.78519,35.74965]]]}},{"type":"Feature","properties":{"id":"area-13118003004","name":"町屋四丁目"},"geometry":{"type":"Polygon","coordinates":[[[139.7798,35.74593],[139.77989,35.74552],[139.77945,35.74533],[139.77874,35.7452],[139.77845,35.74519],[139.77829,35.74511],[139.77775,35.74517],[139.77786,35.74555],[139.77755,35.74562],[139.77734,35.74574],[139.77713,35.74556],[139.77706,35.74554],[139.77671,35.74575],[139.77609,35.74601],[139.77537,35.74624],[139.7755,35.74655],[139.77587,35.74667],[139.77594,35.74675],[139.77587,35.74702],[139.77586,35.74732],[139.77589,35.74741],[139.77596,35.74749],[139.77637,35.74774],[139.7764,35.74817],[139.77648,35.7483],[139.77651,35.7486],[139.77653,35.74959],[139.78045,35.74965],[139.78044,35.74882],[139.78047,35.74867],[139.78038,35.74853],[139.78037,35.74821],[139.78025,35.74809],[139.78028,35.74733],[139.78025,35.74676],[139.78,35.74666],[139.77988,35.74651],[139.7798,35.74612],[139.7798,35.74593]]]}},{"type":"Feature","properties":{"id":"area-13118003005","name":"町屋五丁目"},"geometry":{"type":"Polygon","coordinates":[[[139.78207,35.754],[139.78184,35.75255],[139.78158,35.75192],[139.78139,35.7513],[139.78128,35.75104],[139.78107,35.75089],[139.78137,35.75011],[139.78136,35.74964],[139.77653,35.74959],[139.77652,35.74969],[139.77684,35.74986],[139.77678,35.75029],[139.77676,35.75084],[139.77704,35.7509],[139.77819,35.75088],[139.77824,35.75161],[139.77842,35.75163],[139.77844,35.75238],[139.7784,35.75248],[139.77829,35.75254],[139.77783,35.75256],[139.7777,35.75264],[139.77768,35.75296],[139.77743,35.75295],[139.77741,35.75384],[139.77962,35.75395],[139.78207,35.754]]]}},{"type":"Feature","properties":{"id":"area-13118003006","name":"町屋六丁目"},"geometry":{"type":"Polygon","coordinates":[[[139.78663,35.75144],[139.78519,35.74965],[139.78505,35.7497],[139.78136,35.74964],[139.78137,35.75011],[139.78107,35.75089],[139.78128,35.75104],[139.78158,35.75192],[139.78184,35.75255],[139.78207,35.754],[139.7835,35.75395],[139.78435,35.75384],[139.78571,35.75362],[139.78758,35.75302],[139.7872,35.75223],[139.78659,35.75146],[139.78663,35.75144]]]}},{"type":"Feature","properties":{"id":"area-13118003007","name":"町屋七丁目"},"geometry":{"type":"Polygon","coordinates":[[[139.79016,35.74827],[139.78921,35.74766],[139.7887,35.74807],[139.78823,35.74839],[139.7852,35.74968],[139.78577,35.75041],[139.78663,35.75144],[139.78659,35.75146],[139.7872,35.75223],[139.78758,35.75302],[139.78828,35.75286],[139.78897,35.75262],[139.78952,35.75226],[139.78997,35.75188],[139.79027,35.75158],[139.79057,35.75132],[139.79114,35.75052],[139.79135,35.75007],[139.79144,35.74934],[139.79139,35.74901],[139.79131,35.74884],[139.7908,35.74861],[139.79016,35.74827]]]}},{"type":"Feature","properties":{"id":"area-13118003008","name":"町屋八丁目"},"geometry":{"type":"Polygon","coordinates":[[[139.7887,35.74807],[139.78921,35.74766],[139.78885,35.74734],[139.7887,35.74715],[139.78856,35.74691],[139.78834,35.74639],[139.78833,35.74596],[139.78842,35.74556],[139.78636,35.74548],[139.78629,35.74662],[139.78349,35.74678],[139.78339,35.74706],[139.78397,35.74792],[139.78397,35.74785],[139.7852,35.74968],[139.78823,35.74839],[139.7887,35.74807]]]}},{"type":"Feature","properties":{"id":"area-13118004001","name":"東尾久一丁目"},"geometry":{"type":"Polygon","coordinates":[[[139.77335,35.73937],[139.77376,35.73908],[139.77329,35.73866],[139.77318,35.73851],[139.7731,35.73832],[139.77296,35.73779],[139.77122,35.73807],[139.77069,35.73818],[139.77061,35.73841],[139.7703,35.73841],[139.77029,35.73855],[139.76999,35.73884],[139.76988,35.73904],[139.76984,35.73901],[139.76943,35.73922],[139.76918,35.73896],[139.76867,35.73924],[139.76884,35.74034],[139.76889,35.7409],[139.76897,35.74119],[139.76907,35.74239],[139.77026,35.74205],[139.77129,35.74182],[139.77243,35.74149],[139.77302,35.74123],[139.7741,35.74085],[139.7736,35.73979],[139.77335,35.73937]]]}},{"type":"Feature","properties":{"id":"area-13118004002","name":"東尾久二丁目"},"geometry":{"type":"Polygon","coordinates":[[[139.77411,35.74115],[139.77404,35.74088],[139.77302,35.74123],[139.77243,35.74149],[139.77129,35.74182],[139.77026,35.74205],[139.76907,35.74239],[139.76937,35.74508],[139.77141,35.74488],[139.77179,35.74482],[139.77237,35.74469],[139.77352,35.74456],[139.77369,35.74443],[139.77539,35.74385],[139.77508,35.74345],[139.77538,35.74313],[139.77521,35.74269],[139.77531,35.74257],[139.77518,35.74245],[139.77496,35.74214],[139.77468,35.74185],[139.77459,35.74163],[139.77411,35.74115]]]}},{"type":"Feature","properties":{"id":"area-13118004003","name":"東尾久三丁目"},"geometry":{"type":"Polygon","coordinates":[[[139.77574,35.74446],[139.77562,35.74377],[139.77369,35.74443],[139.77352,35.74456],[139.77237,35.74469],[139.77179,35.74482],[139.77141,35.74488],[139.76937,35.74508],[139.76971,35.7473],[139.76973,35.74761],[139.76969,35.74913],[139.77011,35.74895],[139.77038,35.74876],[139.77086,35.74833],[139.77271,35.7464],[139.7747,35.74519],[139.77558,35.74461],[139.77574,35.74446]]]}},{"type":"Feature","properties":{"id":"area-13118004004","name":"東尾久四丁目"},"geometry":{"type":"Polygon","coordinates":[[[139.76844,35.74521],[139.76937,35.74513],[139.7692,35.74352],[139.76908,35.74262],[139.76897,35.74119],[139.76889,35.7409],[139.76878,35.73988],[139.76846,35.73984],[139.76835,35.74021],[139.76834,35.74042],[139.76817,35.74104],[139.7682,35.7414],[139.76698,35.74149],[139.76689,35.74145],[139.76571,35.7416],[139.76557,35.74189],[139.76526,35.74197],[139.765,35.74215],[139.76446,35.74245],[139.76422,35.74266],[139.76411,35.74278],[139.76417,35.74286],[139.76415,35.74325],[139.76418,35.74348],[139.76425,35.74361],[139.76417,35.74378],[139.76408,35.74421],[139.76453,35.74424],[139.76505,35.74421],[139.76505,35.74513],[139.76577,35.74509],[139.76611,35.74517],[139.76694,35.74518],[139.76735,35.74514],[139.76844,35.74521]]]}},{"type":"Feature","properties":{"id":"area-13118004005","name":"東尾久五丁目"},"geometry":{"type":"Polygon","coordinates":[[[139.76797,35.74945],[139.76941,35.74926],[139.76959,35.74938],[139.76969,35.74936],[139.76973,35.74761],[139.76971,35.7473],[139.76937,35.74513],[139.76844,35.74521],[139.76735,35.74514],[139.76694,35.74518],[139.76611,35.74517],[139.76577,35.74509],[139.76505,35.74513],[139.76506,35.74661],[139.76503,35.74729],[139.76536,35.7473],[139.76537,35.74733],[139.76576,35.74736],[139.76574,35.74845],[139.76579,35.74984],[139.76586,35.74998],[139.76797,35.74945]]]}},{"type":"Feature","properties":{"id":"area-13118004006","name":"東尾久六丁目"},"geometry":{"type":"Polygon","coordinates":[[[139.776,35.74959],[139.77653,35.74959],[139.77653,35.74891],[139.77648,35.7483],[139.7764,35.74817],[139.77637,35.74774],[139.77596,35.74749],[139.77589,35.74741],[139.77586,35.74732],[139.77587,35.74702],[139.77594,35.74675],[139.77587,35.74667],[139.7755,35.74655],[139.77537,35.74624],[139.77609,35.74601],[139.77606,35.74588],[139.77621,35.74578],[139.77622,35.74571],[139.77581,35.74514],[139.77574,35.74492],[139.77587,35.74484],[139.77574,35.74446],[139.77548,35.74468],[139.7747,35.74519],[139.77271,35.7464],[139.77086,35.74833],[139.77038,35.74876],[139.77011,35.74895],[139.76969,35.74913],[139.76969,35.74939],[139.776,35.74959]]]}},{"type":"Feature","properties":{"id":"area-13118004007","name":"東尾久七丁目"},"geometry":{"type":"Polygon","coordinates":[[[139.77741,35.75384],[139.77743,35.75295],[139.77768,35.75296],[139.7777,35.75264],[139.77783,35.75256],[139.77829,35.75254],[139.7784,35.75248],[139.77844,35.75238],[139.77842,35.75163],[139.77824,35.75161],[139.77819,35.75088],[139.77704,35.7509],[139.77676,35.75084],[139.77678,35.75029],[139.77684,35.74986],[139.77652,35.74969],[139.77653,35.74959],[139.776,35.74959],[139.77154,35.74944],[139.77154,35.75006],[139.77151,35.75031],[139.77145,35.75056],[139.77124,35.75107],[139.77114,35.75165],[139.77108,35.75251],[139.77182,35.75262],[139.77175,35.75324],[139.77174,35.75362],[139.77249,35.75368],[139.77249,35.75364],[139.77428,35.75369],[139.77428,35.75373],[139.77652,35.75378],[139.77741,35.75384]]]}},{"type":"Feature","properties":{"id":"area-13118004008","name":"東尾久八丁目"},"geometry":{"type":"Polygon","coordinates":[[[139.77,35.75362],[139.77153,35.7536],[139.77174,35.75362],[139.77175,35.75324],[139.77182,35.75262],[139.77108,35.75251],[139.77114,35.75165],[139.77124,35.75107],[139.77145,35.75056],[139.77151,35.75031],[139.77154,35.75006],[139.77154,35.74944],[139.76969,35.74939],[139.76969,35.74936],[139.76959,35.74938],[139.76941,35.74926],[139.76927,35.74927],[139.76797,35.74945],[139.76586,35.74998],[139.76579,35.75058],[139.76587,35.75093],[139.76594,35.75159],[139.76604,35.75393],[139.768,35.75373],[139.77,35.75362]]]}},{"type":"Feature","properties":{"id":"area-13118005001","name":"西尾久一丁目"},"geometry":{"type":"Polygon","coordinates":[[[139.76248,35.74809],[139.7628,35.74696],[139.76332,35.74703],[139.76413,35.74707],[139.76412,35.74728],[139.76503,35.74729],[139.76507,35.74584],[139.76503,35.74559],[139.76505,35.74421],[139.76453,35.74424],[139.76408,35.74421],[139.76409,35.74411],[139.76367,35.74393],[139.76312,35.74387],[139.76319,35.74369],[139.76307,35.74362],[139.76268,35.7435],[139.76255,35.74368],[139.76234,35.74358],[139.76232,35.74362],[139.76185,35.74354],[139.76194,35.74399],[139.76209,35.74448],[139.76188,35.74476],[139.76177,35.74543],[139.7616,35.74595],[139.76167,35.74671],[139.76167,35.747],[139.76161,35.74722],[139.76211,35.74767],[139.76248,35.74809]]]}},{"type":"Feature","properties":{"id":"area-13118005002","name":"西尾久二丁目"},"geometry":{"type":"Polygon","coordinates":[[[139.76206,35.75059],[139.7627,35.75057],[139.76376,35.75048],[139.76586,35.74998],[139.76579,35.74984],[139.76574,35.74845],[139.76576,35.74736],[139.76537,35.74733],[139.76536,35.7473],[139.76412,35.74728],[139.76413,35.74707],[139.76332,35.74703],[139.7628,35.74696],[139.76248,35.74809],[139.76211,35.74767],[139.76161,35.74722],[139.76155,35.74739],[139.76151,35.74766],[139.76155,35.74936],[139.76158,35.74948],[139.76202,35.75036],[139.76206,35.75047],[139.76206,35.75059]]]}},{"type":"Feature","properties":{"id":"area-13118005003","name":"西尾久三丁目"},"geometry":{"type":"Polygon","coordinates":[[[139.76176,35.75426],[139.7652,35.75402],[139.76604,35.75393],[139.76594,35.75159],[139.76587,35.75093],[139.76579,35.75058],[139.76586,35.74998],[139.76376,35.75048],[139.7627,35.75057],[139.76115,35.75065],[139.76115,35.75156],[139.76125,35.75191],[139.76108,35.75196],[139.76133,35.75248],[139.76156,35.75321],[139.76167,35.75336],[139.76165,35.75373],[139.76179,35.75423],[139.76176,35.75426]]]}},{"type":"Feature","properties":{"id":"area-13118005004","name":"西尾久四丁目"},"geometry":{"type":"Polygon","coordinates":[[[139.76151,35.74766],[139.76167,35.747],[139.76167,35.74671],[139.7616,35.74595],[139.76177,35.74543],[139.76188,35.74476],[139.76209,35.74448],[139.76186,35.74359],[139.76114,35.7437],[139.76094,35.74365],[139.76048,35.74389],[139.76009,35.74342],[139.75864,35.74428],[139.75721,35.74518],[139.75796,35.74613],[139.75797,35.74741],[139.75917,35.74742],[139.75916,35.74745],[139.75953,35.74752],[139.75992,35.74751],[139.7613,35.74756],[139.76151,35.74766]]]}},{"type":"Feature","properties":{"id":"area-13118005005","name":"西尾久五丁目"},"geometry":{"type":"Polygon","coordinates":[[[139.7613,35.74756],[139.75992,35.74751],[139.75953,35.74752],[139.75916,35.74745],[139.75917,35.74742],[139.75797,35.74741],[139.75798,35.74938],[139.75795,35.75029],[139.75787,35.75079],[139.7581,35.75075],[139.76113,35.75065],[139.76206,35.75059],[139.76206,35.75047],[139.76202,35.75036],[139.76158,35.74948],[139.76155,35.74936],[139.76151,35.74766],[139.7613,35.74756]]]}},{"type":"Feature","properties":{"id":"area-13118005006","name":"西尾久六丁目"},"geometry":{"type":"Polygon","coordinates":[[[139.76115,35.75156],[139.76115,35.75065],[139.7581,35.75075],[139.75787,35.75079],[139.75781,35.75109],[139.75778,35.75149],[139.75769,35.7521],[139.7577,35.75307],[139.75724,35.75319],[139.75775,35.75483],[139.75935,35.75457],[139.76176,35.75426],[139.76179,35.75423],[139.76165,35.75373],[139.76167,35.75336],[139.76156,35.75321],[139.76133,35.75248],[139.76108,35.75196],[139.76125,35.75191],[139.76115,35.75156]]]}},{"type":"Feature","properties":{"id":"area-13118005007","name":"西尾久七丁目"},"geometry":{"type":"Polygon","coordinates":[[[139.74944,35.75112],[139.75787,35.75079],[139.75795,35.75029],[139.75798,35.74938],[139.75797,35.74746],[139.75535,35.74749],[139.75492,35.74773],[139.7552,35.7481],[139.75523,35.74889],[139.75458,35.74892],[139.75459,35.74918],[139.75239,35.74928],[139.75228,35.74916],[139.7512,35.74975],[139.75103,35.74954],[139.74963,35.75029],[139.74984,35.75078],[139.74985,35.75097],[139.74944,35.75112]]]}},{"type":"Feature","properties":{"id":"area-13118005008","name":"西尾久八丁目"},"geometry":{"type":"Polygon","coordinates":[[[139.75182,35.75375],[139.75362,35.75352],[139.75383,35.75353],[139.75558,35.75337],[139.75659,35.75333],[139.75768,35.75309],[139.75769,35.7521],[139.75778,35.75149],[139.75781,35.75109],[139.75787,35.75079],[139.75359,35.75095],[139.75347,35.75093],[139.74944,35.75112],[139.74956,35.75147],[139.74966,35.75152],[139.74986,35.75177],[139.74996,35.75178],[139.75003,35.75191],[139.75013,35.75198],[139.7503,35.75228],[139.75066,35.75232],[139.75079,35.75253],[139.75092,35.75262],[139.75102,35.7536],[139.75137,35.75365],[139.75179,35.75362],[139.75182,35.75375]]]}},{"type":"Feature","properties":{"id":"area-13118006001","name":"東日暮里一丁目"},"geometry":{"type":"Polygon","coordinates":[[[139.79237,35.73141],[139.79217,35.73104],[139.79165,35.73128],[139.79148,35.73126],[139.791,35.73048],[139.79059,35.72993],[139.79002,35.72929],[139.78976,35.7288],[139.78954,35.7286],[139.78884,35.72821],[139.78796,35.72783],[139.78683,35.72777],[139.78688,35.72888],[139.78687,35.72922],[139.78697,35.7301],[139.78696,35.73059],[139.78707,35.73171],[139.78676,35.73211],[139.79237,35.73141]]]}},{"type":"Feature","properties":{"id":"area-13118006002","name":"東日暮里二丁目"},"geometry":{"type":"Polygon","coordinates":[[[139.78683,35.72777],[139.78585,35.72756],[139.78426,35.72772],[139.78291,35.72803],[139.78311,35.72863],[139.78322,35.7291],[139.78338,35.73029],[139.78365,35.73034],[139.7841,35.73244],[139.78511,35.73234],[139.78676,35.73211],[139.78707,35.73171],[139.78696,35.73059],[139.78697,35.7301],[139.78687,35.72922],[139.78688,35.72888],[139.78683,35.72777]]]}},{"type":"Feature","properties":{"id":"area-13118006003","name":"東日暮里三丁目"},"geometry":{"type":"Polygon","coordinates":[[[139.78001,35.73297],[139.78191,35.73274],[139.78241,35.73265],[139.7841,35.73244],[139.78365,35.73034],[139.78338,35.73029],[139.78322,35.7291],[139.78311,35.72863],[139.78291,35.72803],[139.78019,35.72865],[139.77889,35.72862],[139.77873,35.73294],[139.77865,35.73296],[139.77861,35.73291],[139.7786,35.73302],[139.77868,35.73315],[139.77874,35.73319],[139.78001,35.73297]]]}},{"type":"Feature","properties":{"id":"area-13118006004","name":"東日暮里四丁目"},"geometry":{"type":"Polygon","coordinates":[[[139.78267,35.72655],[139.78265,35.72645],[139.7823,35.72647],[139.78224,35.72624],[139.78226,35.72586],[139.78216,35.72577],[139.78214,35.72553],[139.78188,35.72547],[139.78177,35.72538],[139.78128,35.72531],[139.78127,35.72479],[139.78057,35.72478],[139.77936,35.72485],[139.77902,35.7249],[139.77889,35.72862],[139.78019,35.72865],[139.78426,35.72772],[139.78372,35.72758],[139.78332,35.72717],[139.78323,35.72702],[139.78305,35.7269],[139.78299,35.72665],[139.78267,35.72655]]]}},{"type":"Feature","properties":{"id":"area-13118006005","name":"東日暮里五丁目"},"geometry":{"type":"Polygon","coordinates":[[[139.77793,35.72877],[139.77889,35.72862],[139.77902,35.7249],[139.77817,35.72493],[139.77708,35.72521],[139.77678,35.72526],[139.77598,35.72579],[139.7741,35.72662],[139.77349,35.72603],[139.77328,35.72619],[139.77295,35.72595],[139.77285,35.72598],[139.7726,35.72619],[139.7728,35.72633],[139.77246,35.72658],[139.77251,35.72664],[139.77225,35.72686],[139.77219,35.72683],[139.77195,35.72704],[139.7719,35.72703],[139.77158,35.72731],[139.77147,35.72726],[139.7713,35.72741],[139.77194,35.72791],[139.77189,35.72794],[139.77186,35.72814],[139.77192,35.72838],[139.77201,35.72847],[139.77475,35.7286],[139.77663,35.72872],[139.77793,35.72877]]]}},{"type":"Feature","properties":{"id":"area-13118006006","name":"東日暮里六丁目"},"geometry":{"type":"Polygon","coordinates":[[[139.77637,35.73319],[139.77777,35.73306],[139.77778,35.73317],[139.77859,35.73304],[139.77861,35.73291],[139.77865,35.73296],[139.77873,35.73294],[139.77889,35.72862],[139.77791,35.72877],[139.77201,35.72847],[139.77336,35.73005],[139.77385,35.73047],[139.77411,35.73076],[139.77464,35.73161],[139.77511,35.73284],[139.77529,35.73343],[139.77637,35.73319]]]}},{"type":"Feature","properties":{"id":"area-13118007001","name":"西日暮里一丁目"},"geometry":{"type":"Polygon","coordinates":[[[139.77859,35.7341],[139.77868,35.73393],[139.77866,35.73393],[139.77873,35.7335],[139.77874,35.73319],[139.77868,35.73315],[139.7786,35.73302],[139.77778,35.73317],[139.77777,35.73306],[139.77674,35.73315],[139.7761,35.73324],[139.77533,35.73342],[139.7736,35.73362],[139.77359,35.73394],[139.7714,35.73412],[139.77057,35.73424],[139.76968,35.73432],[139.76978,35.73445],[139.77017,35.7347],[139.77465,35.73745],[139.77467,35.73752],[139.77563,35.73733],[139.77709,35.7371],[139.77666,35.73676],[139.77664,35.73664],[139.77859,35.7341]]]}},{"type":"Feature","properties":{"id":"area-13118007002","name":"西日暮里二丁目"},"geometry":{"type":"Polygon","coordinates":[[[139.77348,35.73363],[139.77405,35.73359],[139.77529,35.73343],[139.77511,35.73284],[139.77464,35.73161],[139.77411,35.73076],[139.77385,35.73047],[139.77336,35.73005],[139.77192,35.72838],[139.77186,35.72814],[139.77189,35.72794],[139.77194,35.72791],[139.7713,35.72741],[139.77119,35.7275],[139.77096,35.72731],[139.77008,35.72806],[139.77002,35.72807],[139.77002,35.72832],[139.76944,35.72886],[139.76924,35.72873],[139.76883,35.72909],[139.76891,35.72915],[139.76806,35.73009],[139.76799,35.73021],[139.76799,35.73027],[139.76896,35.73085],[139.76937,35.73098],[139.76952,35.7316],[139.76964,35.73184],[139.76982,35.73209],[139.77032,35.73258],[139.77084,35.73294],[139.7713,35.7332],[139.77192,35.73346],[139.77236,35.73357],[139.77348,35.73363]]]}},{"type":"Feature","properties":{"id":"area-13118007003","name":"西日暮里三丁目"},"geometry":{"type":"Polygon","coordinates":[[[139.76883,35.72909],[139.76924,35.72873],[139.76944,35.72886],[139.77002,35.72832],[139.77002,35.72807],[139.76864,35.72774],[139.76718,35.72733],[139.76668,35.7275],[139.76669,35.72765],[139.76581,35.7277],[139.76578,35.72813],[139.76554,35.72854],[139.76553,35.72867],[139.76558,35.72883],[139.76565,35.72887],[139.76561,35.72907],[139.76563,35.72923],[139.76556,35.72954],[139.76545,35.72967],[139.76509,35.73026],[139.76492,35.73042],[139.76447,35.73074],[139.76431,35.73082],[139.76406,35.73089],[139.76438,35.73108],[139.76431,35.73116],[139.76483,35.73142],[139.76594,35.73192],[139.76646,35.73212],[139.76654,35.7321],[139.76671,35.73182],[139.76711,35.73129],[139.768,35.73038],[139.76799,35.73021],[139.76806,35.73009],[139.76891,35.72915],[139.76883,35.72909]]]}},{"type":"Feature","properties":{"id":"area-13118007004","name":"西日暮里四丁目"},"geometry":{"type":"Polygon","coordinates":[[[139.76515,35.73377],[139.76554,35.73325],[139.76566,35.73331],[139.76581,35.73312],[139.76636,35.73215],[139.76642,35.73219],[139.76646,35.73212],[139.76525,35.73162],[139.76431,35.73116],[139.76438,35.73108],[139.76406,35.73089],[139.76377,35.731],[139.76281,35.73155],[139.76257,35.73163],[139.76221,35.73162],[139.76207,35.73172],[139.76188,35.73172],[139.76164,35.73179],[139.76154,35.73188],[139.76145,35.73214],[139.76132,35.73237],[139.76184,35.73289],[139.76165,35.73308],[139.76177,35.73315],[139.76148,35.73376],[139.76212,35.73397],[139.76234,35.73376],[139.76254,35.73362],[139.7627,35.73371],[139.76285,35.7337],[139.76331,35.73354],[139.76356,35.73368],[139.76358,35.73379],[139.76369,35.73399],[139.76382,35.73416],[139.76407,35.7344],[139.76434,35.7346],[139.76515,35.73377]]]}},{"type":"Feature","properties":{"id":"area-13118007005","name":"西日暮里五丁目"},"geometry":{"type":"Polygon","coordinates":[[[139.76533,35.73539],[139.76534,35.73532],[139.76539,35.73534],[139.76552,35.73529],[139.76662,35.73482],[139.76718,35.73468],[139.76766,35.73458],[139.76958,35.73433],[139.77092,35.7342],[139.7714,35.73412],[139.77359,35.73394],[139.7736,35.73362],[139.7733,35.73363],[139.77236,35.73357],[139.77192,35.73346],[139.7713,35.7332],[139.77084,35.73294],[139.77032,35.73258],[139.76982,35.73209],[139.76964,35.73184],[139.76952,35.7316],[139.76937,35.73098],[139.76896,35.73085],[139.76799,35.73027],[139.768,35.73038],[139.76711,35.73129],[139.76671,35.73182],[139.76654,35.7321],[139.76646,35.73212],[139.76642,35.73219],[139.76636,35.73215],[139.76581,35.73312],[139.76566,35.73331],[139.76554,35.73325],[139.76515,35.73377],[139.76427,35.73469],[139.76351,35.73532],[139.7636,35.73538],[139.76486,35.73581],[139.76482,35.73575],[139.76495,35.73564],[139.76533,35.73539]]]}},{"type":"Feature","properties":{"id":"area-13118007006","name":"西日暮里六丁目"},"geometry":{"type":"Polygon","coordinates":[[[139.77465,35.73746],[139.77017,35.7347],[139.76978,35.73445],[139.76968,35.73432],[139.76766,35.73458],[139.76662,35.73482],[139.76552,35.73529],[139.76539,35.73534],[139.76534,35.73532],[139.76533,35.73539],[139.76482,35.73575],[139.76486,35.73581],[139.76546,35.73611],[139.76588,35.73623],[139.76976,35.73759],[139.77087,35.73795],[139.77069,35.73818],[139.77122,35.73807],[139.77459,35.73753],[139.77465,35.73746]]]}}]}