{"type":"FeatureCollection","features":[{"type":"Feature","properties":{"id":"area-13114001001","name":"南台一丁目"},"geometry":{"type":"Polygon","coordinates":[[[139.6738,35.68351],[139.67336,35.68328],[139.67321,35.68341],[139.67292,35.68385],[139.67243,35.68642],[139.67461,35.68655],[139.67813,35.68759],[139.6778,35.68736],[139.67699,35.68672],[139.67628,35.68622],[139.67585,35.68578],[139.67521,35.68475],[139.67527,35.68467],[139.67485,35.6845],[139.67492,35.68441],[139.67461,35.68416],[139.67423,35.6837],[139.67408,35.68359],[139.6738,35.68351]]]}},{"type":"Feature","properties":{"id":"area-13114001002","name":"南台二丁目"},"geometry":{"type":"Polygon","coordinates":[[[139.67049,35.6811],[139.6696,35.68079],[139.66953,35.68115],[139.66943,35.68277],[139.66908,35.68617],[139.67243,35.68642],[139.67292,35.68385],[139.67321,35.68341],[139.67336,35.68328],[139.67189,35.68214],[139.67134,35.6815],[139.67049,35.6811]]]}},{"type":"Feature","properties":{"id":"area-13114001003","name":"南台三丁目"},"geometry":{"type":"Polygon","coordinates":[[[139.66908,35.68617],[139.66944,35.68267],[139.66902,35.68247],[139.6685,35.68268],[139.66811,35.68279],[139.66779,35.68283],[139.66717,35.68303],[139.66703,35.68303],[139.66699,35.68295],[139.6664,35.68317],[139.6661,35.68295],[139.66568,35.68208],[139.66404,35.6821],[139.66383,35.68213],[139.66366,35.68225],[139.66332,35.68288],[139.66312,35.6831],[139.66236,35.68329],[139.66195,35.68332],[139.6625,35.68479],[139.66735,35.68612],[139.66908,35.68617]]]}},{"type":"Feature","properties":{"id":"area-13114001004","name":"南台四丁目"},"geometry":{"type":"Polygon","coordinates":[[[139.6664,35.68317],[139.66699,35.68295],[139.66703,35.68303],[139.66717,35.68303],[139.66779,35.68283],[139.66811,35.68279],[139.6685,35.68268],[139.66902,35.68247],[139.66944,35.68267],[139.66953,35.68115],[139.6696,35.68079],[139.66944,35.68072],[139.66912,35.68068],[139.66888,35.68058],[139.66851,35.68034],[139.66835,35.68031],[139.66827,35.68033],[139.66791,35.68021],[139.66741,35.67991],[139.66755,35.67977],[139.66672,35.67898],[139.66637,35.67871],[139.66619,35.67838],[139.66601,35.67825],[139.66562,35.67747],[139.6653,35.67708],[139.6651,35.67695],[139.66401,35.67656],[139.66368,35.67727],[139.66352,35.67722],[139.66341,35.67761],[139.6634,35.67802],[139.66362,35.67794],[139.66453,35.67774],[139.6646,35.67794],[139.66473,35.67794],[139.66481,35.67891],[139.66384,35.67888],[139.66386,35.67904],[139.66397,35.67936],[139.66397,35.67956],[139.66372,35.67983],[139.66344,35.68029],[139.66345,35.68042],[139.66478,35.68051],[139.66486,35.68056],[139.66498,35.68092],[139.66554,35.68139],[139.66555,35.68164],[139.66566,35.68187],[139.66568,35.68208],[139.66595,35.68263],[139.6661,35.68295],[139.6664,35.68317]]]}},{"type":"Feature","properties":{"id":"area-13114001005","name":"南台五丁目"},"geometry":{"type":"Polygon","coordinates":[[[139.6625,35.68479],[139.66195,35.68332],[139.66236,35.68329],[139.66312,35.6831],[139.66332,35.68288],[139.66366,35.68225],[139.66383,35.68213],[139.66404,35.6821],[139.66568,35.68208],[139.66566,35.68187],[139.66555,35.68164],[139.66554,35.68139],[139.66498,35.68092],[139.66486,35.68056],[139.66478,35.68051],[139.66345,35.68042],[139.66344,35.68029],[139.66372,35.67983],[139.66388,35.67963],[139.66378,35.67958],[139.66305,35.6796],[139.66297,35.67953],[139.6629,35.67953],[139.66271,35.67962],[139.66251,35.67958],[139.6624,35.6797],[139.6622,35.67984],[139.66202,35.67982],[139.66191,35.67999],[139.66169,35.68023],[139.66166,35.68038],[139.65985,35.6798],[139.65975,35.6798],[139.65953,35.67988],[139.65935,35.68003],[139.65936,35.68008],[139.65946,35.68011],[139.6595,35.68008],[139.65959,35.68008],[139.65978,35.68026],[139.6597,35.68031],[139.65973,35.68039],[139.65982,35.6804],[139.66007,35.6805],[139.66024,35.68075],[139.66045,35.68087],[139.66061,35.68111],[139.66057,35.68113],[139.66059,35.68116],[139.66034,35.68127],[139.66011,35.68132],[139.66019,35.6817],[139.65993,35.68176],[139.66001,35.68204],[139.6596,35.68217],[139.65935,35.6822],[139.6594,35.68261],[139.65942,35.68317],[139.65926,35.68319],[139.65943,35.68353],[139.65958,35.68365],[139.65995,35.68365],[139.65999,35.68384],[139.66016,35.68414],[139.6625,35.68479]]]}},{"type":"Feature","properties":{"id":"area-13114002001","name":"弥生町一丁目"},"geometry":{"type":"Polygon","coordinates":[[[139.68093,35.69202],[139.68125,35.69201],[139.68219,35.69213],[139.68279,35.69226],[139.68356,35.69254],[139.68372,35.69211],[139.6835,35.69209],[139.68342,35.69206],[139.68262,35.6913],[139.6818,35.69071],[139.68136,35.69054],[139.68112,35.69028],[139.6802,35.68954],[139.67979,35.68893],[139.67965,35.68885],[139.67955,35.68873],[139.67951,35.68873],[139.67905,35.68828],[139.67846,35.68777],[139.67813,35.68759],[139.67631,35.68706],[139.67622,35.68749],[139.67617,35.68812],[139.67599,35.68909],[139.67595,35.68968],[139.67595,35.69017],[139.67705,35.69015],[139.67692,35.69314],[139.6774,35.69306],[139.68047,35.69209],[139.68093,35.69202]]]}},{"type":"Feature","properties":{"id":"area-13114002002","name":"弥生町二丁目"},"geometry":{"type":"Polygon","coordinates":[[[139.67692,35.69314],[139.67705,35.69015],[139.67417,35.69019],[139.67403,35.68991],[139.67313,35.69006],[139.67233,35.69009],[139.67102,35.69001],[139.66998,35.68989],[139.66907,35.69006],[139.66914,35.69055],[139.66904,35.69132],[139.67079,35.69149],[139.67138,35.69158],[139.67202,35.69184],[139.6744,35.69309],[139.67692,35.69314]]]}},{"type":"Feature","properties":{"id":"area-13114002003","name":"弥生町三丁目"},"geometry":{"type":"Polygon","coordinates":[[[139.67461,35.68655],[139.67248,35.68643],[139.6721,35.68736],[139.67393,35.68976],[139.67417,35.69019],[139.67595,35.69017],[139.67595,35.68968],[139.67599,35.68909],[139.67617,35.68812],[139.67622,35.68749],[139.67631,35.68706],[139.67461,35.68655]]]}},{"type":"Feature","properties":{"id":"area-13114002004","name":"弥生町四丁目"},"geometry":{"type":"Polygon","coordinates":[[[139.67403,35.68991],[139.6721,35.68736],[139.67248,35.68643],[139.66908,35.68617],[139.66879,35.68882],[139.66897,35.68973],[139.66907,35.69006],[139.66998,35.68989],[139.67102,35.69001],[139.67233,35.69009],[139.67313,35.69006],[139.67403,35.68991]]]}},{"type":"Feature","properties":{"id":"area-13114002005","name":"弥生町五丁目"},"geometry":{"type":"Polygon","coordinates":[[[139.6625,35.68479],[139.66342,35.68719],[139.66343,35.68802],[139.66364,35.68842],[139.66376,35.68884],[139.66386,35.68904],[139.66437,35.68938],[139.66636,35.69041],[139.66681,35.69084],[139.667,35.69092],[139.667,35.69095],[139.6672,35.69106],[139.6675,35.69113],[139.66904,35.69132],[139.66914,35.69055],[139.66912,35.69032],[139.66879,35.68882],[139.66908,35.68617],[139.66735,35.68612],[139.6625,35.68479]]]}},{"type":"Feature","properties":{"id":"area-13114002006","name":"弥生町六丁目"},"geometry":{"type":"Polygon","coordinates":[[[139.66342,35.68719],[139.66249,35.68479],[139.66052,35.68423],[139.6602,35.6849],[139.65988,35.68478],[139.65979,35.68493],[139.65979,35.68512],[139.65938,35.68514],[139.65954,35.68572],[139.65943,35.6858],[139.65931,35.68601],[139.6592,35.68603],[139.65916,35.68664],[139.65918,35.68669],[139.66087,35.68676],[139.66127,35.68685],[139.66343,35.68802],[139.66342,35.68719]]]}},{"type":"Feature","properties":{"id":"area-13114003001","name":"本町一丁目"},"geometry":{"type":"Polygon","coordinates":[[[139.68279,35.69226],[139.6819,35.69208],[139.68248,35.69505],[139.6829,35.69701],[139.685,35.69654],[139.68627,35.69648],[139.68664,35.69642],[139.68637,35.69596],[139.68554,35.69422],[139.68529,35.69389],[139.6851,35.69369],[139.68421,35.69292],[139.68356,35.69254],[139.68279,35.69226]]]}},{"type":"Feature","properties":{"id":"area-13114003002","name":"本町二丁目"},"geometry":{"type":"Polygon","coordinates":[[[139.6819,35.69208],[139.68099,35.69201],[139.68047,35.69209],[139.67793,35.69289],[139.67813,35.6933],[139.67819,35.69334],[139.6781,35.69346],[139.67799,35.69353],[139.67784,35.6938],[139.67763,35.69402],[139.67762,35.69457],[139.67777,35.69514],[139.67821,35.69618],[139.6787,35.69674],[139.67866,35.69749],[139.6829,35.69701],[139.68248,35.69505],[139.6819,35.69208]]]}},{"type":"Feature","properties":{"id":"area-13114003003","name":"本町三丁目"},"geometry":{"type":"Polygon","coordinates":[[[139.6781,35.69324],[139.67793,35.69289],[139.6774,35.69306],[139.67692,35.69314],[139.67445,35.6931],[139.67435,35.694],[139.67376,35.69764],[139.67575,35.69772],[139.67625,35.69771],[139.67866,35.69749],[139.6787,35.69674],[139.67821,35.69618],[139.67777,35.69514],[139.67762,35.69457],[139.67763,35.69402],[139.67784,35.6938],[139.67799,35.69353],[139.6781,35.69346],[139.67819,35.69334],[139.6781,35.69324]]]}},{"type":"Feature","properties":{"id":"area-13114003004","name":"本町四丁目"},"geometry":{"type":"Polygon","coordinates":[[[139.67376,35.69764],[139.67435,35.69401],[139.67409,35.69406],[139.67367,35.69404],[139.67318,35.69413],[139.67297,35.69412],[139.67216,35.69389],[139.67192,35.69385],[139.67125,35.69426],[139.67116,35.69428],[139.67081,35.69412],[139.66936,35.69403],[139.66887,35.69397],[139.66849,35.69388],[139.66842,35.69421],[139.66816,35.69448],[139.66718,35.69592],[139.66741,35.69745],[139.67376,35.69764]]]}},{"type":"Feature","properties":{"id":"area-13114003005","name":"本町五丁目"},"geometry":{"type":"Polygon","coordinates":[[[139.66842,35.69421],[139.66849,35.69388],[139.66887,35.69397],[139.66936,35.69403],[139.67081,35.69412],[139.67116,35.69428],[139.67125,35.69426],[139.67192,35.69385],[139.67216,35.69389],[139.67297,35.69412],[139.67318,35.69413],[139.67367,35.69404],[139.67409,35.69406],[139.67435,35.69401],[139.67445,35.6931],[139.67231,35.69201],[139.67202,35.69184],[139.67138,35.69158],[139.6675,35.69113],[139.6672,35.69106],[139.667,35.69095],[139.66696,35.69119],[139.66781,35.69137],[139.66769,35.69187],[139.66752,35.69186],[139.66732,35.69281],[139.66727,35.69329],[139.66739,35.69375],[139.6683,35.69433],[139.66842,35.69421]]]}},{"type":"Feature","properties":{"id":"area-13114003006","name":"本町六丁目"},"geometry":{"type":"Polygon","coordinates":[[[139.66312,35.69744],[139.66741,35.69744],[139.66718,35.69592],[139.66816,35.69448],[139.6683,35.69433],[139.66738,35.69375],[139.66689,35.6935],[139.6667,35.69346],[139.66656,35.69374],[139.66649,35.69372],[139.66638,35.69402],[139.66587,35.69479],[139.66542,35.69465],[139.66507,35.69525],[139.66492,35.69538],[139.66472,35.69533],[139.66455,35.69533],[139.66445,35.69542],[139.66422,35.69537],[139.66373,35.69534],[139.66279,35.69523],[139.66217,35.6952],[139.66145,35.69506],[139.66096,35.69483],[139.66084,35.69546],[139.66038,35.69646],[139.66105,35.6966],[139.66098,35.69689],[139.66097,35.69719],[139.66193,35.697],[139.66199,35.69738],[139.66197,35.69748],[139.66312,35.69744]]]}},{"type":"Feature","properties":{"id":"area-13114004001","name":"中央一丁目"},"geometry":{"type":"Polygon","coordinates":[[[139.68684,35.69691],[139.68664,35.69642],[139.68627,35.69648],[139.685,35.69654],[139.6829,35.69701],[139.68305,35.70025],[139.68301,35.70069],[139.68295,35.70095],[139.6829,35.70104],[139.68588,35.70156],[139.6875,35.70161],[139.68761,35.70135],[139.68824,35.7003],[139.68832,35.70002],[139.68837,35.69969],[139.68835,35.69922],[139.68826,35.69883],[139.68807,35.69847],[139.6878,35.6981],[139.68731,35.69758],[139.68684,35.69691]]]}},{"type":"Feature","properties":{"id":"area-13114004002","name":"中央二丁目"},"geometry":{"type":"Polygon","coordinates":[[[139.67571,35.70192],[139.68155,35.70086],[139.68169,35.70088],[139.68284,35.70106],[139.6829,35.70104],[139.68295,35.70095],[139.68301,35.70069],[139.68305,35.70025],[139.6829,35.69701],[139.67866,35.69749],[139.67657,35.69769],[139.67578,35.69772],[139.67566,35.69877],[139.67565,35.69925],[139.67548,35.69991],[139.67544,35.70023],[139.67556,35.70143],[139.67571,35.70192]]]}},{"type":"Feature","properties":{"id":"area-13114004003","name":"中央三丁目"},"geometry":{"type":"Polygon","coordinates":[[[139.67568,35.69863],[139.67578,35.69772],[139.67095,35.69754],[139.67081,35.69892],[139.67094,35.69998],[139.67097,35.70007],[139.67124,35.70038],[139.67149,35.7006],[139.67178,35.70077],[139.67196,35.70093],[139.67205,35.7011],[139.67208,35.70126],[139.67208,35.70185],[139.67192,35.7025],[139.67443,35.7022],[139.67571,35.70192],[139.67556,35.70143],[139.67544,35.70023],[139.67548,35.69991],[139.67565,35.69925],[139.67568,35.69863]]]}},{"type":"Feature","properties":{"id":"area-13114004004","name":"中央四丁目"},"geometry":{"type":"Polygon","coordinates":[[[139.67095,35.69754],[139.66738,35.69744],[139.66757,35.69896],[139.66758,35.69929],[139.66691,35.70126],[139.66677,35.7015],[139.66644,35.7019],[139.66558,35.70268],[139.66582,35.70288],[139.66606,35.70303],[139.66616,35.70306],[139.66989,35.70261],[139.67192,35.7025],[139.67208,35.70185],[139.67208,35.70126],[139.67205,35.7011],[139.67196,35.70093],[139.67178,35.70077],[139.67149,35.7006],[139.67124,35.70038],[139.67097,35.70007],[139.67094,35.69998],[139.67081,35.69892],[139.67095,35.69754]]]}},{"type":"Feature","properties":{"id":"area-13114004005","name":"中央五丁目"},"geometry":{"type":"Polygon","coordinates":[[[139.66757,35.69896],[139.66738,35.69744],[139.66329,35.69744],[139.66244,35.69745],[139.66197,35.69748],[139.662,35.6977],[139.66212,35.69804],[139.66222,35.69812],[139.66237,35.69836],[139.6624,35.69869],[139.66234,35.69892],[139.66218,35.69922],[139.66217,35.69931],[139.6618,35.69932],[139.66186,35.69954],[139.66197,35.69976],[139.66197,35.69999],[139.66177,35.70006],[139.66178,35.70022],[139.66414,35.70034],[139.66436,35.70045],[139.66485,35.70114],[139.6652,35.70185],[139.66533,35.70229],[139.66558,35.70268],[139.66621,35.70212],[139.66654,35.70178],[139.66677,35.7015],[139.66696,35.70112],[139.66758,35.69929],[139.66757,35.69896]]]}},{"type":"Feature","properties":{"id":"area-13114005001","name":"東中野一丁目"},"geometry":{"type":"Polygon","coordinates":[[[139.68805,35.70608],[139.68775,35.70519],[139.68752,35.70438],[139.68743,35.70382],[139.68738,35.70231],[139.68741,35.70183],[139.6875,35.70161],[139.68588,35.70156],[139.6829,35.70104],[139.68284,35.70106],[139.68247,35.70161],[139.68236,35.70188],[139.68232,35.70208],[139.68234,35.70273],[139.68273,35.70612],[139.68279,35.70615],[139.68366,35.70612],[139.68379,35.70607],[139.68399,35.70614],[139.68581,35.70617],[139.68614,35.70607],[139.68639,35.70608],[139.68668,35.70623],[139.68805,35.70608]]]}},{"type":"Feature","properties":{"id":"area-13114005002","name":"東中野二丁目"},"geometry":{"type":"Polygon","coordinates":[[[139.67872,35.70604],[139.68055,35.70603],[139.68147,35.7061],[139.68273,35.70612],[139.68234,35.70273],[139.68232,35.70208],[139.68236,35.70188],[139.68247,35.70161],[139.68284,35.70106],[139.68155,35.70086],[139.68057,35.70103],[139.68064,35.70139],[139.68012,35.70159],[139.67955,35.70197],[139.67905,35.7022],[139.67893,35.70245],[139.67864,35.70275],[139.67848,35.70281],[139.67836,35.70297],[139.67826,35.70319],[139.67804,35.70378],[139.6779,35.70428],[139.67808,35.70439],[139.67755,35.70504],[139.6774,35.70531],[139.67715,35.70525],[139.67686,35.70563],[139.67644,35.70605],[139.6787,35.70616],[139.67872,35.70604]]]}},{"type":"Feature","properties":{"id":"area-13114005003","name":"東中野三丁目"},"geometry":{"type":"Polygon","coordinates":[[[139.68458,35.71033],[139.68284,35.70651],[139.68279,35.70615],[139.68273,35.70612],[139.68245,35.70611],[139.68147,35.7061],[139.68055,35.70603],[139.67872,35.70604],[139.67869,35.70653],[139.6786,35.70686],[139.67856,35.7069],[139.67858,35.70718],[139.67862,35.70726],[139.67876,35.70739],[139.67908,35.70838],[139.67903,35.70842],[139.67915,35.70845],[139.67973,35.70877],[139.6824,35.70995],[139.68321,35.71007],[139.68458,35.71033]]]}},{"type":"Feature","properties":{"id":"area-13114005004","name":"東中野四丁目"},"geometry":{"type":"Polygon","coordinates":[[[139.68663,35.70622],[139.68651,35.70613],[139.68639,35.70608],[139.68614,35.70607],[139.68581,35.70617],[139.68399,35.70614],[139.68379,35.70607],[139.68366,35.70612],[139.68279,35.70615],[139.68284,35.70651],[139.68458,35.71033],[139.6849,35.71038],[139.68737,35.71099],[139.68825,35.71117],[139.68966,35.71128],[139.68721,35.70884],[139.6865,35.7082],[139.68626,35.70786],[139.68617,35.70755],[139.68615,35.70735],[139.68621,35.70705],[139.68638,35.70643],[139.68663,35.70622]]]}},{"type":"Feature","properties":{"id":"area-13114005005","name":"東中野五丁目"},"geometry":{"type":"Polygon","coordinates":[[[139.69006,35.71079],[139.69112,35.71049],[139.6912,35.71078],[139.69145,35.71073],[139.69145,35.71089],[139.69153,35.71105],[139.69254,35.7106],[139.69265,35.71081],[139.69273,35.71119],[139.69429,35.71101],[139.69417,35.71077],[139.69375,35.71028],[139.69344,35.70996],[139.69301,35.70965],[139.69272,35.70954],[139.69205,35.70935],[139.6919,35.70928],[139.69114,35.70873],[139.68883,35.7075],[139.68856,35.70731],[139.68839,35.70706],[139.68805,35.70608],[139.68663,35.70622],[139.68638,35.70643],[139.68615,35.70735],[139.68621,35.70772],[139.68626,35.70786],[139.68641,35.70811],[139.68721,35.70884],[139.68966,35.71128],[139.69011,35.71131],[139.69003,35.71083],[139.69006,35.71079]]]}},{"type":"Feature","properties":{"id":"area-13114006001","name":"中野一丁目"},"geometry":{"type":"Polygon","coordinates":[[[139.67713,35.70527],[139.6774,35.70531],[139.67755,35.70504],[139.67808,35.70439],[139.6779,35.70428],[139.67804,35.70378],[139.67826,35.70319],[139.67836,35.70297],[139.67848,35.70281],[139.67864,35.70275],[139.67893,35.70245],[139.67905,35.7022],[139.67955,35.70197],[139.68012,35.70159],[139.68064,35.70139],[139.68057,35.70103],[139.67571,35.70192],[139.67443,35.7022],[139.67193,35.70251],[139.6718,35.70312],[139.67179,35.70369],[139.67272,35.70467],[139.67276,35.70476],[139.6728,35.70508],[139.67272,35.70595],[139.67644,35.70605],[139.67686,35.70563],[139.67713,35.70527]]]}},{"type":"Feature","properties":{"id":"area-13114006002","name":"中野二丁目"},"geometry":{"type":"Polygon","coordinates":[[[139.6718,35.70312],[139.67192,35.7025],[139.66989,35.70261],[139.66616,35.70306],[139.66606,35.70303],[139.66582,35.70288],[139.66558,35.70268],[139.66555,35.70296],[139.66551,35.70305],[139.6654,35.70533],[139.66605,35.70535],[139.66604,35.7055],[139.66758,35.70553],[139.66768,35.70555],[139.66768,35.7056],[139.67273,35.70587],[139.6728,35.70508],[139.67276,35.70476],[139.67272,35.70467],[139.67179,35.70369],[139.6718,35.70312]]]}},{"type":"Feature","properties":{"id":"area-13114006003","name":"中野三丁目"},"geometry":{"type":"Polygon","coordinates":[[[139.66429,35.70545],[139.66444,35.70542],[139.66546,35.70545],[139.66547,35.70533],[139.6654,35.70533],[139.66551,35.70305],[139.66555,35.70296],[139.66558,35.70268],[139.66533,35.70229],[139.6652,35.70185],[139.66485,35.70114],[139.66464,35.70083],[139.66436,35.70045],[139.66414,35.70034],[139.66178,35.70022],[139.66155,35.70022],[139.66155,35.70068],[139.66151,35.70099],[139.66145,35.70118],[139.66134,35.70134],[139.66108,35.70141],[139.66085,35.70136],[139.66071,35.70137],[139.66085,35.70162],[139.66102,35.70229],[139.66115,35.70251],[139.66099,35.7048],[139.65927,35.70499],[139.65801,35.70516],[139.658,35.70518],[139.65817,35.70545],[139.66086,35.70551],[139.66429,35.70545]]]}},{"type":"Feature","properties":{"id":"area-13114006004","name":"中野四丁目"},"geometry":{"type":"Polygon","coordinates":[[[139.66494,35.70997],[139.665,35.70991],[139.66514,35.70849],[139.6651,35.70838],[139.66537,35.70609],[139.66542,35.70607],[139.66546,35.70545],[139.66444,35.70542],[139.66429,35.70545],[139.66086,35.70551],[139.65817,35.70545],[139.6582,35.7056],[139.65804,35.7076],[139.65801,35.7092],[139.6575,35.70919],[139.65749,35.7098],[139.66494,35.70997]]]}},{"type":"Feature","properties":{"id":"area-13114006005","name":"中野五丁目"},"geometry":{"type":"Polygon","coordinates":[[[139.6667,35.71001],[139.66707,35.70995],[139.66946,35.70981],[139.67301,35.70917],[139.67276,35.70868],[139.67271,35.70847],[139.67264,35.70688],[139.67265,35.70665],[139.67275,35.70623],[139.67273,35.70587],[139.66768,35.7056],[139.66768,35.70555],[139.66758,35.70553],[139.66604,35.7055],[139.66605,35.70535],[139.66547,35.70533],[139.66542,35.70607],[139.66537,35.70609],[139.6651,35.70838],[139.66514,35.70849],[139.665,35.70991],[139.66494,35.70997],[139.66638,35.70997],[139.66636,35.71],[139.6667,35.71001]]]}},{"type":"Feature","properties":{"id":"area-13114006006","name":"中野六丁目"},"geometry":{"type":"Polygon","coordinates":[[[139.67665,35.70837],[139.67883,35.70838],[139.67903,35.70842],[139.67908,35.70838],[139.67876,35.70739],[139.67862,35.70726],[139.67858,35.70718],[139.67856,35.7069],[139.6786,35.70686],[139.67869,35.70653],[139.6787,35.70616],[139.67644,35.70605],[139.67275,35.70595],[139.67275,35.70623],[139.67265,35.70665],[139.67264,35.70688],[139.67271,35.70847],[139.67276,35.70868],[139.67301,35.70917],[139.67665,35.70837]]]}},{"type":"Feature","properties":{"id":"area-13114007001","name":"上高田一丁目"},"geometry":{"type":"Polygon","coordinates":[[[139.67666,35.71204],[139.67759,35.71199],[139.67794,35.71202],[139.67957,35.71117],[139.6802,35.71104],[139.68059,35.7111],[139.68083,35.71108],[139.68119,35.71099],[139.68178,35.71075],[139.68274,35.71001],[139.6824,35.70995],[139.68217,35.70987],[139.67973,35.70877],[139.67915,35.70845],[139.67883,35.70838],[139.67665,35.70837],[139.67301,35.70917],[139.67337,35.71069],[139.67368,35.71157],[139.67383,35.71186],[139.67391,35.7124],[139.67413,35.71281],[139.67613,35.71214],[139.67666,35.71204]]]}},{"type":"Feature","properties":{"id":"area-13114007002","name":"上高田二丁目"},"geometry":{"type":"Polygon","coordinates":[[[139.67337,35.71069],[139.67301,35.70917],[139.67047,35.70962],[139.66963,35.71098],[139.66942,35.71143],[139.66935,35.71175],[139.6693,35.71182],[139.66842,35.71292],[139.66817,35.71311],[139.67005,35.7146],[139.6701,35.71473],[139.67113,35.71425],[139.67238,35.71357],[139.67334,35.71312],[139.67413,35.71281],[139.67391,35.7124],[139.67383,35.71186],[139.67368,35.71157],[139.67337,35.71069]]]}},{"type":"Feature","properties":{"id":"area-13114007003","name":"上高田三丁目"},"geometry":{"type":"Polygon","coordinates":[[[139.67142,35.716],[139.67217,35.71562],[139.67226,35.71582],[139.67297,35.71564],[139.6732,35.71562],[139.67354,35.71561],[139.67448,35.71569],[139.67584,35.71388],[139.67657,35.71296],[139.67708,35.71253],[139.67793,35.71202],[139.67733,35.71199],[139.67684,35.71202],[139.67613,35.71214],[139.67413,35.71281],[139.67334,35.71312],[139.67238,35.71357],[139.67113,35.71425],[139.6701,35.71473],[139.67142,35.716]]]}},{"type":"Feature","properties":{"id":"area-13114007004","name":"上高田四丁目"},"geometry":{"type":"Polygon","coordinates":[[[139.67966,35.7143],[139.67997,35.71415],[139.68033,35.71457],[139.68084,35.71451],[139.6808,35.71402],[139.68137,35.71406],[139.68184,35.71413],[139.68187,35.71391],[139.6811,35.71371],[139.6811,35.71349],[139.681,35.71344],[139.68102,35.71327],[139.68129,35.71322],[139.68134,35.71329],[139.68157,35.71333],[139.68201,35.7133],[139.68202,35.71313],[139.68188,35.71292],[139.68156,35.71254],[139.68137,35.71235],[139.68122,35.71215],[139.68097,35.71203],[139.68085,35.71194],[139.6808,35.71186],[139.68085,35.71169],[139.68083,35.71165],[139.68062,35.71148],[139.68008,35.71138],[139.68002,35.7113],[139.68004,35.71106],[139.6795,35.7112],[139.67793,35.71202],[139.67708,35.71253],[139.67657,35.71296],[139.67639,35.71317],[139.67448,35.71569],[139.67524,35.7158],[139.67649,35.71586],[139.67763,35.71578],[139.67813,35.71571],[139.67909,35.71552],[139.67905,35.71527],[139.67906,35.71509],[139.67916,35.71482],[139.67925,35.71469],[139.67966,35.7143]]]}},{"type":"Feature","properties":{"id":"area-13114007005","name":"上高田五丁目"},"geometry":{"type":"Polygon","coordinates":[[[139.67573,35.7196],[139.67634,35.71947],[139.67642,35.71966],[139.67667,35.7196],[139.67696,35.71947],[139.67726,35.71927],[139.67758,35.71897],[139.67836,35.71815],[139.67879,35.71818],[139.67892,35.71814],[139.6789,35.71797],[139.67893,35.71772],[139.67915,35.71697],[139.67907,35.71692],[139.67921,35.7166],[139.67937,35.71664],[139.67942,35.71661],[139.67955,35.71632],[139.67927,35.71572],[139.67914,35.71572],[139.67909,35.71552],[139.67813,35.71571],[139.67763,35.71578],[139.67649,35.71586],[139.67524,35.7158],[139.67354,35.71561],[139.67297,35.71564],[139.67226,35.71582],[139.67217,35.71562],[139.67193,35.71572],[139.67142,35.716],[139.67193,35.7165],[139.67225,35.71691],[139.67256,35.71736],[139.67322,35.71854],[139.67339,35.71874],[139.67343,35.71847],[139.6737,35.71853],[139.67533,35.71907],[139.67524,35.71925],[139.6752,35.71947],[139.67523,35.71984],[139.67532,35.72002],[139.67562,35.71989],[139.67559,35.71983],[139.6757,35.71979],[139.67566,35.71964],[139.67573,35.7196]]]}},{"type":"Feature","properties":{"id":"area-13114008001","name":"新井一丁目"},"geometry":{"type":"Polygon","coordinates":[[[139.66963,35.71098],[139.67047,35.70962],[139.66946,35.70981],[139.66707,35.70995],[139.6667,35.71001],[139.66636,35.71],[139.66638,35.70997],[139.66495,35.70998],[139.66538,35.71109],[139.6659,35.71303],[139.6662,35.71429],[139.6665,35.71456],[139.66791,35.71326],[139.66842,35.71292],[139.66913,35.71205],[139.66935,35.71175],[139.66942,35.71143],[139.66963,35.71098]]]}},{"type":"Feature","properties":{"id":"area-13114008002","name":"新井二丁目"},"geometry":{"type":"Polygon","coordinates":[[[139.6659,35.71303],[139.66538,35.71109],[139.66495,35.70998],[139.66035,35.70987],[139.6602,35.7114],[139.66021,35.71212],[139.66,35.71289],[139.65995,35.71336],[139.66022,35.71332],[139.66067,35.71313],[139.66089,35.71308],[139.66148,35.71304],[139.66171,35.71295],[139.66201,35.71317],[139.66263,35.71336],[139.66289,35.71341],[139.66318,35.71341],[139.66533,35.71393],[139.66554,35.71399],[139.6662,35.71429],[139.6659,35.71303]]]}},{"type":"Feature","properties":{"id":"area-13114008003","name":"新井三丁目"},"geometry":{"type":"Polygon","coordinates":[[[139.66341,35.71823],[139.66353,35.71712],[139.66379,35.71706],[139.66462,35.71604],[139.66618,35.71429],[139.66554,35.71399],[139.66533,35.71393],[139.66318,35.71341],[139.66289,35.71341],[139.66263,35.71336],[139.66201,35.71317],[139.66171,35.71295],[139.66148,35.71304],[139.66089,35.71308],[139.66067,35.71313],[139.66022,35.71332],[139.65991,35.71335],[139.65943,35.71404],[139.65929,35.71429],[139.65867,35.71562],[139.65937,35.71597],[139.65954,35.71627],[139.65998,35.71669],[139.6602,35.71683],[139.66058,35.717],[139.66231,35.71826],[139.66259,35.71814],[139.66288,35.71816],[139.66315,35.71838],[139.66321,35.71859],[139.66354,35.71886],[139.66341,35.71823]]]}},{"type":"Feature","properties":{"id":"area-13114008004","name":"新井四丁目"},"geometry":{"type":"Polygon","coordinates":[[[139.66354,35.71886],[139.66383,35.71875],[139.6645,35.71874],[139.66471,35.71866],[139.66484,35.7185],[139.66501,35.71815],[139.66516,35.718],[139.6659,35.71754],[139.66625,35.71744],[139.66694,35.71737],[139.66746,35.71742],[139.66778,35.71749],[139.66809,35.71763],[139.66849,35.71793],[139.66924,35.71749],[139.66867,35.71662],[139.66837,35.71622],[139.66653,35.71453],[139.6665,35.71456],[139.66618,35.71429],[139.66462,35.71604],[139.66379,35.71706],[139.66353,35.71712],[139.66341,35.71823],[139.66354,35.71886]]]}},{"type":"Feature","properties":{"id":"area-13114008005","name":"新井五丁目"},"geometry":{"type":"Polygon","coordinates":[[[139.67005,35.7146],[139.66817,35.71311],[139.66791,35.71326],[139.66653,35.71453],[139.66837,35.71622],[139.66867,35.71662],[139.66924,35.71749],[139.67157,35.71614],[139.67037,35.715],[139.6701,35.71473],[139.67005,35.7146]]]}},{"type":"Feature","properties":{"id":"area-13114009001","name":"沼袋一丁目"},"geometry":{"type":"Polygon","coordinates":[[[139.66889,35.72126],[139.66919,35.71957],[139.66917,35.7191],[139.66904,35.71862],[139.66875,35.71822],[139.66849,35.71793],[139.66809,35.71763],[139.66778,35.71749],[139.66746,35.71742],[139.66694,35.71737],[139.66625,35.71744],[139.66599,35.71751],[139.66556,35.71774],[139.66516,35.718],[139.66501,35.71815],[139.66484,35.7185],[139.66471,35.71866],[139.6645,35.71874],[139.66383,35.71875],[139.66354,35.71886],[139.66355,35.71902],[139.66274,35.72105],[139.66275,35.7211],[139.66321,35.72116],[139.66384,35.72118],[139.664,35.72111],[139.66411,35.72088],[139.66442,35.72079],[139.66571,35.72054],[139.66595,35.72063],[139.66629,35.72105],[139.6664,35.72114],[139.66688,35.72104],[139.66731,35.72102],[139.66889,35.72126]]]}},{"type":"Feature","properties":{"id":"area-13114009002","name":"沼袋二丁目"},"geometry":{"type":"Polygon","coordinates":[[[139.6687,35.72399],[139.66885,35.7231],[139.6687,35.72279],[139.66865,35.72251],[139.66889,35.72126],[139.66731,35.72102],[139.66688,35.72104],[139.6664,35.72114],[139.66629,35.72105],[139.66595,35.72063],[139.66571,35.72054],[139.66442,35.72079],[139.66411,35.72088],[139.664,35.72111],[139.66384,35.72118],[139.6635,35.72118],[139.66275,35.7211],[139.66278,35.72224],[139.66268,35.72385],[139.66548,35.72389],[139.6687,35.72399]]]}},{"type":"Feature","properties":{"id":"area-13114009003","name":"沼袋三丁目"},"geometry":{"type":"Polygon","coordinates":[[[139.66274,35.72105],[139.66355,35.71902],[139.66354,35.71886],[139.66321,35.71859],[139.66315,35.71838],[139.66288,35.71816],[139.66259,35.71814],[139.66231,35.71826],[139.66058,35.717],[139.6602,35.71683],[139.65998,35.71669],[139.65954,35.71627],[139.65937,35.71597],[139.65867,35.71562],[139.65825,35.71625],[139.65794,35.7166],[139.65775,35.71699],[139.65773,35.7173],[139.65775,35.7174],[139.65779,35.71741],[139.65804,35.71774],[139.65813,35.71792],[139.65848,35.7193],[139.65874,35.71971],[139.65885,35.71982],[139.6591,35.71966],[139.65922,35.71962],[139.65934,35.71964],[139.66025,35.72014],[139.6606,35.71984],[139.66194,35.72068],[139.6626,35.72101],[139.66274,35.72105]]]}},{"type":"Feature","properties":{"id":"area-13114009004","name":"沼袋四丁目"},"geometry":{"type":"Polygon","coordinates":[[[139.66194,35.72068],[139.6606,35.71984],[139.66025,35.72014],[139.65934,35.71964],[139.65922,35.71962],[139.6591,35.71966],[139.65863,35.71994],[139.65775,35.72026],[139.65773,35.72042],[139.6578,35.72076],[139.65779,35.72144],[139.65782,35.72241],[139.65761,35.7228],[139.65975,35.7233],[139.66148,35.72382],[139.66268,35.72385],[139.66278,35.72224],[139.66274,35.72105],[139.6626,35.72101],[139.66194,35.72068]]]}},{"type":"Feature","properties":{"id":"area-13114010001","name":"松が丘一丁目"},"geometry":{"type":"Polygon","coordinates":[[[139.67541,35.72364],[139.67581,35.72228],[139.67583,35.722],[139.67569,35.72139],[139.67567,35.72136],[139.67552,35.72137],[139.67478,35.72146],[139.67455,35.72092],[139.67455,35.72073],[139.67444,35.72067],[139.67433,35.72038],[139.67383,35.72047],[139.6735,35.72057],[139.67325,35.71966],[139.67358,35.71946],[139.67378,35.71928],[139.67322,35.71854],[139.67256,35.71736],[139.67225,35.71691],[139.67193,35.7165],[139.67163,35.71619],[139.67157,35.71614],[139.66926,35.71748],[139.66942,35.71775],[139.67013,35.71882],[139.6706,35.72001],[139.67164,35.72115],[139.6723,35.72208],[139.67312,35.72286],[139.67375,35.72354],[139.67414,35.72352],[139.67541,35.72364]]]}},{"type":"Feature","properties":{"id":"area-13114010002","name":"松が丘二丁目"},"geometry":{"type":"Polygon","coordinates":[[[139.66929,35.7175],[139.66924,35.71749],[139.66849,35.71793],[139.66875,35.71822],[139.66904,35.71862],[139.66914,35.71895],[139.66919,35.71927],[139.66919,35.71957],[139.66865,35.72251],[139.6687,35.72279],[139.66885,35.7231],[139.66873,35.72397],[139.67043,35.72403],[139.67325,35.72358],[139.67375,35.72354],[139.67312,35.72286],[139.6723,35.72208],[139.67164,35.72115],[139.6706,35.72001],[139.67013,35.71882],[139.66942,35.71775],[139.66929,35.7175]]]}},{"type":"Feature","properties":{"id":"area-13114011001","name":"江原町一丁目"},"geometry":{"type":"Polygon","coordinates":[[[139.67489,35.72711],[139.67063,35.72676],[139.67029,35.72677],[139.6727,35.7318],[139.67681,35.72992],[139.67672,35.72809],[139.67672,35.72766],[139.67659,35.72729],[139.67489,35.72711]]]}},{"type":"Feature","properties":{"id":"area-13114011002","name":"江原町二丁目"},"geometry":{"type":"Polygon","coordinates":[[[139.66968,35.73285],[139.67269,35.73178],[139.67064,35.72753],[139.67032,35.72772],[139.66959,35.72797],[139.66854,35.72816],[139.66832,35.72828],[139.66814,35.72849],[139.6681,35.72872],[139.66815,35.72933],[139.66809,35.7295],[139.66796,35.72967],[139.66772,35.7301],[139.66693,35.7312],[139.66694,35.73145],[139.66798,35.73134],[139.66807,35.73191],[139.66821,35.7322],[139.66934,35.73212],[139.66928,35.73232],[139.66931,35.7324],[139.66968,35.73285]]]}},{"type":"Feature","properties":{"id":"area-13114011003","name":"江原町三丁目"},"geometry":{"type":"Polygon","coordinates":[[[139.67314,35.73366],[139.67326,35.73357],[139.6737,35.73358],[139.67402,35.73337],[139.67482,35.73311],[139.67784,35.73065],[139.67806,35.73066],[139.67753,35.72956],[139.6727,35.7318],[139.67269,35.73178],[139.67043,35.73261],[139.67069,35.73281],[139.67103,35.73319],[139.67125,35.73373],[139.67285,35.73368],[139.67314,35.73366]]]}},{"type":"Feature","properties":{"id":"area-13114012001","name":"江古田一丁目"},"geometry":{"type":"Polygon","coordinates":[[[139.67647,35.72699],[139.6758,35.72589],[139.67537,35.72423],[139.67535,35.72399],[139.67541,35.72364],[139.67398,35.72352],[139.67325,35.72358],[139.67043,35.72403],[139.66898,35.724],[139.6703,35.72676],[139.67063,35.72676],[139.67194,35.72685],[139.67195,35.72688],[139.67326,35.72696],[139.67659,35.72729],[139.67647,35.72699]]]}},{"type":"Feature","properties":{"id":"area-13114012002","name":"江古田二丁目"},"geometry":{"type":"Polygon","coordinates":[[[139.66552,35.72713],[139.66842,35.72591],[139.66888,35.72591],[139.66906,35.72587],[139.66993,35.72599],[139.66898,35.724],[139.66899,35.72399],[139.66615,35.72392],[139.66641,35.72426],[139.66564,35.72454],[139.66549,35.72514],[139.6651,35.72539],[139.66384,35.72607],[139.66348,35.72717],[139.66327,35.72752],[139.66316,35.72782],[139.66453,35.72746],[139.66552,35.72713]]]}},{"type":"Feature","properties":{"id":"area-13114012003","name":"江古田三丁目"},"geometry":{"type":"Polygon","coordinates":[[[139.66994,35.72601],[139.66906,35.72587],[139.66888,35.72591],[139.66842,35.72591],[139.66552,35.72713],[139.66472,35.7274],[139.66312,35.72786],[139.66339,35.72821],[139.66363,35.72886],[139.66386,35.72915],[139.66406,35.72988],[139.66421,35.73018],[139.6644,35.73072],[139.66453,35.73099],[139.66475,35.73123],[139.66528,35.7315],[139.6654,35.7315],[139.66602,35.73147],[139.66693,35.7312],[139.66772,35.7301],[139.66796,35.72967],[139.66809,35.7295],[139.66815,35.72933],[139.6681,35.72872],[139.66814,35.72849],[139.66825,35.72834],[139.66854,35.72816],[139.66959,35.72797],[139.67032,35.72772],[139.67064,35.72753],[139.66994,35.72601]]]}},{"type":"Feature","properties":{"id":"area-13114012004","name":"江古田四丁目"},"geometry":{"type":"Polygon","coordinates":[[[139.66348,35.72717],[139.66384,35.72607],[139.6651,35.72539],[139.66549,35.72514],[139.66564,35.72454],[139.66641,35.72426],[139.66615,35.72392],[139.66148,35.72382],[139.65975,35.7233],[139.65789,35.72286],[139.65803,35.72409],[139.65807,35.72575],[139.65969,35.72572],[139.65966,35.72674],[139.66064,35.7267],[139.66135,35.72682],[139.66186,35.72696],[139.66227,35.72715],[139.66312,35.72786],[139.66316,35.72782],[139.66327,35.72752],[139.66348,35.72717]]]}},{"type":"Feature","properties":{"id":"area-13114013001","name":"丸山一丁目"},"geometry":{"type":"Polygon","coordinates":[[[139.65761,35.7228],[139.65673,35.72277],[139.65582,35.72279],[139.65378,35.72291],[139.65387,35.72626],[139.65401,35.72637],[139.65594,35.72627],[139.65625,35.72622],[139.65701,35.72603],[139.65788,35.72576],[139.65807,35.72575],[139.65803,35.72409],[139.65789,35.72286],[139.65761,35.7228]]]}},{"type":"Feature","properties":{"id":"area-13114013002","name":"丸山二丁目"},"geometry":{"type":"Polygon","coordinates":[[[139.65027,35.72683],[139.65132,35.72625],[139.65181,35.72611],[139.65203,35.72609],[139.65211,35.72625],[139.65297,35.72621],[139.65383,35.72622],[139.65387,35.72626],[139.65378,35.72291],[139.65313,35.72294],[139.65275,35.72301],[139.64942,35.72383],[139.6495,35.72479],[139.6497,35.72611],[139.64973,35.72662],[139.65009,35.72661],[139.65027,35.72683]]]}},{"type":"Feature","properties":{"id":"area-13114014001","name":"野方一丁目"},"geometry":{"type":"Polygon","coordinates":[[[139.65995,35.71334],[139.66,35.71289],[139.66021,35.71212],[139.6602,35.7114],[139.66035,35.70987],[139.65749,35.7098],[139.6575,35.70919],[139.65628,35.70913],[139.65628,35.70925],[139.65611,35.70924],[139.65612,35.70911],[139.65593,35.70908],[139.65589,35.70916],[139.65532,35.70915],[139.65521,35.70923],[139.65517,35.70923],[139.65517,35.70908],[139.65425,35.70909],[139.65391,35.7121],[139.6546,35.71223],[139.65492,35.71247],[139.65531,35.71156],[139.65556,35.712],[139.65568,35.71207],[139.65678,35.71235],[139.65772,35.71249],[139.65812,35.71272],[139.65843,35.7131],[139.65884,35.71307],[139.65995,35.71334]]]}},{"type":"Feature","properties":{"id":"area-13114014002","name":"野方二丁目"},"geometry":{"type":"Polygon","coordinates":[[[139.65798,35.71545],[139.65832,35.71549],[139.65867,35.71562],[139.65929,35.71429],[139.65943,35.71404],[139.65994,35.71335],[139.65884,35.71307],[139.65843,35.7131],[139.65812,35.71272],[139.65772,35.71249],[139.65678,35.71235],[139.65568,35.71207],[139.65556,35.712],[139.65531,35.71156],[139.65492,35.71247],[139.6546,35.71223],[139.65391,35.7121],[139.65381,35.71306],[139.65376,35.71391],[139.65375,35.71726],[139.65461,35.71725],[139.65521,35.71706],[139.65532,35.71698],[139.65555,35.71666],[139.65653,35.71574],[139.65673,35.71564],[139.65711,35.71557],[139.65775,35.71546],[139.65798,35.71545]]]}},{"type":"Feature","properties":{"id":"area-13114014003","name":"野方三丁目"},"geometry":{"type":"Polygon","coordinates":[[[139.65377,35.71945],[139.65487,35.71912],[139.65486,35.71915],[139.65511,35.71906],[139.656,35.71897],[139.65707,35.71907],[139.65848,35.7193],[139.65813,35.71792],[139.65804,35.71774],[139.65779,35.71741],[139.65775,35.7174],[139.65774,35.71708],[139.65775,35.71699],[139.65794,35.7166],[139.65825,35.71625],[139.65867,35.71562],[139.65812,35.71544],[139.65775,35.71546],[139.65673,35.71564],[139.65653,35.71574],[139.65632,35.71592],[139.65555,35.71666],[139.65532,35.71698],[139.65521,35.71706],[139.65461,35.71725],[139.65375,35.71726],[139.65377,35.71945]]]}},{"type":"Feature","properties":{"id":"area-13114014004","name":"野方四丁目"},"geometry":{"type":"Polygon","coordinates":[[[139.6563,35.72278],[139.65761,35.7228],[139.65782,35.72241],[139.65779,35.72144],[139.6578,35.72076],[139.65773,35.72032],[139.65775,35.72026],[139.65863,35.71994],[139.65885,35.71982],[139.65862,35.71955],[139.65848,35.7193],[139.65707,35.71907],[139.656,35.71897],[139.65511,35.71906],[139.65377,35.71945],[139.65377,35.72291],[139.6563,35.72278]]]}},{"type":"Feature","properties":{"id":"area-13114014005","name":"野方五丁目"},"geometry":{"type":"Polygon","coordinates":[[[139.6525,35.71959],[139.65283,35.71949],[139.65296,35.71974],[139.65377,35.71947],[139.65375,35.71726],[139.65336,35.71726],[139.65308,35.71719],[139.65126,35.71597],[139.65106,35.71585],[139.65073,35.71574],[139.65069,35.71575],[139.65052,35.71649],[139.65047,35.71726],[139.65056,35.71775],[139.65059,35.71813],[139.65054,35.71903],[139.65063,35.7196],[139.65072,35.71989],[139.64965,35.72072],[139.64954,35.72085],[139.6525,35.7199],[139.6525,35.71959]]]}},{"type":"Feature","properties":{"id":"area-13114014006","name":"野方六丁目"},"geometry":{"type":"Polygon","coordinates":[[[139.65377,35.72291],[139.65377,35.71947],[139.65296,35.71974],[139.65283,35.71949],[139.6525,35.71959],[139.6525,35.7199],[139.64954,35.72085],[139.64947,35.72091],[139.64938,35.72107],[139.64921,35.72124],[139.64878,35.72162],[139.64912,35.7219],[139.6491,35.72233],[139.64929,35.72386],[139.65275,35.72301],[139.65313,35.72294],[139.65377,35.72291]]]}},{"type":"Feature","properties":{"id":"area-13114015001","name":"大和町一丁目"},"geometry":{"type":"Polygon","coordinates":[[[139.65376,35.71423],[139.65381,35.71306],[139.65425,35.70909],[139.65411,35.70907],[139.65405,35.70928],[139.65163,35.70901],[139.65162,35.70905],[139.6515,35.70904],[139.65149,35.70899],[139.65129,35.70897],[139.65128,35.70906],[139.65101,35.70903],[139.65094,35.70942],[139.64973,35.70974],[139.64986,35.71152],[139.649,35.71311],[139.64931,35.71317],[139.65073,35.71331],[139.65171,35.71382],[139.65239,35.7141],[139.65319,35.71422],[139.65376,35.71423]]]}},{"type":"Feature","properties":{"id":"area-13114015002","name":"大和町二丁目"},"geometry":{"type":"Polygon","coordinates":[[[139.65375,35.71726],[139.65376,35.71423],[139.65319,35.71422],[139.65239,35.7141],[139.65171,35.71382],[139.65073,35.71331],[139.64931,35.71317],[139.649,35.71311],[139.64878,35.71349],[139.64826,35.71452],[139.64746,35.71583],[139.6484,35.7159],[139.64899,35.71587],[139.65002,35.71571],[139.65073,35.71574],[139.65106,35.71585],[139.65126,35.71597],[139.65298,35.71714],[139.65336,35.71726],[139.65375,35.71726]]]}},{"type":"Feature","properties":{"id":"area-13114015003","name":"大和町三丁目"},"geometry":{"type":"Polygon","coordinates":[[[139.649,35.71311],[139.64986,35.71152],[139.64973,35.70974],[139.64864,35.71002],[139.64601,35.7108],[139.6428,35.7117],[139.64226,35.71214],[139.6422,35.71225],[139.6435,35.71248],[139.64489,35.71251],[139.64524,35.71256],[139.64627,35.71286],[139.64667,35.71302],[139.64702,35.71304],[139.64726,35.71286],[139.64755,35.71286],[139.64844,35.71297],[139.64886,35.71305],[139.649,35.71311]]]}},{"type":"Feature","properties":{"id":"area-13114015004","name":"大和町四丁目"},"geometry":{"type":"Polygon","coordinates":[[[139.64492,35.71479],[139.64535,35.71475],[139.64573,35.71483],[139.64616,35.71504],[139.64698,35.71563],[139.64726,35.71578],[139.64747,35.71581],[139.64826,35.71452],[139.64878,35.71349],[139.649,35.71311],[139.64886,35.71305],[139.64844,35.71297],[139.64755,35.71286],[139.64726,35.71286],[139.64702,35.71304],[139.64667,35.71302],[139.64627,35.71286],[139.64524,35.71256],[139.64489,35.71251],[139.6435,35.71248],[139.6422,35.71225],[139.64142,35.71277],[139.64153,35.71347],[139.64155,35.71465],[139.64161,35.71486],[139.64073,35.71522],[139.64129,35.71661],[139.6419,35.71641],[139.64291,35.71618],[139.64325,35.71598],[139.64347,35.7158],[139.64361,35.71556],[139.64363,35.71547],[139.64374,35.71533],[139.64401,35.71509],[139.64437,35.71492],[139.64492,35.71479]]]}},{"type":"Feature","properties":{"id":"area-13114016001","name":"若宮一丁目"},"geometry":{"type":"Polygon","coordinates":[[[139.65052,35.71649],[139.65069,35.71575],[139.65002,35.71571],[139.64878,35.71589],[139.6484,35.7159],[139.64745,35.71581],[139.64711,35.71634],[139.64698,35.71667],[139.64684,35.71764],[139.64691,35.71807],[139.64689,35.7193],[139.64697,35.72011],[139.64722,35.72163],[139.64947,35.72091],[139.64965,35.72072],[139.65072,35.71989],[139.65063,35.7196],[139.65054,35.71903],[139.65059,35.71813],[139.65056,35.71775],[139.65047,35.71726],[139.65052,35.71649]]]}},{"type":"Feature","properties":{"id":"area-13114016002","name":"若宮二丁目"},"geometry":{"type":"Polygon","coordinates":[[[139.64374,35.71911],[139.64536,35.7183],[139.64604,35.71827],[139.6469,35.71846],[139.64691,35.71807],[139.64684,35.71764],[139.64698,35.71667],[139.64711,35.71634],[139.64745,35.71581],[139.64726,35.71578],[139.64698,35.71563],[139.64616,35.71504],[139.64573,35.71483],[139.64535,35.71475],[139.64468,35.71483],[139.64437,35.71492],[139.64401,35.71509],[139.64374,35.71533],[139.64363,35.71547],[139.64361,35.71556],[139.64347,35.7158],[139.64305,35.7161],[139.6428,35.71621],[139.6422,35.71634],[139.64155,35.71652],[139.64101,35.71671],[139.64034,35.71701],[139.63988,35.71707],[139.63954,35.71729],[139.63942,35.71741],[139.63932,35.71766],[139.63938,35.71793],[139.63982,35.7187],[139.64096,35.71861],[139.64168,35.71865],[139.64166,35.71902],[139.64374,35.71911]]]}},{"type":"Feature","properties":{"id":"area-13114016003","name":"若宮三丁目"},"geometry":{"type":"Polygon","coordinates":[[[139.63867,35.72243],[139.63872,35.72242],[139.63875,35.72255],[139.64065,35.72252],[139.641,35.72253],[139.64098,35.72262],[139.64327,35.72258],[139.64393,35.72253],[139.64432,35.72248],[139.64433,35.72243],[139.64439,35.72242],[139.64441,35.72229],[139.64469,35.72224],[139.64471,35.72232],[139.64519,35.72223],[139.64577,35.72205],[139.64637,35.72193],[139.6472,35.72165],[139.64697,35.72011],[139.64689,35.7193],[139.6469,35.71846],[139.64604,35.71827],[139.64536,35.7183],[139.64374,35.71911],[139.64166,35.71902],[139.64168,35.71865],[139.64096,35.71861],[139.6398,35.71871],[139.63995,35.71894],[139.64007,35.71922],[139.6401,35.71946],[139.6399,35.72055],[139.63991,35.72139],[139.63985,35.72162],[139.63971,35.72184],[139.6395,35.72201],[139.63896,35.72222],[139.63829,35.72242],[139.63805,35.72254],[139.63808,35.72263],[139.6387,35.72258],[139.63867,35.72243]]]}},{"type":"Feature","properties":{"id":"area-13114017001","name":"白鷺一丁目"},"geometry":{"type":"Polygon","coordinates":[[[139.64129,35.71661],[139.64073,35.71522],[139.63816,35.71598],[139.6373,35.71651],[139.63703,35.71658],[139.63599,35.7167],[139.63607,35.71721],[139.63624,35.71908],[139.63671,35.7208],[139.63703,35.72137],[139.63719,35.72152],[139.63778,35.72189],[139.63789,35.72202],[139.63803,35.72232],[139.63805,35.72251],[139.6395,35.72201],[139.63971,35.72184],[139.63985,35.72162],[139.63991,35.72139],[139.6399,35.72055],[139.64009,35.71964],[139.64009,35.71926],[139.63995,35.71894],[139.63938,35.71793],[139.63932,35.71766],[139.63942,35.71741],[139.63954,35.71729],[139.63988,35.71707],[139.64034,35.71701],[139.64129,35.71661]]]}},{"type":"Feature","properties":{"id":"area-13114017002","name":"白鷺二丁目"},"geometry":{"type":"Polygon","coordinates":[[[139.63624,35.71908],[139.63599,35.7167],[139.6321,35.71712],[139.63207,35.71734],[139.63189,35.71743],[139.63149,35.7179],[139.63111,35.71849],[139.63115,35.71852],[139.63126,35.71901],[139.63154,35.7194],[139.63164,35.71973],[139.63162,35.71989],[139.63156,35.71998],[139.63212,35.72045],[139.63246,35.72063],[139.63295,35.72077],[139.63408,35.72103],[139.6353,35.72162],[139.63546,35.72174],[139.6359,35.72191],[139.63609,35.72202],[139.63756,35.72246],[139.63805,35.72254],[139.63803,35.72232],[139.63789,35.72202],[139.63778,35.72189],[139.63719,35.72152],[139.63703,35.72137],[139.63671,35.7208],[139.63624,35.71908]]]}},{"type":"Feature","properties":{"id":"area-13114017003","name":"白鷺三丁目"},"geometry":{"type":"Polygon","coordinates":[[[139.63446,35.72278],[139.63792,35.72269],[139.63808,35.72268],[139.63808,35.72263],[139.63805,35.72254],[139.63756,35.72246],[139.63609,35.72202],[139.6359,35.72191],[139.63546,35.72174],[139.6353,35.72162],[139.63408,35.72103],[139.63295,35.72077],[139.63227,35.72055],[139.63179,35.72019],[139.63156,35.71998],[139.63076,35.72065],[139.6306,35.72063],[139.63044,35.72084],[139.63014,35.72066],[139.6295,35.72039],[139.62883,35.72097],[139.62816,35.72191],[139.62806,35.72247],[139.62753,35.72358],[139.6332,35.7229],[139.63446,35.72278]]]}},{"type":"Feature","properties":{"id":"area-13114018001","name":"鷺宮一丁目"},"geometry":{"type":"Polygon","coordinates":[[[139.6491,35.72233],[139.64912,35.7219],[139.64878,35.72162],[139.64921,35.72124],[139.64938,35.72107],[139.64947,35.72091],[139.64637,35.72193],[139.64577,35.72205],[139.64519,35.72223],[139.64471,35.72232],[139.64469,35.72224],[139.64441,35.72229],[139.64439,35.72242],[139.64433,35.72243],[139.64432,35.72248],[139.64427,35.72249],[139.64417,35.72286],[139.64377,35.72396],[139.64378,35.72504],[139.64375,35.72515],[139.64599,35.72449],[139.64929,35.72386],[139.6491,35.72233]]]}},{"type":"Feature","properties":{"id":"area-13114018002","name":"鷺宮二丁目"},"geometry":{"type":"Polygon","coordinates":[[[139.6497,35.72611],[139.6495,35.72479],[139.64942,35.72383],[139.64599,35.72449],[139.64375,35.72515],[139.64379,35.72536],[139.64747,35.72536],[139.64749,35.72662],[139.64901,35.72667],[139.64973,35.72662],[139.6497,35.72611]]]}},{"type":"Feature","properties":{"id":"area-13114018003","name":"鷺宮三丁目"},"geometry":{"type":"Polygon","coordinates":[[[139.63864,35.72628],[139.63963,35.72612],[139.63966,35.72617],[139.6397,35.72615],[139.6397,35.72617],[139.64121,35.72593],[139.64375,35.72515],[139.64378,35.72504],[139.64377,35.72396],[139.64417,35.72286],[139.64427,35.72249],[139.64327,35.72258],[139.64098,35.72262],[139.641,35.72253],[139.64065,35.72252],[139.63875,35.72255],[139.63872,35.72242],[139.63867,35.72243],[139.6387,35.72258],[139.63808,35.72263],[139.63829,35.72557],[139.63864,35.72628]]]}},{"type":"Feature","properties":{"id":"area-13114018004","name":"鷺宮四丁目"},"geometry":{"type":"Polygon","coordinates":[[[139.63869,35.72634],[139.63829,35.72557],[139.63808,35.72268],[139.63417,35.7228],[139.63005,35.72328],[139.63054,35.72349],[139.63108,35.72365],[139.63151,35.72385],[139.63245,35.72437],[139.63298,35.72477],[139.63378,35.72509],[139.63377,35.72511],[139.63424,35.72535],[139.63502,35.72589],[139.63551,35.72638],[139.63596,35.72674],[139.63869,35.72634]]]}},{"type":"Feature","properties":{"id":"area-13114018005","name":"鷺宮五丁目"},"geometry":{"type":"Polygon","coordinates":[[[139.63245,35.72437],[139.63126,35.72375],[139.63106,35.72411],[139.63093,35.7245],[139.63038,35.72675],[139.63034,35.72726],[139.63297,35.72721],[139.63596,35.72674],[139.63551,35.72638],[139.63502,35.72589],[139.63424,35.72535],[139.63377,35.72511],[139.63378,35.72509],[139.63298,35.72477],[139.63245,35.72437]]]}},{"type":"Feature","properties":{"id":"area-13114018006","name":"鷺宮六丁目"},"geometry":{"type":"Polygon","coordinates":[[[139.63054,35.72349],[139.63005,35.72328],[139.62753,35.72358],[139.62686,35.72469],[139.62605,35.72613],[139.62543,35.72733],[139.63034,35.72726],[139.63038,35.72675],[139.6308,35.72498],[139.63106,35.72411],[139.63126,35.72375],[139.63108,35.72365],[139.63054,35.72349]]]}},{"type":"Feature","properties":{"id":"area-13114019001","name":"上鷺宮一丁目"},"geometry":{"type":"Polygon","coordinates":[[[139.63964,35.72646],[139.6397,35.72615],[139.63966,35.72617],[139.63963,35.72612],[139.63866,35.72628],[139.63869,35.72634],[139.63764,35.72648],[139.63711,35.72721],[139.63593,35.7287],[139.63574,35.72884],[139.63521,35.72948],[139.63489,35.72994],[139.63345,35.73178],[139.63447,35.73199],[139.63519,35.73222],[139.63625,35.73243],[139.63654,35.73209],[139.63671,35.73182],[139.63646,35.73174],[139.63669,35.73122],[139.63664,35.7312],[139.63676,35.73092],[139.63756,35.72951],[139.63744,35.72947],[139.63765,35.72916],[139.6378,35.72904],[139.6379,35.7289],[139.638,35.7286],[139.63789,35.7285],[139.63871,35.72807],[139.63924,35.72796],[139.63931,35.7279],[139.63973,35.72734],[139.63964,35.72646]]]}},{"type":"Feature","properties":{"id":"area-13114019002","name":"上鷺宮二丁目"},"geometry":{"type":"Polygon","coordinates":[[[139.63489,35.72994],[139.63521,35.72948],[139.63574,35.72884],[139.63593,35.7287],[139.6365,35.728],[139.63764,35.72648],[139.63297,35.72721],[139.63033,35.72726],[139.63032,35.72802],[139.63043,35.72817],[139.63054,35.7288],[139.63046,35.72884],[139.63046,35.72959],[139.63084,35.72956],[139.63087,35.7298],[139.63117,35.73085],[139.63137,35.73138],[139.63239,35.73155],[139.63345,35.73178],[139.63489,35.72994]]]}},{"type":"Feature","properties":{"id":"area-13114019003","name":"上鷺宮三丁目"},"geometry":{"type":"Polygon","coordinates":[[[139.63238,35.73548],[139.63266,35.73547],[139.63341,35.73552],[139.63331,35.73536],[139.63387,35.73421],[139.63446,35.73434],[139.63491,35.73291],[139.63516,35.73221],[139.63447,35.73199],[139.63239,35.73155],[139.63137,35.73138],[139.63073,35.73368],[139.63053,35.73543],[139.63097,35.73545],[139.63175,35.73555],[139.63201,35.73555],[139.63238,35.73548]]]}},{"type":"Feature","properties":{"id":"area-13114019004","name":"上鷺宮四丁目"},"geometry":{"type":"Polygon","coordinates":[[[139.63073,35.73368],[139.63137,35.73138],[139.63117,35.73085],[139.63025,35.73118],[139.62943,35.7316],[139.62874,35.73191],[139.62823,35.73203],[139.62765,35.73245],[139.62724,35.73329],[139.62658,35.73307],[139.62644,35.7333],[139.62657,35.73362],[139.62655,35.7338],[139.62735,35.73408],[139.62725,35.73503],[139.62772,35.73509],[139.62799,35.73516],[139.62904,35.73523],[139.62932,35.73529],[139.63005,35.73532],[139.63054,35.73532],[139.63073,35.73368]]]}},{"type":"Feature","properties":{"id":"area-13114019005","name":"上鷺宮五丁目"},"geometry":{"type":"Polygon","coordinates":[[[139.63087,35.7298],[139.63084,35.72956],[139.63046,35.72959],[139.63046,35.72884],[139.63054,35.7288],[139.63043,35.72817],[139.63032,35.72802],[139.63033,35.72726],[139.62543,35.72733],[139.62425,35.72953],[139.62444,35.73008],[139.62533,35.73167],[139.62592,35.73258],[139.62604,35.73288],[139.62724,35.73329],[139.62765,35.73245],[139.62823,35.73203],[139.62874,35.73191],[139.62943,35.7316],[139.63025,35.73118],[139.63117,35.73085],[139.63087,35.7298]]]}}]}