{"type":"FeatureCollection","features":[{"type":"Feature","properties":{"id":"area-13116001001","name":"駒込一丁目"},"geometry":{"type":"Polygon","coordinates":[[[139.75052,35.73612],[139.75108,35.73585],[139.75136,35.73568],[139.75144,35.73577],[139.75151,35.73572],[139.75155,35.73576],[139.75192,35.73551],[139.75195,35.73551],[139.75204,35.73559],[139.7524,35.73536],[139.75247,35.73543],[139.75268,35.73526],[139.75169,35.73494],[139.7515,35.73471],[139.75128,35.73482],[139.75088,35.73468],[139.75088,35.73451],[139.75059,35.7344],[139.75032,35.7344],[139.75032,35.7343],[139.75018,35.73424],[139.75061,35.73402],[139.75062,35.73393],[139.7502,35.73357],[139.75027,35.73351],[139.75001,35.73334],[139.74997,35.73338],[139.74987,35.73333],[139.74991,35.73327],[139.74982,35.73321],[139.74976,35.73328],[139.74964,35.73322],[139.74968,35.73318],[139.74955,35.7331],[139.74958,35.73306],[139.74924,35.73286],[139.74914,35.73298],[139.7491,35.73296],[139.74904,35.73303],[139.74896,35.73299],[139.74877,35.73324],[139.74904,35.73341],[139.74894,35.73353],[139.74877,35.73347],[139.74862,35.73367],[139.74858,35.73365],[139.74848,35.73377],[139.74821,35.7335],[139.74742,35.73458],[139.74767,35.73471],[139.74772,35.73466],[139.74782,35.73471],[139.74769,35.73488],[139.74777,35.73491],[139.74737,35.73548],[139.74709,35.73529],[139.74705,35.73522],[139.74705,35.73511],[139.74533,35.7359],[139.74669,35.73648],[139.74689,35.73607],[139.74748,35.73629],[139.74741,35.7364],[139.74924,35.73723],[139.7495,35.7368],[139.74967,35.73664],[139.7499,35.73648],[139.75052,35.73612]]]}},{"type":"Feature","properties":{"id":"area-13116001002","name":"駒込二丁目"},"geometry":{"type":"Polygon","coordinates":[[[139.74812,35.7367],[139.74741,35.7364],[139.74748,35.73629],[139.74689,35.73607],[139.74669,35.73648],[139.74659,35.73644],[139.74658,35.73656],[139.7461,35.73823],[139.74675,35.73988],[139.74726,35.73957],[139.74841,35.7388],[139.74911,35.73753],[139.74924,35.73723],[139.74827,35.73681],[139.74812,35.7367]]]}},{"type":"Feature","properties":{"id":"area-13116001003","name":"駒込三丁目"},"geometry":{"type":"Polygon","coordinates":[[[139.74454,35.74081],[139.74443,35.74061],[139.74424,35.74066],[139.74415,35.74033],[139.74409,35.7399],[139.74415,35.73988],[139.74416,35.73984],[139.74412,35.73965],[139.74404,35.73962],[139.744,35.73942],[139.74412,35.73938],[139.74405,35.73887],[139.74414,35.73884],[139.7442,35.73895],[139.74439,35.73887],[139.74453,35.73901],[139.74453,35.73919],[139.74486,35.73928],[139.74542,35.73927],[139.74581,35.73921],[139.74598,35.73915],[139.74602,35.73911],[139.74599,35.73881],[139.74633,35.73877],[139.7461,35.73823],[139.74658,35.73656],[139.74659,35.73644],[139.74533,35.7359],[139.74182,35.73741],[139.74222,35.73791],[139.74264,35.73827],[139.74318,35.73907],[139.74352,35.73971],[139.7437,35.73995],[139.74394,35.74072],[139.74415,35.74117],[139.74425,35.74113],[139.7442,35.74096],[139.74451,35.74087],[139.74454,35.74081]]]}},{"type":"Feature","properties":{"id":"area-13116001004","name":"駒込四丁目"},"geometry":{"type":"Polygon","coordinates":[[[139.74528,35.73592],[139.74515,35.73571],[139.74506,35.73574],[139.74412,35.73542],[139.74214,35.73462],[139.74182,35.73453],[139.73952,35.73551],[139.73973,35.73582],[139.73947,35.73594],[139.73952,35.736],[139.73887,35.7363],[139.73898,35.73649],[139.74017,35.73811],[139.7449,35.73611],[139.74528,35.73592]]]}},{"type":"Feature","properties":{"id":"area-13116001005","name":"駒込五丁目"},"geometry":{"type":"Polygon","coordinates":[[[139.73898,35.73649],[139.73837,35.7356],[139.73716,35.73618],[139.73702,35.73623],[139.73687,35.7362],[139.73633,35.73663],[139.73591,35.73701],[139.73591,35.73705],[139.73598,35.73716],[139.73634,35.73865],[139.73631,35.73898],[139.73632,35.73915],[139.73638,35.73936],[139.73649,35.73959],[139.73652,35.73977],[139.73856,35.73882],[139.74017,35.73811],[139.73898,35.73649]]]}},{"type":"Feature","properties":{"id":"area-13116001006","name":"駒込六丁目"},"geometry":{"type":"Polygon","coordinates":[[[139.74222,35.73791],[139.74182,35.73741],[139.73953,35.73839],[139.74,35.73916],[139.74023,35.73981],[139.74056,35.74013],[139.74071,35.74022],[139.74086,35.74088],[139.74111,35.74235],[139.74186,35.74205],[139.74223,35.7418],[139.74283,35.74149],[139.74314,35.74141],[139.74357,35.74134],[139.74415,35.74117],[139.74394,35.74072],[139.7437,35.73995],[139.74352,35.73971],[139.74318,35.73907],[139.74264,35.73827],[139.74222,35.73791]]]}},{"type":"Feature","properties":{"id":"area-13116001007","name":"駒込七丁目"},"geometry":{"type":"Polygon","coordinates":[[[139.73988,35.73896],[139.73953,35.73839],[139.73652,35.73977],[139.73662,35.7399],[139.73678,35.74003],[139.73708,35.74017],[139.73709,35.74025],[139.73685,35.74091],[139.73845,35.74136],[139.73944,35.7417],[139.74084,35.74222],[139.74109,35.74237],[139.74111,35.74235],[139.74092,35.74119],[139.74071,35.74022],[139.74056,35.74013],[139.74023,35.73981],[139.74,35.73916],[139.73986,35.73896],[139.73988,35.73896]]]}},{"type":"Feature","properties":{"id":"area-13116002001","name":"巣鴨一丁目"},"geometry":{"type":"Polygon","coordinates":[[[139.74359,35.73487],[139.74337,35.73465],[139.74306,35.7348],[139.74236,35.7338],[139.74213,35.73393],[139.74188,35.73382],[139.74225,35.7336],[139.74221,35.73353],[139.74229,35.73352],[139.74226,35.73346],[139.74247,35.73334],[139.74253,35.73339],[139.74277,35.73321],[139.74296,35.73337],[139.74304,35.73336],[139.74327,35.73316],[139.74307,35.733],[139.74341,35.73272],[139.74122,35.73115],[139.74165,35.7307],[139.74098,35.73033],[139.74083,35.7305],[139.74062,35.73037],[139.73999,35.73104],[139.73922,35.7317],[139.73916,35.73166],[139.73882,35.73198],[139.73809,35.73144],[139.73819,35.73135],[139.7379,35.73112],[139.73793,35.73109],[139.7377,35.73093],[139.73766,35.73096],[139.73758,35.7309],[139.73766,35.73084],[139.73747,35.73069],[139.73741,35.73073],[139.73733,35.73066],[139.73736,35.73064],[139.73726,35.73057],[139.7372,35.73062],[139.73692,35.7304],[139.73689,35.73043],[139.7368,35.73036],[139.73687,35.73029],[139.73675,35.73019],[139.73646,35.73046],[139.73589,35.73151],[139.73576,35.73196],[139.73906,35.73334],[139.73889,35.7335],[139.73939,35.73371],[139.73968,35.73363],[139.7418,35.73454],[139.74214,35.73462],[139.74442,35.73552],[139.74411,35.73509],[139.74359,35.73487]]]}},{"type":"Feature","properties":{"id":"area-13116002002","name":"巣鴨二丁目"},"geometry":{"type":"Polygon","coordinates":[[[139.73599,35.73692],[139.73687,35.7362],[139.73702,35.73623],[139.73716,35.73618],[139.73837,35.7356],[139.73887,35.7363],[139.73952,35.736],[139.73947,35.73594],[139.73973,35.73582],[139.73952,35.73551],[139.7418,35.73454],[139.73968,35.73363],[139.73939,35.73371],[139.73889,35.7335],[139.73689,35.73516],[139.73543,35.73668],[139.73599,35.73692]]]}},{"type":"Feature","properties":{"id":"area-13116002003","name":"巣鴨三丁目"},"geometry":{"type":"Polygon","coordinates":[[[139.73527,35.73674],[139.73536,35.73665],[139.73543,35.73668],[139.73689,35.73516],[139.73852,35.73382],[139.73906,35.73334],[139.73576,35.73196],[139.73564,35.73251],[139.73554,35.73271],[139.73452,35.73298],[139.73349,35.73338],[139.7331,35.7336],[139.73247,35.73408],[139.73199,35.73437],[139.73169,35.73454],[139.73135,35.73467],[139.73229,35.73556],[139.73358,35.73661],[139.7345,35.73597],[139.73527,35.73674]]]}},{"type":"Feature","properties":{"id":"area-13116002004","name":"巣鴨四丁目"},"geometry":{"type":"Polygon","coordinates":[[[139.73527,35.73674],[139.7345,35.73597],[139.73358,35.73661],[139.73229,35.73556],[139.73135,35.73467],[139.73101,35.73481],[139.73061,35.73507],[139.73014,35.7353],[139.7301,35.73668],[139.73003,35.73727],[139.72986,35.73807],[139.72992,35.7383],[139.73028,35.739],[139.73053,35.74059],[139.7308,35.74143],[139.73523,35.73682],[139.73527,35.73674]]]}},{"type":"Feature","properties":{"id":"area-13116002005","name":"巣鴨五丁目"},"geometry":{"type":"Polygon","coordinates":[[[139.73483,35.74079],[139.73508,35.74063],[139.73517,35.74071],[139.73545,35.74054],[139.73685,35.74091],[139.73709,35.74025],[139.73708,35.74017],[139.73678,35.74003],[139.73662,35.7399],[139.73652,35.73977],[139.73649,35.73959],[139.73638,35.73936],[139.73631,35.73898],[139.73634,35.73865],[139.73598,35.73716],[139.73591,35.73705],[139.73599,35.73692],[139.73536,35.73665],[139.73457,35.7375],[139.7308,35.74143],[139.73217,35.74317],[139.7326,35.74307],[139.73293,35.74287],[139.73353,35.74223],[139.73433,35.74154],[139.73445,35.74136],[139.73458,35.74103],[139.73483,35.74079]]]}},{"type":"Feature","properties":{"id":"area-13116003001","name":"西巣鴨一丁目"},"geometry":{"type":"Polygon","coordinates":[[[139.72531,35.73979],[139.7256,35.73966],[139.72566,35.73982],[139.72579,35.74002],[139.7261,35.73979],[139.72641,35.73952],[139.72652,35.73905],[139.72686,35.7386],[139.72747,35.73809],[139.72728,35.73784],[139.72765,35.73751],[139.72731,35.73724],[139.72779,35.73696],[139.7297,35.73658],[139.73011,35.73658],[139.73014,35.73536],[139.72979,35.73536],[139.72731,35.73555],[139.72688,35.73537],[139.72662,35.73558],[139.72627,35.73579],[139.72589,35.73593],[139.72476,35.73626],[139.72441,35.73641],[139.72421,35.73652],[139.72382,35.73685],[139.72298,35.73791],[139.72264,35.73841],[139.72268,35.73875],[139.72265,35.73877],[139.72392,35.7399],[139.72405,35.73967],[139.72465,35.73961],[139.72501,35.74004],[139.7251,35.73994],[139.72531,35.73979]]]}},{"type":"Feature","properties":{"id":"area-13116003002","name":"西巣鴨二丁目"},"geometry":{"type":"Polygon","coordinates":[[[139.72888,35.74036],[139.72966,35.73973],[139.7303,35.73914],[139.73028,35.739],[139.72992,35.7383],[139.72986,35.73807],[139.73003,35.73727],[139.73011,35.73658],[139.7297,35.73658],[139.72779,35.73696],[139.72731,35.73724],[139.72765,35.73751],[139.72728,35.73784],[139.72747,35.73809],[139.72686,35.7386],[139.72652,35.73905],[139.72641,35.73952],[139.7261,35.73979],[139.72579,35.74002],[139.72566,35.73982],[139.72563,35.74011],[139.72542,35.74024],[139.72521,35.74019],[139.72512,35.74023],[139.72493,35.74015],[139.72472,35.74048],[139.72456,35.7406],[139.72617,35.74202],[139.72637,35.74227],[139.72784,35.74111],[139.72888,35.74036]]]}},{"type":"Feature","properties":{"id":"area-13116003003","name":"西巣鴨三丁目"},"geometry":{"type":"Polygon","coordinates":[[[139.73053,35.74059],[139.7303,35.73914],[139.72966,35.73973],[139.72888,35.74036],[139.72784,35.74111],[139.72638,35.74226],[139.72726,35.74352],[139.72752,35.74383],[139.72774,35.7447],[139.72801,35.74442],[139.72819,35.74441],[139.72829,35.74429],[139.72827,35.74414],[139.73067,35.74162],[139.73065,35.74159],[139.7308,35.74143],[139.73053,35.74059]]]}},{"type":"Feature","properties":{"id":"area-13116003004","name":"西巣鴨四丁目"},"geometry":{"type":"Polygon","coordinates":[[[139.72891,35.74491],[139.7297,35.74499],[139.73065,35.745],[139.731,35.74506],[139.73148,35.74508],[139.73282,35.74495],[139.73285,35.74494],[139.73292,35.74465],[139.7327,35.74422],[139.73238,35.74421],[139.73235,35.74401],[139.73238,35.74401],[139.73238,35.74376],[139.73195,35.74319],[139.73217,35.74317],[139.7308,35.74143],[139.73065,35.74159],[139.73067,35.74162],[139.72827,35.74414],[139.72829,35.74429],[139.72819,35.74441],[139.72801,35.74442],[139.72774,35.7447],[139.72787,35.7451],[139.72847,35.74503],[139.72891,35.74491]]]}},{"type":"Feature","properties":{"id":"area-13116004001","name":"北大塚一丁目"},"geometry":{"type":"Polygon","coordinates":[[[139.73338,35.73104],[139.73228,35.73094],[139.73149,35.73099],[139.73084,35.73113],[139.72952,35.73147],[139.72963,35.73167],[139.73008,35.73208],[139.72991,35.73302],[139.72987,35.73337],[139.72993,35.73377],[139.73015,35.73434],[139.73019,35.73452],[139.7302,35.73503],[139.73014,35.7353],[139.73061,35.73507],[139.73101,35.73481],[139.73169,35.73454],[139.73199,35.73437],[139.73247,35.73408],[139.7331,35.7336],[139.73333,35.73346],[139.73452,35.73298],[139.73554,35.73271],[139.73564,35.73251],[139.73577,35.73188],[139.73426,35.73125],[139.73338,35.73104]]]}},{"type":"Feature","properties":{"id":"area-13116004002","name":"北大塚二丁目"},"geometry":{"type":"Polygon","coordinates":[[[139.72963,35.73167],[139.72952,35.73147],[139.72866,35.73175],[139.72868,35.73181],[139.72835,35.73191],[139.72723,35.73217],[139.72671,35.73226],[139.72597,35.73245],[139.72694,35.73489],[139.72713,35.73494],[139.72706,35.73516],[139.72688,35.73536],[139.72731,35.73555],[139.72979,35.73536],[139.73014,35.73536],[139.7302,35.73503],[139.73019,35.73452],[139.73015,35.73434],[139.72993,35.73377],[139.72987,35.73337],[139.72991,35.73302],[139.73008,35.73208],[139.72963,35.73167]]]}},{"type":"Feature","properties":{"id":"area-13116004003","name":"北大塚三丁目"},"geometry":{"type":"Polygon","coordinates":[[[139.72597,35.73245],[139.72584,35.73217],[139.72453,35.73254],[139.72351,35.73277],[139.72214,35.73313],[139.72083,35.73352],[139.72139,35.73408],[139.72191,35.73435],[139.72403,35.73521],[139.72426,35.73534],[139.72494,35.73591],[139.72525,35.73595],[139.72524,35.73613],[139.72589,35.73593],[139.72627,35.73579],[139.72646,35.73568],[139.72688,35.73537],[139.72706,35.73516],[139.72713,35.73494],[139.72694,35.73489],[139.72597,35.73245]]]}},{"type":"Feature","properties":{"id":"area-13116005001","name":"南大塚一丁目"},"geometry":{"type":"Polygon","coordinates":[[[139.73589,35.73151],[139.73646,35.73046],[139.73675,35.73019],[139.73552,35.72924],[139.73573,35.72903],[139.736,35.72882],[139.73598,35.7288],[139.73619,35.72858],[139.73625,35.72862],[139.73675,35.72821],[139.73681,35.72824],[139.73687,35.72817],[139.7368,35.72812],[139.73713,35.72754],[139.7368,35.72737],[139.73693,35.72712],[139.73726,35.72725],[139.73747,35.72686],[139.73536,35.72605],[139.73558,35.72582],[139.7359,35.72557],[139.73597,35.72538],[139.73606,35.72523],[139.73576,35.72506],[139.73508,35.72592],[139.73515,35.72594],[139.73506,35.72606],[139.73028,35.73024],[139.73016,35.73037],[139.73007,35.73062],[139.73007,35.73078],[139.73025,35.73127],[139.73128,35.73103],[139.7318,35.73096],[139.73241,35.73094],[139.73289,35.73098],[139.73338,35.73104],[139.73426,35.73125],[139.73577,35.73188],[139.73589,35.73151]]]}},{"type":"Feature","properties":{"id":"area-13116005002","name":"南大塚二丁目"},"geometry":{"type":"Polygon","coordinates":[[[139.73506,35.72606],[139.73515,35.72594],[139.73508,35.72592],[139.73576,35.72506],[139.73555,35.72494],[139.7353,35.72527],[139.73511,35.72518],[139.735,35.72532],[139.7348,35.72523],[139.73468,35.72538],[139.73427,35.72517],[139.73418,35.72522],[139.73412,35.72535],[139.73393,35.72553],[139.73358,35.72533],[139.73364,35.72517],[139.73353,35.72516],[139.7333,35.72505],[139.73315,35.72516],[139.73303,35.72532],[139.73275,35.72518],[139.73282,35.72497],[139.73269,35.72494],[139.73274,35.72487],[139.73235,35.72468],[139.73202,35.72464],[139.73207,35.72442],[139.7322,35.72436],[139.73228,35.72426],[139.73201,35.72417],[139.73183,35.72443],[139.73119,35.72425],[139.73097,35.72481],[139.7311,35.72492],[139.73102,35.72498],[139.73092,35.72488],[139.73074,35.72496],[139.73065,35.72516],[139.7307,35.72521],[139.73034,35.72548],[139.73023,35.72573],[139.73035,35.72581],[139.7303,35.72596],[139.73011,35.72591],[139.72983,35.72653],[139.72976,35.72698],[139.72945,35.72784],[139.72943,35.72813],[139.72946,35.72834],[139.72928,35.72942],[139.72925,35.73003],[139.72931,35.73071],[139.72951,35.73148],[139.73025,35.73127],[139.73007,35.73078],[139.73007,35.73062],[139.73016,35.73037],[139.73027,35.73025],[139.73506,35.72606]]]}},{"type":"Feature","properties":{"id":"area-13116005003","name":"南大塚三丁目"},"geometry":{"type":"Polygon","coordinates":[[[139.72983,35.72653],[139.73011,35.72591],[139.73,35.72587],[139.72985,35.72621],[139.72965,35.72611],[139.72505,35.72915],[139.72573,35.73188],[139.72597,35.73245],[139.72671,35.73226],[139.72723,35.73217],[139.72835,35.73191],[139.72868,35.73181],[139.72866,35.73175],[139.72951,35.73148],[139.72931,35.73071],[139.72927,35.73035],[139.72925,35.73003],[139.72928,35.72942],[139.72946,35.72834],[139.72943,35.72813],[139.72945,35.72784],[139.72976,35.72698],[139.72983,35.72653]]]}},{"type":"Feature","properties":{"id":"area-13116006001","name":"上池袋一丁目"},"geometry":{"type":"Polygon","coordinates":[[[139.72139,35.73408],[139.72083,35.73352],[139.71776,35.73429],[139.72268,35.73875],[139.72264,35.73841],[139.72298,35.73791],[139.72382,35.73685],[139.72421,35.73652],[139.72441,35.73641],[139.72476,35.73626],[139.72524,35.73613],[139.72525,35.73595],[139.72494,35.73591],[139.72426,35.73534],[139.72403,35.73521],[139.72191,35.73435],[139.72139,35.73408]]]}},{"type":"Feature","properties":{"id":"area-13116006002","name":"上池袋二丁目"},"geometry":{"type":"Polygon","coordinates":[[[139.72031,35.7366],[139.71776,35.73429],[139.71719,35.7344],[139.71639,35.73444],[139.71544,35.73433],[139.715,35.73422],[139.71464,35.73411],[139.7144,35.734],[139.71392,35.7337],[139.71349,35.73335],[139.71302,35.73337],[139.71367,35.73462],[139.71518,35.73769],[139.7162,35.73954],[139.71697,35.73923],[139.71753,35.73895],[139.71876,35.73794],[139.7201,35.73674],[139.72031,35.7366]]]}},{"type":"Feature","properties":{"id":"area-13116006003","name":"上池袋三丁目"},"geometry":{"type":"Polygon","coordinates":[[[139.71737,35.74134],[139.71895,35.74069],[139.71887,35.74083],[139.72047,35.74021],[139.72054,35.7402],[139.72077,35.74007],[139.72104,35.73986],[139.72218,35.73884],[139.72252,35.73885],[139.72268,35.73875],[139.72117,35.7374],[139.72031,35.7366],[139.7201,35.73674],[139.71876,35.73794],[139.71753,35.73895],[139.71697,35.73923],[139.7162,35.73954],[139.71669,35.7404],[139.71683,35.74056],[139.71723,35.74134],[139.71737,35.74134]]]}},{"type":"Feature","properties":{"id":"area-13116006004","name":"上池袋四丁目"},"geometry":{"type":"Polygon","coordinates":[[[139.71951,35.74514],[139.71956,35.74508],[139.7197,35.74508],[139.71962,35.74486],[139.71958,35.74445],[139.71962,35.74426],[139.71997,35.74334],[139.72001,35.7428],[139.71996,35.74234],[139.71999,35.74216],[139.72009,35.74199],[139.72027,35.74182],[139.72185,35.74144],[139.72288,35.74093],[139.72343,35.74053],[139.72359,35.74036],[139.72392,35.7399],[139.72265,35.73877],[139.72252,35.73885],[139.72218,35.73884],[139.72104,35.73986],[139.72077,35.74007],[139.72054,35.7402],[139.72047,35.74021],[139.71887,35.74083],[139.71895,35.74069],[139.7184,35.74088],[139.71786,35.74115],[139.71737,35.74134],[139.71723,35.74134],[139.71711,35.74138],[139.71755,35.7423],[139.71773,35.74276],[139.71765,35.74284],[139.71846,35.74432],[139.71858,35.74447],[139.71884,35.74468],[139.71918,35.74521],[139.71951,35.74514]]]}},{"type":"Feature","properties":{"id":"area-13116007001","name":"東池袋一丁目"},"geometry":{"type":"Polygon","coordinates":[[[139.71696,35.73239],[139.71706,35.72936],[139.71728,35.72738],[139.71735,35.72722],[139.71305,35.72993],[139.713,35.73],[139.71297,35.73014],[139.71319,35.73062],[139.71309,35.73123],[139.71314,35.7314],[139.71284,35.73122],[139.71213,35.73137],[139.71241,35.73194],[139.71249,35.73203],[139.71263,35.73235],[139.71277,35.73257],[139.71349,35.73335],[139.71392,35.7337],[139.7144,35.734],[139.71464,35.73411],[139.71544,35.73433],[139.71615,35.73442],[139.71697,35.73347],[139.71696,35.73239]]]}},{"type":"Feature","properties":{"id":"area-13116007002","name":"東池袋二丁目"},"geometry":{"type":"Polygon","coordinates":[[[139.72505,35.72915],[139.72514,35.72909],[139.72326,35.73018],[139.72165,35.73104],[139.72146,35.73107],[139.72037,35.73165],[139.71954,35.73211],[139.71929,35.73231],[139.71707,35.73337],[139.71615,35.73442],[139.71662,35.73444],[139.71756,35.73434],[139.72083,35.73352],[139.72214,35.73313],[139.72351,35.73277],[139.72453,35.73254],[139.72584,35.73217],[139.72573,35.73188],[139.72505,35.72915]]]}},{"type":"Feature","properties":{"id":"area-13116007003","name":"東池袋三丁目"},"geometry":{"type":"Polygon","coordinates":[[[139.72283,35.7304],[139.72041,35.72755],[139.71706,35.72938],[139.71696,35.73239],[139.71697,35.73347],[139.71707,35.73337],[139.71929,35.73231],[139.71954,35.73211],[139.72037,35.73165],[139.72146,35.73107],[139.72165,35.73104],[139.72283,35.7304]]]}},{"type":"Feature","properties":{"id":"area-13116007004","name":"東池袋四丁目"},"geometry":{"type":"Polygon","coordinates":[[[139.72456,35.7285],[139.72301,35.72663],[139.72264,35.72632],[139.72223,35.7261],[139.72029,35.72531],[139.71861,35.72637],[139.71735,35.72722],[139.71728,35.72738],[139.71706,35.72938],[139.72041,35.72755],[139.72283,35.7304],[139.72514,35.72909],[139.72456,35.7285]]]}},{"type":"Feature","properties":{"id":"area-13116007005","name":"東池袋五丁目"},"geometry":{"type":"Polygon","coordinates":[[[139.72514,35.72909],[139.72964,35.72612],[139.72964,35.72609],[139.72971,35.72604],[139.72934,35.72556],[139.72871,35.72578],[139.72819,35.72624],[139.72769,35.72656],[139.72723,35.72679],[139.72636,35.72708],[139.72619,35.7265],[139.72557,35.72679],[139.7255,35.7267],[139.72539,35.7267],[139.72538,35.72653],[139.72499,35.72651],[139.72511,35.7267],[139.72494,35.72677],[139.72491,35.72656],[139.72479,35.72657],[139.7248,35.72666],[139.72467,35.72666],[139.72468,35.72641],[139.72479,35.72633],[139.72529,35.7263],[139.72533,35.7261],[139.72437,35.72605],[139.72438,35.72548],[139.72435,35.72544],[139.72267,35.72504],[139.72301,35.72435],[139.72306,35.7238],[139.72304,35.72344],[139.72276,35.72375],[139.72029,35.72531],[139.72247,35.72621],[139.72283,35.72646],[139.72301,35.72663],[139.72456,35.7285],[139.72514,35.72909]]]}},{"type":"Feature","properties":{"id":"area-13116008001","name":"南池袋一丁目"},"geometry":{"type":"Polygon","coordinates":[[[139.71174,35.73146],[139.71284,35.73122],[139.71314,35.7314],[139.71309,35.73123],[139.71319,35.73062],[139.71297,35.73014],[139.713,35.73],[139.71305,35.72993],[139.71423,35.72918],[139.71228,35.72703],[139.71196,35.72671],[139.71187,35.72667],[139.71143,35.72506],[139.7114,35.72481],[139.71142,35.72458],[139.71148,35.72437],[139.71207,35.72298],[139.71161,35.7231],[139.7107,35.72328],[139.71051,35.72335],[139.70945,35.72397],[139.70931,35.72416],[139.70918,35.72423],[139.7082,35.72449],[139.70948,35.72693],[139.71159,35.73113],[139.71182,35.73106],[139.71195,35.7313],[139.71171,35.73137],[139.71174,35.73146]]]}},{"type":"Feature","properties":{"id":"area-13116008002","name":"南池袋二丁目"},"geometry":{"type":"Polygon","coordinates":[[[139.71807,35.7243],[139.71792,35.72416],[139.71772,35.72419],[139.71705,35.72432],[139.71574,35.72448],[139.71489,35.72476],[139.71277,35.72615],[139.71196,35.72671],[139.71423,35.72918],[139.71735,35.72722],[139.71861,35.72637],[139.72029,35.72531],[139.71863,35.72462],[139.71833,35.72448],[139.71807,35.7243]]]}},{"type":"Feature","properties":{"id":"area-13116008003","name":"南池袋三丁目"},"geometry":{"type":"Polygon","coordinates":[[[139.71792,35.72416],[139.71612,35.72185],[139.71571,35.72213],[139.71514,35.7224],[139.71473,35.72254],[139.7144,35.72273],[139.71399,35.72281],[139.71349,35.72313],[139.71248,35.72324],[139.71218,35.72323],[139.71193,35.7233],[139.71148,35.72437],[139.71142,35.72458],[139.7114,35.72481],[139.71143,35.72506],[139.71187,35.72667],[139.71196,35.72671],[139.71277,35.72615],[139.71489,35.72476],[139.71574,35.72448],[139.71705,35.72432],[139.71736,35.72424],[139.71792,35.72416]]]}},{"type":"Feature","properties":{"id":"area-13116008004","name":"南池袋四丁目"},"geometry":{"type":"Polygon","coordinates":[[[139.71971,35.72144],[139.71891,35.72121],[139.71882,35.72121],[139.71742,35.72049],[139.71706,35.72108],[139.71612,35.72185],[139.71792,35.72416],[139.71807,35.7243],[139.71833,35.72448],[139.72029,35.72531],[139.72276,35.72375],[139.72304,35.72344],[139.72328,35.72245],[139.72231,35.72232],[139.72132,35.72214],[139.72104,35.72203],[139.72067,35.72181],[139.7203,35.7217],[139.71971,35.72144]]]}},{"type":"Feature","properties":{"id":"area-13116009001","name":"西池袋一丁目"},"geometry":{"type":"Polygon","coordinates":[[[139.71277,35.73257],[139.71213,35.73137],[139.71174,35.73146],[139.71171,35.73137],[139.71195,35.7313],[139.71182,35.73106],[139.71159,35.73113],[139.70969,35.72736],[139.70688,35.72831],[139.70686,35.7284],[139.70826,35.73117],[139.7085,35.73124],[139.70863,35.73133],[139.70869,35.73144],[139.70868,35.73161],[139.70856,35.73174],[139.70895,35.73258],[139.7092,35.73302],[139.7126,35.7334],[139.71349,35.73335],[139.71277,35.73257]]]}},{"type":"Feature","properties":{"id":"area-13116009002","name":"西池袋二丁目"},"geometry":{"type":"Polygon","coordinates":[[[139.70625,35.72854],[139.70969,35.72735],[139.7082,35.72449],[139.70804,35.72453],[139.70783,35.72418],[139.70722,35.72426],[139.70588,35.72481],[139.70267,35.72601],[139.70236,35.72662],[139.70584,35.72793],[139.70593,35.72792],[139.70625,35.72854]]]}},{"type":"Feature","properties":{"id":"area-13116009003","name":"西池袋三丁目"},"geometry":{"type":"Polygon","coordinates":[[[139.70856,35.73174],[139.70868,35.73161],[139.70869,35.73144],[139.70863,35.73133],[139.7085,35.73124],[139.70826,35.73117],[139.70686,35.7284],[139.70688,35.72831],[139.70625,35.72854],[139.70593,35.72792],[139.70584,35.72793],[139.70236,35.72662],[139.70122,35.7288],[139.7007,35.72933],[139.70025,35.72953],[139.70004,35.72968],[139.69962,35.72999],[139.69922,35.73041],[139.7056,35.73122],[139.70689,35.73162],[139.70724,35.73184],[139.70777,35.73172],[139.70861,35.73189],[139.70856,35.73174]]]}},{"type":"Feature","properties":{"id":"area-13116009004","name":"西池袋四丁目"},"geometry":{"type":"Polygon","coordinates":[[[139.69883,35.73041],[139.69922,35.73041],[139.69962,35.72999],[139.70004,35.72968],[139.70025,35.72953],[139.7007,35.72933],[139.70122,35.7288],[139.70267,35.72601],[139.70167,35.72639],[139.70121,35.72652],[139.70036,35.72662],[139.69983,35.72662],[139.69928,35.72657],[139.69781,35.72626],[139.69712,35.72619],[139.69651,35.72616],[139.69562,35.72626],[139.69681,35.72805],[139.69731,35.72887],[139.69818,35.73064],[139.69854,35.73047],[139.69883,35.73041]]]}},{"type":"Feature","properties":{"id":"area-13116009005","name":"西池袋五丁目"},"geometry":{"type":"Polygon","coordinates":[[[139.70077,35.73294],[139.70336,35.73296],[139.7038,35.73293],[139.70407,35.73288],[139.70473,35.73264],[139.70609,35.73203],[139.70615,35.73208],[139.70724,35.73184],[139.70689,35.73162],[139.7056,35.73122],[139.69922,35.73041],[139.69883,35.73041],[139.69854,35.73047],[139.69818,35.73064],[139.69916,35.73279],[139.6992,35.73279],[139.69912,35.73285],[139.69923,35.73303],[139.69945,35.7331],[139.69948,35.73319],[139.70077,35.73294]]]}},{"type":"Feature","properties":{"id":"area-13116010001","name":"池袋一丁目"},"geometry":{"type":"Polygon","coordinates":[[[139.71367,35.73462],[139.71302,35.73337],[139.7126,35.7334],[139.71174,35.7333],[139.71162,35.73404],[139.71149,35.73459],[139.71134,35.73702],[139.71118,35.73878],[139.71395,35.73739],[139.71435,35.7371],[139.71459,35.73677],[139.71466,35.73664],[139.71367,35.73462]]]}},{"type":"Feature","properties":{"id":"area-13116010002","name":"池袋二丁目"},"geometry":{"type":"Polygon","coordinates":[[[139.71133,35.73706],[139.71149,35.73459],[139.71162,35.73404],[139.71174,35.7333],[139.7092,35.73302],[139.70895,35.73258],[139.70861,35.73189],[139.70777,35.73172],[139.70615,35.73208],[139.70609,35.73203],[139.70473,35.73264],[139.70407,35.73288],[139.7038,35.73293],[139.70336,35.73296],[139.70279,35.73296],[139.70304,35.73406],[139.70373,35.73469],[139.70468,35.73392],[139.70666,35.7346],[139.70721,35.73472],[139.70783,35.73479],[139.70815,35.73523],[139.70878,35.7364],[139.70968,35.73631],[139.70987,35.73723],[139.71037,35.73714],[139.71133,35.73706]]]}},{"type":"Feature","properties":{"id":"area-13116010003","name":"池袋三丁目"},"geometry":{"type":"Polygon","coordinates":[[[139.70875,35.73636],[139.70815,35.73523],[139.70783,35.73479],[139.70721,35.73472],[139.70666,35.7346],[139.70468,35.73392],[139.70373,35.73469],[139.70304,35.73406],[139.70279,35.73296],[139.70077,35.73294],[139.69937,35.73321],[139.69989,35.7342],[139.70002,35.73423],[139.7001,35.73463],[139.70022,35.73462],[139.70048,35.73513],[139.70188,35.73642],[139.70197,35.73612],[139.70356,35.73577],[139.70396,35.73747],[139.70509,35.73871],[139.70565,35.73926],[139.70792,35.73765],[139.70875,35.73636]]]}},{"type":"Feature","properties":{"id":"area-13116010004","name":"池袋四丁目"},"geometry":{"type":"Polygon","coordinates":[[[139.71118,35.73878],[139.71133,35.73706],[139.71037,35.73714],[139.70987,35.73723],[139.70968,35.73631],[139.70878,35.7364],[139.70875,35.73636],[139.70792,35.73765],[139.70565,35.73926],[139.70737,35.74101],[139.70843,35.74022],[139.71118,35.73878]]]}},{"type":"Feature","properties":{"id":"area-13116011001","name":"池袋本町一丁目"},"geometry":{"type":"Polygon","coordinates":[[[139.71723,35.74134],[139.71683,35.74056],[139.71675,35.74049],[139.7164,35.7399],[139.71518,35.73769],[139.71466,35.73664],[139.71435,35.7371],[139.71395,35.73739],[139.71109,35.73882],[139.71102,35.73931],[139.7112,35.73971],[139.71133,35.7399],[139.71146,35.73999],[139.71194,35.74019],[139.71228,35.74028],[139.71222,35.74072],[139.71333,35.74079],[139.714,35.74089],[139.71615,35.74157],[139.71723,35.74134]]]}},{"type":"Feature","properties":{"id":"area-13116011002","name":"池袋本町二丁目"},"geometry":{"type":"Polygon","coordinates":[[[139.71102,35.73931],[139.71109,35.73882],[139.70843,35.74022],[139.70737,35.74101],[139.70837,35.74203],[139.7089,35.7432],[139.70891,35.74377],[139.70898,35.74424],[139.7095,35.74492],[139.70995,35.74439],[139.71073,35.74335],[139.71172,35.74237],[139.71187,35.74218],[139.71219,35.74148],[139.7122,35.74076],[139.71228,35.74028],[139.71163,35.74009],[139.71133,35.7399],[139.71104,35.73939],[139.71102,35.73931]]]}},{"type":"Feature","properties":{"id":"area-13116011003","name":"池袋本町三丁目"},"geometry":{"type":"Polygon","coordinates":[[[139.71261,35.74148],[139.71221,35.74118],[139.71219,35.74148],[139.71187,35.74218],[139.71172,35.74237],[139.71073,35.74335],[139.70995,35.74439],[139.7095,35.74492],[139.71009,35.74583],[139.71021,35.74591],[139.7104,35.74596],[139.71078,35.74593],[139.71359,35.74554],[139.71406,35.7455],[139.71414,35.74546],[139.71448,35.74543],[139.71383,35.74425],[139.71367,35.74265],[139.71261,35.74148]]]}},{"type":"Feature","properties":{"id":"area-13116011004","name":"池袋本町四丁目"},"geometry":{"type":"Polygon","coordinates":[[[139.71608,35.74565],[139.71766,35.74547],[139.71771,35.74584],[139.71791,35.74582],[139.71786,35.74544],[139.71898,35.74529],[139.71918,35.74521],[139.71884,35.74468],[139.71858,35.74447],[139.71846,35.74432],[139.71773,35.74299],[139.71765,35.74284],[139.71773,35.74276],[139.71755,35.7423],[139.71711,35.74138],[139.71615,35.74157],[139.714,35.74089],[139.71333,35.74079],[139.71222,35.74072],[139.71221,35.74118],[139.71261,35.74148],[139.71367,35.74265],[139.71383,35.74425],[139.71459,35.74563],[139.71448,35.74567],[139.71451,35.74573],[139.71476,35.74599],[139.71608,35.74565]]]}},{"type":"Feature","properties":{"id":"area-13116012001","name":"雑司が谷一丁目"},"geometry":{"type":"Polygon","coordinates":[[[139.72378,35.72149],[139.72436,35.72034],[139.72453,35.72015],[139.7248,35.71998],[139.72465,35.71979],[139.72428,35.7201],[139.72312,35.71975],[139.723,35.71967],[139.72302,35.71947],[139.72294,35.7192],[139.72303,35.71916],[139.72297,35.71905],[139.72289,35.71908],[139.72279,35.71893],[139.72212,35.71869],[139.722,35.71885],[139.7219,35.71882],[139.72179,35.71894],[139.72156,35.71885],[139.72166,35.71869],[139.7214,35.71853],[139.72107,35.71849],[139.72085,35.71855],[139.72067,35.71839],[139.71984,35.71824],[139.71956,35.71831],[139.71915,35.71856],[139.71907,35.7187],[139.7188,35.71899],[139.71809,35.71928],[139.71766,35.71978],[139.71761,35.72024],[139.71742,35.72049],[139.71882,35.72121],[139.71891,35.72121],[139.71971,35.72144],[139.7203,35.7217],[139.72067,35.72181],[139.72104,35.72203],[139.72132,35.72214],[139.72231,35.72232],[139.72327,35.72245],[139.72331,35.72227],[139.72361,35.72214],[139.7237,35.72204],[139.72374,35.72194],[139.72378,35.72149]]]}},{"type":"Feature","properties":{"id":"area-13116012002","name":"雑司が谷二丁目"},"geometry":{"type":"Polygon","coordinates":[[[139.71761,35.72024],[139.71766,35.71978],[139.71809,35.71928],[139.7188,35.71899],[139.71907,35.7187],[139.71915,35.71856],[139.71956,35.71831],[139.71948,35.71805],[139.71951,35.71798],[139.71948,35.71787],[139.71927,35.71749],[139.71827,35.71795],[139.71793,35.71755],[139.71772,35.71737],[139.71787,35.7172],[139.71782,35.71703],[139.71389,35.71878],[139.71413,35.71905],[139.71442,35.71954],[139.71442,35.71959],[139.71487,35.72021],[139.7149,35.72017],[139.71614,35.72182],[139.71706,35.72108],[139.71742,35.72049],[139.71761,35.72024]]]}},{"type":"Feature","properties":{"id":"area-13116012003","name":"雑司が谷三丁目"},"geometry":{"type":"Polygon","coordinates":[[[139.71193,35.7233],[139.71218,35.72323],[139.71248,35.72324],[139.71349,35.72313],[139.71399,35.72281],[139.7144,35.72273],[139.71473,35.72254],[139.71514,35.7224],[139.71571,35.72213],[139.71614,35.72182],[139.7149,35.72017],[139.71487,35.72021],[139.71442,35.71959],[139.71442,35.71954],[139.71413,35.71905],[139.71389,35.71878],[139.71358,35.71892],[139.71359,35.71918],[139.71352,35.71945],[139.71271,35.72148],[139.71193,35.7233]]]}},{"type":"Feature","properties":{"id":"area-13116013001","name":"高田一丁目"},"geometry":{"type":"Polygon","coordinates":[[[139.71998,35.71378],[139.72065,35.71345],[139.7222,35.71251],[139.72234,35.71236],[139.72233,35.71233],[139.72198,35.71247],[139.72193,35.71246],[139.72164,35.7125],[139.72102,35.71242],[139.72092,35.7125],[139.72083,35.71248],[139.72079,35.71263],[139.72054,35.71258],[139.72059,35.71272],[139.72067,35.71271],[139.72068,35.71274],[139.72081,35.71273],[139.72081,35.71284],[139.72071,35.71282],[139.72052,35.71287],[139.7204,35.71262],[139.72033,35.71257],[139.72036,35.71244],[139.72025,35.71243],[139.72025,35.71231],[139.71993,35.71231],[139.7199,35.71241],[139.7197,35.71246],[139.71973,35.71253],[139.71987,35.71256],[139.71991,35.71289],[139.71959,35.71301],[139.71944,35.71278],[139.71936,35.71279],[139.71931,35.71267],[139.71935,35.71264],[139.71929,35.71252],[139.71918,35.71247],[139.71901,35.71249],[139.71886,35.71261],[139.71876,35.71264],[139.71836,35.7126],[139.71833,35.71252],[139.71807,35.71257],[139.71798,35.71281],[139.71704,35.713],[139.717,35.71294],[139.71686,35.71298],[139.7167,35.71305],[139.71666,35.71317],[139.71641,35.71342],[139.71599,35.71359],[139.71577,35.71363],[139.71573,35.71363],[139.71551,35.71313],[139.71493,35.7132],[139.71486,35.71306],[139.71425,35.71328],[139.71435,35.71344],[139.71453,35.71385],[139.71456,35.71477],[139.71474,35.71483],[139.71485,35.71535],[139.71498,35.71566],[139.71505,35.71594],[139.7151,35.71621],[139.71515,35.71795],[139.71522,35.71818],[139.71618,35.71777],[139.71797,35.71695],[139.71775,35.71666],[139.71761,35.71597],[139.71742,35.7155],[139.71727,35.71467],[139.71731,35.71459],[139.71742,35.71447],[139.71754,35.71439],[139.71779,35.71431],[139.71897,35.71412],[139.71998,35.71378]]]}},{"type":"Feature","properties":{"id":"area-13116013002","name":"高田二丁目"},"geometry":{"type":"Polygon","coordinates":[[[139.71435,35.71344],[139.71425,35.71328],[139.7137,35.71351],[139.71351,35.71367],[139.71321,35.71403],[139.71201,35.71481],[139.71174,35.71488],[139.71351,35.71867],[139.71358,35.71892],[139.71522,35.71818],[139.71515,35.71795],[139.7151,35.71621],[139.71498,35.71566],[139.71485,35.71535],[139.71474,35.71483],[139.71456,35.71477],[139.71453,35.71385],[139.71435,35.71344]]]}},{"type":"Feature","properties":{"id":"area-13116013003","name":"高田三丁目"},"geometry":{"type":"Polygon","coordinates":[[[139.70719,35.7169],[139.7086,35.71665],[139.7094,35.7166],[139.71,35.71636],[139.71019,35.71646],[139.71121,35.71678],[139.71184,35.71685],[139.71201,35.71678],[139.71222,35.71663],[139.71246,35.71639],[139.71174,35.71488],[139.71149,35.71492],[139.71136,35.71476],[139.71066,35.71409],[139.71029,35.71354],[139.71019,35.71357],[139.71021,35.71363],[139.71016,35.71364],[139.71013,35.71355],[139.71002,35.71356],[139.71002,35.7136],[139.70981,35.71365],[139.70981,35.71371],[139.70955,35.7137],[139.70906,35.71382],[139.70847,35.71385],[139.7076,35.71383],[139.70751,35.71372],[139.7074,35.71373],[139.70736,35.71369],[139.70702,35.7137],[139.70701,35.71362],[139.70687,35.71362],[139.70636,35.71353],[139.70603,35.71354],[139.70579,35.71363],[139.7059,35.71383],[139.70524,35.71391],[139.70527,35.71408],[139.70577,35.71403],[139.70578,35.71412],[139.70567,35.71413],[139.70569,35.7143],[139.70556,35.71431],[139.70557,35.71447],[139.7054,35.71453],[139.70527,35.71466],[139.70504,35.71471],[139.7049,35.71478],[139.70476,35.71487],[139.70463,35.71502],[139.70457,35.71517],[139.7045,35.71573],[139.7044,35.71616],[139.70469,35.71629],[139.70548,35.71632],[139.7055,35.71654],[139.70527,35.7166],[139.70533,35.71677],[139.70551,35.71673],[139.70551,35.71666],[139.70563,35.71665],[139.70563,35.71695],[139.70556,35.71733],[139.7056,35.71743],[139.70565,35.71747],[139.70563,35.71743],[139.70605,35.71733],[139.70719,35.7169]]]}},{"type":"Feature","properties":{"id":"area-13116014001","name":"目白一丁目"},"geometry":{"type":"Polygon","coordinates":[[[139.70689,35.72164],[139.70869,35.72072],[139.70922,35.72059],[139.70956,35.72047],[139.71111,35.72003],[139.71261,35.7194],[139.71358,35.71892],[139.71351,35.71867],[139.71246,35.71639],[139.71222,35.71663],[139.71201,35.71678],[139.71184,35.71685],[139.71121,35.71678],[139.71019,35.71646],[139.71,35.71636],[139.7094,35.7166],[139.7086,35.71665],[139.70719,35.7169],[139.70605,35.71733],[139.70563,35.71743],[139.70567,35.71752],[139.70565,35.71762],[139.70568,35.71768],[139.7055,35.71774],[139.70601,35.71913],[139.70604,35.71912],[139.70681,35.7213],[139.70683,35.72129],[139.70689,35.72142],[139.70685,35.72143],[139.70689,35.72164]]]}},{"type":"Feature","properties":{"id":"area-13116014002","name":"目白二丁目"},"geometry":{"type":"Polygon","coordinates":[[[139.71207,35.72298],[139.71352,35.71945],[139.71359,35.71918],[139.71358,35.71892],[139.71261,35.7194],[139.71111,35.72003],[139.70956,35.72047],[139.70922,35.72059],[139.70869,35.72072],[139.70689,35.72164],[139.7073,35.72256],[139.70829,35.72447],[139.70918,35.72423],[139.70931,35.72416],[139.70945,35.72397],[139.71051,35.72335],[139.7107,35.72328],[139.71161,35.7231],[139.71207,35.72298]]]}},{"type":"Feature","properties":{"id":"area-13116014003","name":"目白三丁目"},"geometry":{"type":"Polygon","coordinates":[[[139.70722,35.72426],[139.70783,35.72418],[139.70804,35.72453],[139.70829,35.72447],[139.70711,35.72216],[139.70689,35.72164],[139.70685,35.72143],[139.70689,35.72142],[139.70683,35.72129],[139.70681,35.7213],[139.70604,35.71912],[139.70601,35.71913],[139.70581,35.71862],[139.70537,35.71896],[139.70521,35.71913],[139.70491,35.7198],[139.70453,35.72015],[139.70475,35.72038],[139.70487,35.72057],[139.70481,35.72067],[139.7047,35.72069],[139.70473,35.72085],[139.70493,35.72083],[139.70505,35.72077],[139.70512,35.72085],[139.70518,35.72083],[139.7056,35.72122],[139.7058,35.72149],[139.70526,35.72171],[139.70445,35.72221],[139.70429,35.72223],[139.70448,35.72256],[139.70459,35.72264],[139.70469,35.7228],[139.704,35.72304],[139.70287,35.72328],[139.70278,35.7242],[139.70271,35.72556],[139.70272,35.72593],[139.70267,35.72601],[139.70588,35.72481],[139.70722,35.72426]]]}},{"type":"Feature","properties":{"id":"area-13116014004","name":"目白四丁目"},"geometry":{"type":"Polygon","coordinates":[[[139.70271,35.72556],[139.70287,35.72328],[139.70132,35.72344],[139.70015,35.72346],[139.69992,35.72351],[139.6995,35.72282],[139.6992,35.72275],[139.69904,35.72262],[139.69897,35.72272],[139.69891,35.72269],[139.69896,35.72261],[139.69851,35.72231],[139.69821,35.72217],[139.698,35.72211],[139.69797,35.72216],[139.69731,35.72207],[139.69728,35.72231],[139.69733,35.72292],[139.69775,35.72438],[139.6977,35.72557],[139.6978,35.72626],[139.69928,35.72657],[139.69983,35.72662],[139.70036,35.72662],[139.70121,35.72652],[139.70167,35.72639],[139.70267,35.72601],[139.70272,35.72593],[139.70271,35.72556]]]}},{"type":"Feature","properties":{"id":"area-13116014005","name":"目白五丁目"},"geometry":{"type":"Polygon","coordinates":[[[139.69562,35.72626],[139.69651,35.72616],[139.6978,35.72626],[139.6977,35.72557],[139.69775,35.72438],[139.69733,35.72292],[139.69728,35.72231],[139.6973,35.72214],[139.69694,35.72214],[139.69694,35.72217],[139.6966,35.72216],[139.6966,35.7221],[139.69645,35.7221],[139.69645,35.72224],[139.69605,35.72224],[139.69605,35.72215],[139.69584,35.72216],[139.69584,35.72208],[139.69573,35.72208],[139.69542,35.72213],[139.69542,35.72219],[139.69524,35.72218],[139.69524,35.72226],[139.69502,35.72229],[139.69487,35.72201],[139.69443,35.72219],[139.6942,35.72236],[139.69277,35.72252],[139.69279,35.72264],[139.69416,35.72406],[139.69562,35.72626]]]}},{"type":"Feature","properties":{"id":"area-13116015001","name":"南長崎一丁目"},"geometry":{"type":"Polygon","coordinates":[[[139.69279,35.72264],[139.69277,35.72252],[139.69076,35.7227],[139.6909,35.72322],[139.69208,35.72699],[139.69562,35.72626],[139.69416,35.72406],[139.69279,35.72264]]]}},{"type":"Feature","properties":{"id":"area-13116015002","name":"南長崎二丁目"},"geometry":{"type":"Polygon","coordinates":[[[139.6909,35.72322],[139.69076,35.7227],[139.68985,35.72278],[139.68981,35.72284],[139.68971,35.72284],[139.68902,35.7232],[139.68847,35.72357],[139.68936,35.72575],[139.6896,35.72751],[139.69208,35.72699],[139.6909,35.72322]]]}},{"type":"Feature","properties":{"id":"area-13116015003","name":"南長崎三丁目"},"geometry":{"type":"Polygon","coordinates":[[[139.68873,35.72337],[139.68971,35.72284],[139.68603,35.72291],[139.68586,35.72487],[139.68591,35.72509],[139.68572,35.72522],[139.68722,35.72798],[139.6896,35.72751],[139.68936,35.72575],[139.68847,35.72357],[139.68873,35.72337]]]}},{"type":"Feature","properties":{"id":"area-13116015004","name":"南長崎四丁目"},"geometry":{"type":"Polygon","coordinates":[[[139.68586,35.72493],[139.68603,35.72291],[139.68437,35.72274],[139.68437,35.72299],[139.68434,35.72323],[139.68418,35.72376],[139.68349,35.7237],[139.68296,35.72359],[139.68286,35.7238],[139.68273,35.72376],[139.68257,35.72403],[139.68222,35.72392],[139.68198,35.72449],[139.68227,35.72455],[139.6822,35.72471],[139.68206,35.72476],[139.68197,35.72484],[139.68187,35.72522],[139.68197,35.72526],[139.68233,35.72557],[139.68365,35.72679],[139.68349,35.72692],[139.68393,35.72735],[139.68495,35.72877],[139.68531,35.72858],[139.68625,35.72821],[139.68722,35.72798],[139.68572,35.72522],[139.68591,35.72509],[139.68586,35.72493]]]}},{"type":"Feature","properties":{"id":"area-13116015005","name":"南長崎五丁目"},"geometry":{"type":"Polygon","coordinates":[[[139.68382,35.72949],[139.68456,35.72893],[139.6846,35.72895],[139.68495,35.72877],[139.68393,35.72735],[139.68349,35.72692],[139.68365,35.72679],[139.68233,35.72557],[139.68197,35.72526],[139.6819,35.72523],[139.68183,35.72537],[139.68179,35.72584],[139.68163,35.72635],[139.68175,35.72638],[139.6817,35.72644],[139.68152,35.72642],[139.68148,35.72665],[139.68162,35.72667],[139.68144,35.72695],[139.68142,35.72716],[139.68135,35.72734],[139.68117,35.7275],[139.68074,35.72779],[139.68064,35.72783],[139.68059,35.72761],[139.68007,35.72788],[139.68055,35.72836],[139.68106,35.72878],[139.68063,35.72914],[139.68216,35.73077],[139.683,35.73004],[139.68382,35.72949]]]}},{"type":"Feature","properties":{"id":"area-13116015006","name":"南長崎六丁目"},"geometry":{"type":"Polygon","coordinates":[[[139.68043,35.72825],[139.68007,35.72788],[139.67945,35.72819],[139.67926,35.72842],[139.67934,35.72851],[139.67753,35.72956],[139.67806,35.73066],[139.67837,35.73102],[139.67764,35.73176],[139.67913,35.7326],[139.67915,35.73278],[139.67909,35.73323],[139.67918,35.73332],[139.67993,35.73274],[139.67987,35.73266],[139.68216,35.73077],[139.68063,35.72914],[139.68106,35.72878],[139.68043,35.72825]]]}},{"type":"Feature","properties":{"id":"area-13116016001","name":"長崎一丁目"},"geometry":{"type":"Polygon","coordinates":[[[139.69731,35.72887],[139.69562,35.72626],[139.69358,35.72668],[139.69362,35.72685],[139.69361,35.7272],[139.69321,35.73074],[139.69495,35.73063],[139.69494,35.73046],[139.6956,35.72982],[139.69772,35.72969],[139.69731,35.72887]]]}},{"type":"Feature","properties":{"id":"area-13116016002","name":"長崎二丁目"},"geometry":{"type":"Polygon","coordinates":[[[139.69362,35.72685],[139.69358,35.72668],[139.68959,35.72752],[139.6901,35.73123],[139.69117,35.73125],[139.6919,35.7311],[139.69321,35.73074],[139.69361,35.7272],[139.69362,35.72685]]]}},{"type":"Feature","properties":{"id":"area-13116016003","name":"長崎三丁目"},"geometry":{"type":"Polygon","coordinates":[[[139.68908,35.73209],[139.69001,35.73212],[139.69024,35.73145],[139.69027,35.73124],[139.6901,35.73123],[139.68959,35.72752],[139.68825,35.72777],[139.68637,35.72818],[139.68751,35.73076],[139.68759,35.7309],[139.68773,35.73126],[139.68768,35.73133],[139.68778,35.73235],[139.68908,35.73209]]]}},{"type":"Feature","properties":{"id":"area-13116016004","name":"長崎四丁目"},"geometry":{"type":"Polygon","coordinates":[[[139.68369,35.73293],[139.68546,35.73262],[139.68609,35.73267],[139.68666,35.73259],[139.68675,35.73254],[139.68778,35.73235],[139.68768,35.73133],[139.68773,35.73126],[139.68759,35.7309],[139.68751,35.73076],[139.68637,35.72818],[139.68575,35.72839],[139.68531,35.72858],[139.6846,35.72895],[139.68456,35.72893],[139.68382,35.72949],[139.68326,35.72985],[139.68345,35.73012],[139.68372,35.73041],[139.68334,35.73054],[139.68332,35.73061],[139.68352,35.73203],[139.68369,35.73293]]]}},{"type":"Feature","properties":{"id":"area-13116016005","name":"長崎五丁目"},"geometry":{"type":"Polygon","coordinates":[[[139.68448,35.7363],[139.6848,35.73548],[139.68511,35.7343],[139.68477,35.73417],[139.6846,35.73356],[139.68463,35.73351],[139.68434,35.73281],[139.68369,35.73293],[139.68352,35.73203],[139.68332,35.73061],[139.68334,35.73054],[139.68372,35.73041],[139.68345,35.73012],[139.68326,35.72985],[139.68264,35.73034],[139.68159,35.73126],[139.67987,35.73266],[139.68016,35.73299],[139.68047,35.73328],[139.68372,35.73596],[139.68374,35.73594],[139.68414,35.73616],[139.68448,35.7363]]]}},{"type":"Feature","properties":{"id":"area-13116016006","name":"長崎六丁目"},"geometry":{"type":"Polygon","coordinates":[[[139.68078,35.73777],[139.68083,35.73765],[139.68113,35.7377],[139.68112,35.73774],[139.68165,35.73743],[139.68218,35.73733],[139.68235,35.73716],[139.68257,35.73701],[139.68262,35.73693],[139.68372,35.73596],[139.68047,35.73328],[139.67993,35.73274],[139.67918,35.73332],[139.67922,35.73334],[139.67911,35.73363],[139.67896,35.73381],[139.6789,35.73396],[139.67857,35.7342],[139.67851,35.73444],[139.67867,35.73468],[139.67901,35.7349],[139.67906,35.73498],[139.67904,35.73525],[139.67899,35.73532],[139.67901,35.73549],[139.67907,35.73557],[139.67953,35.73578],[139.67954,35.73589],[139.67999,35.73626],[139.68044,35.73675],[139.68033,35.73684],[139.68042,35.73694],[139.68042,35.73709],[139.68055,35.7373],[139.68062,35.73753],[139.68066,35.73758],[139.68067,35.73776],[139.68078,35.73777]]]}},{"type":"Feature","properties":{"id":"area-13116017001","name":"千早一丁目"},"geometry":{"type":"Polygon","coordinates":[[[139.697,35.73269],[139.69822,35.73268],[139.69916,35.73279],[139.69837,35.73105],[139.69772,35.72969],[139.6956,35.72982],[139.69494,35.73046],[139.69495,35.73063],[139.69319,35.73075],[139.69292,35.73296],[139.69355,35.73301],[139.69463,35.73317],[139.69499,35.73313],[139.69604,35.73287],[139.697,35.73269]]]}},{"type":"Feature","properties":{"id":"area-13116017002","name":"千早二丁目"},"geometry":{"type":"Polygon","coordinates":[[[139.69058,35.73659],[139.69108,35.73603],[139.69124,35.73595],[139.69286,35.73391],[139.69297,35.73246],[139.69319,35.73075],[139.6919,35.7311],[139.69117,35.73125],[139.69027,35.73124],[139.69024,35.73145],[139.69001,35.73212],[139.68908,35.73209],[139.68795,35.73601],[139.68989,35.73638],[139.69058,35.73659]]]}},{"type":"Feature","properties":{"id":"area-13116017003","name":"千早三丁目"},"geometry":{"type":"Polygon","coordinates":[[[139.68732,35.73634],[139.68744,35.73592],[139.68795,35.73601],[139.68908,35.73209],[139.68859,35.73221],[139.68675,35.73254],[139.68666,35.73259],[139.68609,35.73267],[139.68546,35.73262],[139.68434,35.73281],[139.68463,35.73351],[139.6846,35.73356],[139.68477,35.73417],[139.68511,35.7343],[139.6848,35.73548],[139.68448,35.7363],[139.68525,35.73675],[139.68572,35.73695],[139.6863,35.73712],[139.6871,35.73729],[139.68738,35.73635],[139.68732,35.73634]]]}},{"type":"Feature","properties":{"id":"area-13116017004","name":"千早四丁目"},"geometry":{"type":"Polygon","coordinates":[[[139.68459,35.73636],[139.68414,35.73616],[139.68374,35.73594],[139.68262,35.73693],[139.68257,35.73701],[139.68235,35.73716],[139.68218,35.73733],[139.68165,35.73743],[139.68112,35.73774],[139.68097,35.73808],[139.68089,35.73817],[139.68071,35.73828],[139.68074,35.73839],[139.68084,35.73851],[139.68106,35.73866],[139.68104,35.73876],[139.68249,35.73903],[139.68404,35.73947],[139.68499,35.7398],[139.68582,35.74003],[139.68619,35.7393],[139.68637,35.73906],[139.68685,35.73863],[139.68647,35.73805],[139.68607,35.73775],[139.6863,35.73712],[139.68572,35.73695],[139.68525,35.73675],[139.68459,35.73636]]]}},{"type":"Feature","properties":{"id":"area-13116018001","name":"要町一丁目"},"geometry":{"type":"Polygon","coordinates":[[[139.69694,35.73718],[139.69704,35.73703],[139.69724,35.73726],[139.69772,35.73707],[139.69885,35.73673],[139.69863,35.73649],[139.69815,35.73608],[139.69799,35.73558],[139.69782,35.73545],[139.69773,35.73533],[139.69752,35.73494],[139.7001,35.73463],[139.70002,35.73423],[139.69989,35.7342],[139.69937,35.73321],[139.69948,35.73319],[139.69945,35.7331],[139.69923,35.73303],[139.69912,35.73285],[139.6992,35.73279],[139.69822,35.73268],[139.697,35.73269],[139.69604,35.73287],[139.69501,35.73313],[139.69496,35.73354],[139.6948,35.734],[139.69484,35.73479],[139.69481,35.73575],[139.69494,35.73741],[139.69577,35.73745],[139.69658,35.73727],[139.69678,35.73727],[139.69694,35.73718]]]}},{"type":"Feature","properties":{"id":"area-13116018002","name":"要町二丁目"},"geometry":{"type":"Polygon","coordinates":[[[139.69481,35.73575],[139.6948,35.734],[139.69496,35.73354],[139.69501,35.73313],[139.69463,35.73317],[139.69355,35.73301],[139.69292,35.73296],[139.69286,35.73391],[139.6928,35.73401],[139.69124,35.73595],[139.69108,35.73603],[139.69058,35.73659],[139.69207,35.73708],[139.69494,35.73736],[139.69481,35.73575]]]}},{"type":"Feature","properties":{"id":"area-13116018003","name":"要町三丁目"},"geometry":{"type":"Polygon","coordinates":[[[139.69009,35.74117],[139.69092,35.73813],[139.69191,35.73826],[139.69207,35.73708],[139.68989,35.73638],[139.68744,35.73592],[139.68732,35.73634],[139.68738,35.73635],[139.6871,35.73729],[139.6863,35.73712],[139.68607,35.73775],[139.68647,35.73805],[139.68685,35.73863],[139.68637,35.73906],[139.68619,35.7393],[139.68582,35.74003],[139.68749,35.74053],[139.68813,35.74066],[139.68874,35.74094],[139.6894,35.74115],[139.68986,35.7414],[139.69009,35.74117]]]}},{"type":"Feature","properties":{"id":"area-13116019001","name":"高松一丁目"},"geometry":{"type":"Polygon","coordinates":[[[139.69968,35.73712],[139.70039,35.73695],[139.70058,35.73697],[139.70172,35.73711],[139.70188,35.73642],[139.70048,35.73513],[139.70022,35.73462],[139.69752,35.73494],[139.69773,35.73533],[139.69782,35.73545],[139.69799,35.73558],[139.69815,35.73608],[139.69863,35.73649],[139.69934,35.73724],[139.69968,35.73712]]]}},{"type":"Feature","properties":{"id":"area-13116019002","name":"高松二丁目"},"geometry":{"type":"Polygon","coordinates":[[[139.70077,35.74003],[139.70208,35.73724],[139.70172,35.73711],[139.70039,35.73695],[139.69968,35.73712],[139.69934,35.73724],[139.69885,35.73673],[139.69772,35.73707],[139.69724,35.73726],[139.69704,35.73703],[139.69694,35.73718],[139.69678,35.73727],[139.69658,35.73727],[139.69577,35.73745],[139.69494,35.73741],[139.69504,35.7383],[139.69507,35.73833],[139.69487,35.73958],[139.6994,35.73989],[139.70077,35.74003]]]}},{"type":"Feature","properties":{"id":"area-13116019003","name":"高松三丁目"},"geometry":{"type":"Polygon","coordinates":[[[139.69905,35.73987],[139.69487,35.73958],[139.69465,35.74213],[139.69868,35.74229],[139.69905,35.73987]]]}},{"type":"Feature","properties":{"id":"area-13116020001","name":"千川一丁目"},"geometry":{"type":"Polygon","coordinates":[[[139.69504,35.7383],[139.69494,35.73736],[139.69207,35.73708],[139.69191,35.73826],[139.69092,35.73813],[139.69049,35.73977],[139.69371,35.74032],[139.6948,35.74038],[139.69487,35.73958],[139.69507,35.73833],[139.69504,35.7383]]]}},{"type":"Feature","properties":{"id":"area-13116020002","name":"千川二丁目"},"geometry":{"type":"Polygon","coordinates":[[[139.69272,35.74348],[139.69327,35.74305],[139.69353,35.74291],[139.69409,35.74291],[139.69409,35.743],[139.69427,35.74308],[139.69465,35.7431],[139.69465,35.74213],[139.6948,35.74038],[139.69371,35.74032],[139.69049,35.73977],[139.69009,35.74117],[139.68986,35.7414],[139.69167,35.74269],[139.69257,35.74348],[139.6926,35.74344],[139.69272,35.74348]]]}}]}