{"type":"FeatureCollection","features":[{"type":"Feature","properties":{"id":"area-13122001001","name":"立石一丁目"},"geometry":{"type":"Polygon","coordinates":[[[139.85015,35.73858],[139.85049,35.73735],[139.85053,35.73733],[139.84793,35.73681],[139.84643,35.73658],[139.84521,35.73647],[139.84252,35.73616],[139.84204,35.73602],[139.84113,35.73587],[139.84117,35.73593],[139.841,35.73606],[139.84167,35.73652],[139.84252,35.73696],[139.84308,35.73718],[139.84395,35.73743],[139.84729,35.73801],[139.84757,35.73802],[139.8491,35.73828],[139.84915,35.73834],[139.85015,35.73858]]]}},{"type":"Feature","properties":{"id":"area-13122001002","name":"立石二丁目"},"geometry":{"type":"Polygon","coordinates":[[[139.84134,35.73631],[139.84092,35.736],[139.83967,35.73698],[139.83904,35.73741],[139.83786,35.73845],[139.84025,35.74068],[139.84095,35.74138],[139.84215,35.7415],[139.84225,35.74078],[139.84308,35.73718],[139.84252,35.73696],[139.84194,35.73667],[139.84134,35.73631]]]}},{"type":"Feature","properties":{"id":"area-13122001003","name":"立石三丁目"},"geometry":{"type":"Polygon","coordinates":[[[139.84395,35.73743],[139.84308,35.73718],[139.84225,35.74078],[139.84215,35.7415],[139.84551,35.7419],[139.84571,35.7407],[139.84637,35.73786],[139.84395,35.73743]]]}},{"type":"Feature","properties":{"id":"area-13122001004","name":"立石四丁目"},"geometry":{"type":"Polygon","coordinates":[[[139.84757,35.73802],[139.84729,35.73801],[139.84637,35.73786],[139.84571,35.7407],[139.84551,35.7419],[139.84838,35.74224],[139.84866,35.74163],[139.84894,35.74094],[139.84888,35.74046],[139.84876,35.74005],[139.84888,35.73997],[139.84927,35.73837],[139.84915,35.73834],[139.8491,35.73828],[139.84757,35.73802]]]}},{"type":"Feature","properties":{"id":"area-13122001005","name":"立石五丁目"},"geometry":{"type":"Polygon","coordinates":[[[139.8469,35.74562],[139.8472,35.74516],[139.84797,35.74308],[139.84838,35.74224],[139.84095,35.74138],[139.84211,35.74248],[139.84357,35.74401],[139.84379,35.74426],[139.84411,35.74481],[139.84454,35.74526],[139.84466,35.74521],[139.84545,35.74613],[139.84583,35.74663],[139.84661,35.74647],[139.8469,35.74562]]]}},{"type":"Feature","properties":{"id":"area-13122001006","name":"立石六丁目"},"geometry":{"type":"Polygon","coordinates":[[[139.85347,35.74434],[139.85405,35.74432],[139.85457,35.74439],[139.85497,35.74453],[139.85525,35.74467],[139.85516,35.74453],[139.8553,35.74444],[139.85314,35.74159],[139.85117,35.74257],[139.84838,35.74224],[139.84797,35.74308],[139.8472,35.74516],[139.8469,35.74562],[139.84661,35.74647],[139.84766,35.74626],[139.84874,35.746],[139.84955,35.74576],[139.85268,35.74453],[139.85302,35.74442],[139.85347,35.74434]]]}},{"type":"Feature","properties":{"id":"area-13122001007","name":"立石七丁目"},"geometry":{"type":"Polygon","coordinates":[[[139.85117,35.74257],[139.85314,35.74159],[139.8519,35.73994],[139.85163,35.73961],[139.85114,35.73915],[139.85063,35.73881],[139.85015,35.73858],[139.84927,35.73837],[139.84888,35.73997],[139.84876,35.74005],[139.84888,35.74046],[139.84894,35.74094],[139.84866,35.74163],[139.84838,35.74224],[139.85117,35.74257]]]}},{"type":"Feature","properties":{"id":"area-13122001008","name":"立石八丁目"},"geometry":{"type":"Polygon","coordinates":[[[139.8544,35.74194],[139.85504,35.7416],[139.85511,35.74168],[139.85697,35.74075],[139.85737,35.74124],[139.85728,35.7413],[139.85812,35.74221],[139.85913,35.74149],[139.85931,35.74133],[139.85961,35.74087],[139.85987,35.74008],[139.86018,35.73847],[139.86014,35.73793],[139.86008,35.73778],[139.85991,35.73758],[139.85947,35.73731],[139.85935,35.73728],[139.85915,35.73729],[139.8587,35.73739],[139.85827,35.73753],[139.85701,35.7381],[139.85603,35.73827],[139.85544,35.73831],[139.85481,35.73831],[139.85376,35.73793],[139.85356,35.73781],[139.85328,35.73752],[139.85304,35.73721],[139.85232,35.73753],[139.852,35.73757],[139.85053,35.73733],[139.85049,35.73735],[139.85015,35.73858],[139.85042,35.73869],[139.85099,35.73903],[139.85135,35.73932],[139.85163,35.73961],[139.85373,35.74236],[139.85438,35.74202],[139.8544,35.74194]]]}},{"type":"Feature","properties":{"id":"area-13122002001","name":"東立石一丁目"},"geometry":{"type":"Polygon","coordinates":[[[139.84991,35.73249],[139.85064,35.73214],[139.8508,35.73227],[139.85094,35.73233],[139.85118,35.73238],[139.85119,35.73234],[139.85118,35.73171],[139.85098,35.73],[139.8504,35.72976],[139.84992,35.72947],[139.84971,35.72922],[139.84934,35.72834],[139.84914,35.72817],[139.84843,35.72771],[139.84743,35.72873],[139.84442,35.73216],[139.84875,35.73239],[139.84991,35.73249]]]}},{"type":"Feature","properties":{"id":"area-13122002002","name":"東立石二丁目"},"geometry":{"type":"Polygon","coordinates":[[[139.85094,35.73281],[139.85118,35.73238],[139.8508,35.73227],[139.85064,35.73214],[139.84991,35.73249],[139.84875,35.73239],[139.84442,35.73216],[139.84275,35.73407],[139.84728,35.73431],[139.84788,35.73432],[139.84869,35.7345],[139.84897,35.73471],[139.84934,35.73444],[139.84971,35.73426],[139.85075,35.73306],[139.85094,35.73281]]]}},{"type":"Feature","properties":{"id":"area-13122002003","name":"東立石三丁目"},"geometry":{"type":"Polygon","coordinates":[[[139.84728,35.73431],[139.84275,35.73407],[139.84113,35.73587],[139.84204,35.73602],[139.84252,35.73616],[139.84521,35.73647],[139.84643,35.73658],[139.84792,35.73681],[139.84811,35.73595],[139.84821,35.73574],[139.84837,35.73557],[139.84855,35.73551],[139.84867,35.73529],[139.8488,35.7349],[139.84897,35.73471],[139.84869,35.7345],[139.84788,35.73432],[139.84728,35.73431]]]}},{"type":"Feature","properties":{"id":"area-13122002004","name":"東立石四丁目"},"geometry":{"type":"Polygon","coordinates":[[[139.85233,35.73752],[139.85273,35.73735],[139.85251,35.73673],[139.85238,35.73592],[139.85237,35.73568],[139.85242,35.73519],[139.85244,35.73505],[139.85251,35.73489],[139.85262,35.73471],[139.85291,35.73441],[139.85319,35.7342],[139.85393,35.73374],[139.85405,35.73363],[139.85446,35.73304],[139.8552,35.73219],[139.85535,35.73195],[139.8554,35.7318],[139.85544,35.73165],[139.85543,35.73138],[139.85536,35.73102],[139.85495,35.73038],[139.8548,35.73028],[139.85467,35.73025],[139.85436,35.73024],[139.85369,35.73027],[139.85298,35.7304],[139.85259,35.73038],[139.85207,35.73031],[139.85137,35.73007],[139.85098,35.73],[139.85118,35.73171],[139.8512,35.73228],[139.85112,35.73251],[139.85094,35.73281],[139.85075,35.73306],[139.84971,35.73426],[139.84934,35.73444],[139.84887,35.73479],[139.8488,35.7349],[139.84867,35.73529],[139.84855,35.73551],[139.84843,35.73553],[139.84828,35.73564],[139.84811,35.73595],[139.84792,35.73681],[139.85121,35.73746],[139.852,35.73757],[139.85233,35.73752]]]}},{"type":"Feature","properties":{"id":"area-13122003001","name":"四つ木一丁目"},"geometry":{"type":"Polygon","coordinates":[[[139.84092,35.736],[139.84055,35.73574],[139.84048,35.73576],[139.83875,35.73457],[139.83826,35.73419],[139.837,35.73338],[139.83699,35.73329],[139.83491,35.73188],[139.83489,35.73182],[139.83438,35.73147],[139.83408,35.73131],[139.8339,35.73112],[139.83149,35.7295],[139.829,35.73186],[139.83114,35.73343],[139.83354,35.73514],[139.83401,35.7351],[139.83442,35.73518],[139.83743,35.73544],[139.8395,35.73569],[139.83991,35.73575],[139.8399,35.73579],[139.84041,35.73585],[139.84048,35.73583],[139.84079,35.73611],[139.84092,35.736]]]}},{"type":"Feature","properties":{"id":"area-13122003002","name":"四つ木二丁目"},"geometry":{"type":"Polygon","coordinates":[[[139.84079,35.73611],[139.84048,35.73583],[139.84041,35.73585],[139.8399,35.73579],[139.83991,35.73575],[139.8379,35.73549],[139.83516,35.73526],[139.83442,35.73518],[139.83401,35.7351],[139.83354,35.73514],[139.83563,35.73663],[139.83744,35.73805],[139.83786,35.73845],[139.83904,35.73741],[139.83967,35.73698],[139.84079,35.73611]]]}},{"type":"Feature","properties":{"id":"area-13122003003","name":"四つ木三丁目"},"geometry":{"type":"Polygon","coordinates":[[[139.83303,35.73602],[139.83312,35.73514],[139.83354,35.73514],[139.83114,35.73343],[139.829,35.73186],[139.82811,35.73269],[139.82658,35.73423],[139.82594,35.73494],[139.82909,35.73694],[139.82954,35.73711],[139.83168,35.73925],[139.83204,35.73855],[139.83218,35.73804],[139.83251,35.73725],[139.83285,35.73622],[139.83303,35.73602]]]}},{"type":"Feature","properties":{"id":"area-13122003004","name":"四つ木四丁目"},"geometry":{"type":"Polygon","coordinates":[[[139.83354,35.73514],[139.83312,35.73514],[139.83303,35.73602],[139.83285,35.73622],[139.83251,35.73725],[139.83218,35.73804],[139.83204,35.73855],[139.83168,35.73925],[139.83216,35.73972],[139.83246,35.74025],[139.83266,35.74042],[139.83468,35.74167],[139.83706,35.73917],[139.83786,35.73845],[139.83744,35.73805],[139.83563,35.73663],[139.83354,35.73514]]]}},{"type":"Feature","properties":{"id":"area-13122003005","name":"四つ木五丁目"},"geometry":{"type":"Polygon","coordinates":[[[139.84025,35.74068],[139.83786,35.73845],[139.83706,35.73917],[139.83849,35.7415],[139.83948,35.74335],[139.84041,35.74573],[139.84115,35.74556],[139.84258,35.74486],[139.84378,35.74424],[139.84211,35.74248],[139.84025,35.74068]]]}},{"type":"Feature","properties":{"id":"area-13122004001","name":"東四つ木一丁目"},"geometry":{"type":"Polygon","coordinates":[[[139.84232,35.72997],[139.84252,35.72893],[139.84415,35.72902],[139.84425,35.72801],[139.8433,35.72745],[139.84313,35.72723],[139.84366,35.72731],[139.84402,35.72679],[139.84358,35.7265],[139.84328,35.72619],[139.84293,35.72544],[139.84286,35.7252],[139.84279,35.7245],[139.84282,35.72426],[139.84328,35.72287],[139.84049,35.72096],[139.83585,35.72539],[139.83869,35.72734],[139.83914,35.72776],[139.83935,35.72802],[139.84063,35.7292],[139.841,35.73019],[139.84128,35.73056],[139.84169,35.73099],[139.84225,35.73101],[139.84232,35.72997]]]}},{"type":"Feature","properties":{"id":"area-13122004002","name":"東四つ木二丁目"},"geometry":{"type":"Polygon","coordinates":[[[139.84365,35.73305],[139.84743,35.72873],[139.84843,35.72771],[139.84809,35.72753],[139.84765,35.72742],[139.84641,35.72748],[139.84575,35.72739],[139.84489,35.72714],[139.84402,35.72679],[139.84366,35.72731],[139.84313,35.72723],[139.8433,35.72745],[139.84425,35.72801],[139.84415,35.72902],[139.84252,35.72893],[139.84232,35.72997],[139.84225,35.73101],[139.84169,35.73099],[139.84365,35.73305]]]}},{"type":"Feature","properties":{"id":"area-13122004003","name":"東四つ木三丁目"},"geometry":{"type":"Polygon","coordinates":[[[139.8384,35.73166],[139.83867,35.73155],[139.83903,35.73132],[139.83957,35.73113],[139.84029,35.731],[139.84163,35.73101],[139.84169,35.73099],[139.84128,35.73056],[139.841,35.73019],[139.84063,35.7292],[139.83935,35.72802],[139.83914,35.72776],[139.83869,35.72734],[139.83585,35.72539],[139.83415,35.72696],[139.83149,35.7295],[139.8339,35.73112],[139.83408,35.73131],[139.83438,35.73147],[139.83489,35.73182],[139.83491,35.73188],[139.83494,35.73184],[139.83522,35.73173],[139.83575,35.73165],[139.83644,35.73171],[139.83675,35.73185],[139.8373,35.732],[139.8377,35.73198],[139.83794,35.73193],[139.8384,35.73166]]]}},{"type":"Feature","properties":{"id":"area-13122004004","name":"東四つ木四丁目"},"geometry":{"type":"Polygon","coordinates":[[[139.84113,35.73587],[139.84365,35.73305],[139.84169,35.73099],[139.84163,35.73101],[139.84029,35.731],[139.83957,35.73113],[139.83903,35.73132],[139.83867,35.73155],[139.8384,35.73166],[139.83794,35.73193],[139.8377,35.73198],[139.8373,35.732],[139.83675,35.73185],[139.83644,35.73171],[139.83575,35.73165],[139.83522,35.73173],[139.83494,35.73184],[139.83491,35.73188],[139.83699,35.73329],[139.837,35.73338],[139.83826,35.73419],[139.83875,35.73457],[139.84048,35.73576],[139.84055,35.73574],[139.841,35.73606],[139.84117,35.73593],[139.84113,35.73587]]]}},{"type":"Feature","properties":{"id":"area-13122005001","name":"宝町一丁目"},"geometry":{"type":"Polygon","coordinates":[[[139.8369,35.74438],[139.83719,35.74435],[139.83745,35.74444],[139.83805,35.74434],[139.8394,35.74432],[139.83981,35.74421],[139.83948,35.74335],[139.83849,35.7415],[139.83706,35.73917],[139.83377,35.74261],[139.8348,35.74328],[139.83547,35.74388],[139.83554,35.74398],[139.83595,35.74402],[139.83599,35.74443],[139.83659,35.74447],[139.8369,35.74438]]]}},{"type":"Feature","properties":{"id":"area-13122005002","name":"宝町二丁目"},"geometry":{"type":"Polygon","coordinates":[[[139.83794,35.74794],[139.84013,35.74774],[139.84048,35.74767],[139.84074,35.74753],[139.84101,35.74749],[139.8404,35.74571],[139.83981,35.74421],[139.8394,35.74432],[139.83805,35.74434],[139.83745,35.74444],[139.83719,35.74435],[139.8369,35.74438],[139.83659,35.74447],[139.83599,35.74443],[139.83595,35.74402],[139.83554,35.74398],[139.83532,35.74409],[139.83521,35.74429],[139.83384,35.74509],[139.83411,35.74535],[139.83409,35.7454],[139.83413,35.74553],[139.83339,35.746],[139.83334,35.74601],[139.83342,35.74631],[139.83352,35.74644],[139.83295,35.74641],[139.83297,35.74728],[139.83293,35.74727],[139.83292,35.7477],[139.83181,35.7477],[139.83186,35.74778],[139.83422,35.74785],[139.83493,35.74778],[139.83505,35.74779],[139.83506,35.74785],[139.8364,35.74795],[139.83794,35.74794]]]}},{"type":"Feature","properties":{"id":"area-13122006001","name":"堀切一丁目"},"geometry":{"type":"Polygon","coordinates":[[[139.83266,35.74376],[139.83468,35.74167],[139.83266,35.74042],[139.83246,35.74025],[139.83216,35.73972],[139.82954,35.73711],[139.82909,35.73694],[139.82594,35.73494],[139.82512,35.73593],[139.82361,35.73817],[139.82251,35.74011],[139.82556,35.7413],[139.82583,35.74117],[139.82604,35.7411],[139.82637,35.74109],[139.82663,35.74114],[139.82753,35.74154],[139.82794,35.74159],[139.82854,35.74163],[139.82898,35.74173],[139.82914,35.74182],[139.82937,35.74208],[139.82949,35.74228],[139.82962,35.74238],[139.82991,35.74217],[139.83013,35.74227],[139.83041,35.74228],[139.83056,35.74243],[139.83107,35.74282],[139.83266,35.74376]]]}},{"type":"Feature","properties":{"id":"area-13122006002","name":"堀切二丁目"},"geometry":{"type":"Polygon","coordinates":[[[139.83042,35.74617],[139.83266,35.74376],[139.83107,35.74282],[139.83056,35.74243],[139.83045,35.7423],[139.83025,35.74226],[139.83013,35.74227],[139.82991,35.74217],[139.82962,35.74238],[139.82949,35.74228],[139.82937,35.74208],[139.82914,35.74182],[139.82898,35.74173],[139.82854,35.74163],[139.82794,35.74159],[139.82753,35.74154],[139.82652,35.74112],[139.82637,35.74109],[139.82604,35.7411],[139.82583,35.74117],[139.82556,35.7413],[139.82251,35.74011],[139.82041,35.74388],[139.82341,35.74495],[139.8235,35.74482],[139.82515,35.74542],[139.82538,35.74554],[139.8257,35.74582],[139.82856,35.74605],[139.83042,35.74617]]]}},{"type":"Feature","properties":{"id":"area-13122006003","name":"堀切三丁目"},"geometry":{"type":"Polygon","coordinates":[[[139.83025,35.74775],[139.83036,35.74767],[139.83292,35.7477],[139.83293,35.74727],[139.83297,35.74728],[139.83295,35.74641],[139.83352,35.74644],[139.83342,35.74631],[139.83334,35.74601],[139.83339,35.746],[139.83413,35.74553],[139.83409,35.7454],[139.83411,35.74535],[139.83384,35.74509],[139.83521,35.74429],[139.83532,35.74409],[139.83554,35.74398],[139.83547,35.74388],[139.8348,35.74328],[139.83377,35.74261],[139.83139,35.74509],[139.83042,35.74617],[139.82856,35.74605],[139.8257,35.74582],[139.82592,35.74611],[139.82626,35.74617],[139.82663,35.74645],[139.82674,35.7469],[139.82686,35.74717],[139.8271,35.74742],[139.82718,35.74756],[139.83009,35.74766],[139.83008,35.74774],[139.83025,35.74775]]]}},{"type":"Feature","properties":{"id":"area-13122006004","name":"堀切四丁目"},"geometry":{"type":"Polygon","coordinates":[[[139.82678,35.7477],[139.82704,35.74756],[139.82718,35.74756],[139.8271,35.74742],[139.82686,35.74717],[139.82674,35.7469],[139.82663,35.74645],[139.82626,35.74617],[139.82592,35.74611],[139.82566,35.74575],[139.82538,35.74554],[139.82515,35.74542],[139.8235,35.74482],[139.82341,35.74495],[139.82041,35.74388],[139.81834,35.74777],[139.82077,35.74917],[139.82059,35.75007],[139.82062,35.75028],[139.82058,35.75084],[139.82268,35.75035],[139.82797,35.74974],[139.82774,35.74921],[139.82685,35.74784],[139.82678,35.7477]]]}},{"type":"Feature","properties":{"id":"area-13122006005","name":"堀切五丁目"},"geometry":{"type":"Polygon","coordinates":[[[139.83088,35.75092],[139.83091,35.7508],[139.83134,35.75083],[139.83135,35.75095],[139.83141,35.75102],[139.83322,35.75079],[139.83326,35.75076],[139.83306,35.75038],[139.83307,35.75032],[139.83275,35.74993],[139.83262,35.74969],[139.83181,35.7477],[139.83036,35.74767],[139.83025,35.74775],[139.83008,35.74774],[139.83009,35.74766],[139.82704,35.74756],[139.82678,35.7477],[139.82774,35.74921],[139.82797,35.74974],[139.82798,35.75004],[139.82784,35.75119],[139.83011,35.75115],[139.83037,35.75111],[139.8305,35.75098],[139.83088,35.75092]]]}},{"type":"Feature","properties":{"id":"area-13122006006","name":"堀切六丁目"},"geometry":{"type":"Polygon","coordinates":[[[139.83362,35.75383],[139.83334,35.75337],[139.8332,35.75292],[139.83317,35.75277],[139.83317,35.75251],[139.83322,35.75237],[139.8332,35.75199],[139.83302,35.75164],[139.83299,35.75151],[139.83301,35.75132],[139.83308,35.7512],[139.83336,35.75113],[139.83322,35.75079],[139.83141,35.75102],[139.83135,35.75095],[139.83134,35.75083],[139.83091,35.7508],[139.83088,35.75092],[139.8305,35.75098],[139.83037,35.75111],[139.83011,35.75115],[139.82784,35.75119],[139.82753,35.753],[139.82745,35.75375],[139.82852,35.75381],[139.82856,35.75376],[139.82977,35.75383],[139.82976,35.75385],[139.8338,35.75405],[139.83362,35.75383]]]}},{"type":"Feature","properties":{"id":"area-13122006007","name":"堀切七丁目"},"geometry":{"type":"Polygon","coordinates":[[[139.82977,35.75383],[139.82856,35.75376],[139.82852,35.75381],[139.82745,35.75375],[139.8274,35.75404],[139.82742,35.75422],[139.82806,35.75626],[139.83179,35.75643],[139.83365,35.75648],[139.83368,35.75652],[139.83407,35.75652],[139.83447,35.7562],[139.83491,35.75571],[139.83384,35.75405],[139.82976,35.75385],[139.82977,35.75383]]]}},{"type":"Feature","properties":{"id":"area-13122006008","name":"堀切八丁目"},"geometry":{"type":"Polygon","coordinates":[[[139.83588,35.75896],[139.83534,35.75699],[139.8351,35.7562],[139.83491,35.75571],[139.83447,35.7562],[139.83407,35.75652],[139.83368,35.75652],[139.83365,35.75648],[139.83179,35.75643],[139.82806,35.75626],[139.82849,35.75742],[139.82885,35.75744],[139.82906,35.75749],[139.82962,35.75765],[139.83008,35.75787],[139.83066,35.75851],[139.83075,35.75856],[139.83343,35.75867],[139.83588,35.75896]]]}},{"type":"Feature","properties":{"id":"area-13122007001","name":"東堀切一丁目"},"geometry":{"type":"Polygon","coordinates":[[[139.83326,35.75076],[139.83754,35.75045],[139.83642,35.74795],[139.83506,35.74785],[139.83505,35.74779],[139.83493,35.74778],[139.83422,35.74785],[139.83186,35.74778],[139.83226,35.74884],[139.83262,35.74969],[139.83275,35.74993],[139.83307,35.75032],[139.83306,35.75038],[139.83326,35.75076]]]}},{"type":"Feature","properties":{"id":"area-13122007002","name":"東堀切二丁目"},"geometry":{"type":"Polygon","coordinates":[[[139.83518,35.7541],[139.83667,35.75393],[139.8391,35.75284],[139.83754,35.75045],[139.8348,35.75064],[139.83326,35.75076],[139.83322,35.75079],[139.83336,35.75113],[139.83308,35.7512],[139.83301,35.75132],[139.83299,35.75151],[139.83302,35.75164],[139.8332,35.75199],[139.83322,35.75237],[139.83317,35.75251],[139.83317,35.75277],[139.83334,35.75337],[139.83362,35.75383],[139.8338,35.75405],[139.83518,35.7541]]]}},{"type":"Feature","properties":{"id":"area-13122007003","name":"東堀切三丁目"},"geometry":{"type":"Polygon","coordinates":[[[139.84122,35.7562],[139.83906,35.75285],[139.83667,35.75393],[139.83518,35.7541],[139.83384,35.75405],[139.83491,35.75571],[139.83521,35.75656],[139.8368,35.75628],[139.83762,35.75638],[139.83806,35.75582],[139.83804,35.75597],[139.83814,35.75612],[139.84067,35.75671],[139.84102,35.75664],[139.84122,35.7562]]]}},{"type":"Feature","properties":{"id":"area-13122008001","name":"小菅一丁目"},"geometry":{"type":"Polygon","coordinates":[[[139.81701,35.76051],[139.81709,35.76004],[139.81976,35.76045],[139.81992,35.75922],[139.82021,35.75652],[139.82033,35.75578],[139.8206,35.75293],[139.82062,35.75132],[139.82058,35.75084],[139.82062,35.75028],[139.82059,35.75007],[139.82077,35.74917],[139.81834,35.74777],[139.81583,35.75087],[139.81466,35.75247],[139.8154,35.75353],[139.81493,35.75364],[139.81439,35.75385],[139.81397,35.75425],[139.81342,35.75536],[139.81359,35.75656],[139.81374,35.75727],[139.81334,35.7575],[139.81352,35.75817],[139.81352,35.7583],[139.81326,35.75935],[139.81329,35.75942],[139.81332,35.75941],[139.81369,35.7595],[139.81597,35.76022],[139.81701,35.76051]]]}},{"type":"Feature","properties":{"id":"area-13122008002","name":"小菅二丁目"},"geometry":{"type":"Polygon","coordinates":[[[139.82744,35.75371],[139.82794,35.75049],[139.82798,35.75004],[139.82797,35.74974],[139.82268,35.75035],[139.82058,35.75084],[139.82062,35.75132],[139.82061,35.75196],[139.82253,35.75211],[139.82314,35.75204],[139.82372,35.75215],[139.82351,35.7534],[139.82505,35.75373],[139.82651,35.75375],[139.82744,35.75371]]]}},{"type":"Feature","properties":{"id":"area-13122008003","name":"小菅三丁目"},"geometry":{"type":"Polygon","coordinates":[[[139.82782,35.75556],[139.82742,35.75422],[139.8274,35.75404],[139.82744,35.75371],[139.82651,35.75375],[139.82505,35.75373],[139.82351,35.7534],[139.82372,35.75215],[139.82314,35.75204],[139.82253,35.75211],[139.82061,35.75196],[139.8206,35.75293],[139.82031,35.75593],[139.82096,35.75589],[139.8222,35.75556],[139.82299,35.75558],[139.82322,35.75565],[139.82337,35.75577],[139.82334,35.75551],[139.82824,35.75675],[139.82782,35.75556]]]}},{"type":"Feature","properties":{"id":"area-13122008004","name":"小菅四丁目"},"geometry":{"type":"Polygon","coordinates":[[[139.82769,35.75739],[139.82794,35.75738],[139.82849,35.75742],[139.82824,35.75675],[139.82334,35.75551],[139.82337,35.75577],[139.82347,35.75587],[139.82351,35.75603],[139.82375,35.75741],[139.82429,35.76139],[139.82421,35.76199],[139.82697,35.76229],[139.82699,35.76197],[139.82686,35.7619],[139.82607,35.7618],[139.82592,35.76173],[139.82591,35.76148],[139.82599,35.76118],[139.82576,35.76051],[139.82527,35.75932],[139.82558,35.75827],[139.82551,35.75812],[139.8254,35.75804],[139.82589,35.75799],[139.82676,35.75767],[139.82769,35.75739]]]}},{"type":"Feature","properties":{"id":"area-13122009001","name":"お花茶屋一丁目"},"geometry":{"type":"Polygon","coordinates":[[[139.84124,35.74819],[139.84101,35.74749],[139.84065,35.74756],[139.84048,35.74767],[139.83962,35.7478],[139.83794,35.74794],[139.83642,35.74795],[139.83754,35.75045],[139.84207,35.75013],[139.84124,35.74819]]]}},{"type":"Feature","properties":{"id":"area-13122009002","name":"お花茶屋二丁目"},"geometry":{"type":"Polygon","coordinates":[[[139.84271,35.7522],[139.84207,35.75013],[139.83754,35.75045],[139.8391,35.75284],[139.84011,35.75241],[139.84271,35.7522]]]}},{"type":"Feature","properties":{"id":"area-13122009003","name":"お花茶屋三丁目"},"geometry":{"type":"Polygon","coordinates":[[[139.84351,35.75473],[139.84271,35.7522],[139.84011,35.75241],[139.83906,35.75285],[139.84122,35.7562],[139.84119,35.75626],[139.84418,35.75696],[139.84351,35.75473]]]}},{"type":"Feature","properties":{"id":"area-13122010001","name":"白鳥一丁目"},"geometry":{"type":"Polygon","coordinates":[[[139.84545,35.74613],[139.84466,35.74521],[139.84454,35.74526],[139.84411,35.74481],[139.84378,35.74424],[139.84258,35.74486],[139.84115,35.74556],[139.84041,35.74573],[139.84099,35.74745],[139.84577,35.74655],[139.84545,35.74613]]]}},{"type":"Feature","properties":{"id":"area-13122010002","name":"白鳥二丁目"},"geometry":{"type":"Polygon","coordinates":[[[139.84207,35.75013],[139.84521,35.74991],[139.84522,35.74995],[139.84721,35.74981],[139.84791,35.74952],[139.84716,35.74849],[139.84721,35.74846],[139.84577,35.74655],[139.84099,35.74745],[139.84124,35.74819],[139.84207,35.75013]]]}},{"type":"Feature","properties":{"id":"area-13122010003","name":"白鳥三丁目"},"geometry":{"type":"Polygon","coordinates":[[[139.8472,35.75009],[139.84738,35.74974],[139.84721,35.74981],[139.84623,35.74989],[139.84522,35.74995],[139.84521,35.74991],[139.84207,35.75013],[139.84423,35.75709],[139.8447,35.75605],[139.84532,35.75449],[139.84577,35.75347],[139.84575,35.75346],[139.8472,35.75009]]]}},{"type":"Feature","properties":{"id":"area-13122010004","name":"白鳥四丁目"},"geometry":{"type":"Polygon","coordinates":[[[139.85113,35.75336],[139.8491,35.75097],[139.84902,35.75102],[139.84851,35.75035],[139.84848,35.75014],[139.84811,35.74983],[139.84791,35.74952],[139.84738,35.74974],[139.84708,35.75033],[139.84697,35.75065],[139.84578,35.7534],[139.84934,35.75631],[139.85113,35.75336]]]}},{"type":"Feature","properties":{"id":"area-13122011001","name":"亀有一丁目"},"geometry":{"type":"Polygon","coordinates":[[[139.84625,35.76309],[139.84715,35.76278],[139.84765,35.76283],[139.8477,35.759],[139.84856,35.75765],[139.84933,35.7563],[139.84578,35.7534],[139.84577,35.75347],[139.84532,35.75449],[139.8447,35.75605],[139.84423,35.75709],[139.84534,35.76001],[139.84625,35.76309]]]}},{"type":"Feature","properties":{"id":"area-13122011002","name":"亀有二丁目"},"geometry":{"type":"Polygon","coordinates":[[[139.84934,35.75631],[139.84856,35.75765],[139.8477,35.759],[139.84765,35.76283],[139.8479,35.76287],[139.84985,35.76296],[139.85396,35.76322],[139.85519,35.76302],[139.85491,35.76256],[139.85471,35.76218],[139.85449,35.7613],[139.85448,35.76086],[139.85453,35.76058],[139.85461,35.76033],[139.85471,35.76014],[139.85231,35.75991],[139.85211,35.75972],[139.85203,35.75945],[139.85174,35.75903],[139.85177,35.75902],[139.85158,35.75862],[139.851,35.7577],[139.8504,35.75717],[139.84934,35.75631]]]}},{"type":"Feature","properties":{"id":"area-13122011003","name":"亀有三丁目"},"geometry":{"type":"Polygon","coordinates":[[[139.85406,35.76533],[139.85427,35.76514],[139.85438,35.76519],[139.85637,35.7642],[139.85537,35.76325],[139.85519,35.76302],[139.85396,35.76322],[139.84985,35.76296],[139.8479,35.76287],[139.84715,35.76278],[139.84625,35.76309],[139.84604,35.76464],[139.84582,35.76579],[139.84691,35.76644],[139.84802,35.76691],[139.84909,35.76721],[139.84969,35.76732],[139.85066,35.76747],[139.85174,35.76759],[139.85176,35.76748],[139.85167,35.76704],[139.8517,35.76688],[139.85188,35.76654],[139.852,35.76642],[139.85208,35.76626],[139.85218,35.76571],[139.85406,35.76533]]]}},{"type":"Feature","properties":{"id":"area-13122011004","name":"亀有四丁目"},"geometry":{"type":"Polygon","coordinates":[[[139.84534,35.76001],[139.84423,35.75709],[139.84292,35.76015],[139.84123,35.76393],[139.84204,35.76409],[139.84322,35.76446],[139.84409,35.76482],[139.84453,35.76505],[139.84582,35.76585],[139.84604,35.76464],[139.84625,35.76309],[139.84534,35.76001]]]}},{"type":"Feature","properties":{"id":"area-13122011005","name":"亀有五丁目"},"geometry":{"type":"Polygon","coordinates":[[[139.8513,35.76967],[139.85144,35.76938],[139.85152,35.76876],[139.85174,35.76759],[139.85066,35.76747],[139.84969,35.76732],[139.84909,35.76721],[139.84802,35.76691],[139.84691,35.76644],[139.84582,35.76579],[139.84582,35.76585],[139.8449,35.76529],[139.84405,35.76549],[139.84289,35.76537],[139.8422,35.7666],[139.84253,35.76729],[139.84277,35.76757],[139.84298,35.76777],[139.84356,35.76823],[139.84391,35.76848],[139.8445,35.76879],[139.84508,35.7692],[139.84527,35.76927],[139.84584,35.7694],[139.84697,35.76935],[139.84787,35.76943],[139.84877,35.76957],[139.8499,35.76959],[139.851,35.76978],[139.85116,35.76975],[139.8513,35.76967]]]}},{"type":"Feature","properties":{"id":"area-13122012001","name":"西亀有一丁目"},"geometry":{"type":"Polygon","coordinates":[[[139.84179,35.75962],[139.84315,35.75961],[139.84423,35.75709],[139.84418,35.75696],[139.84119,35.75626],[139.84102,35.75664],[139.84067,35.75671],[139.83814,35.75612],[139.83804,35.75597],[139.83806,35.75582],[139.83762,35.75638],[139.8368,35.75628],[139.83521,35.75656],[139.83588,35.75896],[139.83907,35.7592],[139.84062,35.75941],[139.84175,35.75964],[139.84179,35.75962]]]}},{"type":"Feature","properties":{"id":"area-13122012002","name":"西亀有二丁目"},"geometry":{"type":"Polygon","coordinates":[[[139.83424,35.76332],[139.83539,35.76327],[139.83574,35.76309],[139.83632,35.76315],[139.83668,35.76086],[139.83709,35.76015],[139.83724,35.75908],[139.83588,35.75896],[139.83343,35.75867],[139.83075,35.75856],[139.83094,35.75878],[139.83097,35.7597],[139.83093,35.75978],[139.83094,35.76134],[139.83083,35.76177],[139.83068,35.76207],[139.83071,35.76246],[139.83094,35.76289],[139.83146,35.7636],[139.83163,35.76378],[139.83187,35.76389],[139.83235,35.76391],[139.83263,35.76386],[139.83424,35.76332]]]}},{"type":"Feature","properties":{"id":"area-13122012003","name":"西亀有三丁目"},"geometry":{"type":"Polygon","coordinates":[[[139.84123,35.76393],[139.84315,35.75961],[139.84179,35.75962],[139.84175,35.75964],[139.84062,35.75941],[139.83907,35.7592],[139.83724,35.75908],[139.83709,35.76015],[139.83668,35.76086],[139.83632,35.76315],[139.83759,35.76329],[139.83755,35.76352],[139.83907,35.76366],[139.84123,35.76393]]]}},{"type":"Feature","properties":{"id":"area-13122012004","name":"西亀有四丁目"},"geometry":{"type":"Polygon","coordinates":[[[139.8422,35.7666],[139.84289,35.76537],[139.84405,35.76549],[139.8449,35.76529],[139.84409,35.76482],[139.84322,35.76446],[139.84179,35.76403],[139.84082,35.76387],[139.83755,35.76352],[139.83754,35.76391],[139.83758,35.76443],[139.83769,35.76497],[139.8377,35.76562],[139.83775,35.76575],[139.8379,35.76594],[139.83805,35.76601],[139.8389,35.76624],[139.84167,35.76632],[139.84195,35.76642],[139.84217,35.76655],[139.8422,35.7666]]]}},{"type":"Feature","properties":{"id":"area-13122013001","name":"青戸一丁目"},"geometry":{"type":"Polygon","coordinates":[[[139.85812,35.74221],[139.85728,35.7413],[139.85737,35.74124],[139.85697,35.74075],[139.85511,35.74168],[139.85504,35.7416],[139.8544,35.74194],[139.85438,35.74202],[139.85373,35.74236],[139.8557,35.74496],[139.85604,35.74535],[139.85634,35.74553],[139.85643,35.74567],[139.85645,35.74578],[139.85693,35.74475],[139.85792,35.74431],[139.85792,35.7442],[139.8583,35.74406],[139.85787,35.74334],[139.85781,35.74317],[139.85774,35.74278],[139.85777,35.74267],[139.85794,35.74239],[139.85812,35.74221]]]}},{"type":"Feature","properties":{"id":"area-13122013002","name":"青戸二丁目"},"geometry":{"type":"Polygon","coordinates":[[[139.85886,35.74473],[139.8583,35.74406],[139.85792,35.7442],[139.85792,35.74431],[139.85693,35.74475],[139.85645,35.74578],[139.85644,35.74585],[139.85682,35.74631],[139.85709,35.74674],[139.85773,35.74756],[139.85826,35.74801],[139.85858,35.74822],[139.86052,35.74908],[139.86171,35.74945],[139.86177,35.74945],[139.86178,35.74931],[139.86231,35.74801],[139.86235,35.74798],[139.86202,35.74689],[139.86098,35.74629],[139.85952,35.74533],[139.85886,35.74473]]]}},{"type":"Feature","properties":{"id":"area-13122013003","name":"青戸三丁目"},"geometry":{"type":"Polygon","coordinates":[[[139.85397,35.74643],[139.85408,35.74642],[139.85477,35.74656],[139.85533,35.747],[139.85627,35.74715],[139.85709,35.74674],[139.85682,35.74631],[139.85644,35.74585],[139.85643,35.74567],[139.85634,35.74553],[139.85604,35.74535],[139.8553,35.74444],[139.85516,35.74453],[139.85525,35.74467],[139.85497,35.74453],[139.85457,35.74439],[139.85405,35.74432],[139.85347,35.74434],[139.85302,35.74442],[139.84955,35.74576],[139.84874,35.746],[139.84766,35.74626],[139.84583,35.74663],[139.84637,35.74737],[139.85319,35.74836],[139.85355,35.74713],[139.85374,35.74674],[139.85397,35.74643]]]}},{"type":"Feature","properties":{"id":"area-13122013004","name":"青戸四丁目"},"geometry":{"type":"Polygon","coordinates":[[[139.85198,35.75255],[139.85319,35.74836],[139.84637,35.74737],[139.84721,35.74846],[139.84716,35.74849],[139.84785,35.7494],[139.84811,35.74983],[139.84848,35.75014],[139.84851,35.75035],[139.84902,35.75102],[139.8491,35.75097],[139.85113,35.75337],[139.85198,35.75255]]]}},{"type":"Feature","properties":{"id":"area-13122013005","name":"青戸五丁目"},"geometry":{"type":"Polygon","coordinates":[[[139.85651,35.74728],[139.85634,35.74713],[139.85627,35.74715],[139.85533,35.747],[139.85477,35.74656],[139.85408,35.74642],[139.85397,35.74643],[139.85374,35.74674],[139.85355,35.74713],[139.85226,35.75162],[139.85285,35.75193],[139.85495,35.75264],[139.85507,35.75211],[139.85507,35.75121],[139.8551,35.75108],[139.85532,35.75075],[139.85545,35.75044],[139.85603,35.74948],[139.85618,35.7492],[139.85633,35.74882],[139.85641,35.74777],[139.85651,35.74728]]]}},{"type":"Feature","properties":{"id":"area-13122013006","name":"青戸六丁目"},"geometry":{"type":"Polygon","coordinates":[[[139.85773,35.74756],[139.85709,35.74674],[139.85634,35.74713],[139.85651,35.74728],[139.85641,35.74777],[139.85633,35.74882],[139.85618,35.7492],[139.85603,35.74948],[139.85545,35.75044],[139.85532,35.75075],[139.8551,35.75108],[139.85507,35.75121],[139.85507,35.75211],[139.85495,35.75264],[139.85745,35.75335],[139.85762,35.7535],[139.85779,35.75355],[139.85824,35.75368],[139.85908,35.75385],[139.85928,35.75346],[139.86036,35.75175],[139.86171,35.74945],[139.86052,35.74908],[139.85858,35.74822],[139.85826,35.74801],[139.85773,35.74756]]]}},{"type":"Feature","properties":{"id":"area-13122013007","name":"青戸七丁目"},"geometry":{"type":"Polygon","coordinates":[[[139.85285,35.75193],[139.85226,35.75162],[139.85198,35.75255],[139.85113,35.75337],[139.85451,35.75719],[139.85518,35.75768],[139.85678,35.7586],[139.85775,35.75756],[139.85825,35.75688],[139.85859,35.75635],[139.8587,35.75585],[139.85889,35.75456],[139.85908,35.75385],[139.85824,35.75368],[139.85779,35.75355],[139.85762,35.7535],[139.85745,35.75335],[139.85605,35.75293],[139.8552,35.75272],[139.85285,35.75193]]]}},{"type":"Feature","properties":{"id":"area-13122013008","name":"青戸八丁目"},"geometry":{"type":"Polygon","coordinates":[[[139.85113,35.75337],[139.84934,35.75631],[139.8504,35.75717],[139.851,35.7577],[139.85158,35.75862],[139.85177,35.75902],[139.85174,35.75903],[139.85203,35.75945],[139.85211,35.75972],[139.85217,35.7598],[139.85231,35.75991],[139.85471,35.76014],[139.85477,35.76003],[139.85522,35.75975],[139.8556,35.75957],[139.85591,35.75937],[139.85678,35.7586],[139.85518,35.75768],[139.85451,35.75719],[139.85113,35.75337]]]}},{"type":"Feature","properties":{"id":"area-13122014001","name":"新小岩一丁目"},"geometry":{"type":"Polygon","coordinates":[[[139.85857,35.71773],[139.85873,35.71757],[139.85891,35.71767],[139.85909,35.71747],[139.8589,35.71736],[139.86123,35.71519],[139.8613,35.71523],[139.86354,35.71319],[139.86342,35.7131],[139.86332,35.71319],[139.86296,35.71294],[139.86265,35.7132],[139.8624,35.71303],[139.8608,35.71445],[139.85988,35.71376],[139.85931,35.71426],[139.8587,35.71382],[139.85858,35.71394],[139.8587,35.71403],[139.85859,35.71411],[139.85854,35.71406],[139.85845,35.71415],[139.85815,35.71395],[139.85813,35.71385],[139.85668,35.71428],[139.85646,35.71411],[139.85626,35.71406],[139.85622,35.71378],[139.85571,35.71395],[139.85545,35.71396],[139.85538,35.71375],[139.8553,35.71371],[139.85513,35.71372],[139.85509,35.71358],[139.85499,35.71346],[139.85502,35.71335],[139.85479,35.71311],[139.8548,35.71306],[139.85468,35.71293],[139.8547,35.71284],[139.85462,35.71278],[139.85468,35.71271],[139.85103,35.71067],[139.84989,35.71181],[139.85559,35.71574],[139.8556,35.71582],[139.85785,35.71729],[139.85775,35.71739],[139.85792,35.7175],[139.85801,35.71741],[139.85857,35.71773]]]}},{"type":"Feature","properties":{"id":"area-13122014002","name":"新小岩二丁目"},"geometry":{"type":"Polygon","coordinates":[[[139.86171,35.71822],[139.86189,35.71798],[139.86193,35.71799],[139.86194,35.71792],[139.86287,35.71781],[139.8632,35.71774],[139.86384,35.71772],[139.86384,35.71768],[139.86418,35.71766],[139.86451,35.71768],[139.86361,35.71333],[139.86354,35.71319],[139.8613,35.71523],[139.86123,35.71519],[139.8589,35.71736],[139.86085,35.7185],[139.86171,35.71822]]]}},{"type":"Feature","properties":{"id":"area-13122014003","name":"新小岩三丁目"},"geometry":{"type":"Polygon","coordinates":[[[139.86655,35.71776],[139.86682,35.71757],[139.86692,35.71736],[139.86736,35.71662],[139.86804,35.71511],[139.86834,35.71477],[139.8685,35.71427],[139.86853,35.71396],[139.86842,35.7137],[139.86842,35.71313],[139.86835,35.71283],[139.86831,35.71274],[139.86774,35.71207],[139.86766,35.71213],[139.86759,35.7123],[139.86751,35.71231],[139.86728,35.712],[139.86713,35.71201],[139.86716,35.71234],[139.86673,35.71236],[139.86666,35.7129],[139.86481,35.71327],[139.86474,35.71303],[139.86413,35.71313],[139.86361,35.71333],[139.86451,35.71768],[139.86499,35.71772],[139.86562,35.71763],[139.86649,35.71786],[139.86655,35.71776]]]}},{"type":"Feature","properties":{"id":"area-13122014004","name":"新小岩四丁目"},"geometry":{"type":"Polygon","coordinates":[[[139.87089,35.72478],[139.86977,35.72422],[139.86957,35.72446],[139.8692,35.72421],[139.86913,35.72422],[139.86904,35.72429],[139.86872,35.72409],[139.86881,35.72401],[139.86878,35.72387],[139.86905,35.72348],[139.86842,35.72322],[139.86819,35.72303],[139.86794,35.72235],[139.86744,35.72143],[139.86732,35.72114],[139.8673,35.72087],[139.86739,35.7204],[139.86717,35.71978],[139.86704,35.71963],[139.86655,35.71924],[139.86638,35.71905],[139.86627,35.71879],[139.86624,35.71834],[139.86649,35.71786],[139.86562,35.71763],[139.86499,35.71772],[139.86418,35.71766],[139.86384,35.71768],[139.86384,35.71772],[139.8632,35.71774],[139.86287,35.71781],[139.86194,35.71792],[139.86193,35.71799],[139.86189,35.71798],[139.86171,35.71822],[139.86085,35.7185],[139.86254,35.71948],[139.86439,35.72078],[139.86537,35.72148],[139.86566,35.72172],[139.86571,35.72173],[139.86828,35.72383],[139.87072,35.72546],[139.87089,35.72478]]]}},{"type":"Feature","properties":{"id":"area-13122015001","name":"東新小岩一丁目"},"geometry":{"type":"Polygon","coordinates":[[[139.86254,35.71948],[139.85909,35.71747],[139.85891,35.71767],[139.85873,35.71757],[139.85708,35.71924],[139.85913,35.72064],[139.86359,35.72377],[139.86472,35.72267],[139.86468,35.72264],[139.86566,35.72172],[139.86537,35.72148],[139.86254,35.71948]]]}},{"type":"Feature","properties":{"id":"area-13122015002","name":"東新小岩二丁目"},"geometry":{"type":"Polygon","coordinates":[[[139.86571,35.72173],[139.86566,35.72172],[139.86468,35.72264],[139.86472,35.72267],[139.86359,35.72377],[139.86722,35.7263],[139.87011,35.72826],[139.87072,35.72546],[139.86828,35.72383],[139.86571,35.72173]]]}},{"type":"Feature","properties":{"id":"area-13122015003","name":"東新小岩三丁目"},"geometry":{"type":"Polygon","coordinates":[[[139.85775,35.71968],[139.85706,35.71925],[139.85822,35.7214],[139.85885,35.72267],[139.85937,35.72382],[139.86283,35.72417],[139.86296,35.72415],[139.86316,35.72406],[139.86351,35.72372],[139.85775,35.71968]]]}},{"type":"Feature","properties":{"id":"area-13122015004","name":"東新小岩四丁目"},"geometry":{"type":"Polygon","coordinates":[[[139.86205,35.72785],[139.86219,35.72761],[139.86249,35.72761],[139.86311,35.72725],[139.86367,35.72674],[139.86395,35.727],[139.86396,35.72712],[139.86388,35.72725],[139.86391,35.72724],[139.86392,35.72732],[139.86403,35.72743],[139.86428,35.72734],[139.86427,35.72722],[139.86481,35.72735],[139.86492,35.72729],[139.86512,35.72657],[139.86618,35.72557],[139.86351,35.72372],[139.86316,35.72406],[139.86296,35.72415],[139.86283,35.72417],[139.85937,35.72382],[139.86018,35.72547],[139.8604,35.72601],[139.86164,35.728],[139.86205,35.72785]]]}},{"type":"Feature","properties":{"id":"area-13122015005","name":"東新小岩五丁目"},"geometry":{"type":"Polygon","coordinates":[[[139.85859,35.72214],[139.85706,35.71925],[139.853,35.72329],[139.85532,35.72338],[139.85937,35.72382],[139.85859,35.72214]]]}},{"type":"Feature","properties":{"id":"area-13122015006","name":"東新小岩六丁目"},"geometry":{"type":"Polygon","coordinates":[[[139.85937,35.72382],[139.85778,35.72366],[139.85751,35.72641],[139.85745,35.72664],[139.85878,35.72851],[139.85897,35.7293],[139.86208,35.72876],[139.8604,35.72601],[139.86018,35.72547],[139.85937,35.72382]]]}},{"type":"Feature","properties":{"id":"area-13122015007","name":"東新小岩七丁目"},"geometry":{"type":"Polygon","coordinates":[[[139.85532,35.72338],[139.853,35.72329],[139.8508,35.72551],[139.85235,35.72609],[139.85745,35.72664],[139.85751,35.72641],[139.85778,35.72366],[139.85532,35.72338]]]}},{"type":"Feature","properties":{"id":"area-13122015008","name":"東新小岩八丁目"},"geometry":{"type":"Polygon","coordinates":[[[139.85539,35.72899],[139.85652,35.72882],[139.8569,35.72883],[139.85732,35.72875],[139.85851,35.72813],[139.85745,35.72664],[139.85235,35.72609],[139.8508,35.72551],[139.84855,35.72778],[139.84914,35.72817],[139.84934,35.72834],[139.84956,35.72886],[139.8506,35.72861],[139.85113,35.72844],[139.85262,35.72814],[139.85367,35.72812],[139.8553,35.72866],[139.85539,35.72899]]]}},{"type":"Feature","properties":{"id":"area-13122016001","name":"西新小岩一丁目"},"geometry":{"type":"Polygon","coordinates":[[[139.85857,35.71773],[139.85801,35.71741],[139.85792,35.7175],[139.85775,35.71739],[139.85785,35.71729],[139.8556,35.71582],[139.85559,35.71574],[139.84989,35.71181],[139.84856,35.71308],[139.85708,35.71924],[139.85857,35.71773]]]}},{"type":"Feature","properties":{"id":"area-13122016002","name":"西新小岩二丁目"},"geometry":{"type":"Polygon","coordinates":[[[139.85595,35.71842],[139.84856,35.71308],[139.84587,35.71571],[139.84897,35.71784],[139.849,35.71782],[139.84922,35.71797],[139.84948,35.71794],[139.84953,35.718],[139.84993,35.7179],[139.85252,35.71817],[139.85576,35.7186],[139.85595,35.71842]]]}},{"type":"Feature","properties":{"id":"area-13122016003","name":"西新小岩三丁目"},"geometry":{"type":"Polygon","coordinates":[[[139.84391,35.72401],[139.844,35.72393],[139.84462,35.72394],[139.84723,35.72384],[139.8488,35.72336],[139.84956,35.72332],[139.85049,35.71796],[139.84993,35.7179],[139.84953,35.718],[139.84948,35.71794],[139.84922,35.71797],[139.849,35.71782],[139.84897,35.71784],[139.84587,35.71571],[139.84049,35.72096],[139.84328,35.72287],[139.84298,35.72379],[139.84391,35.72401]]]}},{"type":"Feature","properties":{"id":"area-13122016004","name":"西新小岩四丁目"},"geometry":{"type":"Polygon","coordinates":[[[139.85187,35.72327],[139.853,35.72329],[139.85708,35.71924],[139.85595,35.71842],[139.85576,35.7186],[139.85252,35.71817],[139.85049,35.71796],[139.84956,35.72332],[139.85187,35.72327]]]}},{"type":"Feature","properties":{"id":"area-13122016005","name":"西新小岩五丁目"},"geometry":{"type":"Polygon","coordinates":[[[139.84855,35.72778],[139.853,35.72329],[139.85187,35.72327],[139.8488,35.72336],[139.84723,35.72384],[139.84462,35.72394],[139.844,35.72393],[139.84391,35.72401],[139.84298,35.72379],[139.84282,35.72426],[139.84279,35.7245],[139.84286,35.7252],[139.8432,35.72606],[139.84343,35.72636],[139.84358,35.7265],[139.84392,35.72674],[139.84443,35.72698],[139.84553,35.72734],[139.8461,35.72745],[139.84641,35.72748],[139.84765,35.72742],[139.8478,35.72744],[139.84809,35.72753],[139.84855,35.72778]]]}},{"type":"Feature","properties":{"id":"area-13122017001","name":"奥戸一丁目"},"geometry":{"type":"Polygon","coordinates":[[[139.85823,35.73392],[139.85919,35.73141],[139.85947,35.73124],[139.85878,35.72851],[139.85851,35.72813],[139.85732,35.72875],[139.8569,35.72883],[139.85652,35.72882],[139.85539,35.72899],[139.8553,35.72866],[139.85367,35.72812],[139.85262,35.72814],[139.85113,35.72844],[139.8506,35.72861],[139.84956,35.72886],[139.84979,35.72934],[139.85,35.72954],[139.85018,35.72964],[139.85098,35.73],[139.85137,35.73007],[139.85207,35.73031],[139.85228,35.73035],[139.85298,35.7304],[139.85369,35.73027],[139.85436,35.73024],[139.85467,35.73025],[139.8548,35.73028],[139.85495,35.73038],[139.85536,35.73102],[139.85542,35.73121],[139.85544,35.73165],[139.85535,35.73195],[139.8552,35.73219],[139.85467,35.7328],[139.85549,35.7328],[139.85679,35.7334],[139.85823,35.73392]]]}},{"type":"Feature","properties":{"id":"area-13122017002","name":"奥戸二丁目"},"geometry":{"type":"Polygon","coordinates":[[[139.85544,35.73831],[139.85603,35.73827],[139.85701,35.7381],[139.85827,35.73753],[139.85886,35.73735],[139.85935,35.73728],[139.85937,35.73686],[139.85963,35.7368],[139.86123,35.73677],[139.86256,35.73601],[139.86304,35.73597],[139.86311,35.73594],[139.86311,35.73577],[139.86305,35.73546],[139.86287,35.73514],[139.86258,35.73484],[139.86042,35.73269],[139.86028,35.7326],[139.85992,35.73224],[139.85979,35.73206],[139.85919,35.73145],[139.85823,35.73392],[139.85679,35.7334],[139.85549,35.7328],[139.85467,35.7328],[139.85427,35.7333],[139.85405,35.73363],[139.85393,35.73374],[139.85319,35.7342],[139.85291,35.73441],[139.85262,35.73471],[139.85251,35.73489],[139.85244,35.73505],[139.85237,35.73568],[139.85245,35.73646],[139.85251,35.73673],[139.85273,35.73735],[139.85304,35.73721],[139.85339,35.73766],[139.85356,35.73781],[139.85376,35.73793],[139.85481,35.73831],[139.85544,35.73831]]]}},{"type":"Feature","properties":{"id":"area-13122017003","name":"奥戸三丁目"},"geometry":{"type":"Polygon","coordinates":[[[139.86294,35.72998],[139.86208,35.72876],[139.85897,35.7293],[139.85947,35.73124],[139.85919,35.73141],[139.85919,35.73145],[139.85979,35.73206],[139.85992,35.73224],[139.86028,35.7326],[139.86042,35.73269],[139.86258,35.73484],[139.86413,35.73457],[139.86493,35.73449],[139.86473,35.73353],[139.86471,35.73305],[139.86462,35.73279],[139.86294,35.72998]]]}},{"type":"Feature","properties":{"id":"area-13122017004","name":"奥戸四丁目"},"geometry":{"type":"Polygon","coordinates":[[[139.86485,35.73062],[139.86512,35.72966],[139.86893,35.73038],[139.87003,35.72859],[139.87011,35.72826],[139.86618,35.72557],[139.86512,35.72657],[139.86492,35.72729],[139.86481,35.72735],[139.86427,35.72722],[139.86428,35.72734],[139.86403,35.72743],[139.86392,35.72732],[139.86391,35.72724],[139.86388,35.72725],[139.86396,35.72712],[139.86395,35.727],[139.86367,35.72674],[139.86311,35.72725],[139.86249,35.72761],[139.86219,35.72761],[139.86205,35.72785],[139.86164,35.728],[139.86208,35.72876],[139.86294,35.72998],[139.86345,35.73084],[139.86485,35.73062]]]}},{"type":"Feature","properties":{"id":"area-13122017005","name":"奥戸五丁目"},"geometry":{"type":"Polygon","coordinates":[[[139.86893,35.73038],[139.86512,35.72966],[139.86506,35.7299],[139.86503,35.72987],[139.86485,35.73062],[139.86345,35.73084],[139.86462,35.73279],[139.86471,35.73305],[139.86473,35.73353],[139.86493,35.73449],[139.86658,35.73431],[139.86893,35.73038]]]}},{"type":"Feature","properties":{"id":"area-13122017006","name":"奥戸六丁目"},"geometry":{"type":"Polygon","coordinates":[[[139.86847,35.73412],[139.86872,35.73406],[139.87069,35.73417],[139.87159,35.73297],[139.87177,35.73282],[139.87214,35.73282],[139.87192,35.73216],[139.87193,35.73181],[139.87177,35.73054],[139.87179,35.72986],[139.87168,35.72939],[139.87161,35.7293],[139.87124,35.72911],[139.871,35.72906],[139.87052,35.72899],[139.87046,35.72914],[139.87012,35.72908],[139.87015,35.72893],[139.86995,35.72891],[139.87003,35.72859],[139.86772,35.73238],[139.86763,35.73258],[139.86658,35.73431],[139.86847,35.73412]]]}},{"type":"Feature","properties":{"id":"area-13122017007","name":"奥戸七丁目"},"geometry":{"type":"Polygon","coordinates":[[[139.86485,35.73682],[139.86527,35.73612],[139.86544,35.73617],[139.86658,35.73431],[139.86413,35.73457],[139.86258,35.73484],[139.86287,35.73514],[139.86305,35.73546],[139.86311,35.73577],[139.86311,35.73594],[139.86304,35.73597],[139.86256,35.73601],[139.86123,35.73677],[139.85963,35.7368],[139.85937,35.73686],[139.85935,35.73728],[139.85947,35.73731],[139.85991,35.73758],[139.86008,35.73778],[139.86014,35.73793],[139.86018,35.73847],[139.86,35.73939],[139.86109,35.73946],[139.86277,35.74003],[139.86311,35.73999],[139.86494,35.73687],[139.86482,35.73682],[139.86485,35.73682]]]}},{"type":"Feature","properties":{"id":"area-13122017008","name":"奥戸八丁目"},"geometry":{"type":"Polygon","coordinates":[[[139.86469,35.73898],[139.86473,35.73896],[139.86533,35.73916],[139.86672,35.73955],[139.86788,35.73788],[139.86931,35.73595],[139.87069,35.73417],[139.86872,35.73406],[139.86847,35.73412],[139.86658,35.73431],[139.86544,35.73617],[139.86527,35.73612],[139.86485,35.73682],[139.86482,35.73682],[139.86494,35.73687],[139.86311,35.73999],[139.86396,35.74049],[139.86408,35.74062],[139.86416,35.74075],[139.8643,35.74071],[139.86427,35.73962],[139.86469,35.73898]]]}},{"type":"Feature","properties":{"id":"area-13122017009","name":"奥戸九丁目"},"geometry":{"type":"Polygon","coordinates":[[[139.87081,35.73675],[139.87093,35.7362],[139.87211,35.73628],[139.87323,35.73652],[139.87384,35.73662],[139.87423,35.73606],[139.87412,35.73597],[139.87359,35.73575],[139.8736,35.73564],[139.87348,35.73562],[139.87341,35.73553],[139.8734,35.73545],[139.87325,35.73543],[139.87305,35.73506],[139.87282,35.73475],[139.87279,35.73461],[139.87259,35.73462],[139.87239,35.73449],[139.87258,35.73406],[139.87258,35.73379],[139.87247,35.73369],[139.87242,35.73345],[139.87245,35.73336],[139.87224,35.73321],[139.87214,35.73282],[139.87177,35.73282],[139.87159,35.73297],[139.87066,35.73422],[139.87007,35.73494],[139.86889,35.7365],[139.86788,35.73788],[139.86672,35.73955],[139.86737,35.73976],[139.86879,35.74009],[139.8696,35.73916],[139.87013,35.73839],[139.87041,35.73786],[139.87063,35.73733],[139.87081,35.73675]]]}},{"type":"Feature","properties":{"id":"area-13122018001","name":"高砂一丁目"},"geometry":{"type":"Polygon","coordinates":[[[139.86372,35.74486],[139.86444,35.74355],[139.86447,35.74356],[139.86527,35.7421],[139.86409,35.74166],[139.86422,35.74133],[139.86421,35.74095],[139.86416,35.74075],[139.86402,35.74054],[139.86373,35.74034],[139.86311,35.73999],[139.86277,35.74003],[139.86109,35.73946],[139.86,35.73939],[139.85987,35.74008],[139.85977,35.74044],[139.85961,35.74087],[139.85949,35.74106],[139.85931,35.74133],[139.85913,35.74149],[139.85842,35.74198],[139.85794,35.74239],[139.85777,35.74267],[139.85774,35.74278],[139.85781,35.74317],[139.85806,35.74368],[139.8583,35.74406],[139.85886,35.74473],[139.85952,35.74533],[139.86098,35.74629],[139.86202,35.74689],[139.86235,35.74798],[139.86347,35.74539],[139.86372,35.74486]]]}},{"type":"Feature","properties":{"id":"area-13122018002","name":"高砂二丁目"},"geometry":{"type":"Polygon","coordinates":[[[139.86774,35.75087],[139.86733,35.75043],[139.86739,35.75017],[139.86743,35.74957],[139.86741,35.74905],[139.86723,35.74877],[139.86701,35.74778],[139.86698,35.74747],[139.86707,35.74744],[139.86705,35.74702],[139.86709,35.7468],[139.86718,35.74668],[139.86752,35.74651],[139.86756,35.7464],[139.86752,35.74616],[139.8674,35.74587],[139.86737,35.74574],[139.86743,35.74553],[139.86745,35.74522],[139.86721,35.74493],[139.86688,35.74531],[139.86673,35.74527],[139.86623,35.74547],[139.86528,35.74549],[139.86534,35.74517],[139.86538,35.74456],[139.8653,35.74386],[139.86524,35.74383],[139.8652,35.74387],[139.86444,35.74355],[139.86372,35.74486],[139.86347,35.74539],[139.86243,35.74782],[139.86235,35.74798],[139.86231,35.74801],[139.86178,35.74931],[139.86177,35.74945],[139.86387,35.75013],[139.86453,35.75042],[139.86535,35.75069],[139.86582,35.75076],[139.86734,35.75084],[139.86734,35.7508],[139.86774,35.75087]]]}},{"type":"Feature","properties":{"id":"area-13122018003","name":"高砂三丁目"},"geometry":{"type":"Polygon","coordinates":[[[139.87102,35.74915],[139.87068,35.74541],[139.87064,35.74537],[139.86868,35.74553],[139.86745,35.74522],[139.86743,35.74553],[139.86737,35.74574],[139.8674,35.74587],[139.86752,35.74616],[139.86756,35.7464],[139.86752,35.74651],[139.86718,35.74668],[139.86709,35.7468],[139.86705,35.74702],[139.86707,35.74744],[139.86698,35.74747],[139.86701,35.74778],[139.86723,35.74877],[139.86741,35.74905],[139.86743,35.74957],[139.86739,35.75017],[139.86733,35.75043],[139.86774,35.75087],[139.86812,35.75091],[139.87003,35.751],[139.8703,35.75098],[139.87109,35.75079],[139.87096,35.7492],[139.87102,35.74915]]]}},{"type":"Feature","properties":{"id":"area-13122018004","name":"高砂四丁目"},"geometry":{"type":"Polygon","coordinates":[[[139.87425,35.74863],[139.87439,35.7458],[139.8737,35.74587],[139.87309,35.74555],[139.87206,35.74533],[139.8711,35.74483],[139.87075,35.74524],[139.87068,35.74541],[139.87102,35.74915],[139.87096,35.7492],[139.87109,35.75079],[139.87148,35.75061],[139.87237,35.74992],[139.87425,35.74863]]]}},{"type":"Feature","properties":{"id":"area-13122018005","name":"高砂五丁目"},"geometry":{"type":"Polygon","coordinates":[[[139.867,35.7528],[139.86899,35.75273],[139.87035,35.7526],[139.87036,35.75258],[139.87114,35.75248],[139.87111,35.75252],[139.87118,35.75256],[139.87123,35.75248],[139.87136,35.75244],[139.87285,35.75225],[139.87381,35.75193],[139.87386,35.75189],[139.87385,35.75139],[139.87377,35.75121],[139.87374,35.75077],[139.874,35.75054],[139.87393,35.74984],[139.87399,35.7498],[139.87433,35.74976],[139.87439,35.74853],[139.87237,35.74992],[139.87148,35.75061],[139.87126,35.75072],[139.87089,35.75086],[139.8703,35.75098],[139.86956,35.75099],[139.86812,35.75091],[139.86744,35.75083],[139.86744,35.75081],[139.86734,35.7508],[139.86734,35.75084],[139.86566,35.75074],[139.86535,35.75069],[139.86453,35.75042],[139.86387,35.75013],[139.86177,35.74945],[139.86171,35.74945],[139.8611,35.75051],[139.86429,35.75216],[139.86514,35.75306],[139.867,35.7528]]]}},{"type":"Feature","properties":{"id":"area-13122018006","name":"高砂六丁目"},"geometry":{"type":"Polygon","coordinates":[[[139.86225,35.75662],[139.8626,35.7527],[139.86277,35.75175],[139.86286,35.75141],[139.8611,35.75051],[139.86036,35.75175],[139.85928,35.75346],[139.85909,35.75383],[139.85889,35.75456],[139.85882,35.75506],[139.86128,35.75627],[139.86225,35.75662]]]}},{"type":"Feature","properties":{"id":"area-13122018007","name":"高砂七丁目"},"geometry":{"type":"Polygon","coordinates":[[[139.86286,35.75141],[139.86277,35.75175],[139.8626,35.7527],[139.86227,35.75652],[139.86818,35.75747],[139.86856,35.75679],[139.86853,35.75675],[139.86429,35.75216],[139.86286,35.75141]]]}},{"type":"Feature","properties":{"id":"area-13122018008","name":"高砂八丁目"},"geometry":{"type":"Polygon","coordinates":[[[139.86969,35.7547],[139.87015,35.754],[139.8701,35.75401],[139.87014,35.7539],[139.8709,35.75282],[139.87118,35.75256],[139.87111,35.75252],[139.87114,35.75248],[139.87036,35.75258],[139.87035,35.7526],[139.86899,35.75273],[139.867,35.7528],[139.86514,35.75307],[139.86856,35.75679],[139.86875,35.75636],[139.86903,35.75586],[139.86935,35.75545],[139.86945,35.75527],[139.86938,35.75523],[139.86954,35.75495],[139.86975,35.75474],[139.86969,35.7547]]]}},{"type":"Feature","properties":{"id":"area-13122019001","name":"鎌倉一丁目"},"geometry":{"type":"Polygon","coordinates":[[[139.87928,35.74513],[139.88032,35.74443],[139.88031,35.74448],[139.88063,35.74426],[139.88071,35.74416],[139.88193,35.74332],[139.8817,35.74327],[139.8817,35.74318],[139.88161,35.74316],[139.88168,35.7428],[139.88089,35.74269],[139.88105,35.742],[139.88045,35.74186],[139.88047,35.7418],[139.88034,35.74172],[139.87994,35.74168],[139.87989,35.74163],[139.8799,35.74159],[139.87974,35.74154],[139.88022,35.74062],[139.88027,35.74038],[139.88011,35.74026],[139.88003,35.74026],[139.87897,35.74075],[139.878,35.74111],[139.87638,35.74103],[139.87609,35.74182],[139.87486,35.74334],[139.87576,35.74383],[139.87668,35.74386],[139.87815,35.74404],[139.8784,35.74421],[139.87929,35.74424],[139.87928,35.74513]]]}},{"type":"Feature","properties":{"id":"area-13122019002","name":"鎌倉二丁目"},"geometry":{"type":"Polygon","coordinates":[[[139.87681,35.74682],[139.87928,35.74513],[139.87929,35.74424],[139.8784,35.74421],[139.87815,35.74404],[139.87668,35.74386],[139.87576,35.74383],[139.87488,35.74335],[139.87417,35.74426],[139.87412,35.74426],[139.87344,35.74509],[139.87309,35.74555],[139.8737,35.74587],[139.87439,35.7458],[139.87425,35.74863],[139.87687,35.74682],[139.87681,35.74682]]]}},{"type":"Feature","properties":{"id":"area-13122019003","name":"鎌倉三丁目"},"geometry":{"type":"Polygon","coordinates":[[[139.88047,35.74638],[139.88166,35.74351],[139.88071,35.74416],[139.88063,35.74426],[139.88031,35.74448],[139.88032,35.74443],[139.87681,35.74682],[139.87687,35.74682],[139.87439,35.74853],[139.87433,35.74976],[139.87399,35.7498],[139.87393,35.74984],[139.874,35.75054],[139.87374,35.75077],[139.87377,35.75121],[139.87385,35.75139],[139.87385,35.75189],[139.87553,35.75115],[139.87655,35.75079],[139.87924,35.74998],[139.88047,35.74638]]]}},{"type":"Feature","properties":{"id":"area-13122019004","name":"鎌倉四丁目"},"geometry":{"type":"Polygon","coordinates":[[[139.88102,35.74846],[139.88114,35.74841],[139.8812,35.74862],[139.88144,35.74867],[139.8817,35.74863],[139.8817,35.74843],[139.88179,35.74842],[139.88181,35.74853],[139.88224,35.74849],[139.88233,35.7484],[139.88251,35.74835],[139.88286,35.74834],[139.8829,35.74826],[139.88312,35.74822],[139.88321,35.74781],[139.88311,35.7476],[139.88293,35.74757],[139.88283,35.7473],[139.8829,35.74728],[139.88314,35.74734],[139.88389,35.7474],[139.88391,35.7472],[139.88386,35.74719],[139.88387,35.74707],[139.88381,35.74703],[139.88383,35.74694],[139.88398,35.74689],[139.884,35.74679],[139.88424,35.74681],[139.88434,35.74647],[139.88461,35.74649],[139.88464,35.74645],[139.88493,35.74648],[139.88505,35.74642],[139.88506,35.7463],[139.88492,35.74608],[139.88494,35.74598],[139.88487,35.74597],[139.88485,35.74594],[139.88491,35.7456],[139.88461,35.74557],[139.88464,35.7454],[139.88446,35.74538],[139.88447,35.74532],[139.88393,35.74522],[139.88372,35.7451],[139.88359,35.74509],[139.8836,35.74503],[139.8835,35.74496],[139.88296,35.74469],[139.88275,35.74468],[139.88277,35.74459],[139.88203,35.74424],[139.88204,35.74417],[139.88209,35.74415],[139.88227,35.74354],[139.88229,35.74339],[139.88211,35.74334],[139.88193,35.74332],[139.88166,35.74351],[139.88047,35.74638],[139.87924,35.74998],[139.88037,35.74971],[139.88062,35.74968],[139.88049,35.7492],[139.88035,35.74885],[139.88031,35.7486],[139.88066,35.74851],[139.88102,35.74846]]]}},{"type":"Feature","properties":{"id":"area-13122020001","name":"細田一丁目"},"geometry":{"type":"Polygon","coordinates":[[[139.87411,35.73785],[139.87523,35.73724],[139.87506,35.73726],[139.87478,35.73661],[139.87472,35.73659],[139.87376,35.73672],[139.87313,35.73761],[139.8728,35.73746],[139.87289,35.73732],[139.8728,35.73711],[139.87284,35.73682],[139.87272,35.73678],[139.8728,35.73664],[139.87315,35.73677],[139.87323,35.73652],[139.87211,35.73628],[139.87093,35.7362],[139.87077,35.73693],[139.87063,35.73733],[139.87029,35.73811],[139.8696,35.73916],[139.86879,35.74009],[139.87089,35.74046],[139.87192,35.74055],[139.87411,35.73785]]]}},{"type":"Feature","properties":{"id":"area-13122020002","name":"細田二丁目"},"geometry":{"type":"Polygon","coordinates":[[[139.86533,35.73916],[139.86473,35.73896],[139.86469,35.73898],[139.86427,35.73962],[139.8643,35.74071],[139.86416,35.74075],[139.86421,35.74095],[139.86422,35.74133],[139.86409,35.74166],[139.86527,35.7421],[139.86672,35.73955],[139.86533,35.73916]]]}},{"type":"Feature","properties":{"id":"area-13122020003","name":"細田三丁目"},"geometry":{"type":"Polygon","coordinates":[[[139.86868,35.74553],[139.86857,35.74465],[139.86984,35.74311],[139.86983,35.74308],[139.87013,35.74272],[139.87048,35.74233],[139.8712,35.7414],[139.87123,35.7414],[139.87192,35.74055],[139.87089,35.74046],[139.86889,35.74011],[139.86737,35.73976],[139.86672,35.73955],[139.86527,35.7421],[139.86447,35.74356],[139.8652,35.74387],[139.86524,35.74383],[139.8653,35.74386],[139.86538,35.74456],[139.86534,35.74517],[139.86528,35.74549],[139.86623,35.74547],[139.86673,35.74527],[139.86688,35.74531],[139.86721,35.74493],[139.86745,35.74522],[139.86868,35.74553]]]}},{"type":"Feature","properties":{"id":"area-13122020004","name":"細田四丁目"},"geometry":{"type":"Polygon","coordinates":[[[139.87309,35.74555],[139.87412,35.74426],[139.87417,35.74426],[139.87488,35.74335],[139.87486,35.74334],[139.87609,35.74182],[139.87638,35.74103],[139.87192,35.74055],[139.87123,35.7414],[139.8712,35.7414],[139.87048,35.74233],[139.87013,35.74272],[139.86983,35.74308],[139.86984,35.74311],[139.86857,35.74465],[139.86868,35.74553],[139.87064,35.74537],[139.87068,35.74541],[139.87075,35.74524],[139.8711,35.74483],[139.87206,35.74533],[139.87309,35.74555]]]}},{"type":"Feature","properties":{"id":"area-13122020005","name":"細田五丁目"},"geometry":{"type":"Polygon","coordinates":[[[139.87673,35.74106],[139.87676,35.74046],[139.87702,35.74045],[139.87751,35.74024],[139.87741,35.73986],[139.87706,35.73975],[139.87728,35.73947],[139.87762,35.73957],[139.87745,35.7391],[139.87698,35.73888],[139.87717,35.73863],[139.87684,35.73843],[139.87695,35.73829],[139.87694,35.73821],[139.87665,35.73693],[139.87523,35.73724],[139.87411,35.73785],[139.87192,35.74055],[139.87673,35.74106]]]}},{"type":"Feature","properties":{"id":"area-13122021001","name":"柴又一丁目"},"geometry":{"type":"Polygon","coordinates":[[[139.87198,35.75809],[139.87503,35.75758],[139.8756,35.75776],[139.87534,35.75675],[139.87499,35.75625],[139.87366,35.75461],[139.87301,35.75386],[139.87208,35.75288],[139.87159,35.75241],[139.87123,35.75248],[139.8709,35.75282],[139.87014,35.7539],[139.8701,35.75401],[139.87015,35.754],[139.87012,35.75405],[139.86969,35.7547],[139.86975,35.75474],[139.86954,35.75495],[139.86938,35.75523],[139.86945,35.75527],[139.86935,35.75545],[139.87013,35.75626],[139.87111,35.75833],[139.87198,35.75809]]]}},{"type":"Feature","properties":{"id":"area-13122021002","name":"柴又二丁目"},"geometry":{"type":"Polygon","coordinates":[[[139.87111,35.75833],[139.87013,35.75626],[139.86935,35.75545],[139.86903,35.75586],[139.86875,35.75636],[139.86861,35.7567],[139.86773,35.75822],[139.86768,35.75821],[139.86726,35.759],[139.86683,35.75949],[139.86647,35.75977],[139.86599,35.76023],[139.86619,35.7604],[139.86919,35.76127],[139.87031,35.75863],[139.87111,35.75833]]]}},{"type":"Feature","properties":{"id":"area-13122021003","name":"柴又三丁目"},"geometry":{"type":"Polygon","coordinates":[[[139.87341,35.76297],[139.87515,35.76014],[139.8756,35.75898],[139.87577,35.75864],[139.8756,35.75776],[139.87503,35.75758],[139.87198,35.75809],[139.87111,35.75833],[139.87031,35.75863],[139.86919,35.76127],[139.87069,35.76168],[139.87067,35.76171],[139.87136,35.76216],[139.8727,35.76271],[139.87272,35.76269],[139.87341,35.76297]]]}},{"type":"Feature","properties":{"id":"area-13122021004","name":"柴又四丁目"},"geometry":{"type":"Polygon","coordinates":[[[139.87761,35.75378],[139.87924,35.74998],[139.87655,35.75079],[139.87553,35.75115],[139.87381,35.75193],[139.87285,35.75225],[139.87159,35.75241],[139.87301,35.75386],[139.87366,35.75461],[139.87517,35.75649],[139.87534,35.75675],[139.87545,35.75708],[139.87582,35.75705],[139.87619,35.75692],[139.8766,35.75672],[139.87761,35.75378]]]}},{"type":"Feature","properties":{"id":"area-13122021005","name":"柴又五丁目"},"geometry":{"type":"Polygon","coordinates":[[[139.88751,35.75359],[139.88816,35.7529],[139.88901,35.75192],[139.88968,35.75107],[139.89,35.75073],[139.88596,35.75067],[139.88583,35.75047],[139.88512,35.75055],[139.88475,35.75053],[139.88465,35.75041],[139.88465,35.75033],[139.88408,35.75022],[139.8841,35.75005],[139.88336,35.75008],[139.88338,35.7499],[139.88304,35.74988],[139.88297,35.7498],[139.88276,35.74938],[139.88215,35.74953],[139.88037,35.74971],[139.87924,35.74998],[139.8788,35.75107],[139.8783,35.75214],[139.87762,35.75376],[139.87965,35.7531],[139.87966,35.75312],[139.88122,35.75374],[139.88554,35.7554],[139.88751,35.75359]]]}},{"type":"Feature","properties":{"id":"area-13122021006","name":"柴又六丁目"},"geometry":{"type":"Polygon","coordinates":[[[139.88367,35.75766],[139.88514,35.7558],[139.88554,35.7554],[139.88122,35.75374],[139.87966,35.75312],[139.87965,35.7531],[139.87762,35.75376],[139.8766,35.75672],[139.87686,35.75663],[139.87707,35.75703],[139.8772,35.75708],[139.87771,35.75712],[139.87815,35.75728],[139.87883,35.75729],[139.87943,35.7574],[139.88026,35.75766],[139.88087,35.7578],[139.88337,35.75817],[139.88367,35.75766]]]}},{"type":"Feature","properties":{"id":"area-13122021007","name":"柴又七丁目"},"geometry":{"type":"Polygon","coordinates":[[[139.87771,35.75712],[139.8772,35.75708],[139.87707,35.75703],[139.87686,35.75663],[139.87639,35.75681],[139.87619,35.75692],[139.87582,35.75705],[139.87545,35.75708],[139.87577,35.75864],[139.8756,35.75898],[139.87568,35.75908],[139.87926,35.76049],[139.87912,35.76074],[139.88264,35.76222],[139.88273,35.76202],[139.88288,35.76146],[139.88293,35.76116],[139.88294,35.76048],[139.88312,35.75926],[139.88324,35.75864],[139.88337,35.75817],[139.88087,35.7578],[139.88026,35.75766],[139.87943,35.7574],[139.87883,35.75729],[139.87815,35.75728],[139.87771,35.75712]]]}},{"type":"Feature","properties":{"id":"area-13122022001","name":"新宿一丁目"},"geometry":{"type":"Polygon","coordinates":[[[139.86225,35.75662],[139.86128,35.75627],[139.85882,35.75506],[139.8587,35.75585],[139.85859,35.75635],[139.85825,35.75688],[139.85775,35.75756],[139.85677,35.7586],[139.85976,35.76037],[139.86126,35.76121],[139.86225,35.75662]]]}},{"type":"Feature","properties":{"id":"area-13122022002","name":"新宿二丁目"},"geometry":{"type":"Polygon","coordinates":[[[139.8585,35.76446],[139.85857,35.76383],[139.85883,35.76343],[139.85897,35.76285],[139.85903,35.76286],[139.8591,35.76245],[139.85899,35.76236],[139.85911,35.76176],[139.85933,35.7618],[139.85931,35.76166],[139.85973,35.76035],[139.85677,35.7586],[139.85591,35.75937],[139.8556,35.75957],[139.85522,35.75975],[139.85477,35.76003],[139.85461,35.76033],[139.85448,35.76086],[139.85449,35.7613],[139.85465,35.76198],[139.85491,35.76256],[139.85537,35.76325],[139.85668,35.76448],[139.85777,35.76557],[139.85838,35.76521],[139.85834,35.76503],[139.8585,35.76446]]]}},{"type":"Feature","properties":{"id":"area-13122022003","name":"新宿三丁目"},"geometry":{"type":"Polygon","coordinates":[[[139.86726,35.759],[139.86768,35.75821],[139.86773,35.75822],[139.86818,35.75747],[139.86227,35.75652],[139.86126,35.76121],[139.8638,35.76268],[139.86501,35.7612],[139.86539,35.76088],[139.86531,35.76086],[139.8654,35.76075],[139.86616,35.76009],[139.86647,35.75977],[139.86683,35.75949],[139.86726,35.759]]]}},{"type":"Feature","properties":{"id":"area-13122022004","name":"新宿四丁目"},"geometry":{"type":"Polygon","coordinates":[[[139.8638,35.76268],[139.85973,35.76035],[139.85931,35.76166],[139.85933,35.7618],[139.85911,35.76176],[139.85899,35.76236],[139.8591,35.76245],[139.85903,35.76286],[139.85919,35.76287],[139.85916,35.76318],[139.85909,35.76345],[139.85964,35.76416],[139.86078,35.7647],[139.86178,35.76535],[139.8621,35.76553],[139.86244,35.76567],[139.86291,35.76498],[139.86332,35.76351],[139.8638,35.76268]]]}},{"type":"Feature","properties":{"id":"area-13122022005","name":"新宿五丁目"},"geometry":{"type":"Polygon","coordinates":[[[139.86302,35.76696],[139.86253,35.76587],[139.86255,35.76585],[139.86244,35.76567],[139.8621,35.76553],[139.86178,35.76535],[139.86078,35.7647],[139.85964,35.76416],[139.85909,35.76345],[139.85916,35.76318],[139.85919,35.76287],[139.85897,35.76285],[139.85883,35.76343],[139.85857,35.76383],[139.8585,35.76446],[139.85834,35.76503],[139.85838,35.76521],[139.85777,35.76557],[139.85805,35.76599],[139.85827,35.76639],[139.85856,35.76736],[139.85866,35.76797],[139.85867,35.76826],[139.86392,35.76868],[139.86302,35.76696]]]}},{"type":"Feature","properties":{"id":"area-13122022006","name":"新宿六丁目"},"geometry":{"type":"Polygon","coordinates":[[[139.86392,35.76868],[139.85867,35.76826],[139.85867,35.76845],[139.85858,35.76894],[139.85828,35.76997],[139.85809,35.77038],[139.8579,35.77066],[139.85732,35.77117],[139.8566,35.77194],[139.85721,35.77257],[139.85778,35.77338],[139.85825,35.77364],[139.86043,35.77458],[139.86133,35.77483],[139.86293,35.77532],[139.86302,35.77532],[139.86366,35.77412],[139.86393,35.77371],[139.86409,35.77356],[139.86584,35.77236],[139.8658,35.77226],[139.86392,35.76868]]]}},{"type":"Feature","properties":{"id":"area-13122023001","name":"金町一丁目"},"geometry":{"type":"Polygon","coordinates":[[[139.86765,35.76485],[139.86839,35.76305],[139.86919,35.76127],[139.86619,35.7604],[139.86599,35.76023],[139.8654,35.76075],[139.86531,35.76086],[139.86539,35.76088],[139.86501,35.7612],[139.8638,35.76268],[139.86594,35.76388],[139.86591,35.76391],[139.86651,35.76427],[139.86655,35.76423],[139.86765,35.76485]]]}},{"type":"Feature","properties":{"id":"area-13122023002","name":"金町二丁目"},"geometry":{"type":"Polygon","coordinates":[[[139.87341,35.76297],[139.87272,35.76269],[139.8727,35.76271],[139.87136,35.76216],[139.87067,35.76171],[139.87069,35.76168],[139.86919,35.76127],[139.86839,35.76305],[139.86765,35.76485],[139.86985,35.76606],[139.87109,35.76682],[139.87167,35.76591],[139.87341,35.76297]]]}},{"type":"Feature","properties":{"id":"area-13122023003","name":"金町三丁目"},"geometry":{"type":"Polygon","coordinates":[[[139.8758,35.76965],[139.87994,35.76926],[139.87982,35.76829],[139.87977,35.76718],[139.87981,35.76653],[139.87989,35.76615],[139.87995,35.76599],[139.87889,35.76561],[139.87809,35.76538],[139.87761,35.76519],[139.87712,35.76517],[139.87684,35.76522],[139.8764,35.76509],[139.87535,35.76465],[139.87508,35.7651],[139.87268,35.76419],[139.87167,35.76591],[139.87109,35.76682],[139.87407,35.76833],[139.87514,35.76883],[139.87545,35.76909],[139.8758,35.76965]]]}},{"type":"Feature","properties":{"id":"area-13122023004","name":"金町四丁目"},"geometry":{"type":"Polygon","coordinates":[[[139.86601,35.76607],[139.86617,35.76544],[139.86622,35.76538],[139.86617,35.76533],[139.86631,35.76481],[139.86651,35.76427],[139.86591,35.76391],[139.86594,35.76388],[139.8638,35.76268],[139.86332,35.76351],[139.86291,35.76498],[139.86244,35.76567],[139.86255,35.76585],[139.86253,35.76587],[139.86302,35.76696],[139.86392,35.76868],[139.86566,35.76898],[139.86601,35.76607]]]}},{"type":"Feature","properties":{"id":"area-13122023005","name":"金町五丁目"},"geometry":{"type":"Polygon","coordinates":[[[139.87042,35.76889],[139.87051,35.76886],[139.87076,35.76771],[139.87098,35.76707],[139.87111,35.76684],[139.86985,35.76606],[139.86869,35.76543],[139.86866,35.76538],[139.86655,35.76423],[139.86651,35.76427],[139.86631,35.76481],[139.86617,35.76533],[139.86622,35.76538],[139.86617,35.76544],[139.86599,35.76618],[139.86571,35.76854],[139.86641,35.76859],[139.8671,35.7686],[139.86716,35.76847],[139.86873,35.76872],[139.8688,35.76863],[139.8694,35.76886],[139.87042,35.76889]]]}},{"type":"Feature","properties":{"id":"area-13122023006","name":"金町六丁目"},"geometry":{"type":"Polygon","coordinates":[[[139.87545,35.76909],[139.87514,35.76883],[139.87482,35.76866],[139.87407,35.76833],[139.87111,35.76684],[139.87098,35.76707],[139.87076,35.76771],[139.87051,35.76886],[139.87042,35.76889],[139.8694,35.76886],[139.8688,35.76863],[139.86873,35.76872],[139.86716,35.76847],[139.8671,35.7686],[139.86641,35.76859],[139.86571,35.76854],[139.86566,35.76898],[139.86611,35.76909],[139.86614,35.76913],[139.86775,35.76949],[139.86926,35.76958],[139.87247,35.76989],[139.87354,35.76984],[139.8758,35.76965],[139.87545,35.76909]]]}},{"type":"Feature","properties":{"id":"area-131220240","name":"金町浄水場"},"geometry":{"type":"Polygon","coordinates":[[[139.88262,35.76221],[139.87912,35.76074],[139.87926,35.76049],[139.87568,35.75908],[139.8756,35.75898],[139.87515,35.76014],[139.87268,35.76419],[139.87508,35.7651],[139.87535,35.76465],[139.8764,35.76509],[139.87684,35.76522],[139.87712,35.76517],[139.87761,35.76519],[139.87809,35.76538],[139.87889,35.76561],[139.87995,35.76599],[139.88035,35.76528],[139.8806,35.76494],[139.88163,35.76384],[139.88231,35.76279],[139.88262,35.76221]]]}},{"type":"Feature","properties":{"id":"area-13122025001","name":"東金町一丁目"},"geometry":{"type":"Polygon","coordinates":[[[139.87118,35.77457],[139.8728,35.77016],[139.87283,35.76988],[139.87247,35.76989],[139.86926,35.76958],[139.86775,35.76949],[139.86614,35.76913],[139.86611,35.76909],[139.86566,35.76898],[139.86392,35.76868],[139.8658,35.77226],[139.86591,35.77188],[139.86588,35.77166],[139.86636,35.77035],[139.86674,35.77059],[139.86806,35.77156],[139.86871,35.77198],[139.86902,35.77235],[139.8698,35.77338],[139.87,35.77352],[139.87002,35.77349],[139.87048,35.77379],[139.87097,35.77425],[139.87114,35.7746],[139.87118,35.77457]]]}},{"type":"Feature","properties":{"id":"area-13122025002","name":"東金町二丁目"},"geometry":{"type":"Polygon","coordinates":[[[139.87048,35.77379],[139.87002,35.77349],[139.87,35.77352],[139.8698,35.77338],[139.86902,35.77235],[139.86871,35.77198],[139.86806,35.77156],[139.86674,35.77059],[139.86636,35.77035],[139.86588,35.77166],[139.86591,35.77188],[139.8658,35.77226],[139.86624,35.77334],[139.86677,35.77616],[139.86795,35.77599],[139.86909,35.77588],[139.87049,35.77577],[139.87197,35.77572],[139.87219,35.7755],[139.87114,35.7746],[139.87097,35.77425],[139.87048,35.77379]]]}},{"type":"Feature","properties":{"id":"area-13122025003","name":"東金町三丁目"},"geometry":{"type":"Polygon","coordinates":[[[139.87219,35.7755],[139.87465,35.77311],[139.87648,35.77127],[139.87578,35.76965],[139.87283,35.76988],[139.8728,35.77016],[139.87127,35.77433],[139.87118,35.77457],[139.87114,35.7746],[139.87219,35.7755]]]}},{"type":"Feature","properties":{"id":"area-13122025004","name":"東金町四丁目"},"geometry":{"type":"Polygon","coordinates":[[[139.87617,35.77728],[139.8764,35.77675],[139.87705,35.77693],[139.87766,35.77703],[139.87792,35.77663],[139.87803,35.7762],[139.87842,35.77627],[139.8788,35.77612],[139.87852,35.77586],[139.87827,35.77543],[139.87757,35.77395],[139.87704,35.77255],[139.87648,35.77127],[139.87465,35.77311],[139.87219,35.7755],[139.87316,35.77631],[139.87427,35.77678],[139.87507,35.777],[139.87536,35.77701],[139.87617,35.77728]]]}},{"type":"Feature","properties":{"id":"area-13122025005","name":"東金町五丁目"},"geometry":{"type":"Polygon","coordinates":[[[139.88185,35.78103],[139.88236,35.78041],[139.88246,35.78017],[139.88257,35.78004],[139.88281,35.77954],[139.88327,35.7783],[139.88202,35.7777],[139.87945,35.77655],[139.87909,35.77636],[139.8788,35.77612],[139.87842,35.77627],[139.87803,35.7762],[139.87792,35.77663],[139.87766,35.77703],[139.87705,35.77693],[139.8764,35.77675],[139.87617,35.77728],[139.87536,35.77701],[139.87507,35.777],[139.87427,35.77678],[139.87316,35.77631],[139.87371,35.77996],[139.87577,35.78028],[139.87705,35.78012],[139.87762,35.78002],[139.87775,35.78004],[139.87825,35.78027],[139.87879,35.78032],[139.8792,35.78025],[139.87921,35.78077],[139.88083,35.78119],[139.8812,35.78084],[139.88152,35.78103],[139.88109,35.78162],[139.8813,35.78172],[139.88178,35.78105],[139.88185,35.78103]]]}},{"type":"Feature","properties":{"id":"area-13122025006","name":"東金町六丁目"},"geometry":{"type":"Polygon","coordinates":[[[139.87987,35.76927],[139.87578,35.76965],[139.87683,35.77204],[139.87757,35.77395],[139.87809,35.77504],[139.87858,35.7749],[139.88062,35.77464],[139.88093,35.77446],[139.88009,35.77344],[139.88036,35.77342],[139.882,35.77263],[139.88115,35.77197],[139.88096,35.77179],[139.88067,35.77139],[139.88028,35.77065],[139.87998,35.76986],[139.87987,35.76927]]]}},{"type":"Feature","properties":{"id":"area-13122025007","name":"東金町七丁目"},"geometry":{"type":"Polygon","coordinates":[[[139.88287,35.77334],[139.88201,35.77262],[139.88036,35.77342],[139.88009,35.77344],[139.88093,35.77446],[139.88062,35.77464],[139.87858,35.7749],[139.87809,35.77504],[139.87827,35.77543],[139.87852,35.77586],[139.87894,35.77624],[139.87945,35.77655],[139.88202,35.7777],[139.88484,35.77903],[139.8855,35.77938],[139.88586,35.77948],[139.88627,35.77953],[139.8871,35.77947],[139.88755,35.77929],[139.88823,35.77885],[139.89012,35.77639],[139.88826,35.77562],[139.88545,35.77465],[139.88467,35.77428],[139.88287,35.77334]]]}},{"type":"Feature","properties":{"id":"area-13122025008","name":"東金町八丁目"},"geometry":{"type":"Polygon","coordinates":[[[139.8942,35.78207],[139.89462,35.78125],[139.89466,35.78099],[139.89465,35.78036],[139.8944,35.7794],[139.89427,35.77918],[139.89382,35.77865],[139.89349,35.77835],[139.89283,35.77782],[139.89245,35.77758],[139.89183,35.77725],[139.89012,35.77639],[139.88823,35.77885],[139.88755,35.77929],[139.8871,35.77947],[139.88627,35.77953],[139.88569,35.77944],[139.8855,35.77938],[139.88484,35.77903],[139.88327,35.7783],[139.88281,35.77954],[139.88257,35.78004],[139.88246,35.78017],[139.88236,35.78041],[139.88185,35.78103],[139.88178,35.78105],[139.88144,35.78153],[139.88111,35.78206],[139.88118,35.78199],[139.88166,35.78207],[139.88169,35.78213],[139.88354,35.78287],[139.88677,35.78408],[139.88702,35.78414],[139.8876,35.7842],[139.88811,35.78411],[139.88965,35.78361],[139.89052,35.7834],[139.89378,35.78277],[139.8942,35.78207]]]}},{"type":"Feature","properties":{"id":"area-13122026001","name":"水元一丁目"},"geometry":{"type":"Polygon","coordinates":[[[139.85872,35.78016],[139.85871,35.78006],[139.85851,35.78004],[139.85845,35.78011],[139.85241,35.77952],[139.85305,35.7814],[139.85363,35.78241],[139.85366,35.78247],[139.85365,35.78255],[139.85381,35.78277],[139.85434,35.78366],[139.86023,35.78421],[139.86076,35.78033],[139.85872,35.78016]]]}},{"type":"Feature","properties":{"id":"area-13122026002","name":"水元二丁目"},"geometry":{"type":"Polygon","coordinates":[[[139.85962,35.78843],[139.8598,35.78704],[139.85994,35.78634],[139.86023,35.78421],[139.85434,35.78366],[139.85699,35.78821],[139.85962,35.78843]]]}},{"type":"Feature","properties":{"id":"area-13122026003","name":"水元三丁目"},"geometry":{"type":"Polygon","coordinates":[[[139.86679,35.78094],[139.86076,35.78033],[139.86023,35.78421],[139.86552,35.78473],[139.86639,35.78145],[139.86679,35.78094]]]}},{"type":"Feature","properties":{"id":"area-13122026004","name":"水元四丁目"},"geometry":{"type":"Polygon","coordinates":[[[139.86552,35.78473],[139.86023,35.78421],[139.85994,35.78634],[139.8598,35.78704],[139.85962,35.78843],[139.86324,35.78877],[139.86408,35.78902],[139.86447,35.78848],[139.86466,35.78798],[139.86496,35.78695],[139.86552,35.78473]]]}},{"type":"Feature","properties":{"id":"area-13122026005","name":"水元五丁目"},"geometry":{"type":"Polygon","coordinates":[[[139.85825,35.7883],[139.85699,35.78821],[139.85879,35.79138],[139.85941,35.79235],[139.86053,35.79156],[139.86174,35.79076],[139.86225,35.79035],[139.86321,35.7897],[139.86408,35.78902],[139.86324,35.78877],[139.86168,35.78861],[139.86031,35.78851],[139.86028,35.78849],[139.85825,35.7883]]]}},{"type":"Feature","properties":{"id":"area-131220270","name":"水元公園"},"geometry":{"type":"Polygon","coordinates":[[[139.87345,35.79666],[139.87438,35.7963],[139.87488,35.79594],[139.87601,35.79497],[139.87648,35.79465],[139.87683,35.79452],[139.87703,35.79451],[139.87758,35.79399],[139.87766,35.79385],[139.87762,35.79372],[139.87755,35.79364],[139.87736,35.79357],[139.87717,35.79346],[139.87656,35.79242],[139.87626,35.79204],[139.87607,35.7919],[139.87508,35.7914],[139.87468,35.79115],[139.87223,35.78918],[139.87158,35.78811],[139.87117,35.78729],[139.87109,35.78704],[139.87107,35.78642],[139.8711,35.78601],[139.87122,35.78527],[139.87132,35.78483],[139.87156,35.78465],[139.87189,35.78396],[139.87214,35.78355],[139.87246,35.78315],[139.87323,35.78239],[139.87395,35.78182],[139.874,35.78187],[139.8752,35.78131],[139.87585,35.78117],[139.8763,35.78112],[139.8774,35.78117],[139.87781,35.78124],[139.87901,35.78157],[139.88058,35.78217],[139.88069,35.78216],[139.88081,35.78201],[139.88086,35.78187],[139.88109,35.78191],[139.88104,35.78204],[139.88111,35.78206],[139.88123,35.78183],[139.88133,35.78171],[139.88109,35.78162],[139.88152,35.78103],[139.8812,35.78084],[139.88083,35.78119],[139.87921,35.78077],[139.8792,35.78025],[139.87879,35.78032],[139.87825,35.78027],[139.87775,35.78004],[139.87762,35.78002],[139.87705,35.78012],[139.87577,35.78028],[139.87371,35.77996],[139.87293,35.77992],[139.87268,35.77995],[139.87218,35.78012],[139.872,35.78022],[139.87181,35.78043],[139.87175,35.78057],[139.87166,35.78062],[139.87166,35.7806],[139.87146,35.78066],[139.87111,35.78062],[139.87099,35.78068],[139.87032,35.7811],[139.8702,35.78125],[139.87008,35.7815],[139.86992,35.78196],[139.86993,35.78246],[139.86978,35.78298],[139.86962,35.78335],[139.86925,35.78397],[139.86907,35.78437],[139.869,35.78465],[139.86893,35.78523],[139.86885,35.78556],[139.86851,35.78642],[139.86839,35.78718],[139.86834,35.78835],[139.86801,35.7897],[139.86801,35.78981],[139.86809,35.78997],[139.86846,35.79054],[139.8684,35.79059],[139.86841,35.79078],[139.86845,35.79083],[139.86837,35.79104],[139.8683,35.79115],[139.86782,35.79147],[139.86767,35.79173],[139.86757,35.79198],[139.86704,35.79239],[139.86633,35.79311],[139.8657,35.79392],[139.86547,35.79399],[139.86534,35.79399],[139.86485,35.79389],[139.86421,35.79389],[139.86328,35.79378],[139.86328,35.79383],[139.86298,35.79381],[139.86275,35.79383],[139.86237,35.79406],[139.8622,35.7941],[139.86198,35.79409],[139.86033,35.79351],[139.86008,35.79337],[139.85967,35.79291],[139.8596,35.7929],[139.85976,35.79402],[139.85973,35.79446],[139.8598,35.79479],[139.85986,35.79501],[139.86017,35.79553],[139.86161,35.79508],[139.86206,35.79476],[139.86301,35.79459],[139.86373,35.79462],[139.86462,35.79469],[139.86483,35.79473],[139.86553,35.79512],[139.86626,35.79541],[139.86691,35.79574],[139.86764,35.79606],[139.86834,35.79629],[139.86913,35.79647],[139.8693,35.7964],[139.86972,35.79649],[139.86993,35.79661],[139.87149,35.79686],[139.87209,35.79688],[139.87267,35.79686],[139.87345,35.79666]]]}},{"type":"Feature","properties":{"id":"area-13122028001","name":"東水元一丁目"},"geometry":{"type":"Polygon","coordinates":[[[139.86743,35.78017],[139.8713,35.77636],[139.87197,35.77572],[139.87049,35.77577],[139.86909,35.77588],[139.86795,35.77599],[139.86677,35.77616],[139.86703,35.77759],[139.86691,35.7776],[139.86707,35.77845],[139.86714,35.77845],[139.86743,35.78017]]]}},{"type":"Feature","properties":{"id":"area-13122028002","name":"東水元二丁目"},"geometry":{"type":"Polygon","coordinates":[[[139.87032,35.7811],[139.87111,35.78062],[139.87146,35.78066],[139.87166,35.7806],[139.87166,35.78062],[139.87175,35.78057],[139.87181,35.78043],[139.872,35.78022],[139.87218,35.78012],[139.87268,35.77995],[139.87293,35.77992],[139.87371,35.77997],[139.87316,35.77631],[139.87219,35.7755],[139.86743,35.78017],[139.86745,35.78038],[139.86741,35.7804],[139.86761,35.78097],[139.86776,35.78178],[139.86782,35.78242],[139.86809,35.78292],[139.86822,35.78311],[139.8686,35.78351],[139.869,35.78387],[139.86925,35.78397],[139.86962,35.78335],[139.86978,35.78298],[139.86993,35.78246],[139.86992,35.78196],[139.87008,35.7815],[139.8702,35.78125],[139.87032,35.7811]]]}},{"type":"Feature","properties":{"id":"area-13122028003","name":"東水元三丁目"},"geometry":{"type":"Polygon","coordinates":[[[139.86761,35.78097],[139.86741,35.7804],[139.86679,35.78094],[139.86639,35.78145],[139.86518,35.78603],[139.86635,35.78627],[139.86853,35.78637],[139.86885,35.78556],[139.86893,35.78523],[139.869,35.78465],[139.86912,35.78421],[139.86925,35.78397],[139.86892,35.78381],[139.86843,35.78335],[139.86809,35.78292],[139.86794,35.78266],[139.86782,35.78242],[139.86776,35.78178],[139.86766,35.78122],[139.86761,35.78097]]]}},{"type":"Feature","properties":{"id":"area-13122028004","name":"東水元四丁目"},"geometry":{"type":"Polygon","coordinates":[[[139.86831,35.79034],[139.86801,35.78981],[139.86801,35.7897],[139.86834,35.78835],[139.86839,35.78718],[139.86853,35.78637],[139.86635,35.78627],[139.86518,35.78603],[139.86485,35.78733],[139.86466,35.78798],[139.86447,35.78848],[139.86408,35.78902],[139.86364,35.78937],[139.86414,35.78997],[139.86429,35.78986],[139.86584,35.79033],[139.86603,35.78998],[139.86831,35.79034]]]}},{"type":"Feature","properties":{"id":"area-13122028005","name":"東水元五丁目"},"geometry":{"type":"Polygon","coordinates":[[[139.8657,35.79392],[139.86633,35.79311],[139.86704,35.79239],[139.86757,35.79198],[139.86767,35.79173],[139.86782,35.79147],[139.8683,35.79115],[139.86837,35.79104],[139.86845,35.79083],[139.86841,35.79078],[139.8684,35.79059],[139.86846,35.79054],[139.86831,35.79034],[139.86603,35.78998],[139.86584,35.79033],[139.86429,35.78986],[139.86414,35.78997],[139.86364,35.78937],[139.86321,35.7897],[139.86225,35.79035],[139.86168,35.7908],[139.86184,35.79111],[139.86193,35.7912],[139.86238,35.79144],[139.86256,35.79157],[139.8628,35.79182],[139.86291,35.79182],[139.863,35.79218],[139.86289,35.7922],[139.86303,35.79252],[139.86353,35.79259],[139.86328,35.79378],[139.86421,35.79389],[139.86485,35.79389],[139.86534,35.79399],[139.86561,35.79397],[139.8657,35.79392]]]}},{"type":"Feature","properties":{"id":"area-13122028006","name":"東水元六丁目"},"geometry":{"type":"Polygon","coordinates":[[[139.86275,35.79383],[139.86298,35.79381],[139.86328,35.79383],[139.86353,35.79259],[139.86303,35.79252],[139.86289,35.7922],[139.863,35.79218],[139.86291,35.79182],[139.8628,35.79182],[139.86256,35.79157],[139.86238,35.79144],[139.86193,35.7912],[139.86184,35.79111],[139.86168,35.7908],[139.86053,35.79156],[139.85935,35.7924],[139.85949,35.79274],[139.8596,35.7929],[139.85967,35.79291],[139.86008,35.79337],[139.86033,35.79351],[139.86198,35.79409],[139.8622,35.7941],[139.86237,35.79406],[139.86275,35.79383]]]}},{"type":"Feature","properties":{"id":"area-13122029001","name":"南水元一丁目"},"geometry":{"type":"Polygon","coordinates":[[[139.86237,35.77683],[139.86249,35.77672],[139.86254,35.77673],[139.86302,35.77532],[139.86293,35.77532],[139.86133,35.77483],[139.86043,35.77458],[139.85825,35.77364],[139.85778,35.77338],[139.85721,35.77257],[139.8566,35.77194],[139.85528,35.77327],[139.85435,35.77451],[139.8537,35.77514],[139.85485,35.77587],[139.85485,35.77597],[139.85453,35.77653],[139.85477,35.77663],[139.85504,35.77688],[139.86054,35.77739],[139.86069,35.77786],[139.86075,35.77787],[139.86095,35.77771],[139.86109,35.77765],[139.86146,35.77754],[139.86225,35.77699],[139.86237,35.77683]]]}},{"type":"Feature","properties":{"id":"area-13122029002","name":"南水元二丁目"},"geometry":{"type":"Polygon","coordinates":[[[139.85845,35.78011],[139.85851,35.78004],[139.85856,35.78005],[139.85868,35.77983],[139.85922,35.77934],[139.86053,35.77798],[139.86055,35.778],[139.86069,35.77786],[139.86054,35.77739],[139.85504,35.77688],[139.85477,35.77663],[139.85453,35.77653],[139.85485,35.77597],[139.85485,35.77587],[139.8537,35.77514],[139.85063,35.7783],[139.85243,35.7795],[139.85845,35.78011]]]}},{"type":"Feature","properties":{"id":"area-13122029003","name":"南水元三丁目"},"geometry":{"type":"Polygon","coordinates":[[[139.86624,35.77334],[139.86584,35.77236],[139.86409,35.77356],[139.86393,35.77371],[139.86366,35.77412],[139.86296,35.77545],[139.86256,35.77663],[139.86254,35.77673],[139.8626,35.77675],[139.86246,35.77756],[139.86617,35.77628],[139.86677,35.77616],[139.86624,35.77334]]]}},{"type":"Feature","properties":{"id":"area-13122029004","name":"南水元四丁目"},"geometry":{"type":"Polygon","coordinates":[[[139.86745,35.78038],[139.86714,35.77845],[139.86707,35.77845],[139.86691,35.7776],[139.86703,35.77759],[139.86677,35.77616],[139.86617,35.77628],[139.86246,35.77756],[139.8626,35.77675],[139.86249,35.77672],[139.86237,35.77683],[139.86225,35.77699],[139.86146,35.77754],[139.86109,35.77765],[139.86095,35.77771],[139.86077,35.77786],[139.86069,35.77786],[139.86055,35.778],[139.86053,35.77798],[139.85922,35.77934],[139.85868,35.77983],[139.85856,35.78005],[139.85871,35.78006],[139.85872,35.78016],[139.86076,35.78033],[139.86679,35.78094],[139.86714,35.78062],[139.86745,35.78038]]]}},{"type":"Feature","properties":{"id":"area-13122030001","name":"西水元一丁目"},"geometry":{"type":"Polygon","coordinates":[[[139.85243,35.7795],[139.85063,35.7783],[139.85061,35.77832],[139.84898,35.78033],[139.84848,35.781],[139.84753,35.78241],[139.84696,35.78349],[139.84839,35.78396],[139.84869,35.78414],[139.85337,35.78457],[139.8534,35.78406],[139.85366,35.78247],[139.85305,35.7814],[139.85256,35.78001],[139.85241,35.77952],[139.85243,35.7795]]]}},{"type":"Feature","properties":{"id":"area-13122030002","name":"西水元二丁目"},"geometry":{"type":"Polygon","coordinates":[[[139.84839,35.78396],[139.84696,35.78349],[139.8466,35.78408],[139.84629,35.78484],[139.84591,35.78618],[139.84553,35.78715],[139.85289,35.78788],[139.85307,35.78673],[139.85316,35.78567],[139.85333,35.78457],[139.84869,35.78414],[139.84839,35.78396]]]}},{"type":"Feature","properties":{"id":"area-13122030003","name":"西水元三丁目"},"geometry":{"type":"Polygon","coordinates":[[[139.85254,35.7922],[139.85237,35.79125],[139.85289,35.78788],[139.84553,35.78715],[139.84518,35.788],[139.84494,35.78873],[139.84448,35.79034],[139.84424,35.79193],[139.84723,35.7922],[139.84873,35.79202],[139.84945,35.79203],[139.8499,35.79195],[139.85034,35.79193],[139.85149,35.79207],[139.8518,35.79206],[139.85254,35.7922]]]}},{"type":"Feature","properties":{"id":"area-13122030004","name":"西水元四丁目"},"geometry":{"type":"Polygon","coordinates":[[[139.84669,35.79629],[139.84768,35.7957],[139.84951,35.79451],[139.85254,35.7922],[139.8518,35.79206],[139.85149,35.79207],[139.85034,35.79193],[139.8499,35.79195],[139.84945,35.79203],[139.84873,35.79202],[139.84723,35.7922],[139.84424,35.79193],[139.84417,35.79288],[139.84422,35.79354],[139.84429,35.79388],[139.84439,35.79415],[139.84451,35.79436],[139.84483,35.7948],[139.84521,35.79516],[139.84669,35.79629]]]}},{"type":"Feature","properties":{"id":"area-13122030005","name":"西水元五丁目"},"geometry":{"type":"Polygon","coordinates":[[[139.85699,35.78821],[139.85449,35.78392],[139.85381,35.78277],[139.85365,35.78255],[139.8534,35.78406],[139.85337,35.78457],[139.85333,35.78457],[139.85316,35.78567],[139.85307,35.78673],[139.85289,35.78788],[139.85685,35.78827],[139.85699,35.78821]]]}},{"type":"Feature","properties":{"id":"area-13122030006","name":"西水元六丁目"},"geometry":{"type":"Polygon","coordinates":[[[139.85908,35.79186],[139.85699,35.78821],[139.85685,35.78827],[139.85289,35.78788],[139.85237,35.79125],[139.85254,35.7922],[139.85373,35.79142],[139.85454,35.79107],[139.85513,35.79087],[139.85545,35.7908],[139.85571,35.79079],[139.85633,35.79086],[139.85677,35.79114],[139.85773,35.79213],[139.85798,35.79246],[139.8583,35.7931],[139.85902,35.79468],[139.85921,35.79501],[139.85917,35.79518],[139.85921,35.79541],[139.85941,35.79557],[139.85959,35.79563],[139.86017,35.79553],[139.85986,35.79501],[139.8598,35.79479],[139.85973,35.79446],[139.85976,35.79402],[139.8596,35.7929],[139.8594,35.79257],[139.85935,35.7924],[139.85941,35.79235],[139.85908,35.79186]]]}}]}