{"type":"FeatureCollection","features":[{"type":"Feature","properties":{"id":"area-13202001001","name":"西砂町一丁目"},"geometry":{"type":"Polygon","coordinates":[[[139.37442,35.72883],[139.37359,35.72545],[139.3736,35.7252],[139.3701,35.72441],[139.37049,35.72604],[139.36962,35.7259],[139.36789,35.72556],[139.36787,35.72541],[139.36778,35.72543],[139.36777,35.72537],[139.36694,35.72524],[139.36695,35.7253],[139.3657,35.72516],[139.36558,35.72715],[139.36554,35.73021],[139.37139,35.72926],[139.37442,35.72883]]]}},{"type":"Feature","properties":{"id":"area-13202001002","name":"西砂町二丁目"},"geometry":{"type":"Polygon","coordinates":[[[139.36556,35.72801],[139.36567,35.72584],[139.36488,35.72588],[139.36437,35.72595],[139.36214,35.72636],[139.36178,35.72536],[139.36282,35.7249],[139.36214,35.72399],[139.35824,35.72557],[139.35943,35.72901],[139.36015,35.73096],[139.36019,35.731],[139.36554,35.73021],[139.36556,35.72801]]]}},{"type":"Feature","properties":{"id":"area-13202001003","name":"西砂町三丁目"},"geometry":{"type":"Polygon","coordinates":[[[139.36015,35.73096],[139.35824,35.72557],[139.35729,35.72587],[139.35708,35.72543],[139.3549,35.72519],[139.35535,35.72556],[139.35521,35.72641],[139.35525,35.7265],[139.35547,35.72659],[139.35445,35.72795],[139.35422,35.7282],[139.35396,35.7284],[139.35381,35.72843],[139.35297,35.72839],[139.35283,35.72949],[139.35233,35.73218],[139.36015,35.73096]]]}},{"type":"Feature","properties":{"id":"area-13202001004","name":"西砂町四丁目"},"geometry":{"type":"Polygon","coordinates":[[[139.36019,35.731],[139.36015,35.73096],[139.35233,35.73218],[139.35227,35.73223],[139.35223,35.73238],[139.35226,35.73283],[139.3523,35.73294],[139.35338,35.73305],[139.35314,35.7344],[139.35276,35.73624],[139.35632,35.73696],[139.3611,35.738],[139.36134,35.7366],[139.36019,35.731]]]}},{"type":"Feature","properties":{"id":"area-13202001005","name":"西砂町五丁目"},"geometry":{"type":"Polygon","coordinates":[[[139.36731,35.7353],[139.3677,35.73533],[139.36783,35.7354],[139.3688,35.73621],[139.36928,35.73588],[139.36687,35.73414],[139.36635,35.73363],[139.36624,35.73337],[139.3655,35.73026],[139.36543,35.73022],[139.36019,35.731],[139.36134,35.7366],[139.3611,35.73798],[139.36298,35.73837],[139.3631,35.73728],[139.36317,35.73709],[139.36357,35.73661],[139.36394,35.73633],[139.36431,35.73618],[139.36691,35.73534],[139.36731,35.7353]]]}},{"type":"Feature","properties":{"id":"area-13202001006","name":"西砂町六丁目"},"geometry":{"type":"Polygon","coordinates":[[[139.37448,35.72891],[139.37437,35.72884],[139.37139,35.72926],[139.36543,35.73022],[139.3655,35.73026],[139.36624,35.73337],[139.36635,35.73363],[139.36687,35.73414],[139.36928,35.73588],[139.36997,35.73544],[139.37267,35.73409],[139.37214,35.73162],[139.37488,35.7311],[139.37494,35.73096],[139.37448,35.72891]]]}},{"type":"Feature","properties":{"id":"area-13202001007","name":"西砂町七丁目"},"geometry":{"type":"Polygon","coordinates":[[[139.36317,35.73944],[139.36591,35.73795],[139.36719,35.73715],[139.36879,35.7362],[139.36783,35.7354],[139.3677,35.73533],[139.36731,35.7353],[139.36691,35.73534],[139.3641,35.73625],[139.36394,35.73633],[139.36357,35.73661],[139.36317,35.73709],[139.3631,35.73728],[139.36298,35.73837],[139.3611,35.73798],[139.3611,35.738],[139.35924,35.73759],[139.35864,35.73952],[139.35984,35.7399],[139.3629,35.73919],[139.36317,35.73944]]]}},{"type":"Feature","properties":{"id":"area-13202002001","name":"一番町一丁目"},"geometry":{"type":"Polygon","coordinates":[[[139.38709,35.72602],[139.38452,35.72171],[139.3844,35.7214],[139.38441,35.72115],[139.38451,35.72099],[139.38552,35.72012],[139.38296,35.7207],[139.38227,35.72006],[139.38154,35.72042],[139.37912,35.72171],[139.38018,35.72221],[139.38026,35.72213],[139.38069,35.72247],[139.38089,35.72259],[139.38182,35.72303],[139.3809,35.72436],[139.38198,35.72496],[139.38227,35.7252],[139.38246,35.72549],[139.38262,35.72583],[139.38269,35.72603],[139.38279,35.72666],[139.38361,35.72677],[139.38362,35.72667],[139.38726,35.72635],[139.38709,35.72602]]]}},{"type":"Feature","properties":{"id":"area-13202002002","name":"一番町二丁目"},"geometry":{"type":"Polygon","coordinates":[[[139.38262,35.72583],[139.38238,35.72536],[139.38213,35.72506],[139.38169,35.72478],[139.3809,35.72436],[139.38008,35.72558],[139.3791,35.72503],[139.3771,35.72377],[139.37683,35.72415],[139.37707,35.72426],[139.37715,35.72424],[139.37736,35.72433],[139.37701,35.72495],[139.37673,35.72482],[139.37632,35.72548],[139.37412,35.72501],[139.37368,35.72497],[139.3736,35.7252],[139.37359,35.72545],[139.37442,35.72883],[139.37657,35.72851],[139.38038,35.72772],[139.38099,35.72753],[139.38278,35.72688],[139.38283,35.72667],[139.38279,35.72666],[139.38269,35.72603],[139.38262,35.72583]]]}},{"type":"Feature","properties":{"id":"area-13202002003","name":"一番町三丁目"},"geometry":{"type":"Polygon","coordinates":[[[139.37695,35.73082],[139.38113,35.73006],[139.38202,35.72887],[139.3823,35.72839],[139.38247,35.728],[139.3827,35.72697],[139.38259,35.72694],[139.38099,35.72753],[139.38038,35.72772],[139.37657,35.72851],[139.37437,35.72884],[139.37448,35.72891],[139.37451,35.72897],[139.37486,35.73061],[139.37697,35.73025],[139.37695,35.73082]]]}},{"type":"Feature","properties":{"id":"area-13202002004","name":"一番町四丁目"},"geometry":{"type":"Polygon","coordinates":[[[139.3847,35.73003],[139.38565,35.73004],[139.38598,35.72999],[139.38619,35.7299],[139.38639,35.72976],[139.38681,35.72936],[139.38705,35.729],[139.38724,35.7286],[139.38762,35.72711],[139.38758,35.72693],[139.38751,35.72676],[139.38726,35.72635],[139.38362,35.72667],[139.38361,35.72677],[139.38283,35.72667],[139.38278,35.72688],[139.38259,35.72694],[139.3827,35.72697],[139.38253,35.72779],[139.38238,35.72823],[139.38211,35.72873],[139.379,35.73292],[139.37874,35.73337],[139.37875,35.73345],[139.38154,35.73506],[139.38307,35.73377],[139.38312,35.7316],[139.38307,35.73147],[139.38312,35.73138],[139.38316,35.73112],[139.38323,35.73093],[139.38338,35.73074],[139.38389,35.73034],[139.38441,35.73007],[139.3847,35.73003]]]}},{"type":"Feature","properties":{"id":"area-13202002005","name":"一番町五丁目"},"geometry":{"type":"Polygon","coordinates":[[[139.37267,35.73409],[139.37656,35.73228],[139.37669,35.73236],[139.37695,35.73194],[139.37705,35.7319],[139.37973,35.7315],[139.37997,35.73162],[139.38112,35.73006],[139.37695,35.73082],[139.37697,35.73025],[139.37486,35.73061],[139.37494,35.73096],[139.37488,35.7311],[139.37214,35.73162],[139.37267,35.73409]]]}},{"type":"Feature","properties":{"id":"area-13202002006","name":"一番町六丁目"},"geometry":{"type":"Polygon","coordinates":[[[139.379,35.73292],[139.37997,35.73162],[139.37973,35.7315],[139.37705,35.7319],[139.37695,35.73194],[139.37669,35.73236],[139.37656,35.73228],[139.37267,35.73409],[139.36997,35.73544],[139.36928,35.73588],[139.36954,35.7362],[139.3697,35.73645],[139.37016,35.73733],[139.37092,35.73709],[139.37181,35.73693],[139.37208,35.73692],[139.37364,35.73666],[139.37391,35.73659],[139.37821,35.73491],[139.37875,35.73351],[139.37874,35.73337],[139.379,35.73292]]]}},{"type":"Feature","properties":{"id":"area-13202003001","name":"上砂町一丁目"},"geometry":{"type":"Polygon","coordinates":[[[139.38934,35.72175],[139.39034,35.72133],[139.39053,35.72164],[139.39209,35.72098],[139.39252,35.72164],[139.39351,35.72127],[139.39367,35.72151],[139.39544,35.72087],[139.39547,35.72085],[139.39527,35.72046],[139.39603,35.72014],[139.3958,35.71982],[139.39499,35.72015],[139.39454,35.71961],[139.39382,35.71891],[139.39498,35.71852],[139.39413,35.71735],[139.39423,35.71726],[139.39093,35.7173],[139.39097,35.71903],[139.38692,35.71906],[139.38611,35.71968],[139.38691,35.72053],[139.38931,35.72186],[139.38934,35.72175]]]}},{"type":"Feature","properties":{"id":"area-13202003002","name":"上砂町二丁目"},"geometry":{"type":"Polygon","coordinates":[[[139.39251,35.7258],[139.39681,35.72517],[139.39663,35.72475],[139.39646,35.72452],[139.39588,35.7232],[139.39524,35.72295],[139.39436,35.72247],[139.394,35.72225],[139.39303,35.72145],[139.39252,35.72164],[139.39209,35.72098],[139.39053,35.72164],[139.39034,35.72133],[139.38934,35.72175],[139.38931,35.72186],[139.39007,35.72226],[139.39038,35.72253],[139.39065,35.72312],[139.39075,35.72323],[139.39152,35.72445],[139.39169,35.72456],[139.39184,35.72473],[139.39251,35.7258]]]}},{"type":"Feature","properties":{"id":"area-13202003003","name":"上砂町三丁目"},"geometry":{"type":"Polygon","coordinates":[[[139.38691,35.72053],[139.38611,35.71968],[139.38562,35.72007],[139.38552,35.72012],[139.38451,35.72099],[139.38441,35.72115],[139.3844,35.7214],[139.38452,35.72171],[139.38725,35.72631],[139.39182,35.72591],[139.39251,35.7258],[139.39184,35.72473],[139.39169,35.72456],[139.39152,35.72445],[139.39075,35.72323],[139.39065,35.72312],[139.39045,35.72265],[139.39031,35.72245],[139.39007,35.72226],[139.38691,35.72053]]]}},{"type":"Feature","properties":{"id":"area-13202003004","name":"上砂町四丁目"},"geometry":{"type":"Polygon","coordinates":[[[139.39531,35.72719],[139.39552,35.72537],[139.39483,35.72548],[139.39465,35.72547],[139.39182,35.72591],[139.38725,35.72631],[139.38751,35.72676],[139.38758,35.72693],[139.38762,35.72711],[139.3873,35.72837],[139.39484,35.72928],[139.39502,35.72823],[139.39509,35.7281],[139.39531,35.72719]]]}},{"type":"Feature","properties":{"id":"area-13202003005","name":"上砂町五丁目"},"geometry":{"type":"Polygon","coordinates":[[[139.39425,35.73362],[139.39424,35.73358],[139.39549,35.7336],[139.39458,35.73286],[139.39392,35.7321],[139.39394,35.73202],[139.39457,35.73144],[139.39553,35.73065],[139.39477,35.73001],[139.39474,35.72991],[139.39484,35.72928],[139.3873,35.72837],[139.38724,35.7286],[139.38705,35.729],[139.38681,35.72936],[139.38639,35.72976],[139.38619,35.7299],[139.38598,35.72999],[139.38565,35.73004],[139.38533,35.73004],[139.38573,35.73028],[139.38641,35.73012],[139.38694,35.73015],[139.38687,35.73355],[139.39425,35.73362]]]}},{"type":"Feature","properties":{"id":"area-13202003006","name":"上砂町六丁目"},"geometry":{"type":"Polygon","coordinates":[[[139.38414,35.74338],[139.38468,35.74275],[139.38491,35.74281],[139.38517,35.74298],[139.3854,35.7426],[139.38594,35.74192],[139.38587,35.74182],[139.38607,35.74177],[139.38635,35.74146],[139.38754,35.73931],[139.38802,35.73947],[139.38814,35.73925],[139.38843,35.73894],[139.38908,35.73855],[139.38903,35.7385],[139.39059,35.73726],[139.39079,35.73714],[139.39102,35.73687],[139.39201,35.73602],[139.39297,35.73525],[139.39413,35.7344],[139.3946,35.73423],[139.39475,35.73422],[139.39475,35.73417],[139.39574,35.73377],[139.39613,35.73407],[139.39643,35.73413],[139.39661,35.7342],[139.39694,35.73375],[139.39673,35.73362],[139.39628,35.73361],[139.39424,35.73358],[139.39425,35.73362],[139.3912,35.73358],[139.39134,35.73382],[139.39134,35.7339],[139.39078,35.73452],[139.39062,35.73442],[139.39021,35.73479],[139.38974,35.73513],[139.38952,35.73577],[139.38923,35.73547],[139.38841,35.73592],[139.38756,35.73626],[139.38714,35.73698],[139.38658,35.73752],[139.38634,35.73725],[139.38582,35.73751],[139.38566,35.73726],[139.38543,35.73736],[139.38551,35.73766],[139.385,35.7379],[139.38526,35.7389],[139.38515,35.73947],[139.38513,35.73952],[139.3844,35.7402],[139.3849,35.74088],[139.38512,35.74111],[139.38473,35.74156],[139.38443,35.74169],[139.38435,35.74176],[139.38421,35.74199],[139.3841,35.74229],[139.38352,35.74292],[139.38351,35.74313],[139.38316,35.7429],[139.38316,35.74386],[139.38311,35.74406],[139.38298,35.74433],[139.38302,35.74533],[139.38365,35.74465],[139.38323,35.74416],[139.38414,35.74338]]]}},{"type":"Feature","properties":{"id":"area-13202003007","name":"上砂町七丁目"},"geometry":{"type":"Polygon","coordinates":[[[139.38986,35.73356],[139.38687,35.73355],[139.38694,35.73015],[139.38641,35.73012],[139.38573,35.73028],[139.38533,35.73004],[139.3849,35.73002],[139.38441,35.73007],[139.38404,35.73025],[139.38361,35.73053],[139.38338,35.73074],[139.38323,35.73093],[139.38316,35.73112],[139.38312,35.73138],[139.38307,35.73147],[139.38312,35.7316],[139.38307,35.73377],[139.38351,35.73343],[139.38493,35.73415],[139.38342,35.73539],[139.38364,35.73579],[139.38455,35.73562],[139.38478,35.73553],[139.38618,35.73474],[139.38632,35.73482],[139.38659,35.73479],[139.38731,35.73456],[139.38797,35.73424],[139.3886,35.73378],[139.38926,35.73413],[139.38986,35.73356]]]}},{"type":"Feature","properties":{"id":"area-13202004001","name":"砂川町一丁目"},"geometry":{"type":"Polygon","coordinates":[[[139.40274,35.7235],[139.40485,35.72352],[139.40771,35.72335],[139.41002,35.72339],[139.4101,35.72128],[139.41013,35.71868],[139.4101,35.71861],[139.41001,35.71854],[139.40984,35.7185],[139.40969,35.71841],[139.40966,35.71793],[139.40958,35.71802],[139.40825,35.72033],[139.40822,35.72056],[139.40411,35.72069],[139.40379,35.72123],[139.40301,35.72093],[139.40298,35.72088],[139.40295,35.72106],[139.40037,35.72432],[139.40162,35.72381],[139.40274,35.7235]]]}},{"type":"Feature","properties":{"id":"area-13202004002","name":"砂川町二丁目"},"geometry":{"type":"Polygon","coordinates":[[[139.40037,35.72432],[139.40295,35.72106],[139.40298,35.72088],[139.40292,35.72071],[139.39726,35.7208],[139.39702,35.72083],[139.39693,35.72088],[139.39678,35.72106],[139.39659,35.72078],[139.39666,35.72073],[139.39655,35.71722],[139.39423,35.71726],[139.39413,35.71735],[139.39498,35.71852],[139.39382,35.71891],[139.39454,35.71961],[139.39499,35.72015],[139.3958,35.71982],[139.39603,35.72014],[139.39527,35.72046],[139.39547,35.72085],[139.39544,35.72087],[139.39367,35.72151],[139.39351,35.72127],[139.39303,35.72145],[139.394,35.72225],[139.39436,35.72247],[139.39524,35.72295],[139.39588,35.7232],[139.39646,35.72452],[139.39663,35.72475],[139.39681,35.72515],[139.39776,35.72501],[139.3993,35.7247],[139.40037,35.72432]]]}},{"type":"Feature","properties":{"id":"area-13202004003","name":"砂川町三丁目"},"geometry":{"type":"Polygon","coordinates":[[[139.39993,35.72588],[139.39939,35.72467],[139.39776,35.72501],[139.39552,35.72537],[139.39531,35.72719],[139.39509,35.7281],[139.39502,35.72823],[139.39487,35.72909],[139.39578,35.72922],[139.39562,35.72937],[139.39699,35.72952],[139.39705,35.72958],[139.40104,35.73003],[139.40075,35.72956],[139.40029,35.72839],[139.40021,35.72838],[139.40015,35.72827],[139.40022,35.72788],[139.40005,35.72652],[139.39993,35.72588]]]}},{"type":"Feature","properties":{"id":"area-13202004004","name":"砂川町四丁目"},"geometry":{"type":"Polygon","coordinates":[[[139.40418,35.72926],[139.40483,35.72926],[139.40505,35.72797],[139.40477,35.72763],[139.40503,35.72767],[139.40484,35.72678],[139.40454,35.72615],[139.40422,35.72489],[139.40417,35.72483],[139.40356,35.72447],[139.4031,35.7235],[139.40274,35.7235],[139.40162,35.72381],[139.40011,35.72444],[139.39939,35.72467],[139.39997,35.72601],[139.40022,35.72788],[139.40015,35.72827],[139.40021,35.72838],[139.40029,35.72839],[139.40075,35.72956],[139.40104,35.73003],[139.40396,35.73037],[139.404,35.73034],[139.40344,35.72979],[139.40327,35.72965],[139.40304,35.72953],[139.40418,35.72926]]]}},{"type":"Feature","properties":{"id":"area-13202004005","name":"砂川町五丁目"},"geometry":{"type":"Polygon","coordinates":[[[139.40921,35.72704],[139.4099,35.7272],[139.4099,35.72697],[139.41,35.72634],[139.41002,35.72339],[139.40771,35.72335],[139.40485,35.72352],[139.4031,35.7235],[139.40356,35.72447],[139.40417,35.72483],[139.40422,35.72489],[139.40455,35.72617],[139.40598,35.72599],[139.40609,35.7265],[139.40659,35.72646],[139.40669,35.72709],[139.40677,35.72713],[139.40779,35.72724],[139.40921,35.72704]]]}},{"type":"Feature","properties":{"id":"area-13202004006","name":"砂川町六丁目"},"geometry":{"type":"Polygon","coordinates":[[[139.40987,35.73108],[139.41012,35.73028],[139.41029,35.72987],[139.41047,35.72874],[139.41037,35.72862],[139.41009,35.72845],[139.40992,35.72752],[139.4099,35.7272],[139.40923,35.72704],[139.40779,35.72724],[139.40677,35.72713],[139.40669,35.72709],[139.40659,35.72646],[139.40609,35.7265],[139.40598,35.72599],[139.40455,35.72617],[139.40484,35.72678],[139.40503,35.72767],[139.40477,35.72763],[139.40505,35.72797],[139.40483,35.72926],[139.40418,35.72926],[139.40304,35.72953],[139.40327,35.72965],[139.40344,35.72979],[139.404,35.73034],[139.40396,35.73037],[139.40413,35.73053],[139.40426,35.73042],[139.40987,35.73108]]]}},{"type":"Feature","properties":{"id":"area-13202004007","name":"砂川町七丁目"},"geometry":{"type":"Polygon","coordinates":[[[139.40943,35.73389],[139.40875,35.73359],[139.40942,35.73255],[139.40942,35.73246],[139.40987,35.73108],[139.40426,35.73042],[139.40413,35.73053],[139.40396,35.73037],[139.40106,35.73004],[139.40219,35.73155],[139.40236,35.73183],[139.40263,35.73252],[139.40298,35.73412],[139.40566,35.7337],[139.407,35.73344],[139.40707,35.73366],[139.40712,35.73368],[139.40726,35.73368],[139.40725,35.73363],[139.40773,35.73373],[139.40825,35.73369],[139.40928,35.73414],[139.40943,35.73389]]]}},{"type":"Feature","properties":{"id":"area-13202004008","name":"砂川町八丁目"},"geometry":{"type":"Polygon","coordinates":[[[139.39873,35.7352],[139.39875,35.73523],[139.39981,35.73501],[139.40011,35.73393],[139.40189,35.73358],[139.40204,35.73361],[139.40209,35.73365],[139.40246,35.73419],[139.40298,35.73412],[139.40263,35.73252],[139.40236,35.73183],[139.40219,35.73155],[139.40104,35.73003],[139.39705,35.72958],[139.39699,35.72952],[139.39562,35.72937],[139.39578,35.72922],[139.39487,35.72909],[139.39474,35.72991],[139.39477,35.73001],[139.39553,35.73065],[139.39457,35.73144],[139.39394,35.73202],[139.39392,35.7321],[139.39458,35.73286],[139.39549,35.7336],[139.39679,35.73364],[139.39694,35.73375],[139.39661,35.7342],[139.39666,35.73422],[139.3966,35.73428],[139.39766,35.7345],[139.39771,35.73467],[139.39782,35.73479],[139.398,35.73477],[139.39801,35.73483],[139.3984,35.73528],[139.39873,35.7352]]]}},{"type":"Feature","properties":{"id":"area-132020050","name":"緑町"},"geometry":{"type":"Polygon","coordinates":[[[139.41048,35.71316],[139.41419,35.71091],[139.41318,35.70975],[139.41298,35.7094],[139.41294,35.70928],[139.41291,35.70878],[139.4129,35.70708],[139.41295,35.70669],[139.4131,35.70629],[139.41389,35.70497],[139.414,35.70477],[139.41402,35.70466],[139.41441,35.70398],[139.41438,35.70282],[139.41268,35.70284],[139.41266,35.70194],[139.41086,35.70192],[139.41091,35.70169],[139.40228,35.70162],[139.40094,35.7024],[139.40049,35.70152],[139.40025,35.7016],[139.40023,35.70155],[139.39935,35.70183],[139.39937,35.70187],[139.39875,35.70207],[139.39341,35.70368],[139.39381,35.70411],[139.39423,35.70399],[139.39435,35.70417],[139.39494,35.70486],[139.3945,35.70501],[139.39478,35.70639],[139.39541,35.70627],[139.39846,35.71161],[139.39881,35.71119],[139.39902,35.71132],[139.40207,35.71221],[139.40734,35.71224],[139.40732,35.71355],[139.40752,35.71339],[139.40968,35.71338],[139.41016,35.71327],[139.41048,35.71316]]]}},{"type":"Feature","properties":{"id":"area-132020060","name":"泉町"},"geometry":{"type":"Polygon","coordinates":[[[139.40379,35.72123],[139.40411,35.72069],[139.40822,35.72056],[139.40825,35.72033],[139.40958,35.71802],[139.40972,35.71783],[139.40974,35.71715],[139.4098,35.71705],[139.41026,35.71707],[139.4105,35.71716],[139.41102,35.71737],[139.41149,35.71765],[139.41204,35.71791],[139.41363,35.71855],[139.41462,35.71887],[139.4166,35.71939],[139.4167,35.71932],[139.41678,35.71942],[139.41915,35.7194],[139.42009,35.71769],[139.42127,35.71545],[139.42152,35.71484],[139.42168,35.71427],[139.4219,35.71324],[139.42194,35.71197],[139.42191,35.71105],[139.42141,35.71085],[139.42101,35.71099],[139.41976,35.71189],[139.4181,35.71044],[139.41671,35.71166],[139.41516,35.7118],[139.41462,35.7112],[139.41449,35.71125],[139.41419,35.71091],[139.41048,35.71316],[139.41016,35.71327],[139.40968,35.71338],[139.40752,35.71339],[139.40732,35.71355],[139.40734,35.71224],[139.40207,35.71221],[139.39902,35.71132],[139.39881,35.71119],[139.39846,35.71161],[139.39595,35.71288],[139.39462,35.71132],[139.39154,35.71529],[139.38965,35.71413],[139.38725,35.71668],[139.38864,35.71765],[139.38692,35.71906],[139.39097,35.71903],[139.39093,35.7173],[139.39655,35.71722],[139.39666,35.72073],[139.39659,35.72078],[139.39678,35.72106],[139.39693,35.72088],[139.39702,35.72083],[139.39726,35.7208],[139.40292,35.72071],[139.40301,35.72093],[139.40379,35.72123]]]}},{"type":"Feature","properties":{"id":"area-13202007001","name":"柏町一丁目"},"geometry":{"type":"Polygon","coordinates":[[[139.41849,35.72065],[139.41915,35.7194],[139.41678,35.71942],[139.4167,35.71932],[139.4166,35.71939],[139.41462,35.71887],[139.41363,35.71855],[139.41204,35.71791],[139.41149,35.71765],[139.41102,35.71737],[139.41026,35.71707],[139.4098,35.71705],[139.40974,35.71715],[139.40972,35.71783],[139.40966,35.71793],[139.40969,35.71841],[139.40984,35.7185],[139.41001,35.71854],[139.4101,35.71861],[139.41013,35.71868],[139.4101,35.72128],[139.41849,35.72065]]]}},{"type":"Feature","properties":{"id":"area-13202007002","name":"柏町二丁目"},"geometry":{"type":"Polygon","coordinates":[[[139.41002,35.72341],[139.41308,35.72341],[139.41546,35.72306],[139.41807,35.72297],[139.41812,35.7216],[139.41827,35.72108],[139.41849,35.72065],[139.4101,35.72128],[139.41002,35.72341]]]}},{"type":"Feature","properties":{"id":"area-13202007003","name":"柏町三丁目"},"geometry":{"type":"Polygon","coordinates":[[[139.41001,35.72552],[139.41493,35.72558],[139.41615,35.72546],[139.41805,35.72542],[139.41807,35.72297],[139.41546,35.72306],[139.41308,35.72341],[139.41002,35.72341],[139.41001,35.72552]]]}},{"type":"Feature","properties":{"id":"area-13202007004","name":"柏町四丁目"},"geometry":{"type":"Polygon","coordinates":[[[139.41807,35.73022],[139.41807,35.7254],[139.41805,35.72542],[139.41615,35.72546],[139.41493,35.72558],[139.41451,35.72559],[139.41001,35.72552],[139.41,35.72634],[139.4099,35.72697],[139.40992,35.72752],[139.41009,35.72845],[139.41037,35.72862],[139.41047,35.72874],[139.41029,35.72987],[139.41025,35.72997],[139.41195,35.73041],[139.41354,35.73073],[139.41793,35.73135],[139.41807,35.73022]]]}},{"type":"Feature","properties":{"id":"area-13202007005","name":"柏町五丁目"},"geometry":{"type":"Polygon","coordinates":[[[139.41243,35.73051],[139.41025,35.72997],[139.41012,35.73028],[139.40942,35.73246],[139.40942,35.73255],[139.41085,35.73274],[139.41482,35.73299],[139.41637,35.7322],[139.41672,35.73213],[139.41781,35.73208],[139.41793,35.73135],[139.41354,35.73073],[139.41243,35.73051]]]}},{"type":"Feature","properties":{"id":"area-13202008001","name":"幸町一丁目"},"geometry":{"type":"Polygon","coordinates":[[[139.4206,35.72285],[139.42217,35.72291],[139.4224,35.72154],[139.42308,35.71998],[139.42353,35.71823],[139.42295,35.71816],[139.42219,35.71822],[139.42008,35.71769],[139.41827,35.72108],[139.41812,35.7216],[139.4181,35.72176],[139.41808,35.72294],[139.4206,35.72285]]]}},{"type":"Feature","properties":{"id":"area-13202008002","name":"幸町二丁目"},"geometry":{"type":"Polygon","coordinates":[[[139.42894,35.71887],[139.42368,35.71822],[139.42353,35.71823],[139.42308,35.71998],[139.4224,35.72154],[139.42217,35.72291],[139.42599,35.72305],[139.42815,35.72295],[139.42881,35.71966],[139.42894,35.71887]]]}},{"type":"Feature","properties":{"id":"area-13202008003","name":"幸町三丁目"},"geometry":{"type":"Polygon","coordinates":[[[139.43142,35.71799],[139.43156,35.71799],[139.43159,35.71782],[139.42977,35.71758],[139.42894,35.71887],[139.42881,35.71966],[139.42815,35.72295],[139.42909,35.72289],[139.43251,35.72179],[139.43257,35.72161],[139.43258,35.72136],[139.43235,35.72051],[139.43168,35.71923],[139.4309,35.71914],[139.43114,35.7186],[139.4314,35.71817],[139.43142,35.71799]]]}},{"type":"Feature","properties":{"id":"area-13202008004","name":"幸町四丁目"},"geometry":{"type":"Polygon","coordinates":[[[139.42813,35.72895],[139.43402,35.72724],[139.43405,35.72721],[139.43403,35.72715],[139.43391,35.72709],[139.43381,35.72697],[139.43378,35.727],[139.43364,35.72685],[139.43343,35.7264],[139.43256,35.72298],[139.43256,35.7219],[139.43252,35.72178],[139.42909,35.72289],[139.42639,35.72304],[139.42536,35.72303],[139.42576,35.72373],[139.42575,35.72391],[139.42607,35.72519],[139.42672,35.72676],[139.42731,35.72837],[139.42804,35.72836],[139.42813,35.72895]]]}},{"type":"Feature","properties":{"id":"area-13202008005","name":"幸町五丁目"},"geometry":{"type":"Polygon","coordinates":[[[139.41926,35.72947],[139.42262,35.72877],[139.42306,35.72878],[139.42328,35.72872],[139.42693,35.72732],[139.42607,35.72519],[139.42575,35.72391],[139.42576,35.72373],[139.42536,35.72303],[139.42065,35.72285],[139.41808,35.72294],[139.41807,35.73022],[139.41908,35.73021],[139.41944,35.73013],[139.41926,35.72947]]]}},{"type":"Feature","properties":{"id":"area-13202008006","name":"幸町六丁目"},"geometry":{"type":"Polygon","coordinates":[[[139.41908,35.73201],[139.41954,35.73192],[139.41954,35.73195],[139.42044,35.73174],[139.42049,35.73167],[139.42125,35.73148],[139.42164,35.73143],[139.42167,35.73151],[139.42235,35.73143],[139.42393,35.73137],[139.42474,35.7314],[139.42591,35.73124],[139.42679,35.73149],[139.42655,35.7301],[139.42294,35.73056],[139.42277,35.73048],[139.42357,35.73028],[139.42813,35.72895],[139.42804,35.72836],[139.42731,35.72837],[139.42693,35.72732],[139.42306,35.72878],[139.42262,35.72877],[139.41926,35.72947],[139.41944,35.73013],[139.41908,35.73021],[139.41807,35.73022],[139.41804,35.7306],[139.41782,35.73205],[139.41845,35.73205],[139.41908,35.73201]]]}},{"type":"Feature","properties":{"id":"area-13202009001","name":"若葉町一丁目"},"geometry":{"type":"Polygon","coordinates":[[[139.43947,35.71966],[139.43903,35.71857],[139.43911,35.71852],[139.44008,35.71729],[139.44072,35.71674],[139.4417,35.716],[139.44163,35.71577],[139.44069,35.71555],[139.43678,35.71481],[139.43552,35.71622],[139.43534,35.7165],[139.43376,35.71822],[139.43358,35.71855],[139.43299,35.71849],[139.43325,35.71948],[139.43269,35.71938],[139.43267,35.7192],[139.43219,35.71924],[139.4322,35.71929],[139.43168,35.71923],[139.43235,35.72051],[139.43258,35.72136],[139.43258,35.72149],[139.43252,35.72178],[139.43947,35.71966]]]}},{"type":"Feature","properties":{"id":"area-13202009002","name":"若葉町二丁目"},"geometry":{"type":"Polygon","coordinates":[[[139.4453,35.71791],[139.44485,35.71543],[139.44465,35.71397],[139.44418,35.71101],[139.44362,35.71213],[139.44257,35.7144],[139.44254,35.71441],[139.44203,35.71543],[139.44192,35.71559],[139.44196,35.71567],[139.44188,35.71582],[139.44163,35.71577],[139.4417,35.716],[139.44072,35.71674],[139.44008,35.71729],[139.43911,35.71852],[139.43903,35.71857],[139.43947,35.71966],[139.44427,35.7182],[139.4453,35.71791]]]}},{"type":"Feature","properties":{"id":"area-13202009003","name":"若葉町三丁目"},"geometry":{"type":"Polygon","coordinates":[[[139.44612,35.72291],[139.44572,35.72072],[139.44569,35.72053],[139.44573,35.72053],[139.44535,35.7179],[139.44427,35.7182],[139.44237,35.7188],[139.43791,35.72012],[139.43252,35.72178],[139.43256,35.7219],[139.43257,35.72295],[139.43441,35.723],[139.43861,35.72294],[139.43906,35.72282],[139.44117,35.72239],[139.44312,35.72215],[139.4429,35.72096],[139.44412,35.72072],[139.44431,35.722],[139.4451,35.72191],[139.44529,35.72305],[139.44612,35.72291]]]}},{"type":"Feature","properties":{"id":"area-13202009004","name":"若葉町四丁目"},"geometry":{"type":"Polygon","coordinates":[[[139.44529,35.72305],[139.4451,35.72191],[139.44431,35.722],[139.44412,35.72072],[139.4429,35.72096],[139.44312,35.72215],[139.44117,35.72239],[139.43906,35.72282],[139.43861,35.72294],[139.43441,35.723],[139.43257,35.72295],[139.43256,35.72298],[139.43343,35.7264],[139.43357,35.72673],[139.43378,35.727],[139.43556,35.72477],[139.44529,35.72305]]]}},{"type":"Feature","properties":{"id":"area-13202010001","name":"栄町一丁目"},"geometry":{"type":"Polygon","coordinates":[[[139.43373,35.70807],[139.43429,35.7071],[139.43471,35.7072],[139.43469,35.70724],[139.43583,35.70739],[139.43573,35.70756],[139.43644,35.70763],[139.43656,35.70748],[139.43732,35.70757],[139.43748,35.70714],[139.43686,35.70721],[139.43675,35.70716],[139.43585,35.70703],[139.43442,35.70687],[139.43542,35.70512],[139.43584,35.7043],[139.43549,35.70418],[139.43561,35.70387],[139.43448,35.70393],[139.43256,35.70392],[139.4285,35.70376],[139.42813,35.70373],[139.42795,35.70362],[139.42727,35.7036],[139.42721,35.70434],[139.4256,35.70427],[139.42547,35.7043],[139.42528,35.70442],[139.42524,35.70513],[139.42504,35.70531],[139.42491,35.7073],[139.42475,35.70742],[139.4249,35.7074],[139.43238,35.70781],[139.43373,35.70807]]]}},{"type":"Feature","properties":{"id":"area-13202010002","name":"栄町二丁目"},"geometry":{"type":"Polygon","coordinates":[[[139.42959,35.7152],[139.42968,35.71505],[139.42989,35.71508],[139.42991,35.71482],[139.42984,35.71481],[139.43029,35.71402],[139.43181,35.71424],[139.43216,35.7136],[139.43068,35.71335],[139.43086,35.71298],[139.43091,35.71299],[139.43099,35.71277],[139.43145,35.71197],[139.43298,35.71222],[139.43336,35.71159],[139.43191,35.71126],[139.43373,35.70807],[139.43238,35.70781],[139.42966,35.70768],[139.42799,35.71045],[139.42679,35.71022],[139.4278,35.71085],[139.42591,35.71401],[139.42718,35.7145],[139.42724,35.7145],[139.42721,35.71444],[139.42749,35.71453],[139.42773,35.71414],[139.42787,35.71419],[139.42863,35.71285],[139.42941,35.71485],[139.42959,35.7152]]]}},{"type":"Feature","properties":{"id":"area-13202010003","name":"栄町三丁目"},"geometry":{"type":"Polygon","coordinates":[[[139.4278,35.71085],[139.42679,35.71022],[139.42799,35.71045],[139.42966,35.70768],[139.4249,35.7074],[139.42475,35.70742],[139.42478,35.7074],[139.42354,35.70767],[139.42297,35.70784],[139.42174,35.70709],[139.42182,35.70741],[139.42186,35.70877],[139.42598,35.71126],[139.42622,35.71132],[139.42727,35.71173],[139.4278,35.71085]]]}},{"type":"Feature","properties":{"id":"area-13202010004","name":"栄町四丁目"},"geometry":{"type":"Polygon","coordinates":[[[139.42618,35.71356],[139.42727,35.71173],[139.42622,35.71132],[139.42598,35.71126],[139.42186,35.70877],[139.42194,35.71197],[139.42192,35.713],[139.42184,35.71359],[139.42162,35.71449],[139.42208,35.71417],[139.42274,35.71346],[139.42458,35.7141],[139.4256,35.7146],[139.42618,35.71356]]]}},{"type":"Feature","properties":{"id":"area-13202010005","name":"栄町五丁目"},"geometry":{"type":"Polygon","coordinates":[[[139.42894,35.71887],[139.42977,35.71758],[139.42834,35.71741],[139.42914,35.71602],[139.43057,35.71625],[139.43234,35.71649],[139.4327,35.71585],[139.43268,35.71582],[139.4295,35.7154],[139.42959,35.7152],[139.42941,35.71485],[139.42863,35.71285],[139.42787,35.71419],[139.42773,35.71414],[139.42749,35.71453],[139.42721,35.71444],[139.42724,35.7145],[139.42718,35.7145],[139.42593,35.71403],[139.42403,35.71725],[139.42374,35.71796],[139.42355,35.71823],[139.42368,35.71822],[139.42894,35.71887]]]}},{"type":"Feature","properties":{"id":"area-13202010006","name":"栄町六丁目"},"geometry":{"type":"Polygon","coordinates":[[[139.42355,35.71823],[139.42374,35.71796],[139.42403,35.71725],[139.4256,35.7146],[139.42458,35.7141],[139.42274,35.71346],[139.42208,35.71417],[139.42162,35.71449],[139.4214,35.71517],[139.42127,35.71545],[139.42009,35.71769],[139.42219,35.71822],[139.42295,35.71816],[139.42355,35.71823]]]}},{"type":"Feature","properties":{"id":"area-13202011001","name":"高松町一丁目"},"geometry":{"type":"Polygon","coordinates":[[[139.42138,35.71085],[139.42191,35.71105],[139.42184,35.70873],[139.42059,35.70796],[139.42013,35.70821],[139.4199,35.70829],[139.41935,35.70783],[139.41973,35.70743],[139.41868,35.70677],[139.41843,35.70703],[139.41809,35.70675],[139.41852,35.70626],[139.41751,35.70539],[139.41675,35.70466],[139.41672,35.70465],[139.41596,35.70521],[139.41511,35.70574],[139.41434,35.70503],[139.414,35.70477],[139.4131,35.70629],[139.41295,35.70669],[139.41291,35.70689],[139.4129,35.70755],[139.41294,35.70928],[139.41301,35.70948],[139.41318,35.70975],[139.41449,35.71125],[139.41462,35.7112],[139.41516,35.7118],[139.41671,35.71166],[139.4181,35.71044],[139.41976,35.71189],[139.42101,35.71099],[139.42138,35.71085]]]}},{"type":"Feature","properties":{"id":"area-13202011002","name":"高松町二丁目"},"geometry":{"type":"Polygon","coordinates":[[[139.42184,35.70873],[139.42182,35.70741],[139.42174,35.70709],[139.42297,35.70784],[139.42354,35.70767],[139.42371,35.7052],[139.42241,35.70415],[139.42234,35.70412],[139.42137,35.70327],[139.42108,35.70333],[139.42038,35.70372],[139.41957,35.70286],[139.4181,35.70443],[139.41757,35.70402],[139.41675,35.70466],[139.41751,35.70539],[139.41852,35.70626],[139.41809,35.70675],[139.41843,35.70703],[139.41868,35.70677],[139.41973,35.70743],[139.41935,35.70783],[139.4199,35.70829],[139.42013,35.70821],[139.42059,35.70796],[139.42184,35.70873]]]}},{"type":"Feature","properties":{"id":"area-13202011003","name":"高松町三丁目"},"geometry":{"type":"Polygon","coordinates":[[[139.41619,35.70504],[139.41672,35.70465],[139.41675,35.70466],[139.41757,35.70402],[139.4181,35.70443],[139.41957,35.70286],[139.42038,35.70372],[139.42108,35.70333],[139.42137,35.70327],[139.42152,35.70296],[139.41957,35.70072],[139.41807,35.70123],[139.4163,35.70196],[139.4157,35.70232],[139.41506,35.70276],[139.41441,35.7039],[139.41441,35.70398],[139.41402,35.70466],[139.414,35.70477],[139.41434,35.70503],[139.41511,35.70574],[139.41619,35.70504]]]}},{"type":"Feature","properties":{"id":"area-13202012001","name":"曙町一丁目"},"geometry":{"type":"Polygon","coordinates":[[[139.41091,35.70169],[139.41091,35.70163],[139.41107,35.70154],[139.41164,35.70038],[139.41162,35.7003],[139.41178,35.70011],[139.41216,35.6994],[139.41161,35.69939],[139.41146,35.69898],[139.41111,35.69859],[139.41066,35.69801],[139.40914,35.69804],[139.40765,35.69793],[139.40642,35.69762],[139.40578,35.69738],[139.40548,35.69723],[139.40518,35.69725],[139.40511,35.69775],[139.40546,35.6989],[139.40593,35.69973],[139.40629,35.70166],[139.41091,35.70169]]]}},{"type":"Feature","properties":{"id":"area-13202012002","name":"曙町二丁目"},"geometry":{"type":"Polygon","coordinates":[[[139.41441,35.7039],[139.41506,35.70276],[139.4157,35.70232],[139.41646,35.70187],[139.41807,35.70123],[139.41957,35.70072],[139.41879,35.69966],[139.4175,35.69807],[139.41299,35.69805],[139.41228,35.69799],[139.41066,35.69801],[139.41111,35.69859],[139.41146,35.69898],[139.41161,35.69939],[139.41216,35.6994],[139.41178,35.70011],[139.41162,35.7003],[139.41164,35.70038],[139.41107,35.70154],[139.41091,35.70163],[139.41086,35.70192],[139.41264,35.70193],[139.41266,35.70194],[139.41268,35.70284],[139.41438,35.70282],[139.41441,35.7039]]]}},{"type":"Feature","properties":{"id":"area-13202012003","name":"曙町三丁目"},"geometry":{"type":"Polygon","coordinates":[[[139.42547,35.7043],[139.4256,35.70427],[139.42721,35.70434],[139.42727,35.7036],[139.42795,35.70362],[139.42761,35.70338],[139.42772,35.70314],[139.42729,35.70286],[139.42736,35.70219],[139.42619,35.70214],[139.42611,35.70209],[139.42542,35.70205],[139.4255,35.70094],[139.42602,35.70097],[139.42673,35.69976],[139.42897,35.70117],[139.42936,35.70057],[139.42703,35.69926],[139.42721,35.69894],[139.42716,35.69881],[139.42702,35.69864],[139.42092,35.69819],[139.41981,35.69807],[139.41964,35.69801],[139.41893,35.69807],[139.41752,35.69809],[139.41879,35.69966],[139.41959,35.70074],[139.42151,35.70295],[139.42137,35.70327],[139.42234,35.70412],[139.42241,35.70415],[139.42371,35.7052],[139.42354,35.70767],[139.42478,35.7074],[139.42491,35.7073],[139.42504,35.70531],[139.42524,35.70513],[139.42528,35.70442],[139.42547,35.7043]]]}},{"type":"Feature","properties":{"id":"area-13202013001","name":"羽衣町一丁目"},"geometry":{"type":"Polygon","coordinates":[[[139.42432,35.6929],[139.42421,35.6929],[139.42412,35.69337],[139.42329,35.69576],[139.42311,35.69618],[139.42275,35.69667],[139.42257,35.69686],[139.42216,35.69718],[139.42138,35.69761],[139.42117,35.6977],[139.42051,35.69787],[139.41948,35.698],[139.41964,35.69801],[139.41981,35.69807],[139.42092,35.69819],[139.42702,35.69864],[139.42697,35.69858],[139.42699,35.69842],[139.42719,35.69834],[139.42762,35.69825],[139.42836,35.69799],[139.42716,35.69666],[139.42618,35.69539],[139.42519,35.69419],[139.42438,35.69334],[139.42429,35.69315],[139.42432,35.6929]]]}},{"type":"Feature","properties":{"id":"area-13202013002","name":"羽衣町二丁目"},"geometry":{"type":"Polygon","coordinates":[[[139.43128,35.69342],[139.43139,35.69033],[139.43104,35.6904],[139.42989,35.69079],[139.42829,35.69126],[139.42464,35.69265],[139.42435,35.6928],[139.42429,35.69315],[139.42438,35.69334],[139.42519,35.69419],[139.42618,35.69539],[139.42716,35.69666],[139.42836,35.69799],[139.42958,35.69756],[139.43146,35.69696],[139.4298,35.69399],[139.42981,35.69371],[139.43017,35.6936],[139.43049,35.69344],[139.43128,35.69342]]]}},{"type":"Feature","properties":{"id":"area-13202013003","name":"羽衣町三丁目"},"geometry":{"type":"Polygon","coordinates":[[[139.42432,35.6929],[139.42435,35.6928],[139.42448,35.69272],[139.42831,35.69126],[139.42804,35.69066],[139.42693,35.68882],[139.42627,35.68886],[139.42619,35.68843],[139.42664,35.68835],[139.42642,35.68808],[139.42639,35.68799],[139.42643,35.68784],[139.42635,35.68776],[139.42619,35.68762],[139.42598,35.68771],[139.42581,35.68743],[139.42597,35.68737],[139.42584,35.68716],[139.42575,35.68689],[139.42554,35.68675],[139.42532,35.68691],[139.42498,35.68708],[139.42493,35.68703],[139.42483,35.68702],[139.42436,35.68723],[139.42437,35.68737],[139.42406,35.68755],[139.42365,35.68765],[139.42334,35.68762],[139.4229,35.68784],[139.42257,35.68792],[139.42219,35.6882],[139.42194,35.68774],[139.42184,35.68777],[139.42178,35.68769],[139.42096,35.68795],[139.42122,35.68834],[139.42165,35.68931],[139.42297,35.69135],[139.42408,35.69288],[139.42432,35.6929]]]}},{"type":"Feature","properties":{"id":"area-13202014001","name":"錦町一丁目"},"geometry":{"type":"Polygon","coordinates":[[[139.42126,35.69766],[139.42182,35.69738],[139.42238,35.69701],[139.42275,35.69667],[139.42311,35.69618],[139.42329,35.69576],[139.42392,35.694],[139.42412,35.69337],[139.42421,35.6929],[139.42408,35.69288],[139.42406,35.69285],[139.41812,35.6951],[139.41602,35.69595],[139.41603,35.69597],[139.41494,35.69635],[139.41542,35.69723],[139.41562,35.69729],[139.41552,35.6976],[139.41498,35.69749],[139.41499,35.69806],[139.4175,35.69807],[139.41752,35.69809],[139.41893,35.69807],[139.41964,35.69801],[139.41948,35.698],[139.42051,35.69787],[139.42126,35.69766]]]}},{"type":"Feature","properties":{"id":"area-13202014002","name":"錦町二丁目"},"geometry":{"type":"Polygon","coordinates":[[[139.41812,35.6951],[139.4158,35.69084],[139.41555,35.69092],[139.41466,35.69105],[139.41464,35.69107],[139.415,35.69171],[139.41452,35.69162],[139.41291,35.69117],[139.41235,35.69106],[139.41197,35.69126],[139.4113,35.69153],[139.41237,35.69348],[139.41335,35.69312],[139.41433,35.69493],[139.41405,35.69503],[139.41481,35.6964],[139.41603,35.69597],[139.41602,35.69595],[139.41812,35.6951]]]}},{"type":"Feature","properties":{"id":"area-13202014003","name":"錦町三丁目"},"geometry":{"type":"Polygon","coordinates":[[[139.42113,35.69397],[139.41882,35.68975],[139.4158,35.69084],[139.41812,35.6951],[139.42113,35.69397]]]}},{"type":"Feature","properties":{"id":"area-13202014004","name":"錦町四丁目"},"geometry":{"type":"Polygon","coordinates":[[[139.42142,35.68883],[139.41882,35.68975],[139.42113,35.69397],[139.42406,35.69285],[139.42297,35.69135],[139.42193,35.68977],[139.42165,35.68931],[139.42158,35.68912],[139.42142,35.68883]]]}},{"type":"Feature","properties":{"id":"area-13202014005","name":"錦町五丁目"},"geometry":{"type":"Polygon","coordinates":[[[139.415,35.69171],[139.41464,35.69107],[139.41466,35.69105],[139.41555,35.69092],[139.41689,35.69045],[139.41486,35.68675],[139.41299,35.68386],[139.41006,35.68471],[139.40996,35.68621],[139.4105,35.68636],[139.41069,35.68747],[139.41076,35.68761],[139.41164,35.68833],[139.41123,35.68867],[139.41126,35.68901],[139.41133,35.68919],[139.41132,35.6894],[139.41081,35.6899],[139.41095,35.69007],[139.41091,35.69041],[139.41125,35.69057],[139.41121,35.69085],[139.41148,35.69145],[139.41197,35.69126],[139.41235,35.69106],[139.41291,35.69117],[139.41468,35.69165],[139.415,35.69171]]]}},{"type":"Feature","properties":{"id":"area-13202014006","name":"錦町六丁目"},"geometry":{"type":"Polygon","coordinates":[[[139.41689,35.69045],[139.42144,35.68882],[139.42122,35.68834],[139.42096,35.68795],[139.42078,35.68777],[139.42011,35.68644],[139.41947,35.68545],[139.41885,35.68457],[139.4189,35.68444],[139.41815,35.68365],[139.41761,35.68329],[139.41718,35.68302],[139.41635,35.6832],[139.4136,35.68366],[139.41299,35.68386],[139.41486,35.68675],[139.41689,35.69045]]]}},{"type":"Feature","properties":{"id":"area-13202015001","name":"柴崎町一丁目"},"geometry":{"type":"Polygon","coordinates":[[[139.40777,35.69398],[139.40747,35.69212],[139.40621,35.69231],[139.40612,35.69195],[139.40613,35.69175],[139.40607,35.69156],[139.40589,35.69126],[139.40547,35.69118],[139.40491,35.69138],[139.40472,35.69133],[139.40467,35.69127],[139.40463,35.69099],[139.40453,35.69088],[139.40385,35.69111],[139.4031,35.69122],[139.40125,35.69187],[139.40084,35.69131],[139.40044,35.69175],[139.40114,35.69306],[139.40144,35.69358],[139.40162,35.69397],[139.40186,35.69435],[139.40243,35.69507],[139.40331,35.69595],[139.40362,35.69622],[139.40467,35.69687],[139.40522,35.69715],[139.40666,35.6971],[139.40721,35.69673],[139.40666,35.69477],[139.40625,35.69437],[139.40777,35.69398]]]}},{"type":"Feature","properties":{"id":"area-13202015002","name":"柴崎町二丁目"},"geometry":{"type":"Polygon","coordinates":[[[139.41228,35.69799],[139.41216,35.69755],[139.4121,35.69756],[139.41198,35.6972],[139.40908,35.69186],[139.40747,35.69212],[139.40777,35.69398],[139.40625,35.69437],[139.40666,35.69477],[139.40721,35.69673],[139.40666,35.6971],[139.40522,35.69715],[139.4054,35.69723],[139.40548,35.69723],[139.40578,35.69738],[139.40642,35.69762],[139.40765,35.69793],[139.40914,35.69804],[139.41228,35.69799]]]}},{"type":"Feature","properties":{"id":"area-13202015003","name":"柴崎町三丁目"},"geometry":{"type":"Polygon","coordinates":[[[139.41499,35.69806],[139.41498,35.69749],[139.41552,35.6976],[139.41562,35.69729],[139.41542,35.69723],[139.41494,35.69635],[139.41481,35.6964],[139.41405,35.69503],[139.41433,35.69493],[139.41335,35.69312],[139.41237,35.69348],[139.41132,35.69155],[139.40908,35.69186],[139.41198,35.6972],[139.4121,35.69756],[139.41216,35.69755],[139.41228,35.69799],[139.41299,35.69805],[139.41499,35.69806]]]}},{"type":"Feature","properties":{"id":"area-13202015004","name":"柴崎町四丁目"},"geometry":{"type":"Polygon","coordinates":[[[139.41148,35.69145],[139.41121,35.69085],[139.41125,35.69057],[139.41091,35.69041],[139.41095,35.69007],[139.41086,35.68995],[139.41002,35.69004],[139.40806,35.68971],[139.40812,35.68927],[139.40809,35.68909],[139.40794,35.6888],[139.40665,35.68843],[139.40587,35.68839],[139.40395,35.68883],[139.40278,35.68936],[139.40235,35.6896],[139.40161,35.69011],[139.40134,35.69035],[139.40034,35.69158],[139.40046,35.6918],[139.40044,35.69175],[139.40084,35.69131],[139.40125,35.69187],[139.4031,35.69122],[139.40385,35.69111],[139.40453,35.69088],[139.40463,35.69099],[139.40467,35.69127],[139.40472,35.69133],[139.40491,35.69138],[139.40547,35.69118],[139.40589,35.69126],[139.40607,35.69156],[139.40613,35.69175],[139.40612,35.69195],[139.40621,35.69231],[139.40874,35.6919],[139.41132,35.69155],[139.4113,35.69153],[139.41148,35.69145]]]}},{"type":"Feature","properties":{"id":"area-13202015005","name":"柴崎町五丁目"},"geometry":{"type":"Polygon","coordinates":[[[139.40548,35.68736],[139.40366,35.68662],[139.39856,35.68814],[139.40034,35.69158],[139.40134,35.69035],[139.40161,35.69011],[139.40235,35.6896],[139.40278,35.68936],[139.40395,35.68883],[139.40587,35.68839],[139.40591,35.6876],[139.40548,35.68736]]]}},{"type":"Feature","properties":{"id":"area-13202015006","name":"柴崎町六丁目"},"geometry":{"type":"Polygon","coordinates":[[[139.40996,35.68621],[139.41006,35.68471],[139.40366,35.68662],[139.40548,35.68736],[139.40591,35.6876],[139.40587,35.68839],[139.40665,35.68843],[139.40794,35.6888],[139.40809,35.68909],[139.40812,35.68927],[139.40806,35.68971],[139.41002,35.69004],[139.41086,35.68995],[139.41081,35.6899],[139.41132,35.6894],[139.41133,35.68919],[139.41126,35.68901],[139.41123,35.68867],[139.41164,35.68833],[139.41076,35.68761],[139.41069,35.68747],[139.4105,35.68636],[139.40996,35.68621]]]}},{"type":"Feature","properties":{"id":"area-13202016001","name":"富士見町一丁目"},"geometry":{"type":"Polygon","coordinates":[[[139.39935,35.70183],[139.40023,35.70155],[139.40025,35.7016],[139.40049,35.70152],[139.40031,35.70118],[139.39987,35.70053],[139.39975,35.70027],[139.39952,35.69993],[139.39914,35.69862],[139.39906,35.69813],[139.39873,35.69811],[139.39825,35.69813],[139.39778,35.69821],[139.39733,35.69833],[139.39322,35.70003],[139.39339,35.70043],[139.39366,35.70079],[139.39401,35.70197],[139.39393,35.70199],[139.39394,35.70202],[139.3929,35.70235],[139.39336,35.70324],[139.39329,35.70326],[139.39329,35.7033],[139.39337,35.70347],[139.39324,35.70351],[139.39341,35.70368],[139.39937,35.70187],[139.39935,35.70183]]]}},{"type":"Feature","properties":{"id":"area-13202016002","name":"富士見町二丁目"},"geometry":{"type":"Polygon","coordinates":[[[139.40094,35.7024],[139.40228,35.70162],[139.40629,35.70166],[139.40593,35.69973],[139.40546,35.6989],[139.40511,35.69775],[139.40518,35.69725],[139.4013,35.69819],[139.40019,35.69819],[139.39906,35.69813],[139.39914,35.69862],[139.39952,35.69993],[139.39975,35.70027],[139.39987,35.70053],[139.40039,35.7013],[139.40094,35.7024]]]}},{"type":"Feature","properties":{"id":"area-13202016003","name":"富士見町三丁目"},"geometry":{"type":"Polygon","coordinates":[[[139.39322,35.70003],[139.39668,35.69858],[139.39629,35.69732],[139.39617,35.69706],[139.39559,35.69613],[139.39558,35.69598],[139.39578,35.69585],[139.39703,35.69526],[139.39625,35.69505],[139.3961,35.69499],[139.39595,35.69487],[139.39534,35.69477],[139.39529,35.69478],[139.39515,35.69497],[139.39433,35.69502],[139.39406,35.69506],[139.39364,35.69501],[139.3932,35.695],[139.39292,35.69503],[139.39266,35.69498],[139.39242,35.69499],[139.39199,35.69506],[139.39161,35.69516],[139.39061,35.69514],[139.39065,35.69535],[139.39044,35.69545],[139.38955,35.6955],[139.3894,35.69556],[139.38879,35.69549],[139.38879,35.69554],[139.38863,35.69551],[139.38884,35.69582],[139.38883,35.69599],[139.38875,35.696],[139.38866,35.69606],[139.38859,35.69619],[139.38861,35.69627],[139.38921,35.69689],[139.38932,35.69704],[139.3895,35.69743],[139.3895,35.69799],[139.38959,35.69811],[139.38994,35.69822],[139.39015,35.69868],[139.39014,35.69886],[139.3911,35.69883],[139.39119,35.6989],[139.39126,35.69889],[139.39126,35.699],[139.3927,35.69911],[139.39322,35.70003]]]}},{"type":"Feature","properties":{"id":"area-13202016004","name":"富士見町四丁目"},"geometry":{"type":"Polygon","coordinates":[[[139.39838,35.69812],[139.39873,35.69811],[139.40019,35.69819],[139.4013,35.69819],[139.40174,35.69808],[139.4013,35.6974],[139.40092,35.6963],[139.40061,35.69583],[139.40014,35.69519],[139.39906,35.69406],[139.39928,35.69384],[139.39936,35.69372],[139.39928,35.69375],[139.39896,35.69403],[139.39879,35.69408],[139.39864,35.69407],[139.3985,35.69402],[139.3979,35.69465],[139.39754,35.69496],[139.39703,35.69526],[139.39578,35.69585],[139.39558,35.69598],[139.39559,35.69613],[139.39617,35.69706],[139.39629,35.69732],[139.39668,35.69858],[139.39753,35.69827],[139.39838,35.69812]]]}},{"type":"Feature","properties":{"id":"area-13202016005","name":"富士見町五丁目"},"geometry":{"type":"Polygon","coordinates":[[[139.40151,35.69375],[139.40144,35.69358],[139.40034,35.69158],[139.39994,35.69203],[139.39982,35.6923],[139.39951,35.69283],[139.39923,35.69324],[139.3985,35.69402],[139.39864,35.69407],[139.39879,35.69408],[139.39896,35.69403],[139.39928,35.69375],[139.39936,35.69372],[139.39928,35.69384],[139.39906,35.69406],[139.40014,35.69519],[139.40061,35.69583],[139.40092,35.6963],[139.4013,35.6974],[139.40174,35.69808],[139.40518,35.69725],[139.4054,35.69723],[139.40467,35.69687],[139.40394,35.69642],[139.40362,35.69622],[139.40331,35.69595],[139.40243,35.69507],[139.4021,35.69468],[139.40186,35.69435],[139.40151,35.69375]]]}},{"type":"Feature","properties":{"id":"area-13202016006","name":"富士見町六丁目"},"geometry":{"type":"Polygon","coordinates":[[[139.38955,35.6955],[139.3905,35.69543],[139.39065,35.69535],[139.39061,35.69514],[139.39161,35.69516],[139.39199,35.69506],[139.39242,35.69499],[139.39266,35.69498],[139.39292,35.69503],[139.3932,35.695],[139.39364,35.69501],[139.39406,35.69506],[139.39433,35.69502],[139.39515,35.69497],[139.39529,35.69478],[139.39534,35.69477],[139.39596,35.69487],[139.39608,35.69471],[139.39565,35.694],[139.39542,35.69344],[139.39549,35.69335],[139.39573,35.69329],[139.39569,35.69309],[139.39577,35.69282],[139.39588,35.69268],[139.396,35.69197],[139.39597,35.6916],[139.39549,35.69151],[139.39517,35.69161],[139.39499,35.69123],[139.39451,35.69132],[139.39443,35.69104],[139.39449,35.69073],[139.39455,35.68984],[139.39494,35.68975],[139.39522,35.68963],[139.3952,35.68899],[139.39415,35.6891],[139.39227,35.68954],[139.38985,35.69024],[139.38903,35.6904],[139.38855,35.69042],[139.3879,35.69058],[139.38733,35.69094],[139.3855,35.69133],[139.38522,35.69133],[139.38536,35.69148],[139.38565,35.69165],[139.38736,35.69232],[139.38773,35.69262],[139.3879,35.69264],[139.38824,35.6929],[139.3885,35.69314],[139.38863,35.69335],[139.38903,35.69346],[139.38906,35.69356],[139.38895,35.69362],[139.38913,35.694],[139.3891,35.69419],[139.38877,35.69497],[139.38844,35.69542],[139.38859,35.69546],[139.38863,35.69551],[139.38879,35.69554],[139.38879,35.69549],[139.3894,35.69556],[139.38955,35.6955]]]}},{"type":"Feature","properties":{"id":"area-13202016007","name":"富士見町七丁目"},"geometry":{"type":"Polygon","coordinates":[[[139.40034,35.69158],[139.39856,35.68814],[139.3959,35.68893],[139.3952,35.68899],[139.39522,35.68963],[139.39494,35.68975],[139.39455,35.68984],[139.39449,35.69073],[139.39443,35.69096],[139.39451,35.69132],[139.39499,35.69123],[139.39517,35.69161],[139.39549,35.69151],[139.39597,35.6916],[139.396,35.69197],[139.39588,35.69268],[139.39577,35.69282],[139.39569,35.69309],[139.39573,35.69329],[139.39549,35.69335],[139.39542,35.69344],[139.39565,35.694],[139.39608,35.69471],[139.39596,35.69487],[139.3961,35.69499],[139.39625,35.69505],[139.39703,35.69526],[139.39767,35.69486],[139.39923,35.69324],[139.39951,35.69283],[139.39982,35.6923],[139.39994,35.69203],[139.40034,35.69158]]]}}]}