{"type":"FeatureCollection","features":[{"type":"Feature","properties":{"id":"area-13203001001","name":"吉祥寺東町一丁目"},"geometry":{"type":"Polygon","coordinates":[[[139.5841,35.70831],[139.58459,35.70834],[139.58777,35.70889],[139.58856,35.70894],[139.58606,35.70421],[139.58363,35.70535],[139.58184,35.70613],[139.57938,35.70738],[139.58022,35.70907],[139.58168,35.7086],[139.5841,35.70831]]]}},{"type":"Feature","properties":{"id":"area-13203001002","name":"吉祥寺東町二丁目"},"geometry":{"type":"Polygon","coordinates":[[[139.58459,35.70834],[139.58421,35.70831],[139.58389,35.70833],[139.58168,35.7086],[139.58022,35.70907],[139.58191,35.71234],[139.58205,35.71267],[139.58255,35.71359],[139.58354,35.71321],[139.58683,35.71168],[139.58724,35.71155],[139.58749,35.71143],[139.58894,35.71033],[139.5908,35.70914],[139.58777,35.70889],[139.58459,35.70834]]]}},{"type":"Feature","properties":{"id":"area-13203001003","name":"吉祥寺東町三丁目"},"geometry":{"type":"Polygon","coordinates":[[[139.59228,35.70784],[139.59088,35.70516],[139.59042,35.7053],[139.59018,35.70483],[139.59062,35.70466],[139.59006,35.7036],[139.58749,35.70353],[139.58605,35.7042],[139.58856,35.70894],[139.5908,35.70914],[139.59228,35.70784]]]}},{"type":"Feature","properties":{"id":"area-13203001004","name":"吉祥寺東町四丁目"},"geometry":{"type":"Polygon","coordinates":[[[139.5955,35.70568],[139.59443,35.70374],[139.59006,35.7036],[139.59062,35.70466],[139.59018,35.70483],[139.59042,35.7053],[139.59088,35.70516],[139.59228,35.70784],[139.5931,35.70713],[139.59348,35.70689],[139.59492,35.70608],[139.5955,35.70568]]]}},{"type":"Feature","properties":{"id":"area-13203002001","name":"吉祥寺南町一丁目"},"geometry":{"type":"Polygon","coordinates":[[[139.5803,35.70196],[139.58055,35.70187],[139.5807,35.7019],[139.58091,35.70179],[139.58088,35.70174],[139.58387,35.70065],[139.58368,35.70021],[139.58257,35.69798],[139.58245,35.69789],[139.58228,35.69814],[139.58216,35.69822],[139.58076,35.69867],[139.58026,35.69878],[139.57974,35.69902],[139.57928,35.6994],[139.57926,35.69946],[139.57897,35.69979],[139.57892,35.69999],[139.57751,35.70097],[139.57718,35.70125],[139.57685,35.70138],[139.57688,35.70147],[139.57681,35.70156],[139.57654,35.70171],[139.57673,35.70198],[139.57669,35.70209],[139.57733,35.7032],[139.5798,35.70327],[139.57955,35.70278],[139.57966,35.70276],[139.57962,35.70267],[139.57993,35.70258],[139.58037,35.70199],[139.5803,35.70196]]]}},{"type":"Feature","properties":{"id":"area-13203002002","name":"吉祥寺南町二丁目"},"geometry":{"type":"Polygon","coordinates":[[[139.58753,35.70353],[139.58793,35.70334],[139.58707,35.70147],[139.58701,35.70124],[139.58632,35.69975],[139.58088,35.70174],[139.58091,35.70179],[139.5807,35.7019],[139.58055,35.70187],[139.5803,35.70196],[139.58037,35.70199],[139.57993,35.70258],[139.57962,35.70267],[139.57966,35.70276],[139.57955,35.70278],[139.5798,35.70327],[139.58067,35.70331],[139.58068,35.70336],[139.58753,35.70353]]]}},{"type":"Feature","properties":{"id":"area-13203002003","name":"吉祥寺南町三丁目"},"geometry":{"type":"Polygon","coordinates":[[[139.58387,35.70065],[139.5914,35.69787],[139.59007,35.69482],[139.58818,35.69559],[139.58813,35.69558],[139.58676,35.69414],[139.58648,35.69451],[139.5864,35.69469],[139.58638,35.69514],[139.58584,35.69563],[139.58537,35.69621],[139.58461,35.69732],[139.58393,35.69766],[139.58331,35.69787],[139.58318,35.69795],[139.58298,35.698],[139.58257,35.69798],[139.58368,35.70021],[139.58387,35.70065]]]}},{"type":"Feature","properties":{"id":"area-13203002004","name":"吉祥寺南町四丁目"},"geometry":{"type":"Polygon","coordinates":[[[139.5914,35.69789],[139.58632,35.69975],[139.58701,35.70124],[139.58707,35.70147],[139.58793,35.70334],[139.59031,35.70207],[139.59272,35.70094],[139.5914,35.69789]]]}},{"type":"Feature","properties":{"id":"area-13203002005","name":"吉祥寺南町五丁目"},"geometry":{"type":"Polygon","coordinates":[[[139.59443,35.70374],[139.59437,35.70349],[139.59411,35.70321],[139.59284,35.70087],[139.59031,35.70207],[139.58818,35.70322],[139.58753,35.70353],[139.59443,35.70374]]]}},{"type":"Feature","properties":{"id":"area-13203003001","name":"御殿山一丁目"},"geometry":{"type":"Polygon","coordinates":[[[139.57733,35.7032],[139.57669,35.70209],[139.57673,35.70198],[139.57654,35.70171],[139.57657,35.70169],[139.5764,35.70146],[139.57628,35.70152],[139.57607,35.70157],[139.57577,35.70139],[139.57519,35.70122],[139.57489,35.70098],[139.57491,35.70081],[139.5751,35.70083],[139.57499,35.70052],[139.5747,35.70018],[139.57449,35.69999],[139.57407,35.69975],[139.57408,35.69937],[139.57323,35.69905],[139.57259,35.69884],[139.57253,35.69725],[139.57171,35.69832],[139.57141,35.69859],[139.57124,35.69871],[139.57019,35.69928],[139.5686,35.69993],[139.57028,35.70244],[139.57017,35.70248],[139.57047,35.70298],[139.57325,35.70305],[139.57638,35.70319],[139.57733,35.7032]]]}},{"type":"Feature","properties":{"id":"area-13203003002","name":"御殿山二丁目"},"geometry":{"type":"Polygon","coordinates":[[[139.57047,35.70298],[139.57017,35.70248],[139.57028,35.70244],[139.5686,35.69993],[139.56628,35.7008],[139.56575,35.70097],[139.5618,35.70247],[139.56243,35.70283],[139.56662,35.70295],[139.56662,35.70291],[139.57047,35.70298]]]}},{"type":"Feature","properties":{"id":"area-13203004001","name":"吉祥寺本町一丁目"},"geometry":{"type":"Polygon","coordinates":[[[139.58125,35.70642],[139.58363,35.70535],[139.58749,35.70353],[139.58068,35.70336],[139.58067,35.70331],[139.57728,35.70319],[139.57942,35.70736],[139.58125,35.70642]]]}},{"type":"Feature","properties":{"id":"area-13203004002","name":"吉祥寺本町二丁目"},"geometry":{"type":"Polygon","coordinates":[[[139.57942,35.70736],[139.57729,35.70319],[139.57638,35.70319],[139.57325,35.70305],[139.57374,35.70395],[139.5736,35.704],[139.57404,35.70478],[139.57409,35.70476],[139.57623,35.7086],[139.57942,35.70736]]]}},{"type":"Feature","properties":{"id":"area-13203004003","name":"吉祥寺本町三丁目"},"geometry":{"type":"Polygon","coordinates":[[[139.57325,35.70305],[139.56662,35.70291],[139.5667,35.70335],[139.56862,35.70679],[139.57002,35.70631],[139.57404,35.70478],[139.5736,35.704],[139.57374,35.70395],[139.57325,35.70305]]]}},{"type":"Feature","properties":{"id":"area-13203004004","name":"吉祥寺本町四丁目"},"geometry":{"type":"Polygon","coordinates":[[[139.57623,35.7086],[139.57409,35.70476],[139.57002,35.70631],[139.56858,35.70681],[139.57058,35.71032],[139.57494,35.70903],[139.57623,35.7086]]]}},{"type":"Feature","properties":{"id":"area-13203005001","name":"吉祥寺北町一丁目"},"geometry":{"type":"Polygon","coordinates":[[[139.57641,35.71287],[139.5769,35.71269],[139.57698,35.71281],[139.5793,35.71195],[139.57917,35.71169],[139.58117,35.71092],[139.57997,35.70859],[139.57938,35.70738],[139.57597,35.7087],[139.57391,35.70933],[139.57602,35.71321],[139.57651,35.71304],[139.57641,35.71287]]]}},{"type":"Feature","properties":{"id":"area-13203005002","name":"吉祥寺北町二丁目"},"geometry":{"type":"Polygon","coordinates":[[[139.58255,35.71359],[139.58117,35.71092],[139.57917,35.71169],[139.5793,35.71195],[139.57698,35.71281],[139.5769,35.71269],[139.57641,35.71287],[139.57651,35.71304],[139.57603,35.7132],[139.5769,35.71484],[139.57791,35.71663],[139.57903,35.71572],[139.58014,35.71494],[139.58138,35.71418],[139.58255,35.71359]]]}},{"type":"Feature","properties":{"id":"area-13203005003","name":"吉祥寺北町三丁目"},"geometry":{"type":"Polygon","coordinates":[[[139.5769,35.71484],[139.57391,35.70933],[139.57058,35.71032],[139.56838,35.71104],[139.57107,35.71579],[139.5731,35.71946],[139.57452,35.719],[139.57496,35.71881],[139.57507,35.71879],[139.57545,35.71858],[139.57579,35.71836],[139.57653,35.71781],[139.57791,35.71663],[139.5769,35.71484]]]}},{"type":"Feature","properties":{"id":"area-13203005004","name":"吉祥寺北町四丁目"},"geometry":{"type":"Polygon","coordinates":[[[139.57073,35.71521],[139.56838,35.71104],[139.56568,35.71202],[139.5642,35.7127],[139.56376,35.71282],[139.56622,35.71699],[139.56767,35.71651],[139.5679,35.71634],[139.56798,35.71615],[139.57073,35.71521]]]}},{"type":"Feature","properties":{"id":"area-13203005005","name":"吉祥寺北町五丁目"},"geometry":{"type":"Polygon","coordinates":[[[139.5731,35.71946],[139.57073,35.71521],[139.56798,35.71615],[139.5679,35.71634],[139.56767,35.71651],[139.56622,35.71699],[139.56849,35.72081],[139.57006,35.72038],[139.57172,35.71983],[139.5731,35.71946]]]}},{"type":"Feature","properties":{"id":"area-13203006001","name":"中町一丁目"},"geometry":{"type":"Polygon","coordinates":[[[139.56243,35.70283],[139.5618,35.70247],[139.55873,35.70363],[139.55909,35.70418],[139.56014,35.70595],[139.5601,35.70598],[139.56015,35.70605],[139.5633,35.70487],[139.5638,35.70483],[139.56468,35.70456],[139.5669,35.70373],[139.56692,35.7037],[139.5667,35.70335],[139.56662,35.70295],[139.56243,35.70283]]]}},{"type":"Feature","properties":{"id":"area-13203006002","name":"中町二丁目"},"geometry":{"type":"Polygon","coordinates":[[[139.56862,35.70679],[139.5669,35.70373],[139.56468,35.70456],[139.5638,35.70483],[139.5633,35.70487],[139.56015,35.70605],[139.56042,35.70658],[139.56083,35.70727],[139.56089,35.70728],[139.56098,35.70741],[139.56221,35.70947],[139.56351,35.70895],[139.56518,35.70805],[139.56769,35.70707],[139.56862,35.70679]]]}},{"type":"Feature","properties":{"id":"area-13203006003","name":"中町三丁目"},"geometry":{"type":"Polygon","coordinates":[[[139.57058,35.71032],[139.56858,35.70681],[139.56835,35.70687],[139.56769,35.70707],[139.56518,35.70805],[139.56351,35.70895],[139.56221,35.70947],[139.56317,35.71107],[139.5642,35.7127],[139.56568,35.71202],[139.56673,35.71163],[139.56819,35.7111],[139.57058,35.71032]]]}},{"type":"Feature","properties":{"id":"area-13203007001","name":"西久保一丁目"},"geometry":{"type":"Polygon","coordinates":[[[139.55909,35.70418],[139.55872,35.7036],[139.55232,35.70611],[139.55407,35.70859],[139.56097,35.7074],[139.56089,35.70728],[139.56083,35.70727],[139.56042,35.70658],[139.5601,35.70598],[139.56014,35.70595],[139.55909,35.70418]]]}},{"type":"Feature","properties":{"id":"area-13203007002","name":"西久保二丁目"},"geometry":{"type":"Polygon","coordinates":[[[139.55724,35.71099],[139.55798,35.71065],[139.55813,35.71087],[139.56091,35.70963],[139.56106,35.70986],[139.56221,35.70947],[139.56097,35.7074],[139.55407,35.70859],[139.55627,35.71174],[139.55742,35.71128],[139.55724,35.71099]]]}},{"type":"Feature","properties":{"id":"area-13203007003","name":"西久保三丁目"},"geometry":{"type":"Polygon","coordinates":[[[139.56317,35.71107],[139.56221,35.70947],[139.56106,35.70986],[139.56091,35.70963],[139.55813,35.71087],[139.55798,35.71065],[139.55724,35.71099],[139.55742,35.71128],[139.55627,35.71174],[139.55779,35.71393],[139.56377,35.71281],[139.5642,35.7127],[139.56317,35.71107]]]}},{"type":"Feature","properties":{"id":"area-13203008001","name":"緑町一丁目"},"geometry":{"type":"Polygon","coordinates":[[[139.56376,35.71282],[139.56148,35.71323],[139.55764,35.71397],[139.55915,35.71657],[139.56466,35.71435],[139.56376,35.71282]]]}},{"type":"Feature","properties":{"id":"area-13203008002","name":"緑町二丁目"},"geometry":{"type":"Polygon","coordinates":[[[139.56084,35.7194],[139.56244,35.71877],[139.56282,35.71898],[139.56311,35.71909],[139.56348,35.71914],[139.56401,35.71912],[139.56686,35.71807],[139.56466,35.71435],[139.55915,35.71657],[139.56084,35.7194]]]}},{"type":"Feature","properties":{"id":"area-13203008003","name":"緑町三丁目"},"geometry":{"type":"Polygon","coordinates":[[[139.56849,35.72081],[139.56686,35.71807],[139.56401,35.71912],[139.56348,35.71914],[139.56311,35.71909],[139.56282,35.71898],[139.56244,35.71877],[139.56084,35.7194],[139.5608,35.71939],[139.56207,35.72153],[139.56213,35.72181],[139.56218,35.72177],[139.56335,35.72173],[139.56516,35.72152],[139.56633,35.7213],[139.56849,35.72081]]]}},{"type":"Feature","properties":{"id":"area-13203009001","name":"八幡町一丁目"},"geometry":{"type":"Polygon","coordinates":[[[139.55915,35.71657],[139.55764,35.71397],[139.55634,35.71426],[139.55362,35.71501],[139.55544,35.71805],[139.5578,35.71708],[139.55915,35.71657]]]}},{"type":"Feature","properties":{"id":"area-13203009002","name":"八幡町二丁目"},"geometry":{"type":"Polygon","coordinates":[[[139.56207,35.72153],[139.5608,35.71939],[139.56084,35.7194],[139.56057,35.71892],[139.55915,35.71657],[139.5578,35.71708],[139.55544,35.71805],[139.55721,35.72103],[139.55725,35.72147],[139.55889,35.72175],[139.56006,35.72188],[139.56213,35.72181],[139.56207,35.72153]]]}},{"type":"Feature","properties":{"id":"area-13203009003","name":"八幡町三丁目"},"geometry":{"type":"Polygon","coordinates":[[[139.55544,35.71805],[139.55362,35.71501],[139.55174,35.71564],[139.54921,35.71655],[139.5503,35.71717],[139.55064,35.71739],[139.5516,35.71822],[139.55303,35.71933],[139.5541,35.71859],[139.55544,35.71805]]]}},{"type":"Feature","properties":{"id":"area-13203009004","name":"八幡町四丁目"},"geometry":{"type":"Polygon","coordinates":[[[139.55721,35.72103],[139.55544,35.71805],[139.5541,35.71859],[139.55303,35.71933],[139.55483,35.72061],[139.55725,35.72147],[139.55721,35.72103]]]}},{"type":"Feature","properties":{"id":"area-13203010001","name":"関前一丁目"},"geometry":{"type":"Polygon","coordinates":[[[139.54388,35.71239],[139.55221,35.70926],[139.55235,35.70929],[139.55255,35.70921],[139.5527,35.70904],[139.55408,35.7086],[139.55233,35.70612],[139.55155,35.70644],[139.55107,35.7066],[139.54971,35.70713],[139.54978,35.7067],[139.54975,35.7067],[139.54967,35.70719],[139.54849,35.70769],[139.54364,35.70942],[139.54388,35.71239]]]}},{"type":"Feature","properties":{"id":"area-13203010002","name":"関前二丁目"},"geometry":{"type":"Polygon","coordinates":[[[139.5479,35.71345],[139.55179,35.71225],[139.55181,35.71227],[139.55569,35.71091],[139.55408,35.7086],[139.5527,35.70904],[139.55255,35.70921],[139.55235,35.70929],[139.55221,35.70926],[139.54629,35.71148],[139.54659,35.71212],[139.54696,35.71201],[139.5479,35.71345]]]}},{"type":"Feature","properties":{"id":"area-13203010003","name":"関前三丁目"},"geometry":{"type":"Polygon","coordinates":[[[139.55779,35.71393],[139.55569,35.71091],[139.55181,35.71227],[139.55179,35.71225],[139.5499,35.71281],[139.5479,35.71345],[139.54917,35.71532],[139.54914,35.71537],[139.54982,35.71634],[139.55174,35.71564],[139.55362,35.71501],[139.55634,35.71426],[139.55779,35.71393]]]}},{"type":"Feature","properties":{"id":"area-13203010004","name":"関前四丁目"},"geometry":{"type":"Polygon","coordinates":[[[139.54917,35.71532],[139.54696,35.71201],[139.54659,35.71212],[139.54629,35.71148],[139.54388,35.71239],[139.54404,35.71414],[139.54467,35.71437],[139.54767,35.71573],[139.54921,35.71655],[139.54982,35.71634],[139.54914,35.71537],[139.54917,35.71532]]]}},{"type":"Feature","properties":{"id":"area-13203010005","name":"関前五丁目"},"geometry":{"type":"Polygon","coordinates":[[[139.54404,35.71414],[139.54364,35.70943],[139.54301,35.70955],[139.54005,35.71],[139.53915,35.71021],[139.53682,35.71088],[139.53679,35.71114],[139.53753,35.71105],[139.53778,35.71111],[139.54029,35.71249],[139.54243,35.71348],[139.54404,35.71414]]]}},{"type":"Feature","properties":{"id":"area-13203011001","name":"境一丁目"},"geometry":{"type":"Polygon","coordinates":[[[139.54993,35.70614],[139.55016,35.70429],[139.55031,35.70236],[139.54506,35.70222],[139.54509,35.70233],[139.54472,35.70238],[139.54472,35.70242],[139.5446,35.70243],[139.54456,35.70236],[139.54458,35.70226],[139.544,35.70223],[139.54399,35.70245],[139.54423,35.70249],[139.5439,35.70611],[139.54526,35.70599],[139.54586,35.70589],[139.54622,35.7058],[139.54625,35.70566],[139.54706,35.70565],[139.54783,35.70569],[139.54782,35.7059],[139.54918,35.70613],[139.54993,35.70614]]]}},{"type":"Feature","properties":{"id":"area-13203011002","name":"境二丁目"},"geometry":{"type":"Polygon","coordinates":[[[139.54384,35.70696],[139.54423,35.70249],[139.54399,35.70245],[139.544,35.70223],[139.54282,35.7022],[139.54282,35.70217],[139.542,35.70213],[139.54014,35.70209],[139.53859,35.702],[139.53845,35.70406],[139.53832,35.70487],[139.53745,35.70642],[139.53968,35.70643],[139.53971,35.70628],[139.54083,35.7064],[139.54122,35.7064],[139.542,35.70666],[139.54314,35.70698],[139.54384,35.70696]]]}},{"type":"Feature","properties":{"id":"area-13203011003","name":"境三丁目"},"geometry":{"type":"Polygon","coordinates":[[[139.54967,35.70719],[139.54975,35.7067],[139.54978,35.7067],[139.54993,35.70614],[139.54918,35.70613],[139.54782,35.7059],[139.54783,35.70569],[139.54706,35.70565],[139.54625,35.70566],[139.54622,35.7058],[139.54586,35.70589],[139.54526,35.70599],[139.5439,35.70611],[139.54364,35.70942],[139.54849,35.70769],[139.54967,35.70719]]]}},{"type":"Feature","properties":{"id":"area-13203011004","name":"境四丁目"},"geometry":{"type":"Polygon","coordinates":[[[139.54115,35.70982],[139.54301,35.70955],[139.54364,35.70943],[139.54384,35.70696],[139.54314,35.70698],[139.542,35.70666],[139.54122,35.7064],[139.54083,35.7064],[139.53971,35.70628],[139.53968,35.70643],[139.53745,35.70642],[139.53704,35.70713],[139.5383,35.70718],[139.53787,35.70782],[139.53762,35.70838],[139.53775,35.70885],[139.53774,35.70895],[139.53753,35.71021],[139.53687,35.71086],[139.53915,35.71021],[139.54005,35.71],[139.54114,35.70984],[139.54115,35.70982]]]}},{"type":"Feature","properties":{"id":"area-13203011005","name":"境五丁目"},"geometry":{"type":"Polygon","coordinates":[[[139.53413,35.70701],[139.53466,35.70696],[139.53704,35.70713],[139.53832,35.70487],[139.53845,35.70406],[139.53859,35.70202],[139.53242,35.70184],[139.53241,35.702],[139.5321,35.70205],[139.5321,35.70525],[139.53219,35.7075],[139.53309,35.70729],[139.53317,35.70723],[139.53413,35.70701]]]}},{"type":"Feature","properties":{"id":"area-13203012001","name":"境南町一丁目"},"geometry":{"type":"Polygon","coordinates":[[[139.55031,35.70236],[139.55048,35.69835],[139.55044,35.69835],[139.55049,35.69799],[139.55055,35.69627],[139.55053,35.69617],[139.55054,35.6949],[139.55051,35.69486],[139.54983,35.69497],[139.54899,35.69517],[139.54671,35.69574],[139.54671,35.69662],[139.5466,35.69831],[139.54667,35.69921],[139.54663,35.70012],[139.54644,35.70226],[139.55031,35.70236]]]}},{"type":"Feature","properties":{"id":"area-13203012002","name":"境南町二丁目"},"geometry":{"type":"Polygon","coordinates":[[[139.54509,35.70233],[139.54506,35.70222],[139.54644,35.70226],[139.54663,35.70012],[139.54667,35.69921],[139.5466,35.69831],[139.54671,35.69662],[139.54671,35.69574],[139.54548,35.69597],[139.54351,35.69656],[139.5413,35.69712],[139.54154,35.69808],[139.5411,35.69806],[139.5411,35.69812],[139.54149,35.69952],[139.54152,35.69953],[139.54187,35.70088],[139.54198,35.70169],[139.54197,35.70213],[139.54282,35.70217],[139.54282,35.7022],[139.54458,35.70226],[139.54456,35.70236],[139.5446,35.70243],[139.54472,35.70242],[139.54472,35.70238],[139.54509,35.70233]]]}},{"type":"Feature","properties":{"id":"area-13203012003","name":"境南町三丁目"},"geometry":{"type":"Polygon","coordinates":[[[139.54149,35.69952],[139.5411,35.69806],[139.54154,35.69808],[139.5413,35.69712],[139.53901,35.69769],[139.53794,35.698],[139.53816,35.69939],[139.53857,35.70084],[139.53863,35.70129],[139.53859,35.702],[139.54014,35.70209],[139.542,35.70214],[139.54197,35.70213],[139.54198,35.70169],[139.54187,35.70088],[139.54152,35.69953],[139.54149,35.69952]]]}},{"type":"Feature","properties":{"id":"area-13203012004","name":"境南町四丁目"},"geometry":{"type":"Polygon","coordinates":[[[139.53863,35.70129],[139.53857,35.70084],[139.53816,35.69939],[139.53794,35.698],[139.53618,35.69852],[139.535,35.69883],[139.53466,35.6989],[139.53374,35.69895],[139.53341,35.70084],[139.53335,35.7009],[139.5333,35.70117],[139.5325,35.70113],[139.53249,35.70128],[139.53244,35.7013],[139.53242,35.70184],[139.53859,35.70202],[139.53863,35.70129]]]}},{"type":"Feature","properties":{"id":"area-13203012005","name":"境南町五丁目"},"geometry":{"type":"Polygon","coordinates":[[[139.54195,35.69549],[139.54196,35.69524],[139.54185,35.69523],[139.54185,35.6952],[139.53786,35.69529],[139.53606,35.6952],[139.53596,35.6965],[139.53587,35.69858],[139.53618,35.69852],[139.53901,35.69769],[139.54184,35.69698],[139.54185,35.69549],[139.54195,35.69549]]]}},{"type":"Feature","properties":{"id":"area-13203013001","name":"桜堤一丁目"},"geometry":{"type":"Polygon","coordinates":[[[139.53466,35.70696],[139.53413,35.70701],[139.53317,35.70723],[139.53311,35.70728],[139.53313,35.70796],[139.53354,35.71181],[139.53687,35.71086],[139.53753,35.71021],[139.53774,35.70895],[139.53775,35.70885],[139.53762,35.70838],[139.53787,35.70782],[139.5383,35.70718],[139.53778,35.70717],[139.53466,35.70696]]]}},{"type":"Feature","properties":{"id":"area-13203013002","name":"桜堤二丁目"},"geometry":{"type":"Polygon","coordinates":[[[139.53354,35.71181],[139.53313,35.70796],[139.53311,35.70728],[139.5322,35.7075],[139.53231,35.70906],[139.52809,35.70963],[139.52803,35.70967],[139.52772,35.7097],[139.5277,35.70949],[139.52703,35.70995],[139.52721,35.71008],[139.52752,35.7124],[139.52845,35.71239],[139.53142,35.71224],[139.53224,35.71215],[139.53354,35.71181]]]}},{"type":"Feature","properties":{"id":"area-13203013003","name":"桜堤三丁目"},"geometry":{"type":"Polygon","coordinates":[[[139.52983,35.71763],[139.52926,35.71235],[139.52464,35.71249],[139.52529,35.71432],[139.52534,35.71433],[139.52685,35.7186],[139.52684,35.71868],[139.52906,35.71785],[139.52983,35.71763]]]}}]}