{"type":"FeatureCollection","features":[{"type":"Feature","properties":{"id":"area-13207001001","name":"東町一丁目"},"geometry":{"type":"Polygon","coordinates":[[[139.39399,35.70191],[139.39291,35.70138],[139.39152,35.70177],[139.38966,35.70254],[139.39002,35.70319],[139.39039,35.70426],[139.39042,35.70437],[139.39039,35.70448],[139.39145,35.70408],[139.39337,35.70347],[139.39329,35.7033],[139.39329,35.70326],[139.39336,35.70324],[139.3929,35.70235],[139.39394,35.70202],[139.39393,35.70199],[139.39401,35.70197],[139.39399,35.70191]]]}},{"type":"Feature","properties":{"id":"area-13207001002","name":"東町二丁目"},"geometry":{"type":"Polygon","coordinates":[[[139.38535,35.706],[139.39039,35.70448],[139.39042,35.70437],[139.39039,35.70426],[139.39002,35.70319],[139.38966,35.70254],[139.3888,35.70301],[139.38444,35.70436],[139.38443,35.7044],[139.38458,35.70471],[139.38461,35.7047],[139.3847,35.70492],[139.38497,35.70534],[139.38508,35.7056],[139.38512,35.70559],[139.38535,35.706]]]}},{"type":"Feature","properties":{"id":"area-13207001003","name":"東町三丁目"},"geometry":{"type":"Polygon","coordinates":[[[139.39126,35.699],[139.39126,35.69889],[139.39119,35.6989],[139.3911,35.69883],[139.39014,35.69886],[139.39015,35.69868],[139.39004,35.69846],[139.38932,35.69874],[139.3882,35.69926],[139.38802,35.6993],[139.39185,35.70089],[139.39282,35.70132],[139.39399,35.70191],[139.39366,35.70079],[139.39354,35.70065],[139.39334,35.70033],[139.39322,35.70003],[139.3927,35.69911],[139.39126,35.699]]]}},{"type":"Feature","properties":{"id":"area-13207001004","name":"東町四丁目"},"geometry":{"type":"Polygon","coordinates":[[[139.39185,35.70089],[139.38802,35.6993],[139.38788,35.69939],[139.38764,35.69945],[139.38764,35.69941],[139.38706,35.6996],[139.38657,35.69971],[139.38712,35.70005],[139.38719,35.70022],[139.38746,35.70069],[139.38749,35.70097],[139.38776,35.70108],[139.38822,35.70113],[139.3893,35.70275],[139.38966,35.70254],[139.39139,35.70181],[139.39291,35.70138],[139.39185,35.70089]]]}},{"type":"Feature","properties":{"id":"area-13207001005","name":"東町五丁目"},"geometry":{"type":"Polygon","coordinates":[[[139.38712,35.70005],[139.38657,35.69971],[139.38607,35.69986],[139.38609,35.69991],[139.38294,35.7009],[139.3833,35.70185],[139.38335,35.70192],[139.38341,35.70215],[139.38363,35.70242],[139.38381,35.70272],[139.38439,35.7043],[139.38442,35.70431],[139.38444,35.70436],[139.38856,35.70309],[139.3888,35.70301],[139.3893,35.70275],[139.38822,35.70113],[139.38776,35.70108],[139.38749,35.70097],[139.38746,35.70069],[139.38719,35.70022],[139.38712,35.70005]]]}},{"type":"Feature","properties":{"id":"area-13207002001","name":"郷地町一丁目"},"geometry":{"type":"Polygon","coordinates":[[[139.38706,35.6996],[139.38764,35.69941],[139.38764,35.69945],[139.38788,35.69939],[139.38802,35.6993],[139.3882,35.69926],[139.38932,35.69874],[139.39004,35.69846],[139.38994,35.69822],[139.38959,35.69811],[139.3895,35.69799],[139.3895,35.69743],[139.38947,35.69733],[139.38925,35.69694],[139.38861,35.69627],[139.38859,35.69619],[139.38866,35.69606],[139.38875,35.696],[139.38883,35.69599],[139.38884,35.69582],[139.38859,35.69546],[139.38839,35.69541],[139.38757,35.69574],[139.38697,35.69594],[139.38682,35.69602],[139.38627,35.69672],[139.38622,35.69686],[139.38622,35.6973],[139.38618,35.69746],[139.38609,35.69762],[139.38596,35.69779],[139.38563,35.69803],[139.38593,35.69842],[139.38657,35.69971],[139.38706,35.6996]]]}},{"type":"Feature","properties":{"id":"area-13207002002","name":"郷地町二丁目"},"geometry":{"type":"Polygon","coordinates":[[[139.38697,35.69594],[139.38839,35.69541],[139.38844,35.69542],[139.38877,35.69497],[139.3891,35.69419],[139.38913,35.694],[139.38895,35.69362],[139.38906,35.69356],[139.38903,35.69346],[139.38893,35.69343],[139.38214,35.69525],[139.38221,35.69638],[139.38232,35.69711],[139.38231,35.69765],[139.3828,35.69823],[139.38295,35.69855],[139.38308,35.69855],[139.38312,35.69888],[139.38349,35.69884],[139.38517,35.69824],[139.3857,35.698],[139.38596,35.69779],[139.38618,35.69746],[139.38624,35.69717],[139.38622,35.69686],[139.38627,35.69672],[139.38682,35.69602],[139.38697,35.69594]]]}},{"type":"Feature","properties":{"id":"area-13207002003","name":"郷地町三丁目"},"geometry":{"type":"Polygon","coordinates":[[[139.38214,35.69525],[139.38893,35.69343],[139.38863,35.69335],[139.3885,35.69314],[139.38824,35.6929],[139.3879,35.69264],[139.38773,35.69262],[139.38736,35.69232],[139.38565,35.69165],[139.38536,35.69148],[139.38522,35.69133],[139.38372,35.69133],[139.38407,35.69201],[139.38346,35.69226],[139.38349,35.69219],[139.38344,35.69216],[139.3832,35.69229],[139.3832,35.69236],[139.38303,35.69242],[139.3831,35.69369],[139.38288,35.69368],[139.38242,35.69358],[139.38234,35.69441],[139.38226,35.69461],[139.38216,35.69475],[139.38213,35.69486],[139.38214,35.69525]]]}},{"type":"Feature","properties":{"id":"area-13207003002","name":"武蔵野二丁目"},"geometry":{"type":"Polygon","coordinates":[[[139.38008,35.72558],[139.38182,35.72303],[139.38089,35.72259],[139.38069,35.72247],[139.38026,35.72213],[139.38018,35.72221],[139.37912,35.72171],[139.38154,35.72042],[139.38227,35.72006],[139.38306,35.71972],[139.38188,35.7185],[139.38153,35.71802],[139.37579,35.72028],[139.37431,35.72103],[139.37295,35.72146],[139.37368,35.72497],[139.37448,35.72507],[139.37632,35.72548],[139.37673,35.72482],[139.37701,35.72495],[139.37736,35.72433],[139.37715,35.72424],[139.37707,35.72426],[139.37683,35.72415],[139.3771,35.72377],[139.3791,35.72503],[139.38008,35.72558]]]}},{"type":"Feature","properties":{"id":"area-13207003003","name":"武蔵野三丁目"},"geometry":{"type":"Polygon","coordinates":[[[139.38153,35.71802],[139.38151,35.71649],[139.38036,35.71406],[139.37697,35.71532],[139.37241,35.71739],[139.37217,35.71717],[139.37208,35.71713],[139.37207,35.71715],[139.37295,35.72146],[139.37431,35.72103],[139.37579,35.72028],[139.38153,35.71802]]]}},{"type":"Feature","properties":{"id":"area-13207004001","name":"玉川町一丁目"},"geometry":{"type":"Polygon","coordinates":[[[139.38084,35.70743],[139.38442,35.70633],[139.38448,35.70642],[139.3854,35.70614],[139.38535,35.706],[139.38512,35.70559],[139.38508,35.7056],[139.38497,35.70534],[139.3847,35.70492],[139.38461,35.7047],[139.38458,35.70471],[139.38443,35.7044],[139.38442,35.70431],[139.38327,35.70473],[139.38135,35.70565],[139.38021,35.70612],[139.38084,35.70743]]]}},{"type":"Feature","properties":{"id":"area-13207004002","name":"玉川町二丁目"},"geometry":{"type":"Polygon","coordinates":[[[139.38084,35.70743],[139.38021,35.70612],[139.37655,35.7072],[139.37711,35.70868],[139.3789,35.70812],[139.37882,35.70805],[139.38084,35.70743]]]}},{"type":"Feature","properties":{"id":"area-13207004003","name":"玉川町三丁目"},"geometry":{"type":"Polygon","coordinates":[[[139.3833,35.70185],[139.38294,35.7009],[139.38219,35.70113],[139.37954,35.70136],[139.37962,35.70181],[139.37976,35.70232],[139.38015,35.70331],[139.38165,35.70551],[139.38327,35.70473],[139.38442,35.70431],[139.38439,35.7043],[139.38381,35.70272],[139.38363,35.70242],[139.38341,35.70215],[139.38335,35.70192],[139.3833,35.70185]]]}},{"type":"Feature","properties":{"id":"area-13207004004","name":"玉川町四丁目"},"geometry":{"type":"Polygon","coordinates":[[[139.38165,35.70551],[139.3802,35.70339],[139.37955,35.70394],[139.37876,35.70444],[139.3786,35.70458],[139.37845,35.7048],[139.37849,35.70511],[139.37777,35.70537],[139.37728,35.70585],[139.37711,35.70607],[139.37689,35.70625],[139.37638,35.70676],[139.37655,35.7072],[139.37998,35.70621],[139.38165,35.70551]]]}},{"type":"Feature","properties":{"id":"area-13207004005","name":"玉川町五丁目"},"geometry":{"type":"Polygon","coordinates":[[[139.37962,35.70181],[139.37954,35.70136],[139.37702,35.70151],[139.37596,35.70144],[139.37412,35.70139],[139.37423,35.70187],[139.37446,35.70255],[139.37521,35.7042],[139.37544,35.70489],[139.37549,35.70518],[139.37594,35.70572],[139.37604,35.70589],[139.37638,35.70676],[139.37689,35.70625],[139.37711,35.70607],[139.37728,35.70585],[139.37777,35.70537],[139.37849,35.70511],[139.37845,35.7048],[139.3786,35.70458],[139.37876,35.70444],[139.37955,35.70394],[139.3802,35.70339],[139.37988,35.70265],[139.37962,35.70181]]]}},{"type":"Feature","properties":{"id":"area-13207005101","name":"福島町一丁目"},"geometry":{"type":"Polygon","coordinates":[[[139.38657,35.69971],[139.38593,35.69842],[139.38563,35.69803],[139.38517,35.69824],[139.38349,35.69884],[139.38312,35.69888],[139.38308,35.69855],[139.38295,35.69855],[139.3828,35.69823],[139.38231,35.69765],[139.38232,35.69711],[139.38221,35.69638],[139.38212,35.69526],[139.37971,35.6959],[139.38188,35.69879],[139.38222,35.69984],[139.3823,35.7],[139.38294,35.7009],[139.38609,35.69991],[139.38607,35.69986],[139.38657,35.69971]]]}},{"type":"Feature","properties":{"id":"area-13207005102","name":"福島町二丁目"},"geometry":{"type":"Polygon","coordinates":[[[139.38188,35.69879],[139.37971,35.6959],[139.376,35.69692],[139.37657,35.69811],[139.377,35.69911],[139.37711,35.69947],[139.37729,35.70146],[139.37725,35.70149],[139.378,35.70147],[139.38157,35.7012],[139.38219,35.70113],[139.38294,35.7009],[139.3823,35.7],[139.38222,35.69984],[139.38188,35.69879]]]}},{"type":"Feature","properties":{"id":"area-13207005103","name":"福島町三丁目"},"geometry":{"type":"Polygon","coordinates":[[[139.38234,35.69441],[139.38242,35.69358],[139.38288,35.69368],[139.3831,35.69369],[139.38303,35.69242],[139.3832,35.69236],[139.3832,35.69229],[139.38344,35.69216],[139.38349,35.69219],[139.38346,35.69226],[139.38407,35.69201],[139.38372,35.69133],[139.37966,35.69134],[139.37758,35.6916],[139.37673,35.69178],[139.37268,35.69232],[139.37541,35.69591],[139.37595,35.69692],[139.38212,35.69526],[139.38213,35.69486],[139.38216,35.69475],[139.38226,35.69461],[139.38234,35.69441]]]}},{"type":"Feature","properties":{"id":"area-132070052","name":"福島町"},"geometry":{"type":"Polygon","coordinates":[[[139.38636,35.70831],[139.38636,35.70797],[139.38661,35.70797],[139.38663,35.70786],[139.38628,35.70729],[139.38544,35.70613],[139.38448,35.70642],[139.38442,35.70633],[139.38166,35.70718],[139.38204,35.70881],[139.38325,35.70879],[139.38353,35.70878],[139.3837,35.70871],[139.38562,35.70872],[139.38562,35.70831],[139.38636,35.70831]]]}},{"type":"Feature","properties":{"id":"area-13207007001","name":"朝日町一丁目"},"geometry":{"type":"Polygon","coordinates":[[[139.37712,35.70871],[139.37653,35.70716],[139.37632,35.70721],[139.37481,35.7077],[139.3736,35.70806],[139.37291,35.70823],[139.37314,35.70863],[139.37336,35.70911],[139.3737,35.70959],[139.37373,35.7097],[139.37407,35.70959],[139.37422,35.70958],[139.37448,35.70949],[139.37533,35.70931],[139.37712,35.70871]]]}},{"type":"Feature","properties":{"id":"area-13207007002","name":"朝日町二丁目"},"geometry":{"type":"Polygon","coordinates":[[[139.36994,35.71086],[139.37284,35.71],[139.37296,35.70993],[139.37373,35.7097],[139.3737,35.70959],[139.37336,35.70911],[139.37314,35.70863],[139.37291,35.70823],[139.36981,35.70898],[139.36928,35.7092],[139.36994,35.71086]]]}},{"type":"Feature","properties":{"id":"area-13207007003","name":"朝日町三丁目"},"geometry":{"type":"Polygon","coordinates":[[[139.37604,35.70589],[139.37594,35.70572],[139.37549,35.70518],[139.37557,35.70549],[139.37421,35.7058],[139.37417,35.70574],[139.37398,35.70584],[139.37398,35.70593],[139.37298,35.70625],[139.37301,35.70633],[139.3716,35.7067],[139.37167,35.7069],[139.3726,35.70765],[139.37281,35.70797],[139.37291,35.70823],[139.3736,35.70806],[139.37653,35.70716],[139.37604,35.70589]]]}},{"type":"Feature","properties":{"id":"area-13207007004","name":"朝日町四丁目"},"geometry":{"type":"Polygon","coordinates":[[[139.37151,35.70622],[139.37068,35.70478],[139.37055,35.70448],[139.37023,35.70462],[139.36989,35.70484],[139.36986,35.70496],[139.36987,35.70503],[139.36922,35.70514],[139.36699,35.70613],[139.36742,35.70682],[139.36754,35.70698],[139.36761,35.70702],[139.36775,35.70724],[139.36928,35.70921],[139.36987,35.70897],[139.37291,35.70823],[139.37281,35.70797],[139.3726,35.70765],[139.37167,35.7069],[139.3716,35.7067],[139.37151,35.70622]]]}},{"type":"Feature","properties":{"id":"area-13207007005","name":"朝日町五丁目"},"geometry":{"type":"Polygon","coordinates":[[[139.37398,35.70584],[139.37417,35.70574],[139.37421,35.7058],[139.37557,35.70549],[139.37544,35.70489],[139.37521,35.7042],[139.37446,35.70255],[139.37415,35.70269],[139.37346,35.70308],[139.37282,35.70334],[139.37227,35.70371],[139.37217,35.70384],[139.37209,35.7039],[139.37181,35.70403],[139.37102,35.70428],[139.37055,35.70446],[139.37072,35.70487],[139.37151,35.70622],[139.3716,35.7067],[139.37301,35.70633],[139.37298,35.70625],[139.37398,35.70593],[139.37398,35.70584]]]}},{"type":"Feature","properties":{"id":"area-13207008001","name":"つつじが丘一丁目"},"geometry":{"type":"Polygon","coordinates":[[[139.3736,35.7252],[139.37369,35.72495],[139.37207,35.71715],[139.37059,35.71732],[139.36567,35.71806],[139.36614,35.72003],[139.36627,35.72085],[139.36632,35.72137],[139.36626,35.72175],[139.36611,35.72228],[139.36599,35.72248],[139.36589,35.72285],[139.36584,35.72327],[139.36608,35.72339],[139.3681,35.72385],[139.36961,35.72431],[139.3736,35.7252]]]}},{"type":"Feature","properties":{"id":"area-13207008002","name":"つつじが丘二丁目"},"geometry":{"type":"Polygon","coordinates":[[[139.36567,35.71806],[139.37059,35.71732],[139.37207,35.71715],[139.37207,35.71702],[139.37152,35.7144],[139.36994,35.71441],[139.3693,35.71429],[139.36836,35.71392],[139.36776,35.71384],[139.36667,35.71384],[139.36669,35.71396],[139.36489,35.71415],[139.36553,35.71723],[139.36567,35.71806]]]}},{"type":"Feature","properties":{"id":"area-13207008003","name":"つつじが丘三丁目"},"geometry":{"type":"Polygon","coordinates":[[[139.37152,35.7144],[139.37125,35.7134],[139.37099,35.71285],[139.37006,35.7113],[139.36993,35.71082],[139.36939,35.71098],[139.36938,35.71095],[139.36791,35.7114],[139.36448,35.71248],[139.36489,35.71415],[139.36669,35.71396],[139.36667,35.71384],[139.36776,35.71384],[139.36836,35.71392],[139.3693,35.71429],[139.36994,35.71441],[139.37152,35.7144]]]}},{"type":"Feature","properties":{"id":"area-13207009001","name":"美堀町一丁目"},"geometry":{"type":"Polygon","coordinates":[[[139.36567,35.72584],[139.3657,35.72516],[139.36695,35.7253],[139.36694,35.72524],[139.36777,35.72537],[139.36778,35.72543],[139.36787,35.72541],[139.36789,35.72556],[139.36962,35.7259],[139.37049,35.72604],[139.3701,35.72441],[139.36961,35.72431],[139.3681,35.72385],[139.36608,35.72339],[139.36584,35.72327],[139.3657,35.72326],[139.36567,35.72456],[139.36128,35.72378],[139.36109,35.72378],[139.36043,35.72383],[139.35844,35.72452],[139.35812,35.72462],[139.35784,35.72464],[139.35824,35.72557],[139.36214,35.72399],[139.36282,35.7249],[139.36178,35.72536],[139.36214,35.72636],[139.36437,35.72595],[139.36488,35.72588],[139.36567,35.72584]]]}},{"type":"Feature","properties":{"id":"area-13207009002","name":"美堀町二丁目"},"geometry":{"type":"Polygon","coordinates":[[[139.36043,35.72383],[139.36128,35.72378],[139.36567,35.72456],[139.3657,35.72326],[139.36441,35.7228],[139.36342,35.7225],[139.36159,35.72214],[139.36142,35.72206],[139.36089,35.72203],[139.35971,35.72185],[139.35656,35.7215],[139.357,35.72276],[139.35746,35.72373],[139.35784,35.72464],[139.35812,35.72462],[139.35844,35.72452],[139.36043,35.72383]]]}},{"type":"Feature","properties":{"id":"area-13207009003","name":"美堀町三丁目"},"geometry":{"type":"Polygon","coordinates":[[[139.35824,35.72557],[139.35746,35.72373],[139.357,35.72276],[139.35656,35.7215],[139.35625,35.72145],[139.35289,35.72114],[139.3513,35.72114],[139.35017,35.7212],[139.35023,35.72138],[139.34912,35.72144],[139.34915,35.72181],[139.34951,35.72189],[139.34961,35.72185],[139.35018,35.72237],[139.35041,35.72221],[139.35093,35.72211],[139.351,35.72215],[139.35103,35.72226],[139.3513,35.72242],[139.35166,35.72223],[139.35181,35.72246],[139.35188,35.72251],[139.35178,35.72262],[139.35254,35.72283],[139.35265,35.72317],[139.35278,35.72335],[139.35296,35.7235],[139.3527,35.72371],[139.35295,35.72489],[139.35303,35.7249],[139.35304,35.72494],[139.35424,35.72512],[139.35432,35.72511],[139.35708,35.72543],[139.35729,35.72587],[139.35824,35.72557]]]}},{"type":"Feature","properties":{"id":"area-13207009004","name":"美堀町四丁目"},"geometry":{"type":"Polygon","coordinates":[[[139.35657,35.72133],[139.35532,35.72055],[139.35494,35.72029],[139.35475,35.72012],[139.35464,35.7198],[139.35372,35.71573],[139.35368,35.71572],[139.35023,35.71679],[139.35083,35.71725],[139.35089,35.71733],[139.35107,35.71926],[139.3513,35.72114],[139.35304,35.72115],[139.35625,35.72145],[139.35648,35.7215],[139.35657,35.72133]]]}},{"type":"Feature","properties":{"id":"area-13207009005","name":"美堀町五丁目"},"geometry":{"type":"Polygon","coordinates":[[[139.3434,35.72158],[139.34373,35.72119],[139.34433,35.72139],[139.34481,35.72138],[139.34521,35.72147],[139.34525,35.72145],[139.34503,35.72113],[139.3453,35.72088],[139.34581,35.72106],[139.34594,35.72094],[139.34625,35.72111],[139.34635,35.72105],[139.34702,35.72158],[139.35023,35.72138],[139.35017,35.7212],[139.3513,35.72114],[139.35107,35.71926],[139.35089,35.71733],[139.35083,35.71725],[139.35023,35.71679],[139.34839,35.71732],[139.34714,35.71772],[139.34644,35.71799],[139.34591,35.71825],[139.3454,35.71855],[139.34511,35.71879],[139.34497,35.71895],[139.344,35.72031],[139.34302,35.72158],[139.3434,35.72158]]]}},{"type":"Feature","properties":{"id":"area-13207010001","name":"昭和町一丁目"},"geometry":{"type":"Polygon","coordinates":[[[139.36276,35.71275],[139.36377,35.7127],[139.36791,35.7114],[139.36938,35.71095],[139.36939,35.71098],[139.36993,35.71082],[139.36928,35.7092],[139.36783,35.70998],[139.36746,35.71014],[139.36677,35.71038],[139.36433,35.71109],[139.36313,35.71179],[139.36245,35.71206],[139.36276,35.71275]]]}},{"type":"Feature","properties":{"id":"area-13207010002","name":"昭和町二丁目"},"geometry":{"type":"Polygon","coordinates":[[[139.36194,35.7132],[139.36377,35.7127],[139.36276,35.71275],[139.36245,35.71206],[139.36018,35.7128],[139.35858,35.71324],[139.35895,35.71418],[139.35983,35.71391],[139.36194,35.7132]]]}},{"type":"Feature","properties":{"id":"area-13207010003","name":"昭和町三丁目"},"geometry":{"type":"Polygon","coordinates":[[[139.367,35.7061],[139.36687,35.70604],[139.3668,35.70606],[139.36616,35.70761],[139.36611,35.70783],[139.36608,35.70841],[139.36585,35.70895],[139.36448,35.71104],[139.36677,35.71038],[139.36746,35.71014],[139.36783,35.70998],[139.36928,35.70921],[139.36775,35.70724],[139.36761,35.70702],[139.36754,35.70698],[139.36742,35.70682],[139.36699,35.70613],[139.367,35.7061]]]}},{"type":"Feature","properties":{"id":"area-13207010004","name":"昭和町四丁目"},"geometry":{"type":"Polygon","coordinates":[[[139.36608,35.70841],[139.36613,35.70773],[139.36197,35.71027],[139.3615,35.71052],[139.36245,35.71206],[139.36313,35.71179],[139.36415,35.71119],[139.36448,35.71104],[139.36585,35.70895],[139.36608,35.70841]]]}},{"type":"Feature","properties":{"id":"area-13207010005","name":"昭和町五丁目"},"geometry":{"type":"Polygon","coordinates":[[[139.36018,35.7128],[139.36245,35.71206],[139.3615,35.71052],[139.36067,35.71084],[139.35778,35.7117],[139.35858,35.71324],[139.36018,35.7128]]]}},{"type":"Feature","properties":{"id":"area-13207011101","name":"大神町一丁目"},"geometry":{"type":"Polygon","coordinates":[[[139.35807,35.70709],[139.36242,35.70087],[139.35788,35.70205],[139.35792,35.70254],[139.35805,35.70274],[139.35816,35.70286],[139.35824,35.7032],[139.35825,35.70353],[139.35799,35.7039],[139.35786,35.70451],[139.35782,35.70499],[139.35809,35.70677],[139.35808,35.70692],[139.358,35.70702],[139.35807,35.70709]]]}},{"type":"Feature","properties":{"id":"area-13207011102","name":"大神町二丁目"},"geometry":{"type":"Polygon","coordinates":[[[139.35715,35.7084],[139.35811,35.70706],[139.35807,35.70709],[139.358,35.70702],[139.35808,35.70692],[139.35809,35.70677],[139.35782,35.70499],[139.35786,35.70451],[139.35799,35.7039],[139.35825,35.70353],[139.35824,35.7032],[139.35816,35.70286],[139.35805,35.70274],[139.35792,35.70254],[139.35788,35.70205],[139.35496,35.70344],[139.35524,35.70378],[139.35586,35.70424],[139.35606,35.70453],[139.35609,35.7051],[139.35589,35.7058],[139.35572,35.70653],[139.35571,35.70715],[139.35575,35.70739],[139.35619,35.7084],[139.35693,35.70862],[139.35715,35.7084]]]}},{"type":"Feature","properties":{"id":"area-13207011103","name":"大神町三丁目"},"geometry":{"type":"Polygon","coordinates":[[[139.3631,35.69943],[139.36313,35.69901],[139.36247,35.69909],[139.36215,35.69906],[139.36071,35.69909],[139.36035,35.69919],[139.35868,35.69992],[139.35747,35.70049],[139.35702,35.70073],[139.3571,35.70081],[139.3573,35.70126],[139.35759,35.70167],[139.35776,35.7021],[139.35878,35.7018],[139.36242,35.70087],[139.3628,35.70027],[139.36299,35.69983],[139.3631,35.69943]]]}},{"type":"Feature","properties":{"id":"area-13207011104","name":"大神町四丁目"},"geometry":{"type":"Polygon","coordinates":[[[139.36179,35.69906],[139.36247,35.69909],[139.36313,35.69901],[139.36313,35.69431],[139.36216,35.69421],[139.36026,35.69413],[139.35826,35.69398],[139.35786,35.69392],[139.35726,35.69389],[139.35587,35.69368],[139.35566,35.69371],[139.35525,35.69368],[139.35499,35.69359],[139.35435,35.69356],[139.35403,35.69357],[139.35374,35.69353],[139.35342,35.69353],[139.35319,35.69348],[139.35307,35.6935],[139.35539,35.69603],[139.3564,35.6972],[139.3566,35.69788],[139.35684,35.69905],[139.35686,35.69932],[139.35682,35.69945],[139.35681,35.69999],[139.35668,35.70025],[139.35702,35.70073],[139.35799,35.70024],[139.36035,35.69919],[139.36071,35.69909],[139.36179,35.69906]]]}},{"type":"Feature","properties":{"id":"area-132070112","name":"大神町"},"geometry":{"type":"MultiPolygon","coordinates":[[[[139.36448,35.71248],[139.36327,35.71286],[139.36194,35.7132],[139.3625,35.71333],[139.36246,35.71349],[139.36286,35.71359],[139.36282,35.7137],[139.36303,35.71375],[139.36307,35.71366],[139.36296,35.71352],[139.36357,35.71278],[139.36429,35.71302],[139.3642,35.71353],[139.36455,35.71355],[139.36465,35.71403],[139.36434,35.71408],[139.36432,35.71416],[139.36461,35.7143],[139.36442,35.71496],[139.36507,35.71507],[139.36489,35.71415],[139.36448,35.71248]]],[[[139.37329,35.71559],[139.3729,35.71562],[139.37178,35.71563],[139.37208,35.71713],[139.37241,35.71739],[139.37405,35.71665],[139.37361,35.71599],[139.37375,35.71594],[139.3736,35.7157],[139.37329,35.71559]]]]}},{"type":"Feature","properties":{"id":"area-13207013001","name":"松原町一丁目"},"geometry":{"type":"Polygon","coordinates":[[[139.35706,35.71081],[139.3558,35.71026],[139.35142,35.71641],[139.35892,35.7141],[139.35858,35.71324],[139.35756,35.71121],[139.35729,35.71095],[139.35706,35.71081]]]}},{"type":"Feature","properties":{"id":"area-13207013002","name":"松原町二丁目"},"geometry":{"type":"Polygon","coordinates":[[[139.35142,35.71641],[139.35397,35.71286],[139.34789,35.71474],[139.35023,35.71679],[139.35142,35.71641]]]}},{"type":"Feature","properties":{"id":"area-13207013003","name":"松原町三丁目"},"geometry":{"type":"Polygon","coordinates":[[[139.35023,35.71679],[139.34787,35.71474],[139.34292,35.71626],[139.34301,35.71655],[139.3443,35.71716],[139.34496,35.71763],[139.34523,35.71813],[139.34552,35.71847],[139.34615,35.71813],[139.34714,35.71772],[139.34839,35.71732],[139.35023,35.71679]]]}},{"type":"Feature","properties":{"id":"area-13207013004","name":"松原町四丁目"},"geometry":{"type":"Polygon","coordinates":[[[139.34233,35.72163],[139.34252,35.7214],[139.34294,35.72159],[139.34302,35.72158],[139.344,35.72031],[139.34497,35.71895],[139.34511,35.71879],[139.34552,35.71847],[139.34523,35.71813],[139.34496,35.71763],[139.3443,35.71716],[139.34301,35.71655],[139.34292,35.71626],[139.34225,35.71643],[139.34217,35.71725],[139.34231,35.71767],[139.3422,35.71821],[139.34252,35.71841],[139.34276,35.71928],[139.34274,35.72003],[139.34292,35.72051],[139.34217,35.72155],[139.34233,35.72163]]]}},{"type":"Feature","properties":{"id":"area-13207013005","name":"松原町五丁目"},"geometry":{"type":"Polygon","coordinates":[[[139.34217,35.72155],[139.34292,35.72051],[139.34274,35.72003],[139.34276,35.71928],[139.34252,35.71841],[139.3422,35.71821],[139.34231,35.71767],[139.34217,35.71725],[139.34225,35.71642],[139.33961,35.71704],[139.33925,35.71696],[139.33908,35.71753],[139.3394,35.71763],[139.33927,35.71788],[139.33913,35.71784],[139.33856,35.71896],[139.33864,35.71904],[139.33882,35.71911],[139.33887,35.71916],[139.33891,35.71953],[139.33905,35.71959],[139.33934,35.71959],[139.33935,35.71974],[139.3394,35.71978],[139.33942,35.71993],[139.33984,35.71997],[139.33986,35.72025],[139.34037,35.72043],[139.34059,35.72075],[139.34077,35.72091],[139.34108,35.72112],[139.34172,35.72146],[139.34189,35.72144],[139.34203,35.72147],[139.34217,35.72155]]]}},{"type":"Feature","properties":{"id":"area-13207014101","name":"田中町一丁目"},"geometry":{"type":"Polygon","coordinates":[[[139.35524,35.70378],[139.35501,35.70351],[139.34988,35.70595],[139.3505,35.70757],[139.35454,35.70975],[139.35477,35.70986],[139.3558,35.71026],[139.35693,35.70862],[139.35619,35.7084],[139.35575,35.70739],[139.35571,35.70715],[139.35572,35.70653],[139.35589,35.7058],[139.35609,35.7051],[139.35606,35.70453],[139.35586,35.70424],[139.35524,35.70378]]]}},{"type":"Feature","properties":{"id":"area-13207014102","name":"田中町二丁目"},"geometry":{"type":"Polygon","coordinates":[[[139.35685,35.69924],[139.35684,35.69911],[139.35606,35.69924],[139.35418,35.70007],[139.35351,35.70088],[139.3522,35.70263],[139.35209,35.70269],[139.35152,35.70276],[139.35132,35.70287],[139.3516,35.70318],[139.34899,35.70387],[139.34914,35.70435],[139.34985,35.70584],[139.34986,35.70594],[139.34988,35.70595],[139.35034,35.70574],[139.35501,35.70351],[139.35496,35.70344],[139.35776,35.7021],[139.35759,35.70167],[139.3573,35.70126],[139.3571,35.70081],[139.35668,35.70025],[139.35681,35.69999],[139.35682,35.69945],[139.35685,35.69924]]]}},{"type":"Feature","properties":{"id":"area-13207014103","name":"田中町三丁目"},"geometry":{"type":"Polygon","coordinates":[[[139.35684,35.69911],[139.35661,35.6979],[139.35526,35.69811],[139.3535,35.6983],[139.35302,35.69839],[139.35236,35.69859],[139.35076,35.69918],[139.3496,35.69969],[139.34851,35.70011],[139.34769,35.70054],[139.34854,35.70293],[139.34892,35.70389],[139.3516,35.70318],[139.35132,35.70287],[139.35152,35.70276],[139.35209,35.70269],[139.3522,35.70263],[139.35351,35.70088],[139.35418,35.70007],[139.35606,35.69924],[139.35684,35.69911]]]}},{"type":"Feature","properties":{"id":"area-13207014104","name":"田中町四丁目"},"geometry":{"type":"Polygon","coordinates":[[[139.35539,35.69603],[139.35307,35.6935],[139.35301,35.69351],[139.3505,35.69266],[139.35021,35.6926],[139.34939,35.69259],[139.34918,35.69264],[139.34835,35.69273],[139.34816,35.69294],[139.34758,35.69323],[139.34664,35.6936],[139.34596,35.69394],[139.34581,35.69409],[139.3457,35.69431],[139.34566,35.69452],[139.34559,35.69454],[139.34557,35.6947],[139.34562,35.69488],[139.34568,35.69493],[139.34588,35.69559],[139.34639,35.69693],[139.34661,35.69741],[139.34699,35.69864],[139.34707,35.69906],[139.34742,35.69976],[139.34769,35.70054],[139.34851,35.70011],[139.3496,35.69969],[139.35076,35.69918],[139.35236,35.69859],[139.35302,35.69839],[139.3535,35.6983],[139.35526,35.69811],[139.35661,35.6979],[139.3564,35.6972],[139.35539,35.69603]]]}},{"type":"Feature","properties":{"id":"area-132070142","name":"田中町"},"geometry":{"type":"Polygon","coordinates":[[[139.36507,35.71507],[139.36442,35.71496],[139.36461,35.7143],[139.36432,35.71416],[139.36434,35.71408],[139.36465,35.71403],[139.36455,35.71355],[139.3642,35.71353],[139.36429,35.71302],[139.36357,35.71278],[139.36296,35.71352],[139.36307,35.71366],[139.36303,35.71375],[139.36282,35.7137],[139.36286,35.71359],[139.36246,35.71349],[139.3625,35.71333],[139.36194,35.7132],[139.35983,35.71391],[139.35895,35.71418],[139.35897,35.71445],[139.35912,35.71457],[139.35899,35.71562],[139.35849,35.7157],[139.35849,35.71589],[139.35879,35.71594],[139.35902,35.71587],[139.35902,35.71582],[139.35923,35.71576],[139.35936,35.71597],[139.35998,35.71578],[139.36005,35.71599],[139.36021,35.7163],[139.36067,35.71668],[139.36092,35.71682],[139.36194,35.71614],[139.36254,35.71639],[139.36243,35.71695],[139.36273,35.71695],[139.36309,35.71706],[139.36311,35.71679],[139.36299,35.71657],[139.36303,35.71614],[139.36325,35.7162],[139.36355,35.71646],[139.36382,35.71664],[139.36361,35.71678],[139.36372,35.71699],[139.36364,35.7171],[139.3642,35.7174],[139.36451,35.71779],[139.36553,35.71723],[139.36507,35.71507]]]}},{"type":"Feature","properties":{"id":"area-13207016001","name":"緑町一丁目"},"geometry":{"type":"Polygon","coordinates":[[[139.3505,35.70757],[139.35049,35.70787],[139.35066,35.71387],[139.35397,35.71286],[139.3558,35.71026],[139.35477,35.70986],[139.35454,35.70975],[139.3505,35.70757]]]}},{"type":"Feature","properties":{"id":"area-13207016002","name":"緑町二丁目"},"geometry":{"type":"Polygon","coordinates":[[[139.35054,35.70975],[139.34696,35.70977],[139.34644,35.71014],[139.34594,35.71039],[139.34475,35.7114],[139.3445,35.71155],[139.34427,35.71164],[139.34789,35.71474],[139.35066,35.71387],[139.35054,35.70975]]]}},{"type":"Feature","properties":{"id":"area-13207016003","name":"緑町三丁目"},"geometry":{"type":"Polygon","coordinates":[[[139.34696,35.70977],[139.35054,35.70975],[139.3505,35.70757],[139.34986,35.70594],[139.34448,35.70853],[139.34289,35.70924],[139.34209,35.70978],[139.34427,35.71164],[139.3445,35.71155],[139.34475,35.7114],[139.34594,35.71039],[139.34644,35.71014],[139.34696,35.70977]]]}},{"type":"Feature","properties":{"id":"area-13207016004","name":"緑町四丁目"},"geometry":{"type":"Polygon","coordinates":[[[139.34292,35.71626],[139.34787,35.71474],[139.34209,35.70978],[139.34078,35.71082],[139.34039,35.71137],[139.34233,35.71463],[139.34255,35.71492],[139.34292,35.71626]]]}},{"type":"Feature","properties":{"id":"area-13207016005","name":"緑町五丁目"},"geometry":{"type":"Polygon","coordinates":[[[139.33961,35.71704],[139.34292,35.71626],[139.34255,35.71492],[139.34233,35.71463],[139.34039,35.71137],[139.33984,35.71211],[139.33911,35.71323],[139.3375,35.71534],[139.33774,35.71535],[139.33816,35.71523],[139.33859,35.71521],[139.33887,35.7159],[139.33941,35.717],[139.33961,35.71704]]]}},{"type":"Feature","properties":{"id":"area-13207017101","name":"拝島町一丁目"},"geometry":{"type":"Polygon","coordinates":[[[139.34914,35.70435],[139.34899,35.70387],[139.34827,35.704],[139.3468,35.70442],[139.34474,35.70492],[139.34225,35.70651],[139.34337,35.70797],[139.34377,35.70885],[139.34986,35.70594],[139.34985,35.70584],[139.34914,35.70435]]]}},{"type":"Feature","properties":{"id":"area-13207017102","name":"拝島町二丁目"},"geometry":{"type":"Polygon","coordinates":[[[139.34342,35.70804],[139.34225,35.70651],[139.3418,35.70679],[139.34018,35.70797],[139.33801,35.70929],[139.33796,35.70942],[139.338,35.70959],[139.33833,35.71022],[139.33845,35.71056],[139.33846,35.71096],[139.33828,35.71132],[139.33808,35.71272],[139.33814,35.71336],[139.33841,35.71415],[139.33932,35.71294],[139.33984,35.71211],[139.34078,35.71082],[139.34209,35.70978],[139.34289,35.70924],[139.34377,35.70885],[139.34342,35.70804]]]}},{"type":"Feature","properties":{"id":"area-13207017103","name":"拝島町三丁目"},"geometry":{"type":"Polygon","coordinates":[[[139.33796,35.70942],[139.33799,35.70936],[139.33675,35.70945],[139.3351,35.71013],[139.33434,35.71052],[139.33408,35.71083],[139.33394,35.71106],[139.33382,35.71138],[139.33375,35.71173],[139.33366,35.71274],[139.3335,35.71325],[139.3358,35.71429],[139.33593,35.71443],[139.33633,35.71472],[139.33689,35.71498],[139.33727,35.71523],[139.3375,35.71534],[139.33841,35.71415],[139.33814,35.71336],[139.33808,35.71272],[139.33828,35.71132],[139.33846,35.71096],[139.33845,35.71056],[139.33833,35.71022],[139.338,35.70959],[139.33796,35.70942]]]}},{"type":"Feature","properties":{"id":"area-13207017104","name":"拝島町四丁目"},"geometry":{"type":"Polygon","coordinates":[[[139.34568,35.69493],[139.34562,35.69488],[139.34525,35.69508],[139.3443,35.69551],[139.34257,35.69605],[139.34197,35.69631],[139.34094,35.69664],[139.34054,35.6968],[139.34,35.69708],[139.33896,35.69776],[139.33775,35.69863],[139.33693,35.69929],[139.33621,35.69979],[139.33711,35.70168],[139.33699,35.70177],[139.33729,35.70201],[139.33837,35.70313],[139.339,35.70367],[139.33997,35.70459],[139.34085,35.7055],[139.34105,35.70578],[139.34136,35.70634],[139.3418,35.70679],[139.34474,35.70492],[139.3468,35.70442],[139.34827,35.704],[139.34892,35.70389],[139.34854,35.70293],[139.34742,35.69976],[139.34707,35.69906],[139.34699,35.69864],[139.34661,35.69741],[139.34639,35.69693],[139.34588,35.69559],[139.34568,35.69493]]]}},{"type":"Feature","properties":{"id":"area-13207017105","name":"拝島町五丁目"},"geometry":{"type":"Polygon","coordinates":[[[139.33366,35.71274],[139.33375,35.71173],[139.33382,35.71138],[139.33394,35.71106],[139.33408,35.71083],[139.33434,35.71052],[139.3351,35.71013],[139.33675,35.70945],[139.33799,35.70936],[139.33801,35.70929],[139.33817,35.70918],[139.34018,35.70797],[139.3418,35.70679],[139.34136,35.70634],[139.34105,35.70578],[139.34085,35.7055],[139.33997,35.70459],[139.339,35.70367],[139.33837,35.70313],[139.33729,35.70201],[139.33699,35.70177],[139.33528,35.70312],[139.33465,35.70342],[139.33411,35.70361],[139.33328,35.7054],[139.33305,35.70595],[139.33221,35.70768],[139.33134,35.70975],[139.33146,35.71123],[139.33156,35.71177],[139.33164,35.71242],[139.33246,35.71283],[139.33251,35.71261],[139.3335,35.71325],[139.33366,35.71274]]]}},{"type":"Feature","properties":{"id":"area-13207017106","name":"拝島町六丁目"},"geometry":{"type":"Polygon","coordinates":[[[139.34562,35.69488],[139.34557,35.6947],[139.34559,35.69454],[139.34566,35.69452],[139.3457,35.69431],[139.34581,35.69409],[139.34596,35.69394],[139.34664,35.6936],[139.34758,35.69323],[139.34816,35.69294],[139.34835,35.69273],[139.34772,35.69282],[139.34755,35.69277],[139.34655,35.69258],[139.34605,35.69267],[139.34555,35.69268],[139.34515,35.69276],[139.34443,35.69302],[139.34403,35.69313],[139.34328,35.69356],[139.34267,35.6938],[139.3425,35.69394],[139.34205,35.69408],[139.34152,35.69399],[139.34122,35.69403],[139.34096,35.69411],[139.34084,35.69412],[139.34045,35.69389],[139.34035,35.69392],[139.33877,35.69507],[139.3385,35.69523],[139.33829,35.69531],[139.33785,35.6953],[139.33761,35.69534],[139.33726,35.69548],[139.33671,35.69583],[139.33656,35.69587],[139.33617,35.6959],[139.33613,35.69613],[139.336,35.69629],[139.33602,35.69638],[139.33637,35.69688],[139.33643,35.69703],[139.33623,35.69746],[139.33615,35.69784],[139.33586,35.69837],[139.33568,35.69886],[139.33575,35.69903],[139.33596,35.69927],[139.33621,35.69979],[139.33693,35.69929],[139.33775,35.69863],[139.33896,35.69776],[139.34,35.69708],[139.34054,35.6968],[139.34094,35.69664],[139.34197,35.69631],[139.34257,35.69605],[139.3443,35.69551],[139.34525,35.69508],[139.34562,35.69488]]]}},{"type":"Feature","properties":{"id":"area-132070172","name":"拝島町"},"geometry":{"type":"Polygon","coordinates":[[[139.36546,35.72208],[139.36631,35.72119],[139.36614,35.72003],[139.36567,35.71806],[139.36553,35.71723],[139.36451,35.71779],[139.3642,35.7174],[139.36364,35.7171],[139.36372,35.71699],[139.36361,35.71678],[139.36382,35.71664],[139.36355,35.71646],[139.36325,35.7162],[139.36303,35.71614],[139.36299,35.71657],[139.36311,35.71679],[139.36309,35.71706],[139.36273,35.71695],[139.36243,35.71695],[139.36254,35.71639],[139.36194,35.71614],[139.36092,35.71682],[139.36067,35.71668],[139.36021,35.7163],[139.36005,35.71599],[139.35998,35.71578],[139.35936,35.71597],[139.35923,35.71576],[139.35902,35.71582],[139.35902,35.71587],[139.35879,35.71594],[139.35849,35.71589],[139.35849,35.7157],[139.35899,35.71562],[139.35912,35.71457],[139.35897,35.71445],[139.35892,35.7141],[139.35368,35.71572],[139.35372,35.71573],[139.35375,35.71584],[139.35464,35.7198],[139.35475,35.72012],[139.35494,35.72029],[139.35532,35.72055],[139.35651,35.72128],[139.35657,35.72133],[139.35648,35.7215],[139.35971,35.72185],[139.36089,35.72203],[139.36142,35.72206],[139.36159,35.72214],[139.36342,35.7225],[139.36474,35.72292],[139.36546,35.72208]]]}},{"type":"Feature","properties":{"id":"area-132070190","name":"築地町"},"geometry":{"type":"Polygon","coordinates":[[[139.38128,35.70922],[139.38073,35.70808],[139.38178,35.70774],[139.38166,35.70718],[139.37938,35.70788],[139.37951,35.70819],[139.37943,35.70823],[139.37963,35.70849],[139.37984,35.70836],[139.38013,35.70898],[139.38003,35.70911],[139.38021,35.70927],[139.38039,35.70953],[139.38128,35.70922]]]}},{"type":"Feature","properties":{"id":"area-13207020101","name":"中神町一丁目"},"geometry":{"type":"Polygon","coordinates":[[[139.36922,35.70514],[139.36987,35.70503],[139.36986,35.70496],[139.36989,35.70484],[139.37023,35.70462],[139.37102,35.70428],[139.37181,35.70403],[139.37209,35.7039],[139.37217,35.70384],[139.37227,35.70371],[139.37282,35.70334],[139.37346,35.70308],[139.37415,35.70269],[139.37446,35.70255],[139.37423,35.70187],[139.37412,35.70139],[139.37342,35.70129],[139.37096,35.70058],[139.3708,35.70056],[139.37084,35.70096],[139.37077,35.70096],[139.37078,35.70122],[139.37074,35.70139],[139.3708,35.70139],[139.37078,35.70161],[139.37083,35.70175],[139.3708,35.70193],[139.37041,35.70212],[139.37035,35.70217],[139.37011,35.70196],[139.36992,35.70183],[139.36984,35.70181],[139.36948,35.70178],[139.36942,35.70181],[139.3694,35.702],[139.36678,35.70186],[139.36674,35.70199],[139.3666,35.70337],[139.36678,35.70562],[139.36687,35.70604],[139.367,35.7061],[139.36699,35.70613],[139.3671,35.70609],[139.36922,35.70514]]]}},{"type":"Feature","properties":{"id":"area-13207020102","name":"中神町二丁目"},"geometry":{"type":"Polygon","coordinates":[[[139.37729,35.70146],[139.37711,35.69947],[139.377,35.69911],[139.37657,35.69811],[139.376,35.69692],[139.37224,35.69788],[139.36924,35.69873],[139.36868,35.69891],[139.36842,35.69932],[139.36931,35.69977],[139.37041,35.70005],[139.37097,35.70007],[139.37082,35.70056],[139.37342,35.70129],[139.37428,35.70141],[139.37596,35.70144],[139.37702,35.70151],[139.37724,35.7015],[139.37729,35.70146]]]}},{"type":"Feature","properties":{"id":"area-13207020103","name":"中神町三丁目"},"geometry":{"type":"Polygon","coordinates":[[[139.37552,35.69607],[139.37477,35.69509],[139.37443,35.69526],[139.37403,35.69541],[139.37414,35.69546],[139.3734,35.69601],[139.37257,35.69648],[139.37165,35.69682],[139.36937,35.69753],[139.36945,35.69768],[139.36922,35.69774],[139.3687,35.69891],[139.37224,35.69788],[139.37595,35.69692],[139.37552,35.69607]]]}},{"type":"Feature","properties":{"id":"area-13207020290","name":"中神町"},"geometry":{"type":"MultiPolygon","coordinates":[[[[139.37492,35.71196],[139.37355,35.71259],[139.37261,35.71303],[139.37308,35.71361],[139.37531,35.71259],[139.37492,35.71196]]],[[[139.38684,35.7191],[139.38443,35.71911],[139.38385,35.71903],[139.38379,35.71895],[139.38372,35.71723],[139.38369,35.71337],[139.3836,35.71327],[139.38365,35.71324],[139.38361,35.71045],[139.38234,35.71047],[139.38234,35.71015],[139.38135,35.71047],[139.3809,35.70953],[139.38047,35.70967],[139.38032,35.70941],[139.38014,35.70919],[139.38003,35.70911],[139.37987,35.70911],[139.37915,35.70977],[139.37856,35.71018],[139.37858,35.71028],[139.37835,35.71043],[139.37795,35.70997],[139.37688,35.71048],[139.37722,35.71097],[139.37646,35.71128],[139.37616,35.71082],[139.37553,35.71087],[139.37535,35.71096],[139.37613,35.7122],[139.37532,35.71261],[139.37582,35.71342],[139.37495,35.71383],[139.37725,35.71426],[139.37778,35.71504],[139.38036,35.71406],[139.38151,35.71649],[139.38153,35.71802],[139.38188,35.7185],[139.38306,35.71972],[139.38227,35.72006],[139.38296,35.7207],[139.38552,35.72012],[139.38562,35.72007],[139.38684,35.7191]],[[139.38235,35.71105],[139.38292,35.71104],[139.38293,35.71156],[139.38236,35.71158],[139.38235,35.71105]]]]}},{"type":"Feature","properties":{"id":"area-13207020291","name":"中神町"},"geometry":{"type":"MultiPolygon","coordinates":[[[[139.38234,35.71015],[139.38234,35.71047],[139.38361,35.71045],[139.3836,35.7098],[139.38356,35.70972],[139.38353,35.70878],[139.38204,35.70881],[139.38178,35.70774],[139.38073,35.70808],[139.38128,35.70922],[139.38039,35.70953],[139.38047,35.70967],[139.3809,35.70953],[139.38135,35.71047],[139.38234,35.71015]]],[[[139.37535,35.71096],[139.37553,35.71087],[139.37616,35.71082],[139.37646,35.71128],[139.37722,35.71097],[139.37688,35.71048],[139.37795,35.70997],[139.37835,35.71043],[139.37858,35.71028],[139.37856,35.71018],[139.37915,35.70977],[139.37987,35.70911],[139.38003,35.70911],[139.38012,35.70901],[139.3801,35.7089],[139.37984,35.70836],[139.37963,35.70849],[139.37943,35.70823],[139.37951,35.70819],[139.37938,35.70788],[139.37882,35.70805],[139.3789,35.70812],[139.37711,35.70868],[139.37712,35.70871],[139.37613,35.70906],[139.37533,35.70931],[139.37448,35.70949],[139.37422,35.70958],[139.37407,35.70959],[139.37296,35.70993],[139.37284,35.71],[139.37105,35.71053],[139.37113,35.71065],[139.37131,35.7106],[139.37161,35.71101],[139.37182,35.71146],[139.37224,35.71211],[139.37192,35.71226],[139.37261,35.71303],[139.37492,35.71196],[139.37531,35.71259],[139.37323,35.71354],[139.37495,35.71383],[139.37582,35.71342],[139.37532,35.71261],[139.37613,35.7122],[139.37535,35.71096]]],[[[139.38235,35.71105],[139.38236,35.71158],[139.38293,35.71156],[139.38292,35.71104],[139.38235,35.71105]]]]}},{"type":"Feature","properties":{"id":"area-13207021101","name":"宮沢町一丁目"},"geometry":{"type":"Polygon","coordinates":[[[139.36681,35.70585],[139.36668,35.70431],[139.36608,35.70433],[139.36581,35.70431],[139.36484,35.70457],[139.36402,35.7047],[139.36386,35.70472],[139.36385,35.7047],[139.36138,35.70516],[139.3614,35.70519],[139.36154,35.70519],[139.36213,35.70548],[139.36272,35.70611],[139.36309,35.70642],[139.36316,35.70651],[139.36355,35.70721],[139.36364,35.70759],[139.36373,35.70781],[139.36377,35.70797],[139.36374,35.70801],[139.36386,35.70849],[139.36407,35.70898],[139.36613,35.70773],[139.3668,35.70606],[139.36687,35.70604],[139.36681,35.70585]]]}},{"type":"Feature","properties":{"id":"area-13207021102","name":"宮沢町二丁目"},"geometry":{"type":"Polygon","coordinates":[[[139.36347,35.70476],[139.36484,35.70457],[139.36581,35.70431],[139.36608,35.70433],[139.36668,35.70431],[139.3666,35.70337],[139.36674,35.70199],[139.36678,35.70186],[139.3694,35.702],[139.36942,35.70181],[139.36948,35.70178],[139.36984,35.70181],[139.36992,35.70183],[139.37011,35.70196],[139.37035,35.70217],[139.37041,35.70212],[139.3708,35.70193],[139.37083,35.70175],[139.37078,35.70161],[139.3708,35.70139],[139.37074,35.70139],[139.37078,35.70122],[139.37077,35.70096],[139.37084,35.70096],[139.3708,35.70056],[139.37097,35.70007],[139.37041,35.70005],[139.3698,35.69991],[139.36931,35.69977],[139.36916,35.6997],[139.36842,35.69932],[139.36868,35.69891],[139.36771,35.69923],[139.36626,35.69981],[139.36525,35.70015],[139.36357,35.7006],[139.36244,35.70086],[139.36037,35.70381],[139.36045,35.70444],[139.36098,35.70428],[139.36138,35.70516],[139.36347,35.70476]]]}},{"type":"Feature","properties":{"id":"area-13207021103","name":"宮沢町三丁目"},"geometry":{"type":"Polygon","coordinates":[[[139.37478,35.69507],[139.37268,35.69232],[139.37207,35.69225],[139.37128,35.69238],[139.36956,35.69246],[139.36927,35.69244],[139.36902,35.6925],[139.36859,35.69249],[139.36761,35.69257],[139.36742,35.69273],[139.36629,35.69345],[139.36504,35.69384],[139.36358,35.69424],[139.36337,35.69426],[139.36324,35.69432],[139.36313,35.69431],[139.36312,35.69853],[139.36314,35.69884],[139.3631,35.69943],[139.36299,35.69983],[139.3628,35.70027],[139.36244,35.70086],[139.36357,35.7006],[139.36525,35.70015],[139.36626,35.69981],[139.36771,35.69923],[139.3687,35.69891],[139.36922,35.69774],[139.36945,35.69768],[139.36937,35.69753],[139.37165,35.69682],[139.37257,35.69648],[139.3734,35.69601],[139.37414,35.69546],[139.37403,35.69541],[139.37443,35.69526],[139.37478,35.69507]]]}},{"type":"Feature","properties":{"id":"area-132070212","name":"宮沢町"},"geometry":{"type":"Polygon","coordinates":[[[139.37405,35.71665],[139.37697,35.71532],[139.37778,35.71504],[139.37725,35.71426],[139.37343,35.71357],[139.37323,35.71354],[139.37308,35.71361],[139.37249,35.71289],[139.37192,35.71226],[139.37224,35.71211],[139.37182,35.71146],[139.37161,35.71101],[139.37131,35.7106],[139.37113,35.71065],[139.37105,35.71053],[139.36994,35.71086],[139.37006,35.7113],[139.37099,35.71285],[139.37125,35.7134],[139.37152,35.71437],[139.37178,35.71563],[139.3729,35.71562],[139.37329,35.71559],[139.3736,35.7157],[139.37375,35.71594],[139.37361,35.71599],[139.37405,35.71665]]]}},{"type":"Feature","properties":{"id":"area-13207022101","name":"上川原町一丁目"},"geometry":{"type":"Polygon","coordinates":[[[139.36197,35.71027],[139.36407,35.70898],[139.36386,35.70849],[139.36374,35.70801],[139.36377,35.70797],[139.36373,35.70781],[139.36364,35.70759],[139.36355,35.70721],[139.36316,35.70651],[139.36309,35.70642],[139.36272,35.70611],[139.36213,35.70548],[139.36154,35.70519],[139.3614,35.70519],[139.36098,35.70428],[139.36045,35.70444],[139.36068,35.70604],[139.36099,35.70796],[139.36104,35.70806],[139.36098,35.70816],[139.36094,35.70839],[139.36091,35.7088],[139.36088,35.7088],[139.36088,35.7091],[139.36096,35.70957],[139.36114,35.70996],[139.3615,35.71052],[139.36197,35.71027]]]}},{"type":"Feature","properties":{"id":"area-13207022102","name":"上川原町二丁目"},"geometry":{"type":"Polygon","coordinates":[[[139.36096,35.70957],[139.36088,35.7091],[139.36088,35.7088],[139.36029,35.70874],[139.35798,35.70866],[139.35733,35.70867],[139.35693,35.70862],[139.3558,35.71026],[139.35674,35.71065],[139.35729,35.71095],[139.35756,35.71121],[139.35782,35.71169],[139.36067,35.71084],[139.3615,35.71052],[139.36114,35.70996],[139.36096,35.70957]]]}},{"type":"Feature","properties":{"id":"area-13207022103","name":"上川原町三丁目"},"geometry":{"type":"Polygon","coordinates":[[[139.36091,35.7088],[139.36098,35.70816],[139.36104,35.70806],[139.36099,35.70796],[139.36068,35.70604],[139.36037,35.70381],[139.35768,35.70767],[139.35715,35.7084],[139.35693,35.70862],[139.35733,35.70867],[139.35798,35.70866],[139.36029,35.70874],[139.36091,35.7088]]]}},{"type":"Feature","properties":{"id":"area-132070222","name":"上川原町"},"geometry":{"type":"Polygon","coordinates":[[[139.36631,35.72119],[139.36546,35.72208],[139.36474,35.72292],[139.3657,35.72326],[139.36584,35.72327],[139.36589,35.72285],[139.36599,35.72248],[139.36611,35.72228],[139.36626,35.72175],[139.36632,35.72137],[139.36631,35.72119]]]}},{"type":"Feature","properties":{"id":"area-13207023001","name":"もくせいの杜一丁目"},"geometry":{"type":"Polygon","coordinates":[[[139.38844,35.70855],[139.38843,35.70624],[139.38857,35.70589],[139.38888,35.70554],[139.38925,35.70531],[139.38953,35.70519],[139.39362,35.70391],[139.39324,35.70351],[139.39145,35.70408],[139.39039,35.70448],[139.38535,35.706],[139.3854,35.70614],[139.38544,35.70613],[139.38628,35.70729],[139.38663,35.70786],[139.38661,35.70797],[139.38636,35.70797],[139.38636,35.70831],[139.38562,35.70831],[139.38562,35.70872],[139.3837,35.70871],[139.38353,35.70878],[139.38356,35.70972],[139.3836,35.7098],[139.38361,35.71059],[139.38679,35.71059],[139.38709,35.71052],[139.38763,35.71028],[139.38801,35.71001],[139.38814,35.70979],[139.38825,35.70952],[139.3884,35.7089],[139.38844,35.70855]]]}},{"type":"Feature","properties":{"id":"area-13207023002","name":"もくせいの杜二丁目"},"geometry":{"type":"Polygon","coordinates":[[[139.38429,35.7191],[139.38684,35.7191],[139.38864,35.71765],[139.38725,35.71668],[139.38914,35.71467],[139.38903,35.70544],[139.38874,35.70568],[139.38857,35.70589],[139.38843,35.70624],[139.38844,35.70855],[139.3884,35.7089],[139.38827,35.70946],[139.38814,35.70979],[139.38801,35.71001],[139.38763,35.71028],[139.38709,35.71052],[139.38679,35.71059],[139.38361,35.71059],[139.38365,35.71324],[139.3836,35.71327],[139.38369,35.71337],[139.38372,35.71723],[139.38379,35.71895],[139.38385,35.71903],[139.38429,35.7191]]]}},{"type":"Feature","properties":{"id":"area-13207023003","name":"もくせいの杜三丁目"},"geometry":{"type":"Polygon","coordinates":[[[139.39846,35.71161],[139.39541,35.70627],[139.39478,35.70639],[139.3945,35.70501],[139.39494,35.70486],[139.39435,35.70417],[139.39423,35.70399],[139.39381,35.70411],[139.39362,35.70391],[139.38953,35.70519],[139.38903,35.70544],[139.38914,35.71467],[139.38965,35.71413],[139.39154,35.71529],[139.39462,35.71132],[139.39595,35.71288],[139.39846,35.71161]]]}}]}