{"type":"FeatureCollection","features":[{"type":"Feature","properties":{"id":"area-13204001001","name":"下連雀一丁目"},"geometry":{"type":"Polygon","coordinates":[[[139.57171,35.69832],[139.57253,35.69725],[139.5723,35.69726],[139.57226,35.69323],[139.57193,35.69126],[139.57191,35.69088],[139.56752,35.6916],[139.5686,35.69993],[139.57019,35.69928],[139.57078,35.69898],[139.57141,35.69859],[139.57171,35.69832]]]}},{"type":"Feature","properties":{"id":"area-13204001002","name":"下連雀二丁目"},"geometry":{"type":"Polygon","coordinates":[[[139.5686,35.69993],[139.56752,35.6916],[139.5647,35.6921],[139.56501,35.69382],[139.56548,35.69497],[139.56628,35.7008],[139.5686,35.69993]]]}},{"type":"Feature","properties":{"id":"area-13204001003","name":"下連雀三丁目"},"geometry":{"type":"Polygon","coordinates":[[[139.56613,35.6996],[139.56551,35.69524],[139.56546,35.69562],[139.5652,35.69658],[139.56491,35.69719],[139.56451,35.69773],[139.56446,35.69724],[139.56178,35.69753],[139.55915,35.69777],[139.55904,35.70047],[139.55903,35.70188],[139.559,35.70281],[139.56065,35.7029],[139.56575,35.70097],[139.56628,35.7008],[139.56613,35.6996]]]}},{"type":"Feature","properties":{"id":"area-13204001004","name":"下連雀四丁目"},"geometry":{"type":"Polygon","coordinates":[[[139.56178,35.69753],[139.56446,35.69724],[139.56451,35.69773],[139.56491,35.69719],[139.5652,35.69658],[139.56546,35.69562],[139.56551,35.69524],[139.56548,35.69497],[139.56501,35.69382],[139.5647,35.6921],[139.56216,35.69254],[139.55935,35.69307],[139.55915,35.69777],[139.56178,35.69753]]]}},{"type":"Feature","properties":{"id":"area-13204001005","name":"下連雀五丁目"},"geometry":{"type":"Polygon","coordinates":[[[139.57138,35.68401],[139.57107,35.68312],[139.57014,35.68324],[139.56829,35.68337],[139.56934,35.69129],[139.57191,35.69088],[139.57214,35.69088],[139.57273,35.69064],[139.57253,35.68969],[139.57233,35.68894],[139.57245,35.68843],[139.57245,35.68816],[139.57224,35.68672],[139.57185,35.6859],[139.57165,35.68527],[139.57138,35.68401]]]}},{"type":"Feature","properties":{"id":"area-13204001006","name":"下連雀六丁目"},"geometry":{"type":"Polygon","coordinates":[[[139.56934,35.69129],[139.56873,35.68684],[139.56403,35.68748],[139.56433,35.68936],[139.5647,35.6921],[139.56934,35.69129]]]}},{"type":"Feature","properties":{"id":"area-13204001007","name":"下連雀七丁目"},"geometry":{"type":"Polygon","coordinates":[[[139.56015,35.69292],[139.5647,35.69208],[139.56433,35.68936],[139.56403,35.68748],[139.56105,35.68793],[139.55996,35.68814],[139.55924,35.68834],[139.56015,35.69292]]]}},{"type":"Feature","properties":{"id":"area-13204001008","name":"下連雀八丁目"},"geometry":{"type":"Polygon","coordinates":[[[139.56873,35.68684],[139.56831,35.68339],[139.5676,35.68351],[139.56633,35.68358],[139.5652,35.6837],[139.56349,35.6838],[139.56402,35.68748],[139.56873,35.68684]]]}},{"type":"Feature","properties":{"id":"area-13204001009","name":"下連雀九丁目"},"geometry":{"type":"Polygon","coordinates":[[[139.56402,35.68748],[139.56343,35.68332],[139.5606,35.68375],[139.55838,35.68376],[139.55924,35.68834],[139.55996,35.68814],[139.56105,35.68793],[139.56402,35.68748]]]}},{"type":"Feature","properties":{"id":"area-13204002001","name":"牟礼一丁目"},"geometry":{"type":"Polygon","coordinates":[[[139.58874,35.68655],[139.59151,35.68578],[139.59149,35.68542],[139.59256,35.68511],[139.59241,35.6848],[139.59258,35.68473],[139.59242,35.68447],[139.59222,35.68455],[139.59204,35.68432],[139.59242,35.68402],[139.59311,35.68321],[139.59291,35.68288],[139.59403,35.6823],[139.59367,35.6822],[139.59339,35.68196],[139.59324,35.6819],[139.59183,35.68235],[139.58993,35.68252],[139.58648,35.68296],[139.58588,35.68347],[139.58537,35.68382],[139.58491,35.68428],[139.58413,35.68491],[139.58386,35.68517],[139.58377,35.68536],[139.58377,35.68546],[139.58385,35.68565],[139.58406,35.68567],[139.5842,35.68572],[139.58564,35.6856],[139.58628,35.68643],[139.58663,35.68632],[139.58685,35.68633],[139.58804,35.68659],[139.58874,35.68655]]]}},{"type":"Feature","properties":{"id":"area-13204002002","name":"牟礼二丁目"},"geometry":{"type":"Polygon","coordinates":[[[139.58557,35.68814],[139.586,35.68677],[139.58608,35.68663],[139.58628,35.68643],[139.58564,35.6856],[139.5842,35.68572],[139.58406,35.68567],[139.58385,35.68565],[139.58377,35.68546],[139.58379,35.68527],[139.58413,35.68491],[139.58491,35.68428],[139.58537,35.68382],[139.58588,35.68347],[139.58648,35.68296],[139.58616,35.68296],[139.58582,35.68291],[139.58516,35.68269],[139.58647,35.68255],[139.58648,35.68244],[139.58673,35.6824],[139.58735,35.68242],[139.5874,35.68225],[139.58936,35.68222],[139.59188,35.68211],[139.59197,35.68174],[139.58847,35.68185],[139.58754,35.68194],[139.5853,35.68222],[139.58519,35.68257],[139.58509,35.68258],[139.58506,35.68271],[139.58454,35.68279],[139.58395,35.6828],[139.58368,35.68345],[139.58341,35.68363],[139.58284,35.68408],[139.5821,35.68453],[139.58096,35.68555],[139.58044,35.68581],[139.57967,35.68672],[139.57924,35.68739],[139.57955,35.68757],[139.57969,35.68756],[139.58061,35.68787],[139.58105,35.68794],[139.58135,35.6879],[139.5815,35.68782],[139.58168,35.688],[139.58191,35.68816],[139.58205,35.68822],[139.58249,35.68833],[139.58385,35.68856],[139.58417,35.68872],[139.5846,35.68925],[139.58491,35.68945],[139.58527,35.68888],[139.58557,35.68814]]]}},{"type":"Feature","properties":{"id":"area-13204002003","name":"牟礼三丁目"},"geometry":{"type":"Polygon","coordinates":[[[139.58069,35.69116],[139.58132,35.69106],[139.582,35.69114],[139.58223,35.69113],[139.58236,35.69118],[139.58267,35.69121],[139.58325,35.69121],[139.58374,35.69112],[139.5843,35.69078],[139.58461,35.69051],[139.58476,35.68986],[139.58492,35.68946],[139.5846,35.68925],[139.58417,35.68872],[139.58385,35.68856],[139.58249,35.68833],[139.58205,35.68822],[139.58191,35.68816],[139.58168,35.688],[139.5815,35.68782],[139.58135,35.6879],[139.58099,35.68793],[139.58061,35.68787],[139.57969,35.68756],[139.5796,35.68755],[139.5789,35.68777],[139.5774,35.6885],[139.57764,35.68877],[139.57784,35.68907],[139.57795,35.68985],[139.57849,35.69044],[139.58,35.68979],[139.5803,35.68984],[139.58036,35.69033],[139.58043,35.69062],[139.58041,35.69084],[139.58026,35.69138],[139.58047,35.69124],[139.58069,35.69116]]]}},{"type":"Feature","properties":{"id":"area-13204002004","name":"牟礼四丁目"},"geometry":{"type":"Polygon","coordinates":[[[139.57437,35.69337],[139.57464,35.6933],[139.57531,35.69332],[139.57577,35.69329],[139.57694,35.69313],[139.57764,35.69293],[139.5789,35.6924],[139.5792,35.69224],[139.58026,35.69138],[139.58041,35.69084],[139.58043,35.69062],[139.58036,35.69033],[139.5803,35.68984],[139.58,35.68979],[139.57849,35.69044],[139.57795,35.68985],[139.57784,35.68907],[139.57764,35.68877],[139.5774,35.6885],[139.57661,35.68896],[139.57652,35.68896],[139.57623,35.68911],[139.57591,35.68933],[139.57547,35.68954],[139.57214,35.69088],[139.57191,35.69088],[139.57193,35.69126],[139.57226,35.69323],[139.5723,35.69726],[139.57253,35.69725],[139.57314,35.69626],[139.57363,35.69518],[139.57397,35.69383],[139.57409,35.69359],[139.57418,35.69348],[139.57437,35.69337]]]}},{"type":"Feature","properties":{"id":"area-13204002005","name":"牟礼五丁目"},"geometry":{"type":"Polygon","coordinates":[[[139.57827,35.68189],[139.57811,35.68183],[139.57803,35.68229],[139.57792,35.68264],[139.5778,35.68329],[139.57719,35.68381],[139.57682,35.68407],[139.57636,35.68431],[139.57535,35.6854],[139.57599,35.68561],[139.57732,35.68631],[139.57924,35.68739],[139.57967,35.68672],[139.58044,35.68581],[139.58096,35.68555],[139.5821,35.68453],[139.58284,35.68408],[139.58341,35.68363],[139.58368,35.68345],[139.58396,35.68278],[139.5817,35.68253],[139.58166,35.68248],[139.57957,35.68221],[139.57901,35.68211],[139.57876,35.68205],[139.57845,35.68192],[139.57827,35.68189]]]}},{"type":"Feature","properties":{"id":"area-13204002006","name":"牟礼六丁目"},"geometry":{"type":"Polygon","coordinates":[[[139.57623,35.68911],[139.57652,35.68896],[139.57661,35.68896],[139.57731,35.68854],[139.5789,35.68777],[139.57955,35.68757],[139.57732,35.68631],[139.57599,35.68561],[139.57516,35.68534],[139.57267,35.68418],[139.57175,35.6836],[139.57108,35.68311],[139.57107,35.68314],[139.57138,35.68401],[139.57165,35.68527],[139.57185,35.6859],[139.57224,35.68672],[139.57245,35.68816],[139.57245,35.68843],[139.57233,35.68894],[139.57253,35.68969],[139.57273,35.69064],[139.57547,35.68954],[139.57591,35.68933],[139.57623,35.68911]]]}},{"type":"Feature","properties":{"id":"area-13204002007","name":"牟礼七丁目"},"geometry":{"type":"Polygon","coordinates":[[[139.57649,35.68169],[139.57468,35.68185],[139.57082,35.68241],[139.57108,35.68311],[139.57175,35.6836],[139.57243,35.68404],[139.57284,35.68427],[139.57476,35.68517],[139.57535,35.6854],[139.57636,35.68431],[139.57682,35.68407],[139.57719,35.68381],[139.5778,35.68329],[139.57792,35.68264],[139.57803,35.68229],[139.57811,35.68183],[139.57786,35.68173],[139.57649,35.68169]]]}},{"type":"Feature","properties":{"id":"area-13204003001","name":"井の頭一丁目"},"geometry":{"type":"Polygon","coordinates":[[[139.59341,35.68926],[139.5938,35.68882],[139.59363,35.68868],[139.59333,35.68884],[139.59309,35.68903],[139.59282,35.68899],[139.5929,35.68846],[139.59295,35.68834],[139.59304,35.68828],[139.59283,35.68795],[139.59205,35.68786],[139.59179,35.68778],[139.59128,35.68751],[139.59054,35.68687],[139.59168,35.68606],[139.5917,35.68593],[139.59152,35.6859],[139.59151,35.68578],[139.58874,35.68655],[139.58804,35.68659],[139.58685,35.68633],[139.58663,35.68632],[139.58628,35.68643],[139.58608,35.68663],[139.586,35.68677],[139.58543,35.6885],[139.58527,35.68888],[139.58491,35.68945],[139.58656,35.69002],[139.58718,35.69079],[139.58907,35.69272],[139.58964,35.6925],[139.58985,35.69238],[139.59016,35.69212],[139.59054,35.69194],[139.59129,35.69148],[139.59141,35.69128],[139.59239,35.69052],[139.59239,35.69043],[139.59286,35.68994],[139.59351,35.6894],[139.59341,35.68926]]]}},{"type":"Feature","properties":{"id":"area-13204003002","name":"井の頭二丁目"},"geometry":{"type":"Polygon","coordinates":[[[139.58492,35.69612],[139.58518,35.69576],[139.58521,35.6958],[139.58552,35.69553],[139.58578,35.69571],[139.58597,35.69549],[139.58638,35.69514],[139.5864,35.69469],[139.58648,35.69451],[139.58661,35.69437],[139.58681,35.69404],[139.58701,35.69382],[139.58718,35.69369],[139.58754,35.69357],[139.58768,35.6934],[139.58805,35.6931],[139.58907,35.69272],[139.58718,35.69079],[139.58656,35.69002],[139.58491,35.68945],[139.58476,35.68986],[139.58461,35.69051],[139.5843,35.69078],[139.58374,35.69112],[139.58325,35.69121],[139.58267,35.69121],[139.58236,35.69118],[139.58223,35.69113],[139.582,35.69114],[139.58132,35.69106],[139.58069,35.69116],[139.58047,35.69124],[139.58026,35.69138],[139.58069,35.69125],[139.58099,35.69126],[139.58104,35.69132],[139.58109,35.69169],[139.5812,35.69189],[139.58122,35.692],[139.58146,35.69238],[139.58151,35.69252],[139.58162,35.69344],[139.58225,35.69381],[139.58337,35.69434],[139.58349,35.69446],[139.58369,35.69456],[139.58473,35.69503],[139.58513,35.69505],[139.58523,35.69512],[139.58492,35.69545],[139.5851,35.69555],[139.58473,35.69604],[139.58492,35.69612]]]}},{"type":"Feature","properties":{"id":"area-13204003003","name":"井の頭三丁目"},"geometry":{"type":"Polygon","coordinates":[[[139.58228,35.69814],[139.58245,35.69789],[139.58257,35.69798],[139.58298,35.698],[139.58318,35.69795],[139.58331,35.69787],[139.58393,35.69766],[139.58461,35.69732],[139.58537,35.69621],[139.58578,35.69571],[139.58552,35.69553],[139.58521,35.6958],[139.58518,35.69576],[139.58492,35.69612],[139.58473,35.69604],[139.5851,35.69555],[139.58492,35.69545],[139.58523,35.69512],[139.58513,35.69505],[139.58473,35.69503],[139.58369,35.69456],[139.58349,35.69446],[139.58337,35.69434],[139.58225,35.69381],[139.58162,35.69344],[139.58151,35.69252],[139.58146,35.69238],[139.58122,35.692],[139.5812,35.69189],[139.58109,35.69169],[139.58104,35.69132],[139.58099,35.69126],[139.58069,35.69125],[139.58026,35.69138],[139.58011,35.69188],[139.57997,35.69281],[139.57984,35.69339],[139.57982,35.69373],[139.57965,35.69412],[139.58017,35.69514],[139.58014,35.696],[139.58,35.69653],[139.57999,35.69701],[139.58016,35.69737],[139.58029,35.69795],[139.58057,35.69792],[139.5806,35.69807],[139.58095,35.69813],[139.58107,35.69841],[139.58129,35.69849],[139.58216,35.69822],[139.58228,35.69814]]]}},{"type":"Feature","properties":{"id":"area-13204003004","name":"井の頭四丁目"},"geometry":{"type":"Polygon","coordinates":[[[139.57688,35.70147],[139.57685,35.70138],[139.57718,35.70125],[139.57751,35.70097],[139.57892,35.69999],[139.57897,35.69979],[139.57926,35.69946],[139.57928,35.6994],[139.57974,35.69902],[139.58026,35.69878],[139.58076,35.69867],[139.58129,35.69849],[139.58107,35.69841],[139.58095,35.69813],[139.5806,35.69807],[139.58057,35.69792],[139.58029,35.69795],[139.58016,35.69737],[139.57999,35.69701],[139.58,35.69653],[139.58014,35.696],[139.58017,35.69514],[139.57965,35.69412],[139.57941,35.69445],[139.57884,35.69508],[139.57848,35.69541],[139.57767,35.69626],[139.57726,35.69653],[139.57485,35.69786],[139.57323,35.69905],[139.57408,35.69937],[139.57407,35.69975],[139.57449,35.69999],[139.5747,35.70018],[139.57499,35.70052],[139.5751,35.70083],[139.57491,35.70081],[139.57489,35.70098],[139.57519,35.70122],[139.57577,35.70139],[139.57607,35.70157],[139.57628,35.70152],[139.5764,35.70146],[139.57657,35.70169],[139.57681,35.70156],[139.57688,35.70147]]]}},{"type":"Feature","properties":{"id":"area-13204003005","name":"井の頭五丁目"},"geometry":{"type":"Polygon","coordinates":[[[139.57984,35.69339],[139.57997,35.69281],[139.58011,35.69188],[139.58026,35.69138],[139.5792,35.69224],[139.5789,35.6924],[139.57735,35.69303],[139.57694,35.69313],[139.57577,35.69329],[139.57531,35.69332],[139.57464,35.6933],[139.57437,35.69337],[139.57418,35.69348],[139.57409,35.69359],[139.57397,35.69383],[139.57363,35.69518],[139.57341,35.6957],[139.57314,35.69626],[139.57253,35.69725],[139.57259,35.69884],[139.57323,35.69905],[139.57485,35.69786],[139.57726,35.69653],[139.57767,35.69626],[139.57848,35.69541],[139.57884,35.69508],[139.57941,35.69445],[139.57965,35.69412],[139.57978,35.69386],[139.57982,35.69373],[139.57984,35.69339]]]}},{"type":"Feature","properties":{"id":"area-13204004001","name":"中原一丁目"},"geometry":{"type":"Polygon","coordinates":[[[139.57833,35.66623],[139.57897,35.66599],[139.58008,35.66566],[139.58102,35.66542],[139.58211,35.66519],[139.58209,35.66513],[139.5819,35.665],[139.58093,35.66449],[139.57967,35.66354],[139.57819,35.66261],[139.57777,35.66224],[139.57761,35.66188],[139.57759,35.66154],[139.57755,35.66137],[139.5773,35.66086],[139.57749,35.66073],[139.577,35.66024],[139.57622,35.65992],[139.57591,35.65982],[139.5758,35.65998],[139.57564,35.66],[139.57555,35.66023],[139.57529,35.66033],[139.57509,35.66046],[139.57486,35.66071],[139.57452,35.66102],[139.57433,35.66114],[139.57413,35.66135],[139.57407,35.66187],[139.57422,35.6619],[139.57418,35.66202],[139.57411,35.66215],[139.57375,35.66252],[139.57364,35.66245],[139.57355,35.66253],[139.57366,35.66261],[139.57362,35.66264],[139.57334,35.66279],[139.57326,35.6627],[139.57255,35.66306],[139.5723,35.66317],[139.57209,35.66321],[139.57208,35.66343],[139.57224,35.6634],[139.57366,35.66267],[139.57408,35.66223],[139.57418,35.66209],[139.57444,35.66149],[139.57455,35.66136],[139.57462,35.66131],[139.57483,35.66125],[139.57496,35.66127],[139.57512,35.66155],[139.5751,35.66164],[139.57487,35.66207],[139.57468,35.66226],[139.57496,35.66239],[139.5749,35.66251],[139.57441,35.66281],[139.57363,35.66371],[139.57356,35.66376],[139.57336,35.66363],[139.57332,35.66364],[139.57287,35.66409],[139.57268,35.66423],[139.57248,35.66433],[139.57386,35.66472],[139.57451,35.66457],[139.57523,35.66427],[139.57546,35.66423],[139.57536,35.66491],[139.57545,35.66516],[139.57497,35.66552],[139.57516,35.66575],[139.57511,35.66616],[139.57515,35.66695],[139.5753,35.66796],[139.57567,35.66768],[139.57594,35.66742],[139.57644,35.66713],[139.57725,35.6667],[139.57818,35.66633],[139.57833,35.66623]]]}},{"type":"Feature","properties":{"id":"area-13204004002","name":"中原二丁目"},"geometry":{"type":"Polygon","coordinates":[[[139.57536,35.66491],[139.57546,35.66423],[139.57523,35.66427],[139.57451,35.66457],[139.57386,35.66472],[139.57248,35.66433],[139.57196,35.66415],[139.57134,35.66401],[139.57029,35.66384],[139.57047,35.66577],[139.57065,35.66707],[139.57054,35.66765],[139.57028,35.66858],[139.57022,35.66892],[139.5706,35.67027],[139.57056,35.67049],[139.57025,35.67124],[139.57026,35.67145],[139.5703,35.67158],[139.57037,35.67168],[139.57066,35.67135],[139.57154,35.67052],[139.57235,35.66981],[139.57343,35.66896],[139.57397,35.66864],[139.57477,35.66827],[139.5753,35.66796],[139.57515,35.66695],[139.57511,35.66616],[139.57516,35.66575],[139.57497,35.66552],[139.57545,35.66516],[139.57536,35.66491]]]}},{"type":"Feature","properties":{"id":"area-13204004003","name":"中原三丁目"},"geometry":{"type":"Polygon","coordinates":[[[139.56704,35.6746],[139.56717,35.67443],[139.56727,35.67437],[139.5677,35.67426],[139.56809,35.67425],[139.56844,35.67415],[139.56857,35.67403],[139.56961,35.67255],[139.57037,35.67168],[139.5703,35.67158],[139.57026,35.67145],[139.57025,35.67124],[139.57056,35.67049],[139.5706,35.67027],[139.57021,35.6689],[139.56917,35.66919],[139.56866,35.66942],[139.56772,35.66998],[139.56567,35.67076],[139.56453,35.67103],[139.56454,35.67149],[139.56445,35.67196],[139.56443,35.67229],[139.56431,35.6728],[139.56425,35.67319],[139.56419,35.67341],[139.56382,35.67423],[139.56373,35.67456],[139.56461,35.67458],[139.56495,35.67455],[139.56533,35.67456],[139.56536,35.67461],[139.56576,35.67462],[139.56595,35.67458],[139.5663,35.67459],[139.56643,35.67465],[139.56704,35.67466],[139.56704,35.6746]]]}},{"type":"Feature","properties":{"id":"area-13204004004","name":"中原四丁目"},"geometry":{"type":"Polygon","coordinates":[[[139.56917,35.66919],[139.57021,35.6689],[139.57022,35.66892],[139.57028,35.66858],[139.57054,35.66765],[139.57065,35.66707],[139.57047,35.66577],[139.57029,35.66384],[139.56919,35.66373],[139.56805,35.66373],[139.56786,35.66376],[139.56739,35.66388],[139.56694,35.66407],[139.56668,35.6642],[139.56604,35.66467],[139.56582,35.66478],[139.56488,35.66782],[139.56487,35.66806],[139.56462,35.66861],[139.56452,35.66898],[139.5645,35.67012],[139.56453,35.67103],[139.56567,35.67076],[139.56748,35.67008],[139.56793,35.66986],[139.56881,35.66934],[139.56917,35.66919]]]}},{"type":"Feature","properties":{"id":"area-13204005001","name":"北野一丁目"},"geometry":{"type":"Polygon","coordinates":[[[139.58565,35.68031],[139.58671,35.67996],[139.5868,35.68012],[139.58753,35.68002],[139.5878,35.68003],[139.5883,35.68013],[139.58865,35.67935],[139.58869,35.67918],[139.5887,35.67909],[139.58862,35.67894],[139.58815,35.67861],[139.58784,35.67818],[139.58761,35.67806],[139.58687,35.67781],[139.58667,35.67755],[139.58655,35.67715],[139.58653,35.677],[139.58663,35.67657],[139.58683,35.67609],[139.58686,35.67587],[139.58679,35.6754],[139.58699,35.67477],[139.5871,35.67468],[139.58757,35.67454],[139.58781,35.67435],[139.58791,35.67433],[139.58775,35.67417],[139.58767,35.67405],[139.58774,35.674],[139.58763,35.67385],[139.58701,35.67402],[139.587,35.6741],[139.58629,35.67431],[139.58608,35.67426],[139.58583,35.67412],[139.58497,35.67396],[139.5844,35.67405],[139.58269,35.67444],[139.58295,35.67512],[139.58323,35.67569],[139.58348,35.67593],[139.58357,35.67612],[139.58371,35.6765],[139.58382,35.67725],[139.58398,35.67751],[139.58365,35.6804],[139.58427,35.68051],[139.58503,35.68047],[139.58565,35.68031]]]}},{"type":"Feature","properties":{"id":"area-13204005002","name":"北野二丁目"},"geometry":{"type":"Polygon","coordinates":[[[139.58616,35.68109],[139.58675,35.68098],[139.58681,35.68106],[139.58714,35.68112],[139.58727,35.68102],[139.58743,35.68102],[139.58777,35.68073],[139.58794,35.68054],[139.58819,35.68009],[139.58753,35.68002],[139.5868,35.68012],[139.58671,35.67996],[139.58565,35.68031],[139.58503,35.68047],[139.58427,35.68051],[139.58316,35.68034],[139.5794,35.67997],[139.5792,35.68091],[139.5791,35.68094],[139.57798,35.6809],[139.57804,35.6818],[139.57827,35.68189],[139.57845,35.68192],[139.57876,35.68205],[139.57957,35.68221],[139.58166,35.68248],[139.5817,35.68253],[139.58396,35.68278],[139.58395,35.6828],[139.58454,35.68279],[139.58506,35.68271],[139.58525,35.68197],[139.58537,35.68174],[139.5855,35.68159],[139.58605,35.6813],[139.58625,35.68127],[139.58616,35.68109]]]}},{"type":"Feature","properties":{"id":"area-13204005003","name":"北野三丁目"},"geometry":{"type":"Polygon","coordinates":[[[139.5794,35.67998],[139.58365,35.6804],[139.58398,35.67751],[139.58382,35.67725],[139.58371,35.6765],[139.58357,35.67612],[139.58348,35.67593],[139.58323,35.67569],[139.58295,35.67512],[139.58269,35.67444],[139.58246,35.67377],[139.5824,35.67332],[139.58249,35.67336],[139.58264,35.67333],[139.58365,35.67298],[139.58433,35.67258],[139.58452,35.67244],[139.58463,35.6723],[139.58215,35.67334],[139.58166,35.6736],[139.57913,35.67578],[139.57778,35.6769],[139.57778,35.67692],[139.57742,35.67714],[139.57777,35.67911],[139.57783,35.67922],[139.57792,35.6797],[139.57798,35.6809],[139.5791,35.68094],[139.5792,35.68091],[139.5794,35.67998]]]}},{"type":"Feature","properties":{"id":"area-13204005004","name":"北野四丁目"},"geometry":{"type":"Polygon","coordinates":[[[139.58131,35.67388],[139.58188,35.67347],[139.58192,35.67348],[139.58215,35.67334],[139.58292,35.67301],[139.58443,35.67237],[139.5853,35.67205],[139.58872,35.67058],[139.58896,35.66981],[139.58925,35.66905],[139.58916,35.669],[139.58903,35.66883],[139.58901,35.66931],[139.58896,35.66931],[139.58839,35.66974],[139.58793,35.67003],[139.58765,35.67014],[139.58745,35.67027],[139.58718,35.67036],[139.58621,35.67086],[139.58626,35.67098],[139.58527,35.67133],[139.58523,35.67113],[139.58465,35.67131],[139.58438,35.67076],[139.58426,35.6708],[139.58418,35.6706],[139.58247,35.6706],[139.58246,35.67068],[139.58164,35.67069],[139.58158,35.67017],[139.58116,35.67017],[139.58108,35.67048],[139.58052,35.67051],[139.58048,35.67066],[139.58055,35.67067],[139.58043,35.67106],[139.5804,35.67129],[139.58026,35.67165],[139.58057,35.67178],[139.58045,35.67217],[139.58017,35.67234],[139.57991,35.67245],[139.57962,35.67226],[139.57848,35.67319],[139.57814,35.67331],[139.57798,35.67349],[139.57789,35.67352],[139.57752,35.67351],[139.57689,35.6736],[139.57677,35.67356],[139.57662,35.6736],[139.5766,35.67355],[139.57638,35.67357],[139.57613,35.67355],[139.57693,35.6751],[139.57715,35.67593],[139.57742,35.67714],[139.57778,35.67692],[139.57778,35.6769],[139.5801,35.67496],[139.58131,35.67388]]]}},{"type":"Feature","properties":{"id":"area-13204006001","name":"新川一丁目"},"geometry":{"type":"Polygon","coordinates":[[[139.57923,35.67076],[139.57917,35.67041],[139.57912,35.67033],[139.57848,35.67047],[139.5784,35.67034],[139.57811,35.67037],[139.57806,35.67001],[139.57775,35.66891],[139.57796,35.66886],[139.5781,35.66832],[139.57838,35.66844],[139.57833,35.66874],[139.57813,35.6692],[139.57887,35.66915],[139.57894,35.66911],[139.57901,35.66896],[139.57917,35.66896],[139.57977,35.66777],[139.57925,35.66755],[139.57896,35.66755],[139.57865,35.66739],[139.57938,35.66666],[139.57918,35.66658],[139.57976,35.66576],[139.57897,35.66599],[139.57862,35.66613],[139.57865,35.6661],[139.57725,35.6667],[139.57594,35.66742],[139.57567,35.66768],[139.5753,35.66796],[139.57477,35.66827],[139.57426,35.66849],[139.5749,35.66954],[139.57515,35.67034],[139.57557,35.67112],[139.57584,35.67172],[139.57609,35.67244],[139.57608,35.67285],[139.57605,35.67287],[139.57755,35.67262],[139.57799,35.67248],[139.57843,35.67224],[139.57858,35.67214],[139.57895,35.67166],[139.57916,35.67118],[139.57923,35.67091],[139.57923,35.67076]]]}},{"type":"Feature","properties":{"id":"area-13204006002","name":"新川二丁目"},"geometry":{"type":"Polygon","coordinates":[[[139.57488,35.68183],[139.5764,35.68169],[139.57767,35.68172],[139.57786,35.68173],[139.57804,35.6818],[139.57792,35.6797],[139.57783,35.67922],[139.57777,35.67911],[139.57742,35.67717],[139.57715,35.67593],[139.57693,35.6751],[139.57673,35.67468],[139.57613,35.67357],[139.57522,35.67313],[139.57527,35.67307],[139.5752,35.67304],[139.57507,35.67328],[139.57499,35.67351],[139.57504,35.6738],[139.57521,35.67419],[139.57532,35.67455],[139.5753,35.67497],[139.57523,35.67517],[139.57513,35.67535],[139.57498,35.67551],[139.5748,35.67564],[139.57356,35.67615],[139.57298,35.67635],[139.57334,35.67687],[139.57365,35.67778],[139.57388,35.67826],[139.57385,35.67828],[139.57488,35.68183]]]}},{"type":"Feature","properties":{"id":"area-13204006003","name":"新川三丁目"},"geometry":{"type":"Polygon","coordinates":[[[139.57365,35.67778],[139.57334,35.67687],[139.57315,35.67658],[139.57275,35.67665],[139.57103,35.67708],[139.57085,35.67721],[139.57075,35.67736],[139.57056,35.67747],[139.57019,35.67747],[139.56967,35.67739],[139.56915,35.67749],[139.5689,35.67748],[139.56851,35.67738],[139.5683,35.67739],[139.56876,35.67842],[139.56933,35.67956],[139.57007,35.68088],[139.57083,35.68243],[139.57082,35.68241],[139.57488,35.68183],[139.57385,35.67828],[139.57388,35.67826],[139.57365,35.67778]]]}},{"type":"Feature","properties":{"id":"area-13204006004","name":"新川四丁目"},"geometry":{"type":"Polygon","coordinates":[[[139.57507,35.67328],[139.5752,35.67304],[139.57527,35.67307],[139.57575,35.67292],[139.57605,35.67287],[139.57608,35.67285],[139.57609,35.67244],[139.57584,35.67172],[139.57557,35.67112],[139.57515,35.67034],[139.5749,35.66954],[139.57426,35.66849],[139.57343,35.66896],[139.57235,35.66981],[139.57086,35.67116],[139.57051,35.6715],[139.57035,35.6717],[139.57068,35.67217],[139.57102,35.67254],[139.57119,35.67326],[139.57164,35.67388],[139.57219,35.6749],[139.57256,35.67578],[139.573,35.67638],[139.57298,35.67635],[139.57356,35.67615],[139.5748,35.67564],[139.57498,35.67551],[139.57513,35.67535],[139.57523,35.67517],[139.57533,35.67477],[139.57532,35.67455],[139.57521,35.67419],[139.57504,35.6738],[139.57499,35.67351],[139.57507,35.67328]]]}},{"type":"Feature","properties":{"id":"area-13204006005","name":"新川五丁目"},"geometry":{"type":"Polygon","coordinates":[[[139.56915,35.67749],[139.56967,35.67739],[139.57035,35.67749],[139.57056,35.67747],[139.57075,35.67736],[139.57085,35.67721],[139.57103,35.67708],[139.57275,35.67665],[139.57315,35.67658],[139.57256,35.67578],[139.57219,35.6749],[139.57164,35.67388],[139.57119,35.67326],[139.57102,35.67254],[139.57068,35.67217],[139.57035,35.6717],[139.56961,35.67255],[139.56857,35.67403],[139.56844,35.67415],[139.56809,35.67425],[139.5677,35.67426],[139.56727,35.67437],[139.56717,35.67443],[139.56704,35.6746],[139.56704,35.67466],[139.56708,35.67466],[139.5683,35.67739],[139.56851,35.67738],[139.5689,35.67748],[139.56915,35.67749]]]}},{"type":"Feature","properties":{"id":"area-13204006006","name":"新川六丁目"},"geometry":{"type":"Polygon","coordinates":[[[139.56349,35.6838],[139.5652,35.6837],[139.56633,35.68358],[139.5676,35.68351],[139.5683,35.68339],[139.56829,35.68337],[139.57014,35.68324],[139.57108,35.68311],[139.57083,35.68243],[139.57007,35.68088],[139.56933,35.67956],[139.56876,35.67842],[139.56708,35.67466],[139.56643,35.67465],[139.5663,35.67459],[139.56595,35.67458],[139.56576,35.67462],[139.56536,35.67461],[139.56533,35.67456],[139.56495,35.67455],[139.56461,35.67458],[139.56373,35.67456],[139.56326,35.6758],[139.56285,35.67666],[139.5624,35.6779],[139.56234,35.67816],[139.56239,35.67841],[139.56146,35.68126],[139.56101,35.68278],[139.561,35.68366],[139.56096,35.6837],[139.56343,35.68332],[139.56349,35.6838]]]}},{"type":"Feature","properties":{"id":"area-13204007001","name":"上連雀一丁目"},"geometry":{"type":"Polygon","coordinates":[[[139.55232,35.70611],[139.55872,35.7036],[139.55873,35.70363],[139.55889,35.70358],[139.56065,35.7029],[139.559,35.70281],[139.55901,35.70289],[139.55672,35.70275],[139.55665,35.7027],[139.55524,35.70268],[139.55478,35.70275],[139.55377,35.70277],[139.55362,35.70273],[139.55332,35.70255],[139.55249,35.70247],[139.55031,35.70242],[139.55016,35.70429],[139.54992,35.70621],[139.5498,35.70656],[139.54971,35.70713],[139.55107,35.7066],[139.55155,35.70644],[139.55232,35.70611]]]}},{"type":"Feature","properties":{"id":"area-13204007002","name":"上連雀二丁目"},"geometry":{"type":"Polygon","coordinates":[[[139.55904,35.70047],[139.55913,35.69825],[139.55532,35.69887],[139.55529,35.70187],[139.55538,35.70189],[139.55534,35.70268],[139.55665,35.7027],[139.55672,35.70275],[139.55901,35.70289],[139.55904,35.70047]]]}},{"type":"Feature","properties":{"id":"area-13204007003","name":"上連雀三丁目"},"geometry":{"type":"Polygon","coordinates":[[[139.55534,35.70268],[139.55538,35.70189],[139.55529,35.70187],[139.55532,35.69887],[139.55275,35.69932],[139.55275,35.69929],[139.55041,35.69967],[139.55031,35.70242],[139.55249,35.70247],[139.55332,35.70255],[139.55362,35.70273],[139.55377,35.70277],[139.55478,35.70275],[139.55534,35.70268]]]}},{"type":"Feature","properties":{"id":"area-13204007004","name":"上連雀四丁目"},"geometry":{"type":"Polygon","coordinates":[[[139.55913,35.69825],[139.55935,35.69307],[139.55439,35.69407],[139.55437,35.69904],[139.55913,35.69825]]]}},{"type":"Feature","properties":{"id":"area-13204007005","name":"上連雀五丁目"},"geometry":{"type":"Polygon","coordinates":[[[139.55041,35.69967],[139.55275,35.69929],[139.55275,35.69932],[139.55437,35.69904],[139.55439,35.69407],[139.55122,35.69479],[139.55074,35.69489],[139.55062,35.69484],[139.55051,35.69486],[139.55054,35.6949],[139.55053,35.69617],[139.55055,35.69627],[139.55049,35.69799],[139.55044,35.69835],[139.55048,35.69835],[139.55041,35.69967]]]}},{"type":"Feature","properties":{"id":"area-13204007006","name":"上連雀六丁目"},"geometry":{"type":"Polygon","coordinates":[[[139.56015,35.69293],[139.55925,35.68838],[139.55505,35.68878],[139.55575,35.69285],[139.55447,35.69312],[139.55464,35.69402],[139.55834,35.69326],[139.56015,35.69293]]]}},{"type":"Feature","properties":{"id":"area-13204007007","name":"上連雀七丁目"},"geometry":{"type":"Polygon","coordinates":[[[139.55074,35.69489],[139.55464,35.69402],[139.55447,35.69312],[139.55575,35.69285],[139.55505,35.68878],[139.55248,35.68908],[139.55057,35.6892],[139.55048,35.69486],[139.55062,35.69484],[139.55074,35.69489]]]}},{"type":"Feature","properties":{"id":"area-13204007008","name":"上連雀八丁目"},"geometry":{"type":"Polygon","coordinates":[[[139.55925,35.68838],[139.55838,35.68376],[139.5559,35.68371],[139.55569,35.68374],[139.55453,35.68375],[139.55525,35.68786],[139.55555,35.68783],[139.55571,35.68871],[139.55925,35.68838]]]}},{"type":"Feature","properties":{"id":"area-13204007009","name":"上連雀九丁目"},"geometry":{"type":"Polygon","coordinates":[[[139.55571,35.68871],[139.55555,35.68783],[139.55525,35.68786],[139.55453,35.68375],[139.55432,35.68372],[139.55267,35.68375],[139.5508,35.68371],[139.54947,35.68372],[139.54995,35.68599],[139.55057,35.6892],[139.55248,35.68908],[139.55571,35.68871]]]}},{"type":"Feature","properties":{"id":"area-13204008001","name":"井口一丁目"},"geometry":{"type":"Polygon","coordinates":[[[139.54989,35.69497],[139.55051,35.69486],[139.55048,35.69486],[139.55049,35.69345],[139.55057,35.6892],[139.54704,35.68972],[139.546,35.69009],[139.54582,35.69287],[139.54581,35.69282],[139.54557,35.69595],[139.54671,35.69574],[139.54989,35.69497]]]}},{"type":"Feature","properties":{"id":"area-13204008002","name":"井口二丁目"},"geometry":{"type":"Polygon","coordinates":[[[139.55057,35.6892],[139.54995,35.68599],[139.5483,35.68631],[139.54822,35.68594],[139.54693,35.68607],[139.54688,35.6858],[139.54649,35.68585],[139.54666,35.68709],[139.54563,35.68726],[139.546,35.69009],[139.54704,35.68972],[139.55057,35.6892]]]}},{"type":"Feature","properties":{"id":"area-13204008003","name":"井口三丁目"},"geometry":{"type":"Polygon","coordinates":[[[139.54184,35.69698],[139.54351,35.69656],[139.54557,35.69595],[139.54601,35.69011],[139.54281,35.69128],[139.54277,35.69234],[139.54277,35.69382],[139.54094,35.69358],[139.54094,35.69343],[139.54023,35.69338],[139.53848,35.69318],[139.53851,35.6932],[139.5381,35.69338],[139.53809,35.69335],[139.53802,35.69342],[139.53796,35.69357],[139.53791,35.69529],[139.54105,35.69521],[139.54185,35.6952],[139.54185,35.69523],[139.54196,35.69524],[139.54195,35.69549],[139.54185,35.69549],[139.54184,35.69698]]]}},{"type":"Feature","properties":{"id":"area-13204008004","name":"井口四丁目"},"geometry":{"type":"Polygon","coordinates":[[[139.53791,35.69529],[139.53797,35.6936],[139.53761,35.69324],[139.53756,35.69311],[139.53402,35.6927],[139.53439,35.69053],[139.53432,35.69046],[139.5345,35.68963],[139.53461,35.6895],[139.53464,35.68941],[139.53469,35.68901],[139.53342,35.68912],[139.5334,35.68917],[139.53225,35.68927],[139.53156,35.69362],[139.5314,35.69482],[139.53606,35.6952],[139.53791,35.69529]]]}},{"type":"Feature","properties":{"id":"area-13204008005","name":"井口五丁目"},"geometry":{"type":"Polygon","coordinates":[[[139.53606,35.6952],[139.53401,35.69503],[139.53374,35.69895],[139.53466,35.6989],[139.53556,35.69869],[139.53587,35.69858],[139.53596,35.6965],[139.53606,35.6952]]]}},{"type":"Feature","properties":{"id":"area-13204009001","name":"深大寺一丁目"},"geometry":{"type":"Polygon","coordinates":[[[139.54277,35.69382],[139.54281,35.69128],[139.54273,35.69059],[139.54106,35.69044],[139.53788,35.69007],[139.53789,35.69057],[139.53786,35.69095],[139.5376,35.69312],[139.53756,35.69312],[139.53761,35.69324],[139.53796,35.69359],[139.53802,35.69342],[139.53809,35.69335],[139.5381,35.69338],[139.53851,35.6932],[139.53848,35.69318],[139.54023,35.69338],[139.54094,35.69343],[139.54094,35.69358],[139.54277,35.69382]]]}},{"type":"Feature","properties":{"id":"area-13204009002","name":"深大寺二丁目"},"geometry":{"type":"Polygon","coordinates":[[[139.546,35.69009],[139.54577,35.68842],[139.5425,35.68902],[139.54191,35.68491],[139.53884,35.68452],[139.53879,35.68464],[139.53797,35.68934],[139.53788,35.69007],[139.54106,35.69044],[139.54273,35.69059],[139.54281,35.69128],[139.54598,35.69012],[139.546,35.69009]]]}},{"type":"Feature","properties":{"id":"area-13204009003","name":"深大寺三丁目"},"geometry":{"type":"Polygon","coordinates":[[[139.53788,35.69006],[139.53809,35.68868],[139.53469,35.68901],[139.53464,35.68941],[139.53461,35.6895],[139.5345,35.68963],[139.53432,35.69046],[139.53439,35.69053],[139.53402,35.6927],[139.5376,35.69312],[139.53786,35.69095],[139.53789,35.69057],[139.53788,35.69006]]]}},{"type":"Feature","properties":{"id":"area-13204010001","name":"野崎一丁目"},"geometry":{"type":"Polygon","coordinates":[[[139.5606,35.68375],[139.56096,35.6837],[139.561,35.68366],[139.56101,35.68278],[139.55866,35.6828],[139.55865,35.68313],[139.55836,35.68313],[139.55831,35.68249],[139.5577,35.68255],[139.55747,35.6826],[139.55747,35.68265],[139.55692,35.6827],[139.55679,35.68229],[139.55478,35.6821],[139.55439,35.68196],[139.55439,35.6819],[139.55427,35.68191],[139.55402,35.68182],[139.55342,35.68151],[139.55277,35.68128],[139.55227,35.6812],[139.55224,35.68089],[139.55119,35.68085],[139.55061,35.68078],[139.55049,35.68084],[139.54884,35.68124],[139.5485,35.68138],[139.54872,35.68186],[139.54938,35.68297],[139.54947,35.68372],[139.5508,35.68371],[139.55267,35.68375],[139.55432,35.68372],[139.55453,35.68375],[139.55569,35.68374],[139.5559,35.68371],[139.55863,35.68377],[139.5606,35.68375]]]}},{"type":"Feature","properties":{"id":"area-13204010002","name":"野崎二丁目"},"geometry":{"type":"Polygon","coordinates":[[[139.54649,35.68585],[139.54688,35.6858],[139.54693,35.68607],[139.54822,35.68594],[139.5483,35.68631],[139.54995,35.68599],[139.54945,35.68371],[139.54938,35.68297],[139.54872,35.68186],[139.5485,35.68138],[139.54718,35.68153],[139.54694,35.68159],[139.54697,35.68208],[139.54613,35.68211],[139.54612,35.68195],[139.5455,35.68192],[139.54551,35.6817],[139.54502,35.68166],[139.54563,35.68726],[139.54666,35.68709],[139.54649,35.68585]]]}},{"type":"Feature","properties":{"id":"area-13204010003","name":"野崎三丁目"},"geometry":{"type":"Polygon","coordinates":[[[139.54502,35.68166],[139.53871,35.6812],[139.53869,35.6827],[139.53885,35.683],[139.5388,35.68452],[139.54191,35.68491],[139.5425,35.68902],[139.54577,35.68842],[139.54549,35.68612],[139.54502,35.68166]]]}},{"type":"Feature","properties":{"id":"area-13204010004","name":"野崎四丁目"},"geometry":{"type":"Polygon","coordinates":[[[139.54475,35.68134],[139.54465,35.68018],[139.54376,35.68029],[139.54374,35.68023],[139.54313,35.68029],[139.54312,35.67997],[139.54278,35.67881],[139.54002,35.67887],[139.53875,35.67875],[139.5386,35.67968],[139.53861,35.68019],[139.53871,35.6812],[139.54551,35.6817],[139.54552,35.6814],[139.54475,35.68134]]]}},{"type":"Feature","properties":{"id":"area-13204011001","name":"大沢一丁目"},"geometry":{"type":"Polygon","coordinates":[[[139.5417,35.67067],[139.54165,35.66996],[139.5408,35.67014],[139.5383,35.6708],[139.53853,35.67146],[139.53874,35.67232],[139.53892,35.6727],[139.53951,35.67373],[139.53959,35.67393],[139.53917,35.67568],[139.53918,35.67596],[139.53938,35.67707],[139.53937,35.67718],[139.53924,35.67747],[139.5389,35.67799],[139.53878,35.67876],[139.54002,35.67887],[139.5428,35.67881],[139.54249,35.67736],[139.54233,35.67544],[139.54219,35.67441],[139.54201,35.67276],[139.5417,35.67067]]]}},{"type":"Feature","properties":{"id":"area-13204011002","name":"大沢二丁目"},"geometry":{"type":"Polygon","coordinates":[[[139.5386,35.67968],[139.5389,35.67799],[139.53924,35.67747],[139.53937,35.67718],[139.53938,35.67707],[139.53918,35.67596],[139.53917,35.67568],[139.53959,35.67393],[139.53951,35.67373],[139.53882,35.6725],[139.53874,35.67232],[139.53856,35.67161],[139.53834,35.67202],[139.53782,35.67213],[139.53786,35.67224],[139.53724,35.67244],[139.53728,35.67257],[139.53664,35.67282],[139.53611,35.67294],[139.53549,35.67336],[139.53453,35.67389],[139.53426,35.67365],[139.53367,35.67393],[139.5336,35.67402],[139.53299,35.67427],[139.53277,35.67412],[139.53135,35.6756],[139.53101,35.67604],[139.53082,35.67643],[139.53074,35.67668],[139.53056,35.67785],[139.53037,35.67951],[139.53029,35.67986],[139.53012,35.68023],[139.52972,35.68074],[139.52949,35.68118],[139.52932,35.68218],[139.53006,35.68181],[139.53054,35.68169],[139.53871,35.6812],[139.53861,35.68019],[139.5386,35.67968]]]}},{"type":"Feature","properties":{"id":"area-13204011003","name":"大沢三丁目"},"geometry":{"type":"Polygon","coordinates":[[[139.52999,35.68986],[139.52996,35.68952],[139.5307,35.68946],[139.53173,35.6889],[139.53172,35.68866],[139.53232,35.68862],[139.53225,35.68927],[139.5334,35.68917],[139.53342,35.68912],[139.53809,35.68868],[139.53879,35.68464],[139.53884,35.68452],[139.5388,35.68452],[139.53885,35.683],[139.53869,35.6827],[139.53871,35.6812],[139.53054,35.68169],[139.53006,35.68181],[139.52932,35.68218],[139.52929,35.68249],[139.52913,35.68245],[139.52903,35.68267],[139.52889,35.68288],[139.52876,35.68341],[139.52835,35.68337],[139.52819,35.68341],[139.52808,35.68356],[139.52804,35.68367],[139.52774,35.68381],[139.52747,35.68402],[139.52733,35.68417],[139.52681,35.68509],[139.52668,35.68547],[139.52665,35.68562],[139.5268,35.68584],[139.52683,35.68621],[139.52654,35.68715],[139.52621,35.68762],[139.5256,35.68791],[139.52496,35.6883],[139.52451,35.68848],[139.52517,35.6893],[139.525,35.68941],[139.52566,35.69006],[139.52585,35.68996],[139.52631,35.69011],[139.52703,35.68967],[139.5275,35.69],[139.52837,35.68955],[139.52891,35.69045],[139.52999,35.68986]]]}},{"type":"Feature","properties":{"id":"area-13204011004","name":"大沢四丁目"},"geometry":{"type":"Polygon","coordinates":[[[139.54114,35.67006],[139.54165,35.66996],[139.54166,35.67],[139.54198,35.66917],[139.54205,35.66889],[139.54217,35.66815],[139.54234,35.66782],[139.54246,35.66787],[139.54251,35.66777],[139.54245,35.66772],[139.54251,35.66765],[139.54276,35.66762],[139.54291,35.66749],[139.54319,35.66734],[139.54312,35.66727],[139.54361,35.66702],[139.54435,35.66655],[139.54433,35.66644],[139.54422,35.66626],[139.54404,35.66612],[139.54366,35.66594],[139.5433,35.66538],[139.54305,35.66492],[139.54284,35.66491],[139.54246,35.66473],[139.54175,35.66425],[139.54134,35.66435],[139.54035,35.6645],[139.5397,35.66451],[139.53946,35.66458],[139.53942,35.66446],[139.53932,35.66448],[139.53937,35.6646],[139.53927,35.66463],[139.53915,35.66439],[139.53819,35.66466],[139.53834,35.66497],[139.53888,35.66482],[139.5389,35.66489],[139.53918,35.66482],[139.53914,35.66472],[139.53925,35.66469],[139.5393,35.66482],[139.53892,35.66492],[139.53915,35.66543],[139.53896,35.66558],[139.5389,35.66553],[139.53882,35.66554],[139.53843,35.66568],[139.53821,35.66526],[139.53804,35.66531],[139.53803,35.66529],[139.53791,35.66534],[139.53795,35.66546],[139.5378,35.66549],[139.53778,35.66543],[139.53735,35.66553],[139.5375,35.66597],[139.53711,35.66611],[139.53733,35.66651],[139.53715,35.6666],[139.53746,35.66696],[139.53834,35.66663],[139.53858,35.66699],[139.5381,35.66727],[139.5382,35.66739],[139.53814,35.66744],[139.53841,35.6678],[139.53825,35.66788],[139.53797,35.66786],[139.53785,35.66788],[139.53696,35.66828],[139.53652,35.66857],[139.53692,35.66893],[139.53736,35.6694],[139.53809,35.67041],[139.53832,35.6708],[139.54114,35.67006]]]}},{"type":"Feature","properties":{"id":"area-13204011005","name":"大沢五丁目"},"geometry":{"type":"Polygon","coordinates":[[[139.53367,35.67393],[139.53426,35.67365],[139.53453,35.67389],[139.53549,35.67336],[139.53611,35.67294],[139.53664,35.67282],[139.53728,35.67257],[139.53724,35.67244],[139.53786,35.67224],[139.53782,35.67213],[139.53834,35.67202],[139.53856,35.67161],[139.53832,35.6708],[139.53809,35.67041],[139.53736,35.6694],[139.53654,35.66857],[139.53648,35.6686],[139.53609,35.66902],[139.53569,35.66952],[139.53511,35.66874],[139.5348,35.66883],[139.53502,35.66941],[139.53486,35.66947],[139.53426,35.66805],[139.53448,35.66794],[139.53447,35.66792],[139.53459,35.6679],[139.53433,35.66744],[139.53389,35.66739],[139.53336,35.6675],[139.53227,35.66781],[139.53153,35.66798],[139.53276,35.66991],[139.53077,35.67043],[139.53078,35.67095],[139.53043,35.67105],[139.53045,35.6711],[139.5304,35.67111],[139.53076,35.67214],[139.53014,35.67226],[139.52981,35.67226],[139.52974,35.67272],[139.53152,35.67317],[139.53299,35.67427],[139.5336,35.67402],[139.53367,35.67393]]]}},{"type":"Feature","properties":{"id":"area-13204011006","name":"大沢六丁目"},"geometry":{"type":"Polygon","coordinates":[[[139.52929,35.68249],[139.52938,35.68172],[139.52949,35.68118],[139.52972,35.68074],[139.53012,35.68023],[139.53029,35.67986],[139.53037,35.67951],[139.53066,35.67713],[139.53074,35.67668],[139.53082,35.67643],[139.53101,35.67604],[139.53135,35.6756],[139.53279,35.67412],[139.53152,35.67317],[139.52972,35.67271],[139.52961,35.67342],[139.52935,35.67368],[139.52964,35.67569],[139.52936,35.67574],[139.52881,35.67574],[139.52851,35.67527],[139.528,35.67421],[139.52669,35.67451],[139.52673,35.67483],[139.52687,35.67539],[139.5264,35.67553],[139.5264,35.67571],[139.52655,35.67593],[139.52704,35.67587],[139.52724,35.67611],[139.52772,35.67601],[139.52787,35.67622],[139.52757,35.67639],[139.52776,35.6766],[139.52784,35.67674],[139.52784,35.67686],[139.52717,35.67707],[139.5265,35.67718],[139.52592,35.67732],[139.52609,35.67781],[139.52611,35.6781],[139.52604,35.67906],[139.52578,35.67918],[139.52579,35.6789],[139.52545,35.67886],[139.52545,35.67896],[139.52561,35.67897],[139.52562,35.67907],[139.52545,35.67909],[139.52545,35.67899],[139.52537,35.679],[139.52535,35.67929],[139.52544,35.68062],[139.52616,35.68078],[139.52626,35.68084],[139.52894,35.68112],[139.5289,35.68152],[139.52876,35.68176],[139.52863,35.68174],[139.52865,35.68246],[139.52913,35.68245],[139.52929,35.68249]]]}}]}