{"type":"FeatureCollection","features":[{"type":"Feature","properties":{"id":"area-13208001001","name":"飛田給一丁目"},"geometry":{"type":"Polygon","coordinates":[[[139.52724,35.65996],[139.52663,35.65915],[139.52677,35.65907],[139.52669,35.65892],[139.52679,35.65875],[139.52677,35.65863],[139.52426,35.65978],[139.52424,35.65975],[139.51994,35.66176],[139.52083,35.66318],[139.52149,35.66434],[139.52169,35.6648],[139.52587,35.66307],[139.52827,35.66194],[139.52712,35.66007],[139.52724,35.65996]]]}},{"type":"Feature","properties":{"id":"area-13208001002","name":"飛田給二丁目"},"geometry":{"type":"Polygon","coordinates":[[[139.51994,35.66176],[139.52424,35.65975],[139.52426,35.65978],[139.52677,35.65863],[139.52633,35.65811],[139.526,35.65757],[139.52557,35.65699],[139.52536,35.65666],[139.5248,35.65597],[139.52464,35.6557],[139.52428,35.65602],[139.52339,35.65652],[139.52286,35.65669],[139.5217,35.65691],[139.52142,35.657],[139.52123,35.65712],[139.52086,35.65753],[139.51998,35.65824],[139.51937,35.65888],[139.51884,35.65933],[139.5186,35.6596],[139.51881,35.65973],[139.51914,35.6603],[139.51919,35.6605],[139.51932,35.66066],[139.51994,35.66176]]]}},{"type":"Feature","properties":{"id":"area-13208001003","name":"飛田給三丁目"},"geometry":{"type":"Polygon","coordinates":[[[139.52464,35.6557],[139.5244,35.65537],[139.5241,35.65507],[139.52376,35.6544],[139.52353,35.65435],[139.5235,35.65426],[139.5235,35.65403],[139.52337,35.65376],[139.52247,35.65342],[139.5212,35.65281],[139.52077,35.65273],[139.52072,35.65259],[139.52055,35.65252],[139.52044,35.65286],[139.52048,35.65294],[139.52082,35.65335],[139.5206,35.65373],[139.52004,35.65424],[139.51993,35.65441],[139.5196,35.65467],[139.51964,35.65471],[139.51944,35.65484],[139.51936,35.65478],[139.51881,35.65512],[139.51808,35.65546],[139.51773,35.65546],[139.51773,35.65559],[139.51768,35.65562],[139.51685,35.65562],[139.51708,35.65592],[139.51708,35.65605],[139.51724,35.65606],[139.51762,35.65656],[139.51761,35.65669],[139.51747,35.65672],[139.51756,35.65684],[139.51783,35.65757],[139.51798,35.6576],[139.51787,35.65778],[139.51817,35.65788],[139.51812,35.65796],[139.51785,35.65816],[139.51772,35.65819],[139.51777,35.65836],[139.51765,35.65844],[139.51782,35.65873],[139.51788,35.65897],[139.51809,35.65899],[139.51833,35.65946],[139.51841,35.65954],[139.5186,35.6596],[139.51884,35.65933],[139.51937,35.65888],[139.51998,35.65824],[139.52086,35.65753],[139.52123,35.65712],[139.52142,35.657],[139.5217,35.65691],[139.52286,35.65669],[139.52339,35.65652],[139.52428,35.65602],[139.52464,35.6557]]]}},{"type":"Feature","properties":{"id":"area-13208002001","name":"上石原一丁目"},"geometry":{"type":"Polygon","coordinates":[[[139.5295,35.66162],[139.53245,35.66162],[139.53226,35.66108],[139.53229,35.66046],[139.53241,35.65999],[139.5332,35.65969],[139.53305,35.65944],[139.53328,35.65932],[139.53346,35.65913],[139.53355,35.65892],[139.53361,35.6585],[139.53369,35.65834],[139.53322,35.65761],[139.53292,35.65726],[139.53301,35.65714],[139.53253,35.65662],[139.53221,35.65612],[139.52679,35.65863],[139.52679,35.65875],[139.52669,35.65892],[139.52677,35.65907],[139.52663,35.65915],[139.52724,35.65996],[139.52712,35.66007],[139.52827,35.66195],[139.52895,35.66164],[139.5295,35.66162]]]}},{"type":"Feature","properties":{"id":"area-13208002002","name":"上石原二丁目"},"geometry":{"type":"Polygon","coordinates":[[[139.52951,35.65453],[139.52915,35.65427],[139.5289,35.65397],[139.52816,35.65284],[139.52776,35.65296],[139.52738,35.65302],[139.52705,35.65317],[139.52681,35.6535],[139.52677,35.65372],[139.5263,35.65424],[139.52627,35.65424],[139.52587,35.65464],[139.52464,35.6557],[139.5248,35.65597],[139.52536,35.65666],[139.52557,35.65699],[139.526,35.65757],[139.52633,35.65811],[139.52677,35.65863],[139.53221,35.65612],[139.53217,35.65606],[139.5311,35.65543],[139.5308,35.65519],[139.52951,35.65453]]]}},{"type":"Feature","properties":{"id":"area-13208002003","name":"上石原三丁目"},"geometry":{"type":"Polygon","coordinates":[[[139.52587,35.65464],[139.52627,35.65424],[139.5263,35.65424],[139.52677,35.65372],[139.52681,35.6535],[139.52705,35.65317],[139.52738,35.65302],[139.52776,35.65296],[139.52816,35.65284],[139.52815,35.6528],[139.52803,35.65263],[139.52741,35.65201],[139.52626,35.65107],[139.52472,35.64964],[139.52406,35.64898],[139.52385,35.6486],[139.5232,35.64807],[139.5208,35.64983],[139.52129,35.65031],[139.52101,35.65052],[139.5211,35.65063],[139.52096,35.65075],[139.52106,35.65088],[139.52094,35.65097],[139.52103,35.65108],[139.52098,35.65112],[139.5211,35.65123],[139.52072,35.65151],[139.52083,35.65163],[139.52059,35.65181],[139.52072,35.65197],[139.52055,35.65252],[139.52072,35.65259],[139.52077,35.65273],[139.5212,35.65281],[139.52247,35.65342],[139.52337,35.65376],[139.5235,35.65403],[139.5235,35.65426],[139.52353,35.65435],[139.52376,35.6544],[139.5241,35.65507],[139.5244,35.65537],[139.52464,35.6557],[139.52587,35.65464]]]}},{"type":"Feature","properties":{"id":"area-13208003001","name":"富士見町一丁目"},"geometry":{"type":"Polygon","coordinates":[[[139.53458,35.66185],[139.53464,35.66172],[139.53545,35.66208],[139.53598,35.66237],[139.536,35.66232],[139.5373,35.66223],[139.53745,35.66188],[139.53782,35.66176],[139.53792,35.66188],[139.53825,35.6617],[139.53834,35.66152],[139.53875,35.66128],[139.53904,35.66106],[139.53764,35.65868],[139.53752,35.65811],[139.53737,35.65776],[139.53422,35.65928],[139.53241,35.65999],[139.53229,35.66046],[139.53226,35.66108],[139.53267,35.66223],[139.5328,35.66272],[139.53295,35.66288],[139.53458,35.66185]]]}},{"type":"Feature","properties":{"id":"area-13208003002","name":"富士見町二丁目"},"geometry":{"type":"Polygon","coordinates":[[[139.54091,35.66046],[139.54206,35.65997],[139.54227,35.66],[139.54324,35.65965],[139.54323,35.6591],[139.54314,35.65861],[139.54294,35.65797],[139.54285,35.6577],[139.54199,35.65585],[139.54102,35.65615],[139.53806,35.65715],[139.53815,35.65731],[139.53743,35.65766],[139.53737,35.65776],[139.53752,35.65811],[139.53764,35.65868],[139.53784,35.65905],[139.53904,35.66106],[139.53971,35.6619],[139.54123,35.66116],[139.54091,35.66046]]]}},{"type":"Feature","properties":{"id":"area-13208003003","name":"富士見町三丁目"},"geometry":{"type":"Polygon","coordinates":[[[139.54305,35.66492],[139.54301,35.66272],[139.54303,35.66235],[139.54316,35.66162],[139.54322,35.65966],[139.54227,35.66],[139.54206,35.65997],[139.54091,35.66046],[139.54123,35.66116],[139.53971,35.6619],[139.53904,35.66106],[139.53875,35.66128],[139.53834,35.66152],[139.53825,35.6617],[139.53792,35.66188],[139.53782,35.66176],[139.53745,35.66188],[139.5373,35.66223],[139.536,35.66232],[139.53587,35.66263],[139.53623,35.66315],[139.53676,35.66323],[139.53675,35.66349],[139.53712,35.66355],[139.53742,35.66352],[139.5376,35.66357],[139.53844,35.66403],[139.53889,35.66446],[139.53915,35.66439],[139.53927,35.66463],[139.53937,35.6646],[139.53932,35.66448],[139.53942,35.66446],[139.53946,35.66458],[139.5397,35.66451],[139.54035,35.6645],[139.54134,35.66435],[139.54175,35.66425],[139.54246,35.66473],[139.54284,35.66491],[139.54305,35.66492]]]}},{"type":"Feature","properties":{"id":"area-13208003004","name":"富士見町四丁目"},"geometry":{"type":"Polygon","coordinates":[[[139.53609,35.66902],[139.53648,35.6686],[139.53696,35.66828],[139.53785,35.66788],[139.53797,35.66786],[139.53825,35.66788],[139.53841,35.6678],[139.53814,35.66744],[139.5382,35.66739],[139.5381,35.66727],[139.53858,35.66699],[139.53834,35.66663],[139.53746,35.66696],[139.53715,35.6666],[139.53733,35.66651],[139.53711,35.66611],[139.5375,35.66597],[139.53735,35.66553],[139.53778,35.66543],[139.5378,35.66549],[139.53795,35.66546],[139.53791,35.66534],[139.53821,35.66526],[139.53843,35.66568],[139.53882,35.66554],[139.5389,35.66553],[139.53896,35.66558],[139.53915,35.66543],[139.53892,35.66492],[139.5393,35.66482],[139.53925,35.66469],[139.53914,35.66472],[139.53918,35.66482],[139.5389,35.66489],[139.53888,35.66482],[139.53834,35.66497],[139.53819,35.66466],[139.53889,35.66446],[139.53853,35.66411],[139.53844,35.66403],[139.5376,35.66357],[139.53742,35.66352],[139.53712,35.66355],[139.53675,35.66349],[139.53676,35.66323],[139.53623,35.66315],[139.53587,35.66263],[139.53598,35.66237],[139.53545,35.66208],[139.53464,35.66172],[139.53458,35.66185],[139.53447,35.66194],[139.53295,35.66288],[139.53335,35.6634],[139.53338,35.66357],[139.53328,35.66426],[139.5333,35.6644],[139.53322,35.66504],[139.53329,35.66511],[139.53316,35.66567],[139.53316,35.66666],[139.53473,35.6667],[139.53483,35.66668],[139.5351,35.66725],[139.53506,35.66874],[139.53511,35.66874],[139.53569,35.66952],[139.53609,35.66902]]]}},{"type":"Feature","properties":{"id":"area-13208004001","name":"下石原一丁目"},"geometry":{"type":"Polygon","coordinates":[[[139.53422,35.65928],[139.53735,35.65777],[139.53743,35.65766],[139.53815,35.65731],[139.53806,35.65715],[139.53957,35.65663],[139.53959,35.65651],[139.53878,35.65483],[139.53889,35.65477],[139.53839,35.65373],[139.53575,35.65454],[139.53497,35.65486],[139.53221,35.65612],[139.53253,35.65662],[139.53301,35.65714],[139.53292,35.65726],[139.53322,35.65761],[139.53369,35.65834],[139.53361,35.6585],[139.53355,35.65892],[139.53346,35.65913],[139.53328,35.65932],[139.53305,35.65944],[139.53312,35.65957],[139.53321,35.65969],[139.53422,35.65928]]]}},{"type":"Feature","properties":{"id":"area-13208004002","name":"下石原二丁目"},"geometry":{"type":"Polygon","coordinates":[[[139.53692,35.6511],[139.53687,35.65109],[139.53613,35.65145],[139.52985,35.6547],[139.5308,35.65519],[139.5311,35.65543],[139.53217,35.65606],[139.53221,35.65612],[139.53497,35.65486],[139.53575,35.65454],[139.53839,35.65373],[139.53692,35.6511]]]}},{"type":"Feature","properties":{"id":"area-13208004003","name":"下石原三丁目"},"geometry":{"type":"Polygon","coordinates":[[[139.52985,35.6547],[139.53687,35.65109],[139.53692,35.6511],[139.53693,35.65108],[139.53498,35.64699],[139.53492,35.64693],[139.53461,35.6469],[139.53398,35.64673],[139.53393,35.64691],[139.53396,35.64694],[139.53378,35.64736],[139.53383,35.64759],[139.53378,35.64789],[139.53372,35.64907],[139.53364,35.64928],[139.53353,35.64935],[139.53335,35.64964],[139.53316,35.64974],[139.53176,35.65011],[139.53125,35.6504],[139.53105,35.65054],[139.53086,35.65087],[139.53034,35.65142],[139.53002,35.65168],[139.52895,35.6524],[139.52859,35.6526],[139.52815,35.6528],[139.52882,35.65384],[139.52915,35.65427],[139.52951,35.65453],[139.52985,35.6547]]]}},{"type":"Feature","properties":{"id":"area-13208005001","name":"小島町一丁目"},"geometry":{"type":"Polygon","coordinates":[[[139.53957,35.65663],[139.54199,35.65585],[139.54204,35.65595],[139.54263,35.65579],[139.5431,35.6557],[139.54471,35.65523],[139.54419,35.65396],[139.5441,35.65356],[139.54398,35.6532],[139.54407,35.65316],[139.54391,35.65257],[139.54363,35.65264],[139.54351,35.65225],[139.54304,35.65237],[139.5384,35.65376],[139.53889,35.65477],[139.53878,35.65483],[139.53959,35.65651],[139.53957,35.65663]]]}},{"type":"Feature","properties":{"id":"area-13208005002","name":"小島町二丁目"},"geometry":{"type":"Polygon","coordinates":[[[139.54351,35.65225],[139.54341,35.65199],[139.54327,35.65203],[139.543,35.65101],[139.54341,35.65094],[139.54349,35.65101],[139.54331,35.65022],[139.5431,35.64873],[139.543,35.64868],[139.54171,35.64909],[139.54159,35.64917],[139.54129,35.64925],[139.5396,35.65001],[139.5394,35.65006],[139.53693,35.65108],[139.53722,35.65167],[139.5384,35.65376],[139.54304,35.65237],[139.54351,35.65225]]]}},{"type":"Feature","properties":{"id":"area-13208005003","name":"小島町三丁目"},"geometry":{"type":"Polygon","coordinates":[[[139.53917,35.65015],[139.5396,35.65001],[139.54129,35.64925],[139.54159,35.64917],[139.54171,35.64909],[139.543,35.64868],[139.5431,35.64873],[139.54303,35.64843],[139.54297,35.64825],[139.54287,35.64809],[139.54275,35.64769],[139.54245,35.64734],[139.54213,35.64691],[139.54179,35.64625],[139.54122,35.64554],[139.54095,35.64513],[139.54094,35.64482],[139.54031,35.64491],[139.54003,35.64503],[139.53942,35.64539],[139.53921,35.64521],[139.53853,35.64555],[139.53796,35.6459],[139.53777,35.64599],[139.53737,35.64536],[139.53719,35.64515],[139.53563,35.64634],[139.53523,35.64661],[139.53521,35.64691],[139.53498,35.64699],[139.53693,35.65108],[139.53917,35.65015]]]}},{"type":"Feature","properties":{"id":"area-13208006001","name":"布田一丁目"},"geometry":{"type":"Polygon","coordinates":[[[139.54711,35.65287],[139.54662,35.65127],[139.54637,35.65134],[139.54574,35.65155],[139.54506,35.65182],[139.54437,35.65201],[139.54447,35.65244],[139.54391,35.65257],[139.54407,35.65316],[139.54398,35.6532],[139.5441,35.65356],[139.54419,35.65396],[139.54471,35.65523],[139.54765,35.65439],[139.54711,35.65287]]]}},{"type":"Feature","properties":{"id":"area-13208006002","name":"布田二丁目"},"geometry":{"type":"Polygon","coordinates":[[[139.55108,35.6512],[139.55089,35.65005],[139.54885,35.65062],[139.54892,35.65048],[139.54888,35.65048],[139.5466,35.65117],[139.54695,35.6523],[139.54692,35.65231],[139.54765,35.65439],[139.55165,35.65328],[139.55165,35.65323],[139.55158,35.65318],[139.55152,35.65283],[139.55108,35.6512]]]}},{"type":"Feature","properties":{"id":"area-13208006003","name":"布田三丁目"},"geometry":{"type":"Polygon","coordinates":[[[139.5466,35.65117],[139.54892,35.65048],[139.54885,35.65062],[139.55089,35.65005],[139.55084,35.64952],[139.55088,35.64916],[139.55079,35.64806],[139.55075,35.64784],[139.5506,35.64739],[139.55059,35.64713],[139.55046,35.64651],[139.54713,35.64711],[139.54599,35.64751],[139.54606,35.64757],[139.54614,35.64775],[139.54618,35.64817],[139.54641,35.64879],[139.54644,35.65033],[139.5466,35.65117]]]}},{"type":"Feature","properties":{"id":"area-13208006004","name":"布田四丁目"},"geometry":{"type":"Polygon","coordinates":[[[139.54437,35.65201],[139.54506,35.65182],[139.54574,35.65155],[139.54662,35.65127],[139.54644,35.65033],[139.54641,35.64879],[139.54618,35.64817],[139.54614,35.64775],[139.54606,35.64757],[139.54599,35.64751],[139.5431,35.64858],[139.54314,35.6487],[139.5431,35.64873],[139.54313,35.64897],[139.54331,35.65022],[139.54349,35.65101],[139.54341,35.65094],[139.543,35.65101],[139.54327,35.65203],[139.54341,35.65199],[139.54363,35.65264],[139.54447,35.65244],[139.54437,35.65201]]]}},{"type":"Feature","properties":{"id":"area-13208006005","name":"布田五丁目"},"geometry":{"type":"Polygon","coordinates":[[[139.54506,35.64487],[139.54488,35.64458],[139.54475,35.6443],[139.54489,35.64374],[139.54494,35.64352],[139.54492,35.64345],[139.54481,35.6433],[139.54466,35.64315],[139.54458,35.64313],[139.54432,35.64323],[139.54343,35.64389],[139.54291,35.64422],[139.54238,35.64449],[139.54172,35.64468],[139.5415,35.64469],[139.54115,35.64481],[139.54092,35.64483],[139.54095,35.64513],[139.54113,35.64541],[139.54179,35.64625],[139.54213,35.64691],[139.54245,35.64734],[139.54275,35.64769],[139.54287,35.64809],[139.54297,35.64825],[139.54303,35.64843],[139.54311,35.64872],[139.54314,35.6487],[139.5431,35.64858],[139.54599,35.64751],[139.54581,35.64725],[139.54561,35.64708],[139.54533,35.64612],[139.54506,35.64487]]]}},{"type":"Feature","properties":{"id":"area-13208006006","name":"布田六丁目"},"geometry":{"type":"Polygon","coordinates":[[[139.55111,35.64469],[139.55117,35.6438],[139.55067,35.64373],[139.55039,35.64353],[139.55025,35.64347],[139.54984,35.64339],[139.54944,35.64345],[139.54851,35.64345],[139.54799,35.64353],[139.54782,35.64364],[139.5476,35.64385],[139.54741,35.64389],[139.54677,35.64424],[139.5462,35.64444],[139.54571,35.64444],[139.54566,35.64438],[139.54477,35.64417],[139.54475,35.6443],[139.54488,35.64458],[139.54506,35.64487],[139.54533,35.64612],[139.54561,35.64708],[139.54581,35.64725],[139.54599,35.64751],[139.54713,35.64711],[139.55046,35.64651],[139.55041,35.64637],[139.55094,35.64516],[139.55111,35.64469]]]}},{"type":"Feature","properties":{"id":"area-132080070","name":"下布田"},"geometry":{"type":"Polygon","coordinates":[[[139.52116,35.64959],[139.5232,35.64807],[139.52465,35.64683],[139.52567,35.64592],[139.52722,35.64445],[139.52728,35.64435],[139.52749,35.64422],[139.52766,35.64406],[139.52775,35.64411],[139.52836,35.64377],[139.52841,35.64369],[139.52883,35.6435],[139.52941,35.64332],[139.52954,35.64324],[139.53015,35.64301],[139.5303,35.643],[139.53217,35.64236],[139.53316,35.64214],[139.53431,35.64197],[139.53542,35.64173],[139.5357,35.64162],[139.53579,35.64166],[139.53601,35.64159],[139.53677,35.64142],[139.53718,35.64135],[139.53719,35.64138],[139.53853,35.641],[139.53886,35.64101],[139.53879,35.64093],[139.53931,35.64091],[139.5397,35.64076],[139.53978,35.6408],[139.5399,35.64071],[139.5405,35.6406],[139.54069,35.6406],[139.54168,35.64037],[139.5425,35.64013],[139.54271,35.64009],[139.54283,35.6401],[139.54297,35.64003],[139.54336,35.63997],[139.54335,35.63991],[139.54462,35.63958],[139.5448,35.63947],[139.54603,35.63916],[139.54616,35.63917],[139.54633,35.63906],[139.54657,35.639],[139.54672,35.63901],[139.54685,35.63892],[139.54738,35.63875],[139.54752,35.6388],[139.54761,35.63877],[139.54788,35.63857],[139.54861,35.63849],[139.54872,35.63843],[139.54995,35.63805],[139.55107,35.63776],[139.5517,35.63763],[139.55191,35.63765],[139.55192,35.63757],[139.55223,35.63749],[139.55363,35.63733],[139.55372,35.63725],[139.55405,35.63717],[139.55454,35.63709],[139.55479,35.63714],[139.55482,35.63706],[139.55529,35.63698],[139.55543,35.63702],[139.55574,35.63697],[139.55613,35.6369],[139.55668,35.63675],[139.55684,35.63678],[139.55802,35.63656],[139.56034,35.63608],[139.56039,35.63598],[139.56058,35.636],[139.56123,35.63583],[139.56231,35.63541],[139.5625,35.63532],[139.56267,35.63518],[139.56258,35.6349],[139.56253,35.63462],[139.56194,35.63294],[139.5618,35.63269],[139.55936,35.63346],[139.55871,35.63363],[139.55819,35.63382],[139.55758,35.63415],[139.55739,35.63416],[139.55686,35.63398],[139.55621,35.63403],[139.55499,35.6342],[139.55407,35.63419],[139.55321,35.63407],[139.55121,35.63399],[139.55053,35.63401],[139.54939,35.63421],[139.54912,35.63438],[139.5489,35.63482],[139.54832,35.63575],[139.54773,35.6365],[139.54759,35.63677],[139.54685,35.63679],[139.54618,35.63686],[139.54606,35.63691],[139.54602,35.63697],[139.54607,35.63727],[139.54601,35.63731],[139.54523,35.63732],[139.54425,35.63744],[139.54345,35.63759],[139.54094,35.63834],[139.54075,35.63846],[139.53991,35.63876],[139.53862,35.63904],[139.53788,35.63914],[139.53738,35.63928],[139.5371,35.63933],[139.53624,35.63937],[139.53603,35.63941],[139.5358,35.63949],[139.5353,35.63983],[139.53481,35.64002],[139.53412,35.64036],[139.53383,35.64045],[139.53332,35.64066],[139.53262,35.64106],[139.53186,35.64139],[139.53094,35.64187],[139.53055,35.64202],[139.53029,35.64207],[139.5296,35.64204],[139.52908,35.64206],[139.52827,35.64215],[139.52758,35.64227],[139.52676,35.64246],[139.52578,35.64261],[139.52494,35.6429],[139.52412,35.64339],[139.52298,35.64422],[139.52209,35.64506],[139.52202,35.64526],[139.52175,35.64564],[139.52094,35.64643],[139.52084,35.64661],[139.52095,35.64698],[139.52104,35.64768],[139.52119,35.64952],[139.52116,35.64959]]]}},{"type":"Feature","properties":{"id":"area-13208008001","name":"国領町一丁目"},"geometry":{"type":"Polygon","coordinates":[[[139.55685,35.65074],[139.55694,35.65054],[139.55701,35.65056],[139.55757,35.64991],[139.55756,35.64988],[139.55716,35.64974],[139.55658,35.64963],[139.55608,35.64961],[139.55528,35.64966],[139.55326,35.64981],[139.55317,35.64985],[139.55183,35.64996],[139.55148,35.65001],[139.55146,35.65023],[139.55113,35.65024],[139.55102,35.65034],[139.55093,35.65033],[139.55108,35.6512],[139.55152,35.65283],[139.55158,35.65318],[139.55165,35.65323],[139.55682,35.65268],[139.55685,35.65074]]]}},{"type":"Feature","properties":{"id":"area-13208008002","name":"国領町二丁目"},"geometry":{"type":"Polygon","coordinates":[[[139.56339,35.65262],[139.55881,35.65045],[139.55811,35.65016],[139.55782,35.65053],[139.55751,35.65039],[139.55734,35.65043],[139.55716,35.65038],[139.55701,35.65056],[139.55694,35.65054],[139.55685,35.65074],[139.55682,35.65268],[139.55906,35.6525],[139.55958,35.65249],[139.56031,35.65256],[139.56045,35.65239],[139.56173,35.65297],[139.5626,35.65341],[139.56256,35.65347],[139.5627,35.65355],[139.56339,35.65262]]]}},{"type":"Feature","properties":{"id":"area-13208008003","name":"国領町三丁目"},"geometry":{"type":"Polygon","coordinates":[[[139.5639,35.65197],[139.56445,35.65099],[139.56416,35.65088],[139.56411,35.65095],[139.56386,35.65082],[139.56354,35.65045],[139.56331,35.65011],[139.56288,35.64966],[139.56248,35.64996],[139.56227,35.64974],[139.56206,35.6497],[139.56213,35.64904],[139.56205,35.64831],[139.56192,35.64772],[139.56144,35.64702],[139.56125,35.64683],[139.55885,35.64853],[139.558,35.64952],[139.55756,35.64988],[139.55757,35.64991],[139.55716,35.65038],[139.55734,35.65043],[139.55751,35.65039],[139.55782,35.65053],[139.55811,35.65016],[139.55881,35.65045],[139.56339,35.65262],[139.5639,35.65197]]]}},{"type":"Feature","properties":{"id":"area-13208008004","name":"国領町四丁目"},"geometry":{"type":"Polygon","coordinates":[[[139.55756,35.64988],[139.558,35.64952],[139.55885,35.64853],[139.56187,35.64637],[139.56235,35.64614],[139.56231,35.64602],[139.56194,35.64581],[139.56121,35.64552],[139.56043,35.64532],[139.55954,35.64533],[139.55592,35.64546],[139.55596,35.64587],[139.55606,35.64621],[139.55595,35.64653],[139.5559,35.64678],[139.55601,35.64718],[139.55609,35.64766],[139.55588,35.64797],[139.55543,35.64842],[139.55535,35.64887],[139.5552,35.64927],[139.55528,35.64966],[139.55608,35.64961],[139.55658,35.64963],[139.55716,35.64974],[139.55756,35.64988]]]}},{"type":"Feature","properties":{"id":"area-13208008005","name":"国領町五丁目"},"geometry":{"type":"Polygon","coordinates":[[[139.55596,35.64587],[139.55592,35.64546],[139.55466,35.64552],[139.55431,35.64559],[139.55195,35.64629],[139.55141,35.64642],[139.55049,35.64658],[139.55059,35.64713],[139.5506,35.64739],[139.55075,35.64784],[139.55079,35.64806],[139.55088,35.64916],[139.55084,35.64952],[139.55093,35.65033],[139.55102,35.65034],[139.55113,35.65024],[139.55146,35.65023],[139.55148,35.65001],[139.55183,35.64996],[139.55317,35.64985],[139.55326,35.64981],[139.55528,35.64966],[139.5552,35.64927],[139.55535,35.64887],[139.55543,35.64842],[139.55588,35.64797],[139.55609,35.64766],[139.55601,35.64718],[139.5559,35.64678],[139.55595,35.64653],[139.55606,35.64621],[139.55596,35.64587]]]}},{"type":"Feature","properties":{"id":"area-13208008006","name":"国領町六丁目"},"geometry":{"type":"Polygon","coordinates":[[[139.55494,35.64549],[139.55633,35.64545],[139.55599,35.64312],[139.5556,35.64312],[139.55528,35.6432],[139.55474,35.64342],[139.55454,35.64353],[139.55441,35.64372],[139.55428,35.644],[139.55415,35.64412],[139.55394,35.64422],[139.55371,35.64428],[139.55312,35.64429],[139.55259,35.64422],[139.55185,35.6439],[139.55117,35.6438],[139.55115,35.64424],[139.55107,35.64485],[139.55041,35.64637],[139.55049,35.64658],[139.55141,35.64642],[139.55195,35.64629],[139.55444,35.64555],[139.55494,35.64549]]]}},{"type":"Feature","properties":{"id":"area-13208008007","name":"国領町七丁目"},"geometry":{"type":"Polygon","coordinates":[[[139.56235,35.64614],[139.56485,35.64487],[139.56412,35.6435],[139.56337,35.64179],[139.56326,35.64184],[139.56192,35.64212],[139.56115,35.64231],[139.56067,35.6424],[139.56069,35.64241],[139.56047,35.64247],[139.56035,35.64246],[139.56016,35.6425],[139.56009,35.6425],[139.56008,35.64246],[139.55996,35.64249],[139.5595,35.64244],[139.5589,35.64248],[139.55826,35.64278],[139.55809,35.64292],[139.55774,35.64308],[139.55685,35.64319],[139.55631,35.64318],[139.55601,35.64313],[139.5561,35.64394],[139.55633,35.64545],[139.55954,35.64533],[139.56043,35.64532],[139.56084,35.64541],[139.56164,35.64568],[139.56223,35.64595],[139.56231,35.64602],[139.56235,35.64614]]]}},{"type":"Feature","properties":{"id":"area-13208008008","name":"国領町八丁目"},"geometry":{"type":"Polygon","coordinates":[[[139.56445,35.65099],[139.56467,35.65041],[139.5649,35.65001],[139.56506,35.6498],[139.56529,35.64957],[139.56555,35.64941],[139.56589,35.64923],[139.56621,35.64913],[139.56693,35.64899],[139.56888,35.6488],[139.56946,35.64886],[139.56962,35.64821],[139.56959,35.6482],[139.56967,35.64785],[139.56958,35.64776],[139.56863,35.64743],[139.56862,35.64756],[139.56819,35.64751],[139.5682,35.6474],[139.56769,35.64763],[139.56727,35.64699],[139.56659,35.64731],[139.56582,35.64613],[139.56575,35.64617],[139.56568,35.64608],[139.5656,35.64612],[139.56532,35.64572],[139.56538,35.64569],[139.56523,35.64546],[139.56551,35.64533],[139.56546,35.64526],[139.56538,35.6453],[139.56528,35.64517],[139.5651,35.64526],[139.56485,35.64487],[139.56187,35.64637],[139.56125,35.64683],[139.56144,35.64702],[139.56192,35.64772],[139.56205,35.64831],[139.56213,35.64904],[139.56206,35.6497],[139.56227,35.64974],[139.56248,35.64996],[139.56288,35.64966],[139.56331,35.65011],[139.56354,35.65045],[139.56386,35.65082],[139.56411,35.65095],[139.56416,35.65088],[139.56445,35.65099]]]}},{"type":"Feature","properties":{"id":"area-13208009001","name":"染地一丁目"},"geometry":{"type":"Polygon","coordinates":[[[139.54864,35.64344],[139.54944,35.64345],[139.54984,35.64339],[139.55007,35.64342],[139.55039,35.64353],[139.55067,35.64373],[139.55118,35.64381],[139.55113,35.64329],[139.55106,35.64303],[139.55099,35.64288],[139.5507,35.64248],[139.5501,35.64179],[139.54975,35.64123],[139.54915,35.63962],[139.54853,35.63991],[139.54803,35.64025],[139.54691,35.64085],[139.5453,35.64133],[139.54393,35.64162],[139.54419,35.64235],[139.54432,35.64299],[139.54466,35.64315],[139.54492,35.64345],[139.54494,35.64352],[139.54489,35.64374],[139.54477,35.64417],[139.54566,35.64438],[139.54571,35.64444],[139.5462,35.64444],[139.54677,35.64424],[139.54741,35.64389],[139.5476,35.64385],[139.54782,35.64364],[139.54799,35.64353],[139.54824,35.64347],[139.54864,35.64344]]]}},{"type":"Feature","properties":{"id":"area-13208009002","name":"染地二丁目"},"geometry":{"type":"Polygon","coordinates":[[[139.5533,35.6443],[139.55371,35.64428],[139.55394,35.64422],[139.55415,35.64412],[139.55428,35.644],[139.55441,35.64372],[139.55454,35.64353],[139.55474,35.64342],[139.55528,35.6432],[139.5556,35.64312],[139.55599,35.64312],[139.5558,35.64183],[139.55537,35.64081],[139.55431,35.63774],[139.55581,35.63717],[139.55613,35.6369],[139.55543,35.63702],[139.55529,35.63698],[139.55482,35.63706],[139.55479,35.63714],[139.55454,35.63709],[139.55372,35.63725],[139.55363,35.63733],[139.55223,35.63749],[139.55192,35.63757],[139.55191,35.63765],[139.5517,35.63763],[139.55107,35.63776],[139.54995,35.63805],[139.54872,35.63843],[139.54861,35.63849],[139.54788,35.63857],[139.54761,35.63877],[139.54752,35.6388],[139.54738,35.63875],[139.54685,35.63892],[139.54672,35.63901],[139.54657,35.639],[139.54633,35.63906],[139.54616,35.63917],[139.54603,35.63916],[139.54578,35.63923],[139.54572,35.63929],[139.5457,35.63928],[139.5462,35.63982],[139.54651,35.64098],[139.54691,35.64085],[139.54803,35.64025],[139.54853,35.63991],[139.54915,35.63962],[139.54975,35.64123],[139.5501,35.64179],[139.5507,35.64248],[139.55099,35.64288],[139.55106,35.64303],[139.55113,35.64329],[139.55118,35.64381],[139.55185,35.6439],[139.55259,35.64422],[139.5533,35.6443]]]}},{"type":"Feature","properties":{"id":"area-13208009003","name":"染地三丁目"},"geometry":{"type":"Polygon","coordinates":[[[139.5589,35.64248],[139.5595,35.64244],[139.55996,35.64249],[139.56008,35.64246],[139.56009,35.6425],[139.56016,35.6425],[139.56035,35.64246],[139.56047,35.64247],[139.56069,35.64241],[139.56067,35.6424],[139.56115,35.64231],[139.56192,35.64212],[139.56326,35.64184],[139.56337,35.64179],[139.56297,35.6388],[139.56298,35.63864],[139.5631,35.63834],[139.5631,35.63796],[139.56278,35.63537],[139.56267,35.63518],[139.5625,35.63532],[139.56159,35.6357],[139.56123,35.63583],[139.56058,35.636],[139.56039,35.63598],[139.56034,35.63608],[139.55759,35.63664],[139.55684,35.63678],[139.55668,35.63675],[139.55613,35.6369],[139.55581,35.63717],[139.55431,35.63774],[139.55537,35.64081],[139.5558,35.64183],[139.55599,35.64312],[139.55631,35.64318],[139.55685,35.64319],[139.55774,35.64308],[139.55809,35.64292],[139.55826,35.64278],[139.5589,35.64248]]]}},{"type":"Feature","properties":{"id":"area-13208010001","name":"多摩川一丁目"},"geometry":{"type":"Polygon","coordinates":[[[139.53176,35.65011],[139.53316,35.64974],[139.53335,35.64964],[139.53358,35.6493],[139.53091,35.64751],[139.53057,35.64761],[139.52999,35.64789],[139.52856,35.64845],[139.52788,35.64858],[139.52677,35.64936],[139.52624,35.64959],[139.52574,35.64976],[139.52548,35.64982],[139.52491,35.6498],[139.52626,35.65107],[139.52741,35.65201],[139.52803,35.65263],[139.52815,35.6528],[139.52859,35.6526],[139.52895,35.6524],[139.53002,35.65168],[139.53034,35.65142],[139.53086,35.65087],[139.53105,35.65054],[139.53125,35.6504],[139.53176,35.65011]]]}},{"type":"Feature","properties":{"id":"area-13208010002","name":"多摩川二丁目"},"geometry":{"type":"Polygon","coordinates":[[[139.52548,35.64982],[139.52574,35.64976],[139.52624,35.64959],[139.52665,35.64942],[139.52788,35.64858],[139.52856,35.64845],[139.52999,35.64789],[139.53057,35.64761],[139.53091,35.64751],[139.52683,35.6448],[139.52567,35.64592],[139.52479,35.64671],[139.52319,35.64806],[139.52385,35.6486],[139.52406,35.64898],[139.52491,35.6498],[139.52548,35.64982]]]}},{"type":"Feature","properties":{"id":"area-13208010003","name":"多摩川三丁目"},"geometry":{"type":"Polygon","coordinates":[[[139.53393,35.64691],[139.53398,35.64673],[139.53461,35.6469],[139.53492,35.64693],[139.533,35.64514],[139.53235,35.64464],[139.5313,35.64397],[139.53097,35.64369],[139.5303,35.643],[139.53015,35.64301],[139.52954,35.64324],[139.52941,35.64332],[139.52883,35.6435],[139.52841,35.64369],[139.52836,35.64377],[139.52775,35.64411],[139.52766,35.64406],[139.52749,35.64422],[139.52728,35.64435],[139.52683,35.6448],[139.53358,35.6493],[139.53364,35.64928],[139.53372,35.64907],[139.53378,35.64789],[139.53383,35.64759],[139.53378,35.64736],[139.53396,35.64694],[139.53393,35.64691]]]}},{"type":"Feature","properties":{"id":"area-13208010004","name":"多摩川四丁目"},"geometry":{"type":"Polygon","coordinates":[[[139.53752,35.6449],[139.53731,35.6447],[139.53714,35.64481],[139.53679,35.64449],[139.53628,35.64395],[139.53568,35.64316],[139.53558,35.64291],[139.53557,35.64262],[139.53559,35.64265],[139.53559,35.64172],[139.53579,35.64166],[139.5357,35.64162],[139.53542,35.64173],[139.53431,35.64197],[139.53316,35.64214],[139.53217,35.64236],[139.5303,35.643],[139.53097,35.64369],[139.5313,35.64397],[139.53235,35.64464],[139.533,35.64514],[139.53498,35.64699],[139.53521,35.64691],[139.53523,35.64661],[139.53563,35.64634],[139.53719,35.64515],[139.53752,35.6449]]]}},{"type":"Feature","properties":{"id":"area-13208010005","name":"多摩川五丁目"},"geometry":{"type":"Polygon","coordinates":[[[139.53921,35.64521],[139.53896,35.64429],[139.5388,35.64395],[139.53718,35.64135],[139.53601,35.64159],[139.53559,35.64172],[139.53558,35.64291],[139.53568,35.64316],[139.53628,35.64395],[139.53679,35.64449],[139.53714,35.64481],[139.53731,35.6447],[139.53752,35.6449],[139.53719,35.64515],[139.53737,35.64536],[139.53777,35.64599],[139.53796,35.6459],[139.53853,35.64555],[139.53921,35.64521]]]}},{"type":"Feature","properties":{"id":"area-13208010006","name":"多摩川六丁目"},"geometry":{"type":"Polygon","coordinates":[[[139.54067,35.64484],[139.54115,35.64481],[139.5415,35.64469],[139.54172,35.64468],[139.54238,35.64449],[139.54291,35.64422],[139.54343,35.64389],[139.54432,35.64323],[139.54458,35.64313],[139.54432,35.64299],[139.54419,35.64235],[139.54393,35.64164],[139.54321,35.6417],[139.5419,35.642],[139.54097,35.64278],[139.54098,35.64302],[139.54065,35.64315],[139.53983,35.64338],[139.53929,35.64363],[139.53893,35.64383],[139.5388,35.64395],[139.53896,35.64429],[139.53906,35.64459],[139.53921,35.64521],[139.53942,35.64539],[139.54003,35.64503],[139.54031,35.64491],[139.54067,35.64484]]]}},{"type":"Feature","properties":{"id":"area-13208010007","name":"多摩川七丁目"},"geometry":{"type":"Polygon","coordinates":[[[139.54321,35.6417],[139.54393,35.64164],[139.54393,35.64162],[139.5453,35.64133],[139.54651,35.64098],[139.5462,35.63982],[139.5457,35.63928],[139.54572,35.63929],[139.54578,35.63923],[139.5448,35.63947],[139.54462,35.63958],[139.54335,35.63991],[139.54336,35.63997],[139.54297,35.64003],[139.54283,35.6401],[139.54271,35.64009],[139.5425,35.64013],[139.54168,35.64037],[139.54069,35.6406],[139.5405,35.6406],[139.5399,35.64071],[139.53978,35.6408],[139.5397,35.64076],[139.53931,35.64091],[139.53879,35.64093],[139.53886,35.64101],[139.53853,35.641],[139.53719,35.64138],[139.5388,35.64395],[139.53893,35.64383],[139.53929,35.64363],[139.53983,35.64338],[139.54065,35.64315],[139.54098,35.64302],[139.54097,35.64278],[139.5419,35.642],[139.54321,35.6417]]]}},{"type":"Feature","properties":{"id":"area-13208011001","name":"佐須町一丁目"},"geometry":{"type":"Polygon","coordinates":[[[139.55323,35.66172],[139.55265,35.66089],[139.55247,35.66056],[139.55203,35.65941],[139.55001,35.66066],[139.54953,35.66102],[139.54941,35.66118],[139.54964,35.66159],[139.54968,35.66191],[139.54982,35.66189],[139.55055,35.66167],[139.5509,35.66245],[139.55026,35.66268],[139.55038,35.66311],[139.55298,35.66329],[139.55323,35.66172]]]}},{"type":"Feature","properties":{"id":"area-13208011002","name":"佐須町二丁目"},"geometry":{"type":"Polygon","coordinates":[[[139.55497,35.66015],[139.55579,35.66014],[139.55582,35.65963],[139.55591,35.65921],[139.5552,35.65788],[139.55502,35.6576],[139.55424,35.65812],[139.55205,35.65942],[139.55247,35.66056],[139.55265,35.66089],[139.55323,35.66172],[139.55309,35.66257],[139.55403,35.66189],[139.5545,35.66161],[139.55474,35.66154],[139.55487,35.66141],[139.55503,35.66117],[139.55525,35.66069],[139.55497,35.66015]]]}},{"type":"Feature","properties":{"id":"area-13208011003","name":"佐須町三丁目"},"geometry":{"type":"Polygon","coordinates":[[[139.55502,35.6576],[139.55746,35.65575],[139.55719,35.65547],[139.55713,35.6553],[139.55677,35.65536],[139.55601,35.65565],[139.555,35.65573],[139.55431,35.65568],[139.55407,35.65573],[139.55386,35.65582],[139.55386,35.65579],[139.55381,35.65579],[139.55314,35.65618],[139.55235,35.65652],[139.55193,35.65664],[139.55186,35.65721],[139.55177,35.6575],[139.55174,35.65833],[139.55178,35.65863],[139.55203,35.65941],[139.55424,35.65812],[139.55502,35.6576]]]}},{"type":"Feature","properties":{"id":"area-13208011004","name":"佐須町四丁目"},"geometry":{"type":"Polygon","coordinates":[[[139.55678,35.66029],[139.55764,35.66021],[139.55844,35.66005],[139.55848,35.66008],[139.56047,35.65938],[139.56132,35.65907],[139.56134,35.65903],[139.56077,35.65738],[139.56034,35.65639],[139.56016,35.65609],[139.55994,35.65607],[139.5589,35.65551],[139.55858,35.65497],[139.55793,35.65528],[139.55736,35.65564],[139.55746,35.65575],[139.55502,35.6576],[139.5552,35.65788],[139.55591,35.65921],[139.55582,35.65963],[139.55579,35.66014],[139.55678,35.66029]]]}},{"type":"Feature","properties":{"id":"area-13208011005","name":"佐須町五丁目"},"geometry":{"type":"Polygon","coordinates":[[[139.5624,35.66178],[139.56165,35.65973],[139.56162,35.65972],[139.56143,35.65932],[139.56134,35.65903],[139.56132,35.65907],[139.56047,35.65938],[139.55848,35.66008],[139.55844,35.66005],[139.55762,35.66021],[139.5577,35.66079],[139.55819,35.66074],[139.55868,35.66064],[139.55904,35.66146],[139.55904,35.66188],[139.55921,35.66229],[139.55912,35.66264],[139.5593,35.66378],[139.55934,35.66384],[139.56038,35.66367],[139.56247,35.66324],[139.56249,35.6628],[139.5624,35.66178]]]}},{"type":"Feature","properties":{"id":"area-13208012001","name":"柴崎一丁目"},"geometry":{"type":"Polygon","coordinates":[[[139.564,35.65471],[139.5639,35.65454],[139.56368,35.65442],[139.56393,35.65418],[139.56256,35.65347],[139.56218,35.65393],[139.56135,35.65444],[139.56113,35.65452],[139.56046,35.65467],[139.56037,35.65454],[139.55997,35.65461],[139.55992,35.65475],[139.55902,35.65486],[139.55859,35.65497],[139.5589,35.65551],[139.55994,35.65607],[139.56016,35.65609],[139.56034,35.65639],[139.56077,35.65738],[139.56121,35.65861],[139.56134,35.65908],[139.56162,35.65972],[139.56165,35.65973],[139.56198,35.66068],[139.56298,35.66048],[139.56302,35.66037],[139.56649,35.65869],[139.56561,35.65735],[139.56511,35.65672],[139.56411,35.65487],[139.56405,35.65486],[139.564,35.65471]]]}},{"type":"Feature","properties":{"id":"area-13208012002","name":"柴崎二丁目"},"geometry":{"type":"Polygon","coordinates":[[[139.56327,35.66559],[139.56462,35.66538],[139.56494,35.66527],[139.56583,35.66478],[139.56595,35.66444],[139.56618,35.66394],[139.56737,35.66222],[139.56746,35.66185],[139.56744,35.66151],[139.56734,35.66112],[139.56708,35.66043],[139.56699,35.66],[139.5669,35.65972],[139.56647,35.65871],[139.56302,35.66037],[139.56298,35.66048],[139.56198,35.66068],[139.5624,35.66178],[139.56249,35.6628],[139.56247,35.66324],[139.56241,35.66337],[139.56234,35.66547],[139.5629,35.66559],[139.56327,35.66559]]]}},{"type":"Feature","properties":{"id":"area-13208013001","name":"菊野台一丁目"},"geometry":{"type":"Polygon","coordinates":[[[139.56922,35.65737],[139.56922,35.65731],[139.56925,35.65737],[139.56925,35.6572],[139.56919,35.65648],[139.56891,35.65607],[139.56946,35.65573],[139.56957,35.65561],[139.5696,35.6555],[139.56736,35.65443],[139.56703,35.65434],[139.56669,35.65421],[139.56596,35.65382],[139.56341,35.6526],[139.5627,35.65355],[139.56393,35.65418],[139.56368,35.65442],[139.5639,35.65454],[139.564,35.65471],[139.56405,35.65486],[139.56411,35.65487],[139.56511,35.65672],[139.56561,35.65735],[139.56649,35.65869],[139.56922,35.65737]]]}},{"type":"Feature","properties":{"id":"area-13208013002","name":"菊野台二丁目"},"geometry":{"type":"Polygon","coordinates":[[[139.56816,35.64887],[139.56693,35.64899],[139.56621,35.64913],[139.56589,35.64923],[139.56529,35.64957],[139.56506,35.6498],[139.56474,35.65026],[139.56434,35.65124],[139.5639,35.65197],[139.56341,35.6526],[139.56596,35.65382],[139.56669,35.65421],[139.56735,35.65444],[139.56872,35.6533],[139.56965,35.65247],[139.56884,35.65144],[139.56837,35.65116],[139.56826,35.65101],[139.5682,35.65053],[139.56823,35.65027],[139.56821,35.64961],[139.56814,35.64887],[139.56816,35.64887]]]}},{"type":"Feature","properties":{"id":"area-13208013003","name":"菊野台三丁目"},"geometry":{"type":"Polygon","coordinates":[[[139.57296,35.65581],[139.57243,35.65512],[139.57229,35.65476],[139.57217,35.65458],[139.57186,35.65422],[139.5723,35.65363],[139.57256,35.6534],[139.57277,35.65306],[139.57299,35.65282],[139.57296,35.65276],[139.57275,35.65275],[139.57274,35.65261],[139.57284,35.65233],[139.57306,35.65203],[139.57322,35.65095],[139.57334,35.65052],[139.57275,35.65037],[139.57268,35.65025],[139.5723,35.65019],[139.57213,35.64997],[139.57209,35.64975],[139.5718,35.64958],[139.57158,35.64938],[139.57118,35.64934],[139.5705,35.64934],[139.56993,35.64917],[139.56981,35.6491],[139.56967,35.64896],[139.5694,35.64885],[139.56888,35.6488],[139.56814,35.64887],[139.56821,35.64961],[139.56823,35.65027],[139.5682,35.65053],[139.56826,35.65101],[139.56837,35.65116],[139.56884,35.65144],[139.56965,35.65247],[139.56872,35.6533],[139.56736,35.65443],[139.5696,35.6555],[139.5696,35.65548],[139.5703,35.6558],[139.57182,35.65651],[139.57296,35.65581]]]}},{"type":"Feature","properties":{"id":"area-13208014001","name":"東つつじケ丘一丁目"},"geometry":{"type":"Polygon","coordinates":[[[139.57799,35.66127],[139.57805,35.66105],[139.5788,35.6612],[139.57942,35.66143],[139.5796,35.66144],[139.58004,35.66107],[139.58036,35.661],[139.58047,35.66091],[139.58084,35.66072],[139.58044,35.66055],[139.57956,35.66025],[139.57641,35.65868],[139.57639,35.6587],[139.57544,35.65841],[139.57533,35.65911],[139.57516,35.65947],[139.57511,35.65965],[139.57569,35.65981],[139.57572,35.65977],[139.57622,35.65992],[139.57702,35.66025],[139.57749,35.66073],[139.5773,35.66086],[139.57755,35.66137],[139.57759,35.66154],[139.57773,35.66147],[139.57799,35.66127]]]}},{"type":"Feature","properties":{"id":"area-13208014002","name":"東つつじケ丘二丁目"},"geometry":{"type":"Polygon","coordinates":[[[139.57928,35.65871],[139.57926,35.65849],[139.57956,35.65817],[139.57976,35.65775],[139.57971,35.65745],[139.58018,35.65678],[139.58029,35.65654],[139.58065,35.65662],[139.58086,35.65662],[139.58133,35.65559],[139.58108,35.65555],[139.58085,35.65547],[139.58069,35.65536],[139.58056,35.6552],[139.58057,35.65516],[139.57982,35.65572],[139.57956,35.6556],[139.57911,35.6555],[139.57902,35.65552],[139.57827,35.65535],[139.57826,35.65526],[139.57765,35.65507],[139.57741,35.65494],[139.57727,35.65491],[139.57716,35.65492],[139.57696,35.655],[139.57678,35.65523],[139.57665,35.65533],[139.57581,35.65576],[139.57556,35.65597],[139.57579,35.6562],[139.57584,35.65638],[139.57584,35.65659],[139.5754,35.65829],[139.57545,35.65831],[139.57544,35.65841],[139.57639,35.6587],[139.57641,35.65868],[139.57858,35.65975],[139.57897,35.65947],[139.57917,35.65925],[139.57924,35.65907],[139.57928,35.65871]]]}},{"type":"Feature","properties":{"id":"area-13208014003","name":"東つつじケ丘三丁目"},"geometry":{"type":"Polygon","coordinates":[[[139.57982,35.65572],[139.58057,35.65516],[139.58056,35.6552],[139.58069,35.65536],[139.58085,35.65547],[139.58133,35.65561],[139.58165,35.65514],[139.58178,35.65486],[139.58176,35.65485],[139.58181,35.65472],[139.58177,35.65448],[139.5818,35.65438],[139.58191,35.65429],[139.58231,35.65409],[139.58245,35.65394],[139.58244,35.65308],[139.58254,35.65262],[139.58248,35.65242],[139.5826,35.65195],[139.58275,35.65171],[139.58272,35.65155],[139.58253,35.65135],[139.5822,35.65111],[139.58217,35.65097],[139.58217,35.65072],[139.58084,35.64952],[139.58055,35.64982],[139.57999,35.65055],[139.5799,35.65079],[139.57928,35.65197],[139.57858,35.65253],[139.57857,35.65257],[139.5785,35.6526],[139.57815,35.65293],[139.5781,35.65305],[139.57829,35.65327],[139.5783,35.65339],[139.57791,35.65402],[139.57781,35.65423],[139.57779,35.65442],[139.57783,35.65466],[139.57765,35.65506],[139.57826,35.65526],[139.57827,35.65535],[139.57902,35.65552],[139.57911,35.6555],[139.57956,35.6556],[139.57982,35.65572]]]}},{"type":"Feature","properties":{"id":"area-13208015001","name":"西つつじケ丘一丁目"},"geometry":{"type":"Polygon","coordinates":[[[139.56797,35.66374],[139.56919,35.66373],[139.57029,35.66384],[139.57037,35.66333],[139.57044,35.66313],[139.57077,35.66157],[139.57128,35.66155],[139.57192,35.66049],[139.57236,35.65996],[139.57278,35.65954],[139.57321,35.65906],[139.57014,35.65788],[139.56958,35.65758],[139.56925,35.65737],[139.56922,35.65731],[139.56922,35.65737],[139.56649,35.65869],[139.56647,35.65871],[139.5669,35.65972],[139.56699,35.66],[139.56708,35.66043],[139.56734,35.66112],[139.56744,35.66151],[139.56746,35.66185],[139.56737,35.66222],[139.56618,35.66394],[139.56595,35.66444],[139.56583,35.66478],[139.56604,35.66467],[139.56668,35.6642],[139.56694,35.66407],[139.56739,35.66388],[139.56797,35.66374]]]}},{"type":"Feature","properties":{"id":"area-13208015002","name":"西つつじケ丘二丁目"},"geometry":{"type":"Polygon","coordinates":[[[139.57287,35.66409],[139.57336,35.66363],[139.57356,35.66376],[139.57363,35.66371],[139.57441,35.66281],[139.5749,35.66251],[139.57496,35.66239],[139.57468,35.66226],[139.57487,35.66207],[139.5751,35.66164],[139.57512,35.66155],[139.57496,35.66127],[139.57483,35.66125],[139.57462,35.66131],[139.57455,35.66136],[139.57444,35.66149],[139.57418,35.66209],[139.57408,35.66223],[139.57366,35.66267],[139.57224,35.6634],[139.57208,35.66343],[139.57209,35.66321],[139.5723,35.66317],[139.57255,35.66306],[139.57326,35.6627],[139.57334,35.66279],[139.57362,35.66264],[139.57366,35.66261],[139.57355,35.66253],[139.57364,35.66245],[139.57375,35.66252],[139.57411,35.66215],[139.57418,35.66202],[139.57422,35.6619],[139.57407,35.66187],[139.57413,35.66135],[139.57433,35.66114],[139.57452,35.66102],[139.57486,35.66071],[139.57509,35.66046],[139.57529,35.66033],[139.57555,35.66023],[139.57564,35.66],[139.5758,35.65998],[139.57591,35.65982],[139.57572,35.65977],[139.57569,35.65981],[139.57504,35.65965],[139.57321,35.65906],[139.57278,35.65954],[139.57236,35.65996],[139.57192,35.66049],[139.57128,35.66155],[139.57077,35.66157],[139.57044,35.66313],[139.57037,35.66333],[139.57029,35.66384],[139.57134,35.66401],[139.57196,35.66415],[139.57248,35.66433],[139.57268,35.66423],[139.57287,35.66409]]]}},{"type":"Feature","properties":{"id":"area-13208015003","name":"西つつじケ丘三丁目"},"geometry":{"type":"Polygon","coordinates":[[[139.57182,35.65651],[139.5696,35.65548],[139.56957,35.65561],[139.56946,35.65573],[139.56891,35.65607],[139.56919,35.65648],[139.56925,35.65737],[139.56997,35.65781],[139.57066,35.6581],[139.57321,35.65906],[139.57504,35.65965],[139.57511,35.65965],[139.57516,35.65947],[139.57533,35.65911],[139.57544,35.65841],[139.57524,35.65836],[139.57472,35.65809],[139.57443,35.65785],[139.57397,35.6576],[139.57397,35.65756],[139.57323,35.6572],[139.57176,35.65656],[139.57182,35.65651]]]}},{"type":"Feature","properties":{"id":"area-13208015004","name":"西つつじケ丘四丁目"},"geometry":{"type":"Polygon","coordinates":[[[139.57716,35.65492],[139.57741,35.65494],[139.57765,35.65507],[139.57783,35.65466],[139.57779,35.65442],[139.57781,35.65423],[139.57791,35.65402],[139.5783,35.65339],[139.57829,35.65327],[139.5781,35.65305],[139.57815,35.65293],[139.5785,35.6526],[139.57857,35.65257],[139.57858,35.65253],[139.57928,35.65197],[139.5799,35.65079],[139.57999,35.65055],[139.58055,35.64982],[139.58084,35.64952],[139.58036,35.64909],[139.58015,35.6492],[139.57971,35.64899],[139.57941,35.64914],[139.57924,35.64892],[139.57922,35.64874],[139.57896,35.64872],[139.5786,35.64888],[139.57857,35.64907],[139.57854,35.64908],[139.5772,35.64929],[139.57698,35.64958],[139.57689,35.64962],[139.57682,35.64983],[139.57668,35.65008],[139.57665,35.65026],[139.57661,35.65033],[139.57624,35.65029],[139.57603,35.65039],[139.576,35.65048],[139.57497,35.65069],[139.57452,35.65088],[139.57438,35.65081],[139.5742,35.65076],[139.574,35.65079],[139.57383,35.65061],[139.57341,35.65056],[139.57334,35.65052],[139.57322,35.65095],[139.57306,35.65203],[139.57284,35.65233],[139.57274,35.65261],[139.57275,35.65275],[139.57296,35.65276],[139.57299,35.65282],[139.57277,35.65306],[139.57256,35.6534],[139.5723,35.65363],[139.57186,35.65422],[139.57217,35.65458],[139.57229,35.65476],[139.57243,35.65512],[139.57296,35.65581],[139.57176,35.65656],[139.57323,35.6572],[139.57397,35.65756],[139.57397,35.6576],[139.57443,35.65785],[139.57472,35.65809],[139.57524,35.65836],[139.57544,35.65841],[139.57545,35.65831],[139.5754,35.65829],[139.57584,35.65659],[139.57584,35.65638],[139.57579,35.6562],[139.57556,35.65597],[139.57581,35.65576],[139.57665,35.65533],[139.57678,35.65523],[139.57696,35.655],[139.57716,35.65492]]]}},{"type":"Feature","properties":{"id":"area-13208016001","name":"入間町一丁目"},"geometry":{"type":"Polygon","coordinates":[[[139.59244,35.65537],[139.59252,35.65496],[139.59264,35.6546],[139.59306,35.65354],[139.59325,35.65214],[139.59322,35.65209],[139.59327,35.65151],[139.59295,35.65149],[139.5929,35.65174],[139.59204,35.6516],[139.59217,35.65093],[139.59219,35.64955],[139.59141,35.64963],[139.59078,35.64976],[139.59019,35.65013],[139.58992,35.65039],[139.58977,35.65045],[139.58682,35.65086],[139.58568,35.65122],[139.58545,35.65132],[139.58494,35.65165],[139.58425,35.65251],[139.58644,35.65446],[139.58659,35.65462],[139.58657,35.65463],[139.58677,35.65501],[139.59032,35.65517],[139.59113,35.65522],[139.59244,35.65537]]]}},{"type":"Feature","properties":{"id":"area-13208016002","name":"入間町二丁目"},"geometry":{"type":"Polygon","coordinates":[[[139.58941,35.64934],[139.58891,35.64889],[139.58866,35.6488],[139.58871,35.64858],[139.58853,35.64826],[139.58843,35.648],[139.58837,35.64759],[139.58826,35.64744],[139.58814,35.64735],[139.588,35.64729],[139.58769,35.64738],[139.58754,35.64734],[139.58731,35.64681],[139.58712,35.64659],[139.587,35.64653],[139.58702,35.64649],[139.58691,35.64643],[139.58684,35.64643],[139.5867,35.64635],[139.58669,35.64628],[139.58676,35.64617],[139.58589,35.64567],[139.58566,35.64605],[139.58537,35.64593],[139.58521,35.64623],[139.58488,35.64636],[139.58464,35.6466],[139.5844,35.64676],[139.58404,35.64691],[139.58415,35.64726],[139.58413,35.64769],[139.58375,35.64834],[139.58401,35.64843],[139.5839,35.64864],[139.58367,35.64857],[139.58356,35.64856],[139.58337,35.64838],[139.58323,35.6485],[139.58278,35.64813],[139.58225,35.64841],[139.58204,35.64856],[139.58191,35.64839],[139.58196,35.64835],[139.582,35.64807],[139.58271,35.64768],[139.58267,35.6475],[139.58287,35.64728],[139.58293,35.64716],[139.58291,35.6471],[139.58227,35.64736],[139.58213,35.64735],[139.58144,35.64746],[139.58127,35.64734],[139.58105,35.64738],[139.58095,35.64736],[139.58036,35.64758],[139.58045,35.6477],[139.58026,35.64784],[139.57906,35.64816],[139.57935,35.64859],[139.5795,35.64867],[139.58003,35.6488],[139.58041,35.6491],[139.58065,35.649],[139.58087,35.64922],[139.58079,35.64946],[139.58084,35.64952],[139.58217,35.65072],[139.58425,35.65251],[139.58494,35.65165],[139.58545,35.65132],[139.58568,35.65122],[139.58682,35.65086],[139.58954,35.65049],[139.58977,35.65045],[139.58992,35.65039],[139.59002,35.6503],[139.58985,35.64985],[139.58967,35.6497],[139.58941,35.64934]]]}},{"type":"Feature","properties":{"id":"area-13208016003","name":"入間町三丁目"},"geometry":{"type":"Polygon","coordinates":[[[139.59216,35.64783],[139.59225,35.64599],[139.59038,35.64528],[139.59021,35.64569],[139.58986,35.64557],[139.59005,35.6452],[139.5895,35.64505],[139.5893,35.64516],[139.58925,35.64515],[139.58905,35.64541],[139.58886,35.64539],[139.58848,35.64578],[139.58839,35.64576],[139.58826,35.64594],[139.58806,35.64577],[139.588,35.64587],[139.58749,35.64626],[139.58753,35.64649],[139.58733,35.64653],[139.58722,35.64659],[139.58702,35.64649],[139.587,35.64653],[139.58712,35.64659],[139.58731,35.64681],[139.58754,35.64734],[139.58769,35.64738],[139.588,35.64729],[139.58814,35.64735],[139.58826,35.64744],[139.58837,35.64759],[139.58843,35.648],[139.58853,35.64826],[139.58871,35.64858],[139.58866,35.6488],[139.58891,35.64889],[139.58941,35.64934],[139.58967,35.6497],[139.58985,35.64985],[139.59002,35.6503],[139.59019,35.65013],[139.59078,35.64976],[139.59141,35.64963],[139.59219,35.64955],[139.59216,35.64783]]]}},{"type":"Feature","properties":{"id":"area-13208017001","name":"仙川町一丁目"},"geometry":{"type":"Polygon","coordinates":[[[139.5872,35.66326],[139.58762,35.66265],[139.58784,35.66273],[139.58786,35.66261],[139.58858,35.66238],[139.5886,35.66246],[139.58926,35.66225],[139.58916,35.66204],[139.58938,35.66196],[139.58935,35.66166],[139.59012,35.66122],[139.58969,35.66082],[139.58978,35.66072],[139.58969,35.65871],[139.58849,35.65916],[139.58779,35.65935],[139.58599,35.65957],[139.58396,35.66004],[139.58281,35.6602],[139.58114,35.66059],[139.58077,35.66075],[139.5817,35.6612],[139.58306,35.66176],[139.5872,35.66326]]]}},{"type":"Feature","properties":{"id":"area-13208017002","name":"仙川町二丁目"},"geometry":{"type":"Polygon","coordinates":[[[139.58211,35.66519],[139.5829,35.66513],[139.58358,35.66391],[139.58381,35.66334],[139.58407,35.66294],[139.58444,35.66225],[139.58306,35.66176],[139.5817,35.6612],[139.58077,35.66075],[139.58047,35.66091],[139.58036,35.661],[139.58004,35.66107],[139.5796,35.66144],[139.57942,35.66143],[139.5788,35.6612],[139.57805,35.66105],[139.57799,35.66127],[139.57773,35.66147],[139.57759,35.66154],[139.57761,35.66188],[139.5777,35.66212],[139.57777,35.66224],[139.57819,35.66261],[139.57967,35.66354],[139.58093,35.66449],[139.5819,35.665],[139.58209,35.66513],[139.58211,35.66519]]]}},{"type":"Feature","properties":{"id":"area-13208017003","name":"仙川町三丁目"},"geometry":{"type":"Polygon","coordinates":[[[139.58371,35.66628],[139.5843,35.66623],[139.58623,35.6659],[139.58683,35.66546],[139.58723,35.66555],[139.58754,35.66552],[139.58765,35.66547],[139.58808,35.66496],[139.58817,35.66491],[139.5882,35.66492],[139.58828,35.66469],[139.58686,35.66422],[139.58698,35.66367],[139.5872,35.66326],[139.58444,35.66225],[139.58407,35.66294],[139.58381,35.66334],[139.58358,35.66391],[139.58282,35.66525],[139.58274,35.66594],[139.583,35.66622],[139.5832,35.66626],[139.58325,35.66624],[139.58371,35.66628]]]}},{"type":"Feature","properties":{"id":"area-13208018001","name":"緑ケ丘一丁目"},"geometry":{"type":"Polygon","coordinates":[[[139.57675,35.67356],[139.57689,35.6736],[139.57752,35.67351],[139.57781,35.67354],[139.57798,35.67349],[139.57814,35.67331],[139.57848,35.67319],[139.57962,35.67226],[139.57991,35.67245],[139.58017,35.67234],[139.58045,35.67217],[139.58057,35.67178],[139.58026,35.67165],[139.5804,35.67129],[139.58043,35.67106],[139.58055,35.67067],[139.58048,35.67066],[139.58052,35.67051],[139.58108,35.67048],[139.58116,35.67017],[139.58158,35.67017],[139.58164,35.67069],[139.58246,35.67068],[139.58247,35.6706],[139.58235,35.67026],[139.58218,35.66887],[139.58204,35.66822],[139.58209,35.6678],[139.58236,35.66755],[139.58254,35.66705],[139.58257,35.66679],[139.58272,35.66629],[139.58282,35.66525],[139.58288,35.66513],[139.58211,35.66519],[139.58169,35.66526],[139.58042,35.66557],[139.57976,35.66576],[139.57918,35.66658],[139.57938,35.66666],[139.57865,35.66739],[139.57896,35.66755],[139.57925,35.66755],[139.57977,35.66777],[139.57917,35.66896],[139.57901,35.66896],[139.57894,35.66911],[139.57887,35.66915],[139.57813,35.6692],[139.57833,35.66874],[139.57838,35.66844],[139.5781,35.66832],[139.57796,35.66886],[139.57775,35.66891],[139.57806,35.67001],[139.57811,35.67037],[139.5784,35.67034],[139.57848,35.67047],[139.57912,35.67033],[139.57917,35.67041],[139.57923,35.67076],[139.57923,35.67091],[139.57916,35.67118],[139.57895,35.67166],[139.57858,35.67214],[139.57799,35.67248],[139.57755,35.67262],[139.57575,35.67292],[139.57527,35.67307],[139.57522,35.67313],[139.57613,35.67357],[139.5766,35.67355],[139.57662,35.6736],[139.57675,35.67356]]]}},{"type":"Feature","properties":{"id":"area-13208018002","name":"緑ケ丘二丁目"},"geometry":{"type":"Polygon","coordinates":[[[139.58527,35.67133],[139.58589,35.6711],[139.58626,35.67098],[139.58621,35.67086],[139.58706,35.67041],[139.58745,35.67027],[139.58765,35.67014],[139.58793,35.67003],[139.58839,35.66974],[139.58896,35.66931],[139.58901,35.66931],[139.58903,35.66883],[139.58989,35.66723],[139.59007,35.66677],[139.59017,35.66639],[139.59007,35.666],[139.5899,35.6659],[139.58919,35.66602],[139.5892,35.66591],[139.5891,35.66591],[139.58901,35.66586],[139.58892,35.66567],[139.58865,35.66553],[139.58831,35.66523],[139.58823,35.66507],[139.5882,35.66492],[139.58817,35.66491],[139.58808,35.66496],[139.58765,35.66547],[139.58754,35.66552],[139.58723,35.66555],[139.58683,35.66546],[139.58623,35.6659],[139.5843,35.66623],[139.58371,35.66628],[139.58325,35.66624],[139.5832,35.66626],[139.583,35.66622],[139.58274,35.66594],[139.58272,35.66629],[139.58257,35.66679],[139.58254,35.66705],[139.58236,35.66755],[139.58209,35.6678],[139.58204,35.66822],[139.58218,35.66887],[139.58235,35.67026],[139.58247,35.6706],[139.58418,35.6706],[139.58426,35.6708],[139.58438,35.67076],[139.58465,35.67131],[139.58523,35.67113],[139.58527,35.67133]]]}},{"type":"Feature","properties":{"id":"area-13208019001","name":"野水一丁目"},"geometry":{"type":"MultiPolygon","coordinates":[[[[139.52264,35.67763],[139.52261,35.67775],[139.52246,35.67782],[139.52206,35.67784],[139.52203,35.67794],[139.52266,35.67802],[139.52273,35.67765],[139.52264,35.67763]]],[[[139.52348,35.67823],[139.52415,35.67825],[139.5242,35.67784],[139.52341,35.67783],[139.52348,35.67823]]],[[[139.52865,35.68246],[139.52863,35.68174],[139.52876,35.68176],[139.5289,35.68152],[139.52894,35.68112],[139.52626,35.68084],[139.52616,35.68078],[139.52544,35.68062],[139.52535,35.67929],[139.52537,35.679],[139.52545,35.67899],[139.52545,35.67909],[139.52562,35.67907],[139.52561,35.67897],[139.52545,35.67896],[139.52545,35.67886],[139.52579,35.6789],[139.52578,35.67918],[139.52604,35.67906],[139.52611,35.6781],[139.52609,35.67775],[139.52456,35.67783],[139.52462,35.67797],[139.5245,35.67837],[139.52415,35.67833],[139.52411,35.67858],[139.52456,35.67863],[139.5245,35.679],[139.52454,35.67955],[139.52181,35.68019],[139.52094,35.68043],[139.52137,35.68154],[139.52067,35.68173],[139.52111,35.68293],[139.52153,35.68393],[139.52167,35.68436],[139.52187,35.68478],[139.52194,35.685],[139.52201,35.6854],[139.52232,35.68604],[139.52881,35.68245],[139.52865,35.68246]]]]}},{"type":"Feature","properties":{"id":"area-13208019002","name":"野水二丁目"},"geometry":{"type":"Polygon","coordinates":[[[139.5243,35.68748],[139.52465,35.68725],[139.52527,35.687],[139.52551,35.68683],[139.52553,35.68669],[139.52551,35.68665],[139.52521,35.68649],[139.52503,35.68621],[139.52505,35.68576],[139.52512,35.68568],[139.5255,35.68559],[139.52556,35.68555],[139.52559,35.68543],[139.52555,35.68518],[139.52571,35.68473],[139.52582,35.68463],[139.52593,35.68459],[139.52608,35.68432],[139.52632,35.68397],[139.52641,35.68394],[139.52658,35.68399],[139.52675,35.68399],[139.52732,35.6839],[139.52765,35.68389],[139.52774,35.68381],[139.52804,35.68367],[139.52808,35.68356],[139.52819,35.68341],[139.52835,35.68337],[139.52876,35.68341],[139.52889,35.68288],[139.52903,35.68267],[139.52913,35.68245],[139.52881,35.68245],[139.52232,35.68604],[139.52212,35.68563],[139.52205,35.68568],[139.52205,35.68578],[139.52216,35.68572],[139.52222,35.68584],[139.52207,35.68593],[139.52208,35.68625],[139.52167,35.6865],[139.52204,35.68727],[139.52206,35.68721],[139.52221,35.68761],[139.52307,35.68734],[139.52319,35.68751],[139.52315,35.68785],[139.52328,35.68819],[139.52378,35.68791],[139.52414,35.68783],[139.5242,35.68758],[139.5243,35.68748]]]}},{"type":"Feature","properties":{"id":"area-132080200","name":"西町"},"geometry":{"type":"Polygon","coordinates":[[[139.52261,35.67775],[139.52264,35.67763],[139.52335,35.67776],[139.52337,35.67782],[139.5242,35.67784],[139.52424,35.67738],[139.5243,35.67721],[139.52454,35.67727],[139.52446,35.67743],[139.52454,35.67744],[139.52456,35.67783],[139.52609,35.67775],[139.52592,35.67732],[139.5265,35.67718],[139.52717,35.67707],[139.52784,35.67686],[139.52784,35.67674],[139.52776,35.6766],[139.52757,35.67639],[139.52787,35.67622],[139.52772,35.67601],[139.52724,35.67611],[139.52704,35.67587],[139.52655,35.67593],[139.5264,35.67571],[139.5264,35.67553],[139.52687,35.67539],[139.52673,35.67483],[139.52669,35.67451],[139.528,35.67421],[139.52851,35.67527],[139.52881,35.67574],[139.52936,35.67574],[139.52964,35.67569],[139.52935,35.67368],[139.52961,35.67342],[139.52981,35.67226],[139.53014,35.67226],[139.53076,35.67214],[139.5304,35.67111],[139.53045,35.6711],[139.53043,35.67105],[139.53078,35.67095],[139.53077,35.67043],[139.53276,35.66991],[139.53153,35.66798],[139.53227,35.66781],[139.53336,35.6675],[139.53389,35.66739],[139.53433,35.66744],[139.53459,35.6679],[139.53447,35.66792],[139.53448,35.66794],[139.53426,35.66805],[139.53486,35.66947],[139.53502,35.66941],[139.5348,35.66883],[139.53507,35.66875],[139.5351,35.66725],[139.53485,35.66671],[139.53483,35.66668],[139.53473,35.6667],[139.53316,35.66666],[139.53316,35.66567],[139.53329,35.66511],[139.53322,35.66504],[139.5333,35.6644],[139.53328,35.66426],[139.53338,35.66357],[139.53335,35.6634],[139.53323,35.66323],[139.5328,35.66272],[139.53267,35.66223],[139.53245,35.66162],[139.5295,35.66162],[139.52895,35.66164],[139.52587,35.66307],[139.52169,35.6648],[139.52282,35.66688],[139.52265,35.66735],[139.52285,35.6674],[139.52271,35.66775],[139.52323,35.66789],[139.5231,35.66827],[139.52438,35.66857],[139.52444,35.66898],[139.52486,35.66893],[139.52526,35.66893],[139.52541,35.66916],[139.52567,35.66973],[139.52625,35.67168],[139.52638,35.67252],[139.52566,35.67458],[139.5253,35.67593],[139.52513,35.67619],[139.52453,35.6762],[139.52442,35.67629],[139.52435,35.67645],[139.52292,35.67656],[139.52297,35.67667],[139.52205,35.67695],[139.52197,35.67704],[139.52194,35.67727],[139.52197,35.67757],[139.5218,35.67765],[139.52176,35.67773],[139.52206,35.67784],[139.52246,35.67782],[139.52261,35.67775]]]}},{"type":"Feature","properties":{"id":"area-13208021001","name":"若葉町一丁目"},"geometry":{"type":"Polygon","coordinates":[[[139.58564,35.65964],[139.58666,35.65647],[139.58619,35.65632],[139.58559,35.65604],[139.58499,35.65593],[139.58471,35.65593],[139.58445,35.65613],[139.58426,35.65642],[139.58366,35.65601],[139.58339,35.65565],[139.58315,35.65564],[139.5828,35.65546],[139.5825,35.65525],[139.58222,35.65547],[139.582,35.65557],[139.58184,35.65569],[139.58134,35.65559],[139.58086,35.65662],[139.58065,35.65662],[139.58029,35.65654],[139.58018,35.65678],[139.57971,35.65745],[139.57976,35.65775],[139.57956,35.65817],[139.57926,35.65849],[139.57927,35.65884],[139.57924,35.65907],[139.57917,35.65925],[139.57897,35.65947],[139.57858,35.65975],[139.57956,35.66025],[139.58044,35.66055],[139.58084,35.66072],[139.58114,35.66059],[139.58221,35.66032],[139.58281,35.6602],[139.58396,35.66004],[139.58564,35.65964]]]}},{"type":"Feature","properties":{"id":"area-13208021002","name":"若葉町二丁目"},"geometry":{"type":"Polygon","coordinates":[[[139.59009,35.65648],[139.59018,35.65636],[139.59027,35.6564],[139.59113,35.65522],[139.58677,35.65501],[139.58684,35.6553],[139.58686,35.65559],[139.58677,35.65604],[139.58666,35.65647],[139.58618,35.6579],[139.58564,35.65964],[139.58648,35.65949],[139.58718,35.65943],[139.58779,35.65935],[139.58849,35.65916],[139.58969,35.65871],[139.58975,35.65774],[139.58985,35.65713],[139.59001,35.6568],[139.59019,35.65653],[139.59009,35.65648]]]}},{"type":"Feature","properties":{"id":"area-13208021003","name":"若葉町三丁目"},"geometry":{"type":"Polygon","coordinates":[[[139.58666,35.65647],[139.58686,35.65559],[139.58684,35.6553],[139.58677,35.65501],[139.58657,35.65463],[139.58659,35.65462],[139.58546,35.65357],[139.58217,35.65072],[139.58217,35.65097],[139.5822,35.65111],[139.58253,35.65135],[139.58272,35.65155],[139.58275,35.65171],[139.5826,35.65195],[139.58248,35.65242],[139.58254,35.65262],[139.58244,35.65308],[139.58245,35.65394],[139.58231,35.65409],[139.58191,35.65429],[139.5818,35.65438],[139.58177,35.65448],[139.58181,35.65472],[139.58176,35.65485],[139.58178,35.65486],[139.58165,35.65514],[139.58134,35.65559],[139.58184,35.65569],[139.582,35.65557],[139.58222,35.65547],[139.5825,35.65525],[139.5828,35.65546],[139.58315,35.65564],[139.58339,35.65565],[139.58366,35.65601],[139.58426,35.65642],[139.58445,35.65613],[139.58471,35.65593],[139.58499,35.65593],[139.58559,35.65604],[139.58619,35.65632],[139.58666,35.65647]]]}},{"type":"Feature","properties":{"id":"area-13208022001","name":"調布ケ丘一丁目"},"geometry":{"type":"Polygon","coordinates":[[[139.54786,35.65539],[139.54764,35.6544],[139.5431,35.6557],[139.54263,35.65579],[139.54204,35.65595],[139.54285,35.6577],[139.54314,35.65861],[139.54323,35.6591],[139.54324,35.65932],[139.54367,35.65936],[139.54457,35.65961],[139.54527,35.66013],[139.54555,35.66026],[139.54624,35.65942],[139.54677,35.65857],[139.54705,35.65822],[139.54747,35.65759],[139.5477,35.65717],[139.5478,35.65682],[139.54784,35.65646],[139.54783,35.65578],[139.54786,35.65539]]]}},{"type":"Feature","properties":{"id":"area-13208022002","name":"調布ケ丘二丁目"},"geometry":{"type":"Polygon","coordinates":[[[139.54802,35.65722],[139.54877,35.65682],[139.55049,35.65639],[139.55087,35.65633],[139.55079,35.65593],[139.55194,35.65555],[139.55196,35.6545],[139.55165,35.65328],[139.54764,35.6544],[139.54786,35.65539],[139.54783,35.65578],[139.54784,35.65646],[139.5478,35.65682],[139.5477,35.65717],[139.54802,35.65722]]]}},{"type":"Feature","properties":{"id":"area-13208022003","name":"調布ケ丘三丁目"},"geometry":{"type":"Polygon","coordinates":[[[139.55184,35.65734],[139.55193,35.65666],[139.55194,35.65555],[139.55079,35.65593],[139.55087,35.65633],[139.55049,35.65639],[139.54877,35.65682],[139.54802,35.65722],[139.5477,35.65717],[139.54747,35.65759],[139.54705,35.65822],[139.54677,35.65857],[139.54624,35.65942],[139.54555,35.66026],[139.54588,35.66046],[139.54658,35.66124],[139.54679,35.6614],[139.54711,35.66162],[139.54741,35.66173],[139.54741,35.66229],[139.54845,35.66208],[139.54898,35.662],[139.54921,35.66149],[139.54943,35.66114],[139.54975,35.66083],[139.55203,35.65941],[139.55178,35.65863],[139.55174,35.65833],[139.55177,35.6575],[139.55184,35.65734]]]}},{"type":"Feature","properties":{"id":"area-13208022004","name":"調布ケ丘四丁目"},"geometry":{"type":"Polygon","coordinates":[[[139.54301,35.6633],[139.54374,35.66314],[139.54444,35.66293],[139.54642,35.66231],[139.54741,35.66229],[139.54741,35.66173],[139.54711,35.66162],[139.54679,35.6614],[139.54658,35.66124],[139.54588,35.66046],[139.54527,35.66013],[139.54469,35.65968],[139.54457,35.65961],[139.54367,35.65936],[139.54324,35.65932],[139.54316,35.66162],[139.54303,35.66235],[139.54301,35.6633]]]}},{"type":"Feature","properties":{"id":"area-13208023001","name":"深大寺元町一丁目"},"geometry":{"type":"Polygon","coordinates":[[[139.54765,35.66323],[139.54808,35.6629],[139.54835,35.66266],[139.54859,35.66236],[139.54881,35.66229],[139.54898,35.662],[139.54845,35.66208],[139.54741,35.66229],[139.54642,35.66231],[139.54402,35.66306],[139.54301,35.6633],[139.54305,35.66492],[139.5434,35.66551],[139.54476,35.66506],[139.54509,35.66493],[139.54765,35.66323]]]}},{"type":"Feature","properties":{"id":"area-13208023002","name":"深大寺元町二丁目"},"geometry":{"type":"Polygon","coordinates":[[[139.54853,35.66683],[139.54893,35.66677],[139.54898,35.66679],[139.54929,35.66652],[139.54941,35.66646],[139.5501,35.66643],[139.55088,35.66647],[139.55135,35.66645],[139.55151,35.66642],[139.55282,35.66585],[139.55289,35.66584],[139.55296,35.66522],[139.55294,35.66505],[139.553,35.66467],[139.55299,35.6643],[139.55292,35.66372],[139.55293,35.66348],[139.55298,35.66329],[139.55038,35.66311],[139.55026,35.66268],[139.5509,35.66245],[139.55055,35.66167],[139.54982,35.66189],[139.54968,35.66191],[139.54964,35.66159],[139.54941,35.66118],[139.54921,35.66149],[139.54905,35.66188],[139.54881,35.66229],[139.54859,35.66236],[139.54835,35.66266],[139.54808,35.6629],[139.54755,35.66329],[139.54776,35.66436],[139.54803,35.66423],[139.54817,35.66443],[139.548,35.66472],[139.54803,35.66523],[139.54826,35.66591],[139.54853,35.66683]]]}},{"type":"Feature","properties":{"id":"area-13208023003","name":"深大寺元町三丁目"},"geometry":{"type":"Polygon","coordinates":[[[139.5465,35.66753],[139.54705,35.66749],[139.54789,35.66756],[139.5486,35.66711],[139.54826,35.66591],[139.54803,35.66523],[139.548,35.66472],[139.54817,35.66443],[139.54803,35.66423],[139.54776,35.66436],[139.54755,35.66329],[139.54509,35.66493],[139.54414,35.66528],[139.5434,35.66551],[139.54366,35.66594],[139.54404,35.66612],[139.54422,35.66626],[139.54433,35.66644],[139.54441,35.66701],[139.54436,35.66715],[139.5444,35.66713],[139.54452,35.66805],[139.54563,35.66772],[139.5465,35.66753]]]}},{"type":"Feature","properties":{"id":"area-13208023004","name":"深大寺元町四丁目"},"geometry":{"type":"Polygon","coordinates":[[[139.54452,35.66804],[139.5444,35.66713],[139.54436,35.66715],[139.54441,35.66701],[139.54435,35.66655],[139.54361,35.66702],[139.54312,35.66727],[139.54319,35.66734],[139.54291,35.66749],[139.54276,35.66762],[139.54251,35.66765],[139.54245,35.66772],[139.54251,35.66777],[139.54246,35.66787],[139.54234,35.66782],[139.54224,35.668],[139.54213,35.66828],[139.54205,35.66889],[139.54198,35.66917],[139.54166,35.67],[139.5417,35.67067],[139.54201,35.67276],[139.54383,35.67261],[139.54463,35.67247],[139.54445,35.67207],[139.54444,35.67193],[139.54448,35.67125],[139.54466,35.66929],[139.54448,35.66805],[139.54452,35.66804]]]}},{"type":"Feature","properties":{"id":"area-13208023005","name":"深大寺元町五丁目"},"geometry":{"type":"Polygon","coordinates":[[[139.55444,35.67054],[139.55462,35.67042],[139.55464,35.67046],[139.5548,35.67038],[139.55484,35.67028],[139.55519,35.67002],[139.55528,35.66999],[139.55505,35.66956],[139.5539,35.66773],[139.55317,35.6664],[139.55315,35.66646],[139.55289,35.66591],[139.55289,35.66584],[139.55282,35.66585],[139.55196,35.66622],[139.55164,35.66638],[139.55135,35.66645],[139.55088,35.66647],[139.5501,35.66643],[139.54941,35.66646],[139.54929,35.66652],[139.54898,35.66679],[139.54893,35.66677],[139.54853,35.66683],[139.5486,35.66711],[139.54789,35.66756],[139.54705,35.66749],[139.54675,35.6675],[139.54563,35.66772],[139.54448,35.66805],[139.54466,35.66929],[139.54448,35.67125],[139.54444,35.67193],[139.54445,35.67207],[139.54472,35.67262],[139.54646,35.67241],[139.54826,35.67208],[139.55413,35.67069],[139.55444,35.67054]]]}},{"type":"Feature","properties":{"id":"area-13208024001","name":"深大寺北町一丁目"},"geometry":{"type":"Polygon","coordinates":[[[139.54977,35.6741],[139.54826,35.67208],[139.54646,35.67241],[139.54472,35.67262],[139.54555,35.67458],[139.54604,35.67562],[139.54649,35.67672],[139.54745,35.67638],[139.54772,35.67625],[139.54927,35.67563],[139.55001,35.67528],[139.55065,35.67482],[139.54977,35.6741]]]}},{"type":"Feature","properties":{"id":"area-13208024002","name":"深大寺北町二丁目"},"geometry":{"type":"Polygon","coordinates":[[[139.55545,35.671],[139.55541,35.67037],[139.55528,35.66999],[139.55519,35.67002],[139.55484,35.67028],[139.5548,35.67038],[139.55464,35.67046],[139.55462,35.67042],[139.55444,35.67054],[139.55413,35.67069],[139.54826,35.67208],[139.54977,35.6741],[139.55065,35.67482],[139.55105,35.67506],[139.55143,35.67523],[139.55221,35.6757],[139.55335,35.67629],[139.55433,35.67688],[139.55438,35.67683],[139.55439,35.67676],[139.55424,35.67646],[139.55417,35.67626],[139.55414,35.67565],[139.55425,35.67539],[139.5543,35.6751],[139.55541,35.67128],[139.55545,35.671]]]}},{"type":"Feature","properties":{"id":"area-13208024003","name":"深大寺北町三丁目"},"geometry":{"type":"Polygon","coordinates":[[[139.55105,35.67506],[139.55065,35.67482],[139.55001,35.67528],[139.54927,35.67563],[139.54772,35.67625],[139.54745,35.67638],[139.54649,35.67672],[139.54719,35.67838],[139.54725,35.6784],[139.54864,35.67793],[139.55055,35.67713],[139.55148,35.67702],[139.55146,35.67692],[139.55321,35.67688],[139.55353,35.67641],[139.55221,35.6757],[139.55143,35.67523],[139.55105,35.67506]]]}},{"type":"Feature","properties":{"id":"area-13208024004","name":"深大寺北町四丁目"},"geometry":{"type":"Polygon","coordinates":[[[139.55457,35.68127],[139.55453,35.68083],[139.55419,35.68082],[139.55418,35.68011],[139.55431,35.67963],[139.55434,35.67902],[139.55428,35.67847],[139.55395,35.6773],[139.55394,35.67701],[139.554,35.6767],[139.55353,35.67641],[139.55281,35.67748],[139.55237,35.67787],[139.552,35.67871],[139.55134,35.67968],[139.55072,35.68069],[139.55061,35.68078],[139.55119,35.68085],[139.55224,35.68089],[139.55227,35.6812],[139.55277,35.68128],[139.55308,35.68139],[139.55457,35.68127]]]}},{"type":"Feature","properties":{"id":"area-13208024005","name":"深大寺北町五丁目"},"geometry":{"type":"Polygon","coordinates":[[[139.55281,35.67748],[139.55321,35.67688],[139.55146,35.67692],[139.55148,35.67702],[139.55055,35.67713],[139.54864,35.67793],[139.54725,35.6784],[139.54856,35.68133],[139.54947,35.68108],[139.55049,35.68084],[139.55072,35.68069],[139.55134,35.67968],[139.552,35.67871],[139.55237,35.67787],[139.55281,35.67748]]]}},{"type":"Feature","properties":{"id":"area-13208024006","name":"深大寺北町六丁目"},"geometry":{"type":"Polygon","coordinates":[[[139.54856,35.68133],[139.54725,35.6784],[139.54719,35.67838],[139.54714,35.67831],[139.54633,35.6763],[139.54459,35.67663],[139.5446,35.67665],[139.54387,35.67683],[139.54245,35.67692],[139.54249,35.67736],[139.5428,35.67881],[139.54278,35.67881],[139.54312,35.67997],[139.54313,35.68029],[139.54374,35.68023],[139.54376,35.68029],[139.54465,35.68018],[139.54475,35.68134],[139.54552,35.6814],[139.5455,35.68192],[139.54612,35.68195],[139.54613,35.68211],[139.54697,35.68208],[139.54694,35.68159],[139.54718,35.68153],[139.5485,35.68138],[139.54856,35.68133]]]}},{"type":"Feature","properties":{"id":"area-13208024007","name":"深大寺北町七丁目"},"geometry":{"type":"Polygon","coordinates":[[[139.54472,35.67262],[139.54463,35.67247],[139.54383,35.67261],[139.54201,35.67276],[139.54219,35.67441],[139.54233,35.67544],[139.54245,35.67692],[139.54387,35.67683],[139.5446,35.67665],[139.54459,35.67663],[139.54633,35.6763],[139.54604,35.67562],[139.54555,35.67458],[139.54472,35.67262]]]}},{"type":"Feature","properties":{"id":"area-13208025001","name":"深大寺東町一丁目"},"geometry":{"type":"Polygon","coordinates":[[[139.55821,35.67245],[139.5585,35.67192],[139.55869,35.67164],[139.55891,35.67138],[139.55968,35.67078],[139.55984,35.67047],[139.55978,35.67022],[139.56005,35.66984],[139.56021,35.6697],[139.55994,35.66944],[139.55945,35.66915],[139.55854,35.66837],[139.55832,35.66797],[139.55649,35.66914],[139.55535,35.66994],[139.55578,35.6705],[139.55584,35.67054],[139.55585,35.67059],[139.55658,35.67174],[139.55676,35.67192],[139.55723,35.67216],[139.55821,35.67245]]]}},{"type":"Feature","properties":{"id":"area-13208025002","name":"深大寺東町二丁目"},"geometry":{"type":"Polygon","coordinates":[[[139.56217,35.66686],[139.56226,35.66575],[139.56162,35.66591],[139.56132,35.66602],[139.56113,35.66613],[139.55832,35.66797],[139.55844,35.66821],[139.55854,35.66837],[139.55895,35.66874],[139.55945,35.66915],[139.55994,35.66944],[139.56021,35.6697],[139.56046,35.66947],[139.56062,35.6694],[139.56125,35.66929],[139.56187,35.66901],[139.56241,35.66886],[139.56217,35.66686]]]}},{"type":"Feature","properties":{"id":"area-13208025003","name":"深大寺東町三丁目"},"geometry":{"type":"Polygon","coordinates":[[[139.56451,35.67054],[139.56452,35.66898],[139.56462,35.66861],[139.56487,35.66806],[139.56488,35.66782],[139.56582,35.66478],[139.56494,35.66527],[139.56462,35.66538],[139.56327,35.66559],[139.5629,35.66559],[139.56276,35.66555],[139.56275,35.66563],[139.56226,35.66575],[139.56217,35.66686],[139.56236,35.66865],[139.56258,35.66939],[139.5628,35.66974],[139.56286,35.66992],[139.56289,35.66991],[139.56323,35.67039],[139.56319,35.67038],[139.56376,35.67091],[139.56393,35.67102],[139.56444,35.67146],[139.56454,35.67149],[139.56451,35.67054]]]}},{"type":"Feature","properties":{"id":"area-13208025004","name":"深大寺東町四丁目"},"geometry":{"type":"Polygon","coordinates":[[[139.56419,35.67341],[139.56443,35.67229],[139.56445,35.67196],[139.56454,35.67149],[139.56444,35.67146],[139.56393,35.67102],[139.56376,35.67091],[139.56319,35.67038],[139.56323,35.67039],[139.56289,35.66991],[139.56286,35.66992],[139.5628,35.66974],[139.56258,35.66939],[139.56241,35.66886],[139.56187,35.66901],[139.56125,35.66929],[139.56062,35.6694],[139.56046,35.66947],[139.56005,35.66984],[139.55978,35.67022],[139.55984,35.67047],[139.55968,35.67078],[139.55891,35.67138],[139.55869,35.67164],[139.5585,35.67192],[139.55821,35.67245],[139.55907,35.67272],[139.55941,35.67287],[139.55994,35.67299],[139.56017,35.67299],[139.56076,35.67291],[139.56122,35.67296],[139.56168,35.67312],[139.56181,35.6732],[139.56178,35.6745],[139.56373,35.67456],[139.56382,35.67423],[139.56419,35.67341]]]}},{"type":"Feature","properties":{"id":"area-13208025005","name":"深大寺東町五丁目"},"geometry":{"type":"Polygon","coordinates":[[[139.55844,35.6725],[139.55713,35.67212],[139.55676,35.67192],[139.55664,35.67181],[139.55598,35.6708],[139.55585,35.67059],[139.55584,35.67054],[139.55578,35.6705],[139.55535,35.66994],[139.55528,35.66999],[139.55541,35.67037],[139.55544,35.67057],[139.55545,35.671],[139.55541,35.67128],[139.5543,35.6751],[139.55425,35.67539],[139.55414,35.67565],[139.55417,35.67626],[139.55424,35.67646],[139.55439,35.67676],[139.5547,35.67651],[139.55524,35.67615],[139.55576,35.6757],[139.55592,35.67549],[139.5561,35.67509],[139.55672,35.67434],[139.55755,35.67356],[139.55777,35.67343],[139.55797,35.67316],[139.55809,35.6731],[139.55842,35.67276],[139.55848,35.67263],[139.55849,35.67253],[139.55844,35.6725]]]}},{"type":"Feature","properties":{"id":"area-13208025006","name":"深大寺東町六丁目"},"geometry":{"type":"Polygon","coordinates":[[[139.56168,35.67312],[139.56122,35.67296],[139.56076,35.67291],[139.56017,35.67299],[139.55994,35.67299],[139.55941,35.67287],[139.55907,35.67272],[139.55849,35.67253],[139.55848,35.67263],[139.55842,35.67276],[139.55809,35.6731],[139.55797,35.67316],[139.55777,35.67343],[139.55755,35.67356],[139.55731,35.67381],[139.55703,35.67404],[139.55672,35.67434],[139.55636,35.67477],[139.55605,35.67518],[139.55592,35.67549],[139.55576,35.6757],[139.55524,35.67615],[139.5547,35.67651],[139.55439,35.67676],[139.55438,35.67683],[139.55464,35.6771],[139.55575,35.67799],[139.55581,35.67801],[139.55617,35.67838],[139.56168,35.67312]]]}},{"type":"Feature","properties":{"id":"area-13208025007","name":"深大寺東町七丁目"},"geometry":{"type":"Polygon","coordinates":[[[139.56101,35.68278],[139.56146,35.68126],[139.56239,35.67841],[139.56234,35.67816],[139.5625,35.67759],[139.56285,35.67666],[139.56326,35.6758],[139.56373,35.67456],[139.56178,35.6745],[139.56181,35.6732],[139.56168,35.67312],[139.55617,35.67838],[139.55741,35.67984],[139.5576,35.68012],[139.55777,35.68065],[139.55811,35.6824],[139.55808,35.6824],[139.5581,35.6825],[139.55831,35.68249],[139.55836,35.68313],[139.55865,35.68313],[139.55866,35.6828],[139.56101,35.68278]]]}},{"type":"Feature","properties":{"id":"area-13208025008","name":"深大寺東町八丁目"},"geometry":{"type":"Polygon","coordinates":[[[139.55811,35.6824],[139.5577,35.68043],[139.5576,35.68012],[139.55741,35.67984],[139.55671,35.679],[139.55581,35.67801],[139.55575,35.67799],[139.55464,35.6771],[139.55438,35.67683],[139.55433,35.67688],[139.554,35.6767],[139.55394,35.67701],[139.55395,35.6773],[139.55428,35.67847],[139.55434,35.67902],[139.55431,35.67963],[139.55418,35.68011],[139.55419,35.68082],[139.55453,35.68083],[139.55457,35.68127],[139.55308,35.68139],[139.55342,35.68151],[139.55402,35.68182],[139.55427,35.68191],[139.55439,35.6819],[139.55439,35.68196],[139.55478,35.6821],[139.55679,35.68229],[139.55692,35.6827],[139.55747,35.68265],[139.55747,35.6826],[139.5581,35.6825],[139.55808,35.6824],[139.55811,35.6824]]]}},{"type":"Feature","properties":{"id":"area-13208026001","name":"深大寺南町一丁目"},"geometry":{"type":"Polygon","coordinates":[[[139.55579,35.66014],[139.55497,35.66015],[139.55525,35.66069],[139.55503,35.66117],[139.55487,35.66141],[139.55474,35.66154],[139.5545,35.66161],[139.55403,35.66189],[139.55309,35.66257],[139.55297,35.66335],[139.55395,35.66344],[139.55491,35.66359],[139.55533,35.66367],[139.55581,35.66385],[139.55681,35.66403],[139.55736,35.66416],[139.55702,35.66387],[139.55687,35.6637],[139.55676,35.66355],[139.55668,35.66335],[139.55668,35.66308],[139.55676,35.66265],[139.55673,35.66252],[139.55673,35.66183],[139.55688,35.66178],[139.55691,35.66095],[139.55678,35.66029],[139.55579,35.66014]]]}},{"type":"Feature","properties":{"id":"area-13208026002","name":"深大寺南町二丁目"},"geometry":{"type":"Polygon","coordinates":[[[139.55904,35.66146],[139.55868,35.66064],[139.55819,35.66074],[139.5577,35.66079],[139.55762,35.66021],[139.55678,35.66029],[139.55691,35.66095],[139.55688,35.66178],[139.55673,35.66183],[139.55673,35.66252],[139.55676,35.66265],[139.55668,35.66308],[139.55668,35.66335],[139.55676,35.66355],[139.55687,35.6637],[139.55719,35.66402],[139.55829,35.66394],[139.5593,35.66378],[139.55912,35.66264],[139.55921,35.66229],[139.55904,35.66188],[139.55904,35.66146]]]}},{"type":"Feature","properties":{"id":"area-13208026003","name":"深大寺南町三丁目"},"geometry":{"type":"Polygon","coordinates":[[[139.56234,35.66547],[139.56241,35.66337],[139.56247,35.66324],[139.56038,35.66367],[139.55934,35.66384],[139.5593,35.66378],[139.55829,35.66394],[139.55719,35.66402],[139.55736,35.66416],[139.55808,35.66435],[139.56027,35.66509],[139.56184,35.66585],[139.56275,35.66563],[139.56276,35.66555],[139.56234,35.66547]]]}},{"type":"Feature","properties":{"id":"area-13208026004","name":"深大寺南町四丁目"},"geometry":{"type":"Polygon","coordinates":[[[139.55558,35.66651],[139.55643,35.66633],[139.5567,35.6663],[139.55701,35.6662],[139.55757,35.66618],[139.55818,35.666],[139.56037,35.66557],[139.56097,35.66541],[139.56027,35.66509],[139.55928,35.66474],[139.55808,35.66435],[139.55736,35.66416],[139.55681,35.66403],[139.55581,35.66385],[139.55533,35.66367],[139.55491,35.66359],[139.55395,35.66344],[139.55297,35.66335],[139.55293,35.66348],[139.55292,35.66372],[139.55299,35.6643],[139.553,35.66467],[139.55294,35.66505],[139.55296,35.66522],[139.55289,35.66591],[139.55315,35.66646],[139.55317,35.6664],[139.55363,35.66723],[139.55498,35.66677],[139.55558,35.66651]]]}},{"type":"Feature","properties":{"id":"area-13208026005","name":"深大寺南町五丁目"},"geometry":{"type":"Polygon","coordinates":[[[139.55854,35.66784],[139.56132,35.66602],[139.56185,35.66583],[139.56097,35.66541],[139.56037,35.66557],[139.55818,35.666],[139.55757,35.66618],[139.55701,35.6662],[139.5567,35.6663],[139.55625,35.66636],[139.55558,35.66651],[139.55498,35.66677],[139.55363,35.66723],[139.5539,35.66773],[139.55505,35.66956],[139.55528,35.66999],[139.55649,35.66914],[139.55854,35.66784]]]}},{"type":"Feature","properties":{"id":"area-13208027001","name":"八雲台一丁目"},"geometry":{"type":"Polygon","coordinates":[[[139.55381,35.65579],[139.55386,35.65579],[139.55386,35.65582],[139.55407,35.65573],[139.55431,35.65568],[139.555,35.65573],[139.55601,35.65565],[139.55677,35.65536],[139.55713,35.6553],[139.55708,35.65496],[139.5564,35.65367],[139.55623,35.65308],[139.55619,35.65275],[139.55165,35.65323],[139.55165,35.65329],[139.55196,35.6545],[139.55192,35.65666],[139.55235,35.65652],[139.55314,35.65618],[139.55381,35.65579]]]}},{"type":"Feature","properties":{"id":"area-13208027002","name":"八雲台二丁目"},"geometry":{"type":"Polygon","coordinates":[[[139.55766,35.65544],[139.55858,35.65497],[139.55902,35.65486],[139.55992,35.65475],[139.55997,35.65461],[139.56037,35.65454],[139.56046,35.65467],[139.56113,35.65452],[139.56135,35.65444],[139.56218,35.65393],[139.5626,35.65341],[139.56173,35.65297],[139.56045,35.65239],[139.56031,35.65256],[139.55958,35.65249],[139.55906,35.6525],[139.55619,35.65275],[139.55623,35.65308],[139.5564,35.65367],[139.55708,35.65496],[139.55713,35.6553],[139.55719,35.65547],[139.55736,35.65564],[139.55766,35.65544]]]}}]}