{"type":"FeatureCollection","features":[{"type":"Feature","properties":{"id":"area-132110010","name":"中島町"},"geometry":{"type":"Polygon","coordinates":[[[139.43531,35.73209],[139.43432,35.72908],[139.43426,35.72882],[139.43407,35.72721],[139.43405,35.72721],[139.43402,35.72724],[139.42357,35.73028],[139.42277,35.73048],[139.42294,35.73056],[139.42672,35.73008],[139.42856,35.7299],[139.43559,35.7332],[139.43531,35.73209]]]}},{"type":"Feature","properties":{"id":"area-13211002001","name":"上水新町一丁目"},"geometry":{"type":"Polygon","coordinates":[[[139.44518,35.72422],[139.4447,35.72315],[139.43556,35.72477],[139.43381,35.72697],[139.43391,35.72709],[139.43403,35.72715],[139.43407,35.72721],[139.44518,35.72422]]]}},{"type":"Feature","properties":{"id":"area-13211002002","name":"上水新町二丁目"},"geometry":{"type":"Polygon","coordinates":[[[139.44716,35.72375],[139.44817,35.72358],[139.44877,35.72351],[139.45192,35.72324],[139.45441,35.72292],[139.45675,35.72257],[139.45722,35.72246],[139.45665,35.72094],[139.45521,35.72123],[139.45262,35.72168],[139.45222,35.72171],[139.45132,35.72188],[139.45136,35.72199],[139.45105,35.72206],[139.45109,35.72217],[139.45079,35.72223],[139.45075,35.72213],[139.45095,35.72209],[139.4509,35.72195],[139.44893,35.72231],[139.44895,35.72238],[139.44875,35.72243],[139.44836,35.72247],[139.44834,35.72244],[139.44615,35.72291],[139.4447,35.72315],[139.44518,35.72422],[139.44716,35.72375]]]}},{"type":"Feature","properties":{"id":"area-13211002003","name":"上水新町三丁目"},"geometry":{"type":"Polygon","coordinates":[[[139.46084,35.7218],[139.46018,35.71783],[139.45846,35.71815],[139.458,35.7207],[139.45665,35.72094],[139.45722,35.72246],[139.46084,35.7218]]]}},{"type":"Feature","properties":{"id":"area-132110030","name":"たかの台"},"geometry":{"type":"Polygon","coordinates":[[[139.46155,35.72564],[139.46091,35.72203],[139.46084,35.7218],[139.45777,35.72235],[139.45675,35.72257],[139.45441,35.72292],[139.45192,35.72324],[139.44898,35.72348],[139.4482,35.72358],[139.44831,35.72362],[139.45455,35.72444],[139.45755,35.72493],[139.46064,35.72557],[139.46155,35.72564]]]}},{"type":"Feature","properties":{"id":"area-13211004010","name":"小川町一丁目"},"geometry":{"type":"Polygon","coordinates":[[[139.43686,35.73381],[139.44447,35.73341],[139.44422,35.7318],[139.44668,35.73151],[139.44714,35.73143],[139.44123,35.73027],[139.44001,35.7299],[139.43707,35.72873],[139.43408,35.72733],[139.43422,35.72853],[139.43432,35.72908],[139.43531,35.73209],[139.43559,35.7332],[139.43562,35.73325],[139.43599,35.73339],[139.43686,35.73381]]]}},{"type":"Feature","properties":{"id":"area-13211004011","name":"小川町一丁目"},"geometry":{"type":"MultiPolygon","coordinates":[[[[139.44966,35.72896],[139.44941,35.72694],[139.44961,35.7267],[139.44959,35.72642],[139.44945,35.7251],[139.44922,35.72374],[139.44831,35.72362],[139.44817,35.72358],[139.44716,35.72375],[139.44575,35.72408],[139.44443,35.72444],[139.44477,35.72564],[139.44502,35.72559],[139.44508,35.72546],[139.44529,35.72625],[139.44559,35.72621],[139.44599,35.72762],[139.44611,35.72762],[139.44632,35.72834],[139.44621,35.72836],[139.44622,35.72848],[139.44635,35.7287],[139.44688,35.73057],[139.44759,35.73048],[139.44776,35.73141],[139.44989,35.73132],[139.44966,35.72896]],[[139.44871,35.72886],[139.44877,35.72947],[139.44803,35.72955],[139.44792,35.72896],[139.44871,35.72886]]],[[[139.44574,35.73114],[139.44522,35.72921],[139.44398,35.72926],[139.44388,35.72864],[139.44361,35.72848],[139.44375,35.72798],[139.44331,35.72569],[139.443,35.72573],[139.44271,35.7249],[139.43407,35.72721],[139.43408,35.72733],[139.43412,35.72737],[139.43707,35.72873],[139.44001,35.7299],[139.44123,35.73027],[139.44269,35.73057],[139.44574,35.73114]]]]}},{"type":"Feature","properties":{"id":"area-13211004012","name":"小川町一丁目"},"geometry":{"type":"Polygon","coordinates":[[[139.46304,35.73469],[139.46249,35.7314],[139.46495,35.73109],[139.46481,35.73019],[139.45823,35.73071],[139.45824,35.73074],[139.45583,35.73093],[139.4515,35.73124],[139.4515,35.73126],[139.44798,35.73139],[139.44711,35.73146],[139.44714,35.73143],[139.44668,35.73151],[139.44422,35.7318],[139.44447,35.73341],[139.44773,35.73323],[139.45925,35.73269],[139.46025,35.73269],[139.46072,35.73277],[139.46122,35.73293],[139.46148,35.73304],[139.46216,35.73349],[139.46253,35.73389],[139.46272,35.7342],[139.46285,35.73458],[139.46292,35.73501],[139.46297,35.73494],[139.46304,35.73469]]]}},{"type":"Feature","properties":{"id":"area-13211004013","name":"小川町一丁目"},"geometry":{"type":"Polygon","coordinates":[[[139.45455,35.72444],[139.44922,35.72374],[139.44945,35.7251],[139.44959,35.72642],[139.44961,35.7267],[139.44941,35.72694],[139.44964,35.72874],[139.44989,35.73132],[139.4515,35.73126],[139.4515,35.73124],[139.45824,35.73074],[139.45757,35.72493],[139.45455,35.72444]]]}},{"type":"Feature","properties":{"id":"area-13211004014","name":"小川町一丁目"},"geometry":{"type":"MultiPolygon","coordinates":[[[[139.45823,35.73071],[139.46481,35.73019],[139.46483,35.73025],[139.46574,35.73017],[139.4657,35.72936],[139.4654,35.72593],[139.46543,35.72593],[139.46494,35.72588],[139.46396,35.72581],[139.46325,35.72581],[139.46064,35.72557],[139.45757,35.72493],[139.45823,35.73071]]],[[[139.44759,35.73048],[139.44688,35.73057],[139.44635,35.7287],[139.44622,35.72848],[139.44621,35.72836],[139.44632,35.72834],[139.44611,35.72762],[139.44599,35.72762],[139.44559,35.72621],[139.44529,35.72625],[139.44508,35.72546],[139.44502,35.72559],[139.44477,35.72564],[139.44443,35.72444],[139.44271,35.7249],[139.443,35.72573],[139.44331,35.72569],[139.44375,35.72798],[139.44361,35.72848],[139.44388,35.72864],[139.44398,35.72926],[139.44522,35.72921],[139.44574,35.73114],[139.44714,35.73143],[139.44711,35.73146],[139.44776,35.73141],[139.44759,35.73048]]],[[[139.44871,35.72886],[139.44792,35.72896],[139.44803,35.72955],[139.44877,35.72947],[139.44871,35.72886]]]]}},{"type":"Feature","properties":{"id":"area-13211004020","name":"小川町二丁目"},"geometry":{"type":"Polygon","coordinates":[[[139.47878,35.73258],[139.47887,35.73058],[139.47648,35.7305],[139.471,35.73026],[139.46575,35.73011],[139.46574,35.73017],[139.46483,35.73025],[139.46493,35.73109],[139.46517,35.7325],[139.47039,35.73234],[139.47526,35.73225],[139.47561,35.73226],[139.47688,35.73241],[139.47878,35.73258]]]}},{"type":"Feature","properties":{"id":"area-13211004021","name":"小川町二丁目"},"geometry":{"type":"Polygon","coordinates":[[[139.47951,35.73065],[139.48006,35.72756],[139.47706,35.72728],[139.47494,35.72692],[139.47078,35.72648],[139.4687,35.72612],[139.4654,35.72593],[139.46575,35.73011],[139.471,35.73026],[139.47648,35.7305],[139.47877,35.73057],[139.47887,35.73058],[139.47887,35.73063],[139.47938,35.73065],[139.47951,35.73065]]]}},{"type":"Feature","properties":{"id":"area-13211005001","name":"栄町一丁目"},"geometry":{"type":"Polygon","coordinates":[[[139.44475,35.73518],[139.44447,35.73341],[139.43686,35.73381],[139.43766,35.73424],[139.43974,35.73529],[139.44214,35.73637],[139.44392,35.73548],[139.44475,35.73518]]]}},{"type":"Feature","properties":{"id":"area-13211005002","name":"栄町二丁目"},"geometry":{"type":"Polygon","coordinates":[[[139.45116,35.73489],[139.45194,35.7348],[139.45297,35.73474],[139.45275,35.73301],[139.44773,35.73323],[139.44447,35.73341],[139.44475,35.73518],[139.44562,35.73491],[139.44606,35.73487],[139.44657,35.73489],[139.44699,35.73498],[139.44828,35.73557],[139.45116,35.73489]]]}},{"type":"Feature","properties":{"id":"area-13211005003","name":"栄町三丁目"},"geometry":{"type":"Polygon","coordinates":[[[139.45299,35.7349],[139.45297,35.73474],[139.45194,35.7348],[139.45116,35.73489],[139.44828,35.73557],[139.45316,35.73775],[139.45315,35.73679],[139.45295,35.73492],[139.45299,35.7349]]]}},{"type":"Feature","properties":{"id":"area-13211006001","name":"小川西町一丁目"},"geometry":{"type":"Polygon","coordinates":[[[139.45495,35.73354],[139.45491,35.73289],[139.45275,35.73301],[139.45299,35.7349],[139.45295,35.73492],[139.45315,35.73679],[139.45316,35.73775],[139.45531,35.73873],[139.45527,35.73709],[139.45518,35.73565],[139.45495,35.73354]]]}},{"type":"Feature","properties":{"id":"area-13211006002","name":"小川西町二丁目"},"geometry":{"type":"Polygon","coordinates":[[[139.46191,35.74007],[139.46141,35.73671],[139.45525,35.73709],[139.45531,35.73873],[139.459,35.74038],[139.46191,35.74007]]]}},{"type":"Feature","properties":{"id":"area-13211006003","name":"小川西町三丁目"},"geometry":{"type":"Polygon","coordinates":[[[139.46394,35.73989],[139.46191,35.74007],[139.459,35.74038],[139.46162,35.74159],[139.46324,35.74255],[139.46446,35.7431],[139.46394,35.73989]]]}},{"type":"Feature","properties":{"id":"area-13211006004","name":"小川西町四丁目"},"geometry":{"type":"Polygon","coordinates":[[[139.46191,35.74007],[139.46394,35.73989],[139.4639,35.73964],[139.46352,35.7388],[139.46345,35.73874],[139.46319,35.73715],[139.46303,35.73573],[139.46281,35.73443],[139.46272,35.7342],[139.46253,35.73389],[139.46216,35.73349],[139.46148,35.73304],[139.46088,35.73282],[139.46152,35.73748],[139.46191,35.74007]]]}},{"type":"Feature","properties":{"id":"area-13211006005","name":"小川西町五丁目"},"geometry":{"type":"Polygon","coordinates":[[[139.46025,35.73269],[139.45925,35.73269],[139.45491,35.73289],[139.45495,35.73354],[139.45518,35.73565],[139.45527,35.73709],[139.46141,35.73671],[139.4613,35.73574],[139.46088,35.73282],[139.46025,35.73269]]]}},{"type":"Feature","properties":{"id":"area-132110081","name":"小川東町"},"geometry":{"type":"Polygon","coordinates":[[[139.47788,35.73735],[139.47789,35.73733],[139.47803,35.73733],[139.47803,35.73741],[139.47814,35.73741],[139.47815,35.73732],[139.47823,35.73731],[139.47824,35.7371],[139.479,35.7372],[139.47907,35.7358],[139.47878,35.73258],[139.47663,35.73238],[139.47674,35.73447],[139.47682,35.73447],[139.47694,35.73567],[139.47707,35.73623],[139.47714,35.73648],[139.4775,35.73736],[139.4776,35.73735],[139.47762,35.73742],[139.47777,35.73742],[139.47777,35.73736],[139.47788,35.73735]]]}},{"type":"Feature","properties":{"id":"area-13211008201","name":"小川東町一丁目"},"geometry":{"type":"Polygon","coordinates":[[[139.46658,35.74211],[139.46581,35.73715],[139.46517,35.7325],[139.46493,35.73109],[139.46249,35.7314],[139.46304,35.73469],[139.46297,35.73494],[139.46292,35.73501],[139.46319,35.73715],[139.46345,35.73874],[139.46352,35.7388],[139.4639,35.73964],[139.46409,35.74085],[139.46419,35.74085],[139.46424,35.74102],[139.46446,35.74139],[139.46472,35.74168],[139.46512,35.74194],[139.46538,35.74206],[139.46563,35.74211],[139.46594,35.74214],[139.46658,35.74211]]]}},{"type":"Feature","properties":{"id":"area-13211008202","name":"小川東町二丁目"},"geometry":{"type":"Polygon","coordinates":[[[139.46694,35.74392],[139.46762,35.74392],[139.4678,35.74389],[139.47035,35.74315],[139.4699,35.74254],[139.46966,35.74195],[139.46719,35.74213],[139.46718,35.74206],[139.46594,35.74214],[139.46563,35.74211],[139.46538,35.74206],[139.46512,35.74194],[139.46472,35.74168],[139.46446,35.74139],[139.46424,35.74102],[139.46419,35.74085],[139.46409,35.74085],[139.46446,35.7431],[139.46697,35.74417],[139.46694,35.74392]]]}},{"type":"Feature","properties":{"id":"area-13211008203","name":"小川東町三丁目"},"geometry":{"type":"Polygon","coordinates":[[[139.47286,35.7423],[139.4747,35.74107],[139.47455,35.74043],[139.47404,35.74066],[139.47285,35.74078],[139.4728,35.73784],[139.4738,35.73752],[139.47349,35.73559],[139.47344,35.73413],[139.46543,35.73432],[139.46581,35.73715],[139.46658,35.74211],[139.46718,35.74206],[139.46719,35.74213],[139.46966,35.74195],[139.4699,35.74254],[139.47035,35.74315],[139.472,35.74265],[139.47286,35.7423]]]}},{"type":"Feature","properties":{"id":"area-13211008204","name":"小川東町四丁目"},"geometry":{"type":"Polygon","coordinates":[[[139.47471,35.74099],[139.47512,35.74081],[139.4761,35.74053],[139.47713,35.7401],[139.47754,35.73999],[139.47776,35.73988],[139.47783,35.73972],[139.47789,35.73951],[139.47788,35.73928],[139.47756,35.73749],[139.47714,35.73648],[139.47707,35.73623],[139.47694,35.73567],[139.47682,35.73447],[139.47674,35.73447],[139.47671,35.73399],[139.47635,35.734],[139.47633,35.73407],[139.47344,35.73413],[139.47349,35.73559],[139.4738,35.73752],[139.4728,35.73784],[139.47285,35.74078],[139.47404,35.74066],[139.47455,35.74043],[139.4747,35.74105],[139.47474,35.74103],[139.47471,35.74099]]]}},{"type":"Feature","properties":{"id":"area-13211008205","name":"小川東町五丁目"},"geometry":{"type":"Polygon","coordinates":[[[139.47413,35.7341],[139.47476,35.73412],[139.47633,35.73407],[139.47635,35.734],[139.47671,35.73399],[139.47663,35.73238],[139.47561,35.73226],[139.47464,35.73225],[139.46684,35.73244],[139.46687,35.73246],[139.46516,35.7325],[139.46543,35.73432],[139.47413,35.7341]]]}},{"type":"Feature","properties":{"id":"area-13211009001","name":"上水本町一丁目"},"geometry":{"type":"Polygon","coordinates":[[[139.4652,35.71705],[139.46476,35.71699],[139.4635,35.71725],[139.46018,35.71783],[139.46086,35.72183],[139.46221,35.72155],[139.46485,35.72086],[139.46484,35.71969],[139.4652,35.71705]]]}},{"type":"Feature","properties":{"id":"area-13211009002","name":"上水本町二丁目"},"geometry":{"type":"Polygon","coordinates":[[[139.47078,35.71768],[139.46515,35.71733],[139.46484,35.71969],[139.46485,35.72086],[139.46749,35.72003],[139.47132,35.71869],[139.47394,35.71785],[139.47271,35.71776],[139.47078,35.71768]]]}},{"type":"Feature","properties":{"id":"area-13211009003","name":"上水本町三丁目"},"geometry":{"type":"Polygon","coordinates":[[[139.47271,35.71776],[139.47261,35.71507],[139.47234,35.71508],[139.47235,35.71539],[139.47114,35.71563],[139.47106,35.71588],[139.4682,35.7164],[139.46821,35.71655],[139.46772,35.71661],[139.46778,35.71655],[139.46768,35.7165],[139.46771,35.71646],[139.46761,35.71639],[139.46749,35.71653],[139.46523,35.71694],[139.46515,35.71733],[139.47078,35.71768],[139.47271,35.71776]]]}},{"type":"Feature","properties":{"id":"area-13211009004","name":"上水本町四丁目"},"geometry":{"type":"Polygon","coordinates":[[[139.48026,35.71648],[139.47977,35.71465],[139.47746,35.71502],[139.47666,35.71515],[139.47626,35.71532],[139.47526,35.71558],[139.47419,35.71569],[139.47419,35.71581],[139.47264,35.71597],[139.47271,35.71777],[139.47394,35.71785],[139.47507,35.71761],[139.47643,35.71747],[139.48025,35.7167],[139.48026,35.71648]]]}},{"type":"Feature","properties":{"id":"area-13211009005","name":"上水本町五丁目"},"geometry":{"type":"Polygon","coordinates":[[[139.47842,35.70947],[139.47818,35.7087],[139.47645,35.70913],[139.47639,35.70893],[139.47518,35.70949],[139.47666,35.71515],[139.47977,35.71465],[139.47842,35.70947]]]}},{"type":"Feature","properties":{"id":"area-13211009006","name":"上水本町六丁目"},"geometry":{"type":"Polygon","coordinates":[[[139.47666,35.71515],[139.47518,35.70949],[139.47341,35.71032],[139.47222,35.71079],[139.47234,35.71508],[139.47261,35.71507],[139.47264,35.71597],[139.47419,35.71581],[139.47419,35.71569],[139.47526,35.71558],[139.47626,35.71532],[139.47666,35.71515]]]}},{"type":"Feature","properties":{"id":"area-13211010001","name":"上水南町一丁目"},"geometry":{"type":"Polygon","coordinates":[[[139.48519,35.71564],[139.48483,35.7137],[139.48477,35.7136],[139.48451,35.71222],[139.48393,35.7123],[139.48365,35.71075],[139.48354,35.71088],[139.48343,35.71093],[139.4834,35.711],[139.48323,35.71113],[139.48324,35.71117],[139.4832,35.71118],[139.48298,35.71142],[139.48299,35.71152],[139.48284,35.71154],[139.48287,35.71169],[139.48273,35.7117],[139.48276,35.71182],[139.48256,35.71185],[139.48257,35.71195],[139.48242,35.71198],[139.48212,35.71231],[139.48218,35.71248],[139.48189,35.71253],[139.48192,35.71268],[139.48207,35.71264],[139.4821,35.71278],[139.48156,35.71288],[139.48133,35.71311],[139.48135,35.7132],[139.48122,35.71322],[139.48069,35.7138],[139.48071,35.71388],[139.48061,35.7139],[139.48064,35.71402],[139.48024,35.7141],[139.48031,35.71438],[139.48024,35.7144],[139.48022,35.71433],[139.48008,35.71436],[139.47955,35.71254],[139.47951,35.71255],[139.47942,35.71223],[139.47945,35.71222],[139.47841,35.70865],[139.47818,35.7087],[139.47842,35.70947],[139.48026,35.71648],[139.48025,35.7167],[139.48519,35.71564]]]}},{"type":"Feature","properties":{"id":"area-13211010002","name":"上水南町二丁目"},"geometry":{"type":"Polygon","coordinates":[[[139.48784,35.71465],[139.48697,35.70884],[139.48689,35.70856],[139.48564,35.70864],[139.48541,35.70887],[139.48551,35.70886],[139.48555,35.70911],[139.4854,35.70914],[139.48537,35.70902],[139.48523,35.70905],[139.48527,35.70916],[139.48509,35.70923],[139.48514,35.70934],[139.48496,35.70937],[139.48456,35.70979],[139.4846,35.70992],[139.48447,35.70994],[139.48448,35.70999],[139.48438,35.71001],[139.48365,35.71075],[139.48393,35.7123],[139.48451,35.71222],[139.48477,35.7136],[139.48483,35.7137],[139.48519,35.71564],[139.48795,35.71503],[139.48784,35.71465]]]}},{"type":"Feature","properties":{"id":"area-13211010003","name":"上水南町三丁目"},"geometry":{"type":"Polygon","coordinates":[[[139.49617,35.71349],[139.49572,35.71062],[139.48745,35.7119],[139.48784,35.71465],[139.48795,35.71503],[139.49095,35.7144],[139.49617,35.71349]]]}},{"type":"Feature","properties":{"id":"area-13211010004","name":"上水南町四丁目"},"geometry":{"type":"Polygon","coordinates":[[[139.49575,35.71061],[139.49564,35.71009],[139.49586,35.71006],[139.49583,35.70993],[139.49566,35.70995],[139.49563,35.70983],[139.49559,35.70984],[139.49557,35.70976],[139.49311,35.71025],[139.49286,35.7089],[139.49208,35.70905],[139.49194,35.70824],[139.48689,35.70856],[139.48697,35.70884],[139.48745,35.7119],[139.49575,35.71061]]]}},{"type":"Feature","properties":{"id":"area-13211011001","name":"喜平町一丁目"},"geometry":{"type":"Polygon","coordinates":[[[139.48414,35.71722],[139.48624,35.71653],[139.49129,35.71712],[139.49121,35.71435],[139.48038,35.71667],[139.48039,35.71739],[139.48217,35.71743],[139.48414,35.71722]]]}},{"type":"Feature","properties":{"id":"area-13211011002","name":"喜平町二丁目"},"geometry":{"type":"Polygon","coordinates":[[[139.48804,35.72193],[139.48837,35.71678],[139.48624,35.71653],[139.48414,35.71722],[139.48217,35.71743],[139.48039,35.71739],[139.48021,35.72006],[139.48005,35.72163],[139.48804,35.72193]]]}},{"type":"Feature","properties":{"id":"area-13211011003","name":"喜平町三丁目"},"geometry":{"type":"Polygon","coordinates":[[[139.49129,35.71712],[139.48837,35.71678],[139.48804,35.72193],[139.49141,35.72207],[139.49133,35.71955],[139.4914,35.71946],[139.4914,35.71938],[139.49135,35.71716],[139.49129,35.71712]]]}},{"type":"Feature","properties":{"id":"area-13211012001","name":"津田町一丁目"},"geometry":{"type":"Polygon","coordinates":[[[139.46541,35.72592],[139.46521,35.72375],[139.46483,35.72086],[139.46221,35.72155],[139.46086,35.72183],[139.46091,35.72203],[139.46155,35.72564],[139.46325,35.72581],[139.46396,35.72581],[139.46541,35.72592]]]}},{"type":"Feature","properties":{"id":"area-13211012002","name":"津田町二丁目"},"geometry":{"type":"Polygon","coordinates":[[[139.46857,35.72173],[139.46864,35.71962],[139.46749,35.72003],[139.46483,35.72086],[139.46521,35.72375],[139.46541,35.72592],[139.46833,35.7261],[139.46844,35.72361],[139.46857,35.72173]]]}},{"type":"Feature","properties":{"id":"area-13211012003","name":"津田町三丁目"},"geometry":{"type":"Polygon","coordinates":[[[139.47076,35.72647],[139.4712,35.71919],[139.47122,35.71888],[139.47128,35.71884],[139.47122,35.71873],[139.46864,35.71962],[139.46857,35.72173],[139.46844,35.72361],[139.46833,35.7261],[139.4687,35.72612],[139.47078,35.72648],[139.47076,35.72647]]]}},{"type":"Feature","properties":{"id":"area-13211013001","name":"学園西町一丁目"},"geometry":{"type":"Polygon","coordinates":[[[139.48014,35.72087],[139.4804,35.71715],[139.48038,35.71667],[139.47643,35.71747],[139.47507,35.71761],[139.47432,35.71776],[139.47345,35.71799],[139.47122,35.71873],[139.47128,35.71884],[139.47122,35.71888],[139.4712,35.71919],[139.47106,35.72127],[139.48006,35.72162],[139.48014,35.72087]]]}},{"type":"Feature","properties":{"id":"area-13211013002","name":"学園西町二丁目"},"geometry":{"type":"Polygon","coordinates":[[[139.47961,35.72375],[139.47994,35.72295],[139.48006,35.72162],[139.47106,35.72127],[139.4709,35.72411],[139.47918,35.72444],[139.47961,35.72375]]]}},{"type":"Feature","properties":{"id":"area-13211013003","name":"学園西町三丁目"},"geometry":{"type":"Polygon","coordinates":[[[139.47918,35.72444],[139.4709,35.72411],[139.47076,35.72647],[139.47494,35.72692],[139.47706,35.72728],[139.47711,35.72727],[139.47729,35.72675],[139.47765,35.72614],[139.47795,35.7258],[139.47862,35.72512],[139.47918,35.72444]]]}},{"type":"Feature","properties":{"id":"area-132110151","name":"学園東町"},"geometry":{"type":"Polygon","coordinates":[[[139.48743,35.72886],[139.48746,35.72834],[139.48772,35.72835],[139.48772,35.7283],[139.48835,35.72831],[139.4884,35.72791],[139.48898,35.72792],[139.48901,35.72759],[139.48966,35.72762],[139.48969,35.72743],[139.49032,35.72744],[139.49042,35.72659],[139.49166,35.72661],[139.49165,35.72634],[139.48336,35.72601],[139.48333,35.72638],[139.4806,35.72627],[139.48051,35.72761],[139.48077,35.72762],[139.48076,35.72783],[139.4808,35.72783],[139.4814,35.72786],[139.48142,35.72773],[139.48201,35.72774],[139.482,35.72793],[139.4823,35.72794],[139.48229,35.72821],[139.48286,35.72827],[139.48283,35.72884],[139.48316,35.72885],[139.48318,35.7286],[139.48335,35.72861],[139.48334,35.72875],[139.48343,35.72876],[139.48353,35.72768],[139.48375,35.72769],[139.48376,35.72762],[139.48415,35.72764],[139.48416,35.7277],[139.48443,35.72771],[139.4844,35.72829],[139.48472,35.72829],[139.48476,35.72773],[139.48511,35.72775],[139.4851,35.72804],[139.48537,35.72805],[139.48539,35.72776],[139.48568,35.72778],[139.48567,35.72789],[139.48599,35.7279],[139.48599,35.72773],[139.48629,35.72774],[139.48639,35.72658],[139.48648,35.72659],[139.48649,35.7265],[139.48661,35.72651],[139.4866,35.72669],[139.48669,35.72671],[139.4866,35.72778],[139.4869,35.7278],[139.48685,35.72846],[139.48714,35.72848],[139.48713,35.72883],[139.48743,35.72886]]]}},{"type":"Feature","properties":{"id":"area-13211015201","name":"学園東町一丁目"},"geometry":{"type":"Polygon","coordinates":[[[139.4805,35.72757],[139.4806,35.72627],[139.4826,35.72635],[139.48287,35.72174],[139.48005,35.72163],[139.47994,35.72295],[139.47961,35.72375],[139.47934,35.7242],[139.479,35.72468],[139.47764,35.72616],[139.47729,35.72675],[139.47711,35.72727],[139.47893,35.72746],[139.4805,35.72757]]]}},{"type":"Feature","properties":{"id":"area-13211015202","name":"学園東町二丁目"},"geometry":{"type":"Polygon","coordinates":[[[139.48333,35.72638],[139.48336,35.72601],[139.4877,35.72618],[139.48797,35.72192],[139.48516,35.7218],[139.48287,35.72174],[139.4826,35.72635],[139.48333,35.72638]]]}},{"type":"Feature","properties":{"id":"area-13211015203","name":"学園東町三丁目"},"geometry":{"type":"Polygon","coordinates":[[[139.49165,35.72634],[139.49137,35.72206],[139.48797,35.72192],[139.4877,35.72618],[139.49165,35.72634]]]}},{"type":"Feature","properties":{"id":"area-13211016000","name":"仲町"},"geometry":{"type":"Polygon","coordinates":[[[139.47903,35.73534],[139.48191,35.73524],[139.48197,35.73528],[139.4836,35.73523],[139.48356,35.73445],[139.48784,35.73429],[139.49036,35.73442],[139.4921,35.73426],[139.49206,35.73078],[139.48633,35.73073],[139.47952,35.73061],[139.47951,35.73065],[139.47887,35.73063],[139.47878,35.73258],[139.47903,35.73534]]]}},{"type":"Feature","properties":{"id":"area-13211016001","name":"仲町"},"geometry":{"type":"Polygon","coordinates":[[[139.49206,35.73078],[139.4919,35.73019],[139.4918,35.72959],[139.49169,35.72781],[139.49166,35.72661],[139.49042,35.72659],[139.49032,35.72744],[139.48969,35.72743],[139.48966,35.72762],[139.48901,35.72759],[139.48898,35.72792],[139.4884,35.72791],[139.48835,35.72831],[139.48772,35.7283],[139.48772,35.72835],[139.48746,35.72834],[139.48743,35.72886],[139.48713,35.72883],[139.48714,35.72848],[139.48685,35.72846],[139.4869,35.7278],[139.4866,35.72778],[139.48669,35.72671],[139.4866,35.72669],[139.48661,35.72651],[139.48649,35.7265],[139.48648,35.72659],[139.48639,35.72658],[139.48629,35.72774],[139.48599,35.72773],[139.48599,35.7279],[139.48567,35.72789],[139.48568,35.72778],[139.48539,35.72776],[139.48537,35.72805],[139.4851,35.72804],[139.48511,35.72775],[139.48476,35.72773],[139.48472,35.72829],[139.4844,35.72829],[139.48443,35.72771],[139.48416,35.7277],[139.48415,35.72764],[139.48376,35.72762],[139.48375,35.72769],[139.48353,35.72768],[139.48343,35.72876],[139.48334,35.72875],[139.48335,35.72861],[139.48318,35.7286],[139.48316,35.72885],[139.48283,35.72884],[139.48286,35.72827],[139.48229,35.72821],[139.4823,35.72794],[139.482,35.72793],[139.48201,35.72774],[139.48142,35.72773],[139.4814,35.72786],[139.4808,35.72783],[139.48076,35.72783],[139.48077,35.72762],[139.48051,35.72761],[139.48049,35.72756],[139.48006,35.72756],[139.47952,35.73061],[139.48633,35.73073],[139.49206,35.73078]]]}},{"type":"Feature","properties":{"id":"area-13211017001","name":"美園町一丁目"},"geometry":{"type":"Polygon","coordinates":[[[139.48661,35.73797],[139.48731,35.73761],[139.48742,35.73773],[139.48822,35.73734],[139.48847,35.73716],[139.48847,35.73709],[139.4895,35.73659],[139.49014,35.73628],[139.49019,35.73632],[139.49245,35.73531],[139.49243,35.73425],[139.49036,35.73442],[139.48819,35.73429],[139.48618,35.73436],[139.48632,35.73726],[139.48646,35.73728],[139.48661,35.73797]]]}},{"type":"Feature","properties":{"id":"area-13211017002","name":"美園町二丁目"},"geometry":{"type":"Polygon","coordinates":[[[139.49254,35.73811],[139.49245,35.73531],[139.49019,35.73632],[139.49014,35.73628],[139.4895,35.73659],[139.48847,35.73709],[139.48847,35.73716],[139.48822,35.73734],[139.48742,35.73773],[139.48731,35.73761],[139.48661,35.73797],[139.4867,35.73834],[139.4875,35.7384],[139.48761,35.73845],[139.49001,35.73821],[139.49254,35.73811]]]}},{"type":"Feature","properties":{"id":"area-13211017003","name":"美園町三丁目"},"geometry":{"type":"Polygon","coordinates":[[[139.48773,35.74507],[139.48777,35.74404],[139.49085,35.74474],[139.49096,35.74451],[139.4914,35.74168],[139.49181,35.74182],[139.49256,35.74214],[139.49292,35.74158],[139.49297,35.74133],[139.49297,35.74115],[139.49162,35.73814],[139.49001,35.73821],[139.48761,35.73845],[139.4875,35.7384],[139.4867,35.73834],[139.48655,35.73856],[139.48662,35.73866],[139.4869,35.73947],[139.4871,35.74094],[139.48506,35.74085],[139.48458,35.74239],[139.48568,35.74261],[139.48538,35.74371],[139.48548,35.74388],[139.48619,35.74418],[139.48773,35.74507]]]}},{"type":"Feature","properties":{"id":"area-132110180","name":"回田町"},"geometry":{"type":"Polygon","coordinates":[[[139.4971,35.71815],[139.49781,35.7181],[139.49786,35.71835],[139.49966,35.71801],[139.49903,35.71295],[139.49617,35.71349],[139.49121,35.71435],[139.49128,35.71701],[139.49129,35.71712],[139.49135,35.71716],[139.4914,35.71938],[139.4914,35.71946],[139.49133,35.71955],[139.49135,35.71961],[139.49145,35.71962],[139.4925,35.72062],[139.49257,35.72065],[139.49369,35.72176],[139.4939,35.72193],[139.49643,35.72181],[139.49626,35.71869],[139.49713,35.7185],[139.4971,35.71815]]]}},{"type":"Feature","properties":{"id":"area-132110190","name":"御幸町"},"geometry":{"type":"Polygon","coordinates":[[[139.50852,35.71733],[139.50838,35.71676],[139.50804,35.71251],[139.50328,35.7125],[139.50146,35.71253],[139.50052,35.71263],[139.49903,35.71295],[139.49956,35.71721],[139.50082,35.71723],[139.50082,35.71712],[139.50113,35.71707],[139.50165,35.71693],[139.5017,35.71728],[139.50193,35.71729],[139.50232,35.72019],[139.5055,35.71995],[139.50776,35.71984],[139.50736,35.71846],[139.50806,35.71764],[139.50855,35.71756],[139.50848,35.71734],[139.50852,35.71733]]]}},{"type":"Feature","properties":{"id":"area-13211020010","name":"鈴木町一丁目"},"geometry":{"type":"Polygon","coordinates":[[[139.50336,35.72681],[139.50303,35.72466],[139.50298,35.72442],[139.50281,35.72392],[139.50273,35.72303],[139.49753,35.72275],[139.49782,35.72589],[139.49785,35.72654],[139.50336,35.72681]]]}},{"type":"Feature","properties":{"id":"area-13211020011","name":"鈴木町一丁目"},"geometry":{"type":"Polygon","coordinates":[[[139.50273,35.72302],[139.50234,35.72056],[139.50229,35.72019],[139.50232,35.72019],[139.50193,35.71729],[139.5017,35.71728],[139.50165,35.71693],[139.50113,35.71707],[139.50082,35.71712],[139.50082,35.71723],[139.49956,35.71721],[139.49966,35.71801],[139.49786,35.71835],[139.49781,35.7181],[139.4971,35.71815],[139.49752,35.72275],[139.50273,35.72302]]]}},{"type":"Feature","properties":{"id":"area-13211020012","name":"鈴木町一丁目"},"geometry":{"type":"Polygon","coordinates":[[[139.49345,35.72685],[139.49405,35.72685],[139.49488,35.72676],[139.4963,35.72649],[139.49785,35.72654],[139.49782,35.72589],[139.49713,35.7185],[139.49626,35.71869],[139.49643,35.72181],[139.4939,35.72193],[139.49369,35.72176],[139.49257,35.72065],[139.4925,35.72062],[139.49145,35.71962],[139.49135,35.71961],[139.49133,35.71955],[139.49141,35.72207],[139.49137,35.72206],[139.49165,35.72638],[139.49171,35.72776],[139.49259,35.72776],[139.49345,35.72685]]]}},{"type":"Feature","properties":{"id":"area-13211020020","name":"鈴木町二丁目"},"geometry":{"type":"Polygon","coordinates":[[[139.50909,35.72693],[139.51111,35.72676],[139.51045,35.72443],[139.51017,35.7233],[139.51011,35.72319],[139.50896,35.72335],[139.50273,35.72302],[139.50281,35.72392],[139.50298,35.72442],[139.50303,35.72466],[139.50336,35.72683],[139.50794,35.72707],[139.50909,35.72693]]]}},{"type":"Feature","properties":{"id":"area-13211020021","name":"鈴木町二丁目"},"geometry":{"type":"Polygon","coordinates":[[[139.50896,35.72335],[139.51013,35.72318],[139.50954,35.72121],[139.50955,35.7211],[139.50939,35.72055],[139.50936,35.72056],[139.50937,35.72045],[139.50928,35.72009],[139.50923,35.71996],[139.50918,35.71991],[139.50855,35.71756],[139.50806,35.71764],[139.50736,35.71846],[139.50776,35.71984],[139.5055,35.71995],[139.50229,35.72019],[139.50273,35.72302],[139.50896,35.72335]]]}},{"type":"Feature","properties":{"id":"area-13211021001","name":"天神町一丁目"},"geometry":{"type":"Polygon","coordinates":[[[139.49206,35.73078],[139.49652,35.73074],[139.49574,35.7266],[139.4944,35.72682],[139.49372,35.72686],[139.49347,35.72684],[139.49259,35.72776],[139.49171,35.72776],[139.4918,35.72959],[139.4919,35.73019],[139.49206,35.73078]]]}},{"type":"Feature","properties":{"id":"area-13211021002","name":"天神町二丁目"},"geometry":{"type":"Polygon","coordinates":[[[139.49461,35.73427],[139.49564,35.73388],[139.49648,35.73351],[139.49647,35.73269],[139.49643,35.7327],[139.49633,35.73075],[139.49206,35.73078],[139.4921,35.73426],[139.49243,35.73425],[139.49245,35.73521],[139.49461,35.73427]]]}},{"type":"Feature","properties":{"id":"area-13211021003","name":"天神町三丁目"},"geometry":{"type":"Polygon","coordinates":[[[139.49648,35.73351],[139.50025,35.73188],[139.50171,35.73145],[139.50223,35.73125],[139.50272,35.73098],[139.50299,35.73078],[139.50312,35.73065],[139.49633,35.73075],[139.49643,35.7327],[139.49647,35.73269],[139.49648,35.73351]]]}},{"type":"Feature","properties":{"id":"area-13211021004","name":"天神町四丁目"},"geometry":{"type":"Polygon","coordinates":[[[139.49652,35.73074],[139.50142,35.73068],[139.50074,35.72669],[139.49654,35.72648],[139.49623,35.7265],[139.49574,35.7266],[139.49652,35.73074]]]}},{"type":"Feature","properties":{"id":"area-13211022001","name":"大沼町一丁目"},"geometry":{"type":"Polygon","coordinates":[[[139.49647,35.73377],[139.49645,35.73352],[139.49564,35.73388],[139.49461,35.73427],[139.49245,35.73521],[139.49252,35.73809],[139.49457,35.73803],[139.49491,35.73799],[139.49625,35.73769],[139.49603,35.73382],[139.49647,35.73377]]]}},{"type":"Feature","properties":{"id":"area-13211022002","name":"大沼町二丁目"},"geometry":{"type":"Polygon","coordinates":[[[139.49659,35.73859],[139.49625,35.73769],[139.49491,35.73799],[139.49457,35.73803],[139.49162,35.73814],[139.49297,35.74115],[139.49297,35.74133],[139.49292,35.74158],[139.49256,35.74214],[139.49523,35.74331],[139.49557,35.74316],[139.49728,35.74259],[139.49787,35.74147],[139.49748,35.74049],[139.49659,35.73859]]]}},{"type":"Feature","properties":{"id":"area-13211022003","name":"大沼町三丁目"},"geometry":{"type":"Polygon","coordinates":[[[139.50009,35.73795],[139.49991,35.7372],[139.49903,35.73735],[139.49767,35.73736],[139.49625,35.73769],[139.49659,35.73859],[139.49748,35.74049],[139.49787,35.74147],[139.49728,35.74259],[139.50155,35.74116],[139.50025,35.73838],[139.50009,35.73795]]]}},{"type":"Feature","properties":{"id":"area-13211022004","name":"大沼町四丁目"},"geometry":{"type":"Polygon","coordinates":[[[139.50445,35.74098],[139.50412,35.74042],[139.50299,35.74068],[139.49639,35.74288],[139.49523,35.74331],[139.49792,35.74444],[139.49789,35.74617],[139.49996,35.74494],[139.50065,35.74456],[139.50285,35.74342],[139.50381,35.74303],[139.50316,35.74134],[139.50445,35.74098]]]}},{"type":"Feature","properties":{"id":"area-13211022005","name":"大沼町五丁目"},"geometry":{"type":"Polygon","coordinates":[[[139.50299,35.74068],[139.50412,35.74042],[139.50415,35.74046],[139.50457,35.74035],[139.50372,35.73678],[139.5048,35.73676],[139.50474,35.73631],[139.49991,35.7372],[139.50004,35.73777],[139.50025,35.73838],[139.50155,35.74116],[139.50299,35.74068]]]}},{"type":"Feature","properties":{"id":"area-13211022006","name":"大沼町六丁目"},"geometry":{"type":"Polygon","coordinates":[[[139.50188,35.73366],[139.50171,35.73145],[139.50025,35.73188],[139.49893,35.73246],[139.49993,35.7372],[139.50207,35.73681],[139.50188,35.73366]]]}},{"type":"Feature","properties":{"id":"area-13211022007","name":"大沼町七丁目"},"geometry":{"type":"Polygon","coordinates":[[[139.49758,35.73737],[139.49903,35.73735],[139.49993,35.7372],[139.49893,35.73246],[139.49645,35.73352],[139.49647,35.73377],[139.49603,35.73382],[139.49625,35.73768],[139.49758,35.73737]]]}},{"type":"Feature","properties":{"id":"area-13211023001","name":"花小金井南町一丁目"},"geometry":{"type":"Polygon","coordinates":[[[139.51121,35.7271],[139.51254,35.72659],[139.51472,35.72564],[139.51466,35.72546],[139.5142,35.72522],[139.51411,35.72504],[139.51381,35.72282],[139.51393,35.72281],[139.51378,35.72155],[139.51401,35.72154],[139.51385,35.72014],[139.5145,35.72023],[139.51474,35.72014],[139.51499,35.72012],[139.51551,35.72039],[139.51608,35.72039],[139.51652,35.72024],[139.51686,35.72023],[139.51746,35.72029],[139.51817,35.72002],[139.51823,35.71791],[139.51316,35.717],[139.50834,35.71628],[139.50838,35.71676],[139.50852,35.71733],[139.50848,35.71734],[139.50918,35.71991],[139.50923,35.71996],[139.50928,35.72009],[139.50937,35.72045],[139.50936,35.72056],[139.50939,35.72055],[139.50955,35.7211],[139.50954,35.72121],[139.51013,35.72318],[139.51011,35.72319],[139.51017,35.7233],[139.51045,35.72443],[139.51093,35.72617],[139.51121,35.7271]]]}},{"type":"Feature","properties":{"id":"area-13211023002","name":"花小金井南町二丁目"},"geometry":{"type":"Polygon","coordinates":[[[139.5181,35.72258],[139.51817,35.72002],[139.51746,35.72029],[139.51686,35.72023],[139.51652,35.72024],[139.51608,35.72039],[139.51551,35.72039],[139.51499,35.72012],[139.51474,35.72014],[139.5145,35.72023],[139.51385,35.72014],[139.51401,35.72154],[139.51378,35.72155],[139.51393,35.72281],[139.51381,35.72282],[139.51411,35.72504],[139.5142,35.72522],[139.51466,35.72546],[139.51472,35.72564],[139.51521,35.72547],[139.51585,35.72531],[139.51709,35.7251],[139.51738,35.72264],[139.5181,35.72258]]]}},{"type":"Feature","properties":{"id":"area-13211023003","name":"花小金井南町三丁目"},"geometry":{"type":"Polygon","coordinates":[[[139.52053,35.72526],[139.52328,35.72308],[139.52299,35.72284],[139.52312,35.72271],[139.52413,35.72066],[139.52474,35.71934],[139.52473,35.71928],[139.51823,35.71791],[139.5181,35.72258],[139.51738,35.72264],[139.51709,35.7251],[139.51832,35.72505],[139.51916,35.7251],[139.52053,35.72526]]]}},{"type":"Feature","properties":{"id":"area-13211024001","name":"花小金井一丁目"},"geometry":{"type":"Polygon","coordinates":[[[139.51753,35.72841],[139.51774,35.72745],[139.51792,35.72746],[139.51796,35.7273],[139.51816,35.72732],[139.51819,35.72705],[139.51834,35.72707],[139.51835,35.72695],[139.52053,35.72526],[139.51916,35.7251],[139.51832,35.72505],[139.51709,35.7251],[139.51643,35.72519],[139.51521,35.72547],[139.51479,35.72562],[139.51254,35.72659],[139.51121,35.7271],[139.5123,35.73048],[139.51676,35.73037],[139.51706,35.72953],[139.51753,35.72841]]]}},{"type":"Feature","properties":{"id":"area-13211024002","name":"花小金井二丁目"},"geometry":{"type":"Polygon","coordinates":[[[139.51678,35.73047],[139.51676,35.73037],[139.5123,35.73048],[139.51282,35.73486],[139.51836,35.73378],[139.51888,35.73363],[139.51987,35.7331],[139.51678,35.73047]]]}},{"type":"Feature","properties":{"id":"area-13211024003","name":"花小金井三丁目"},"geometry":{"type":"Polygon","coordinates":[[[139.51517,35.74137],[139.51498,35.73905],[139.51575,35.73916],[139.51592,35.73915],[139.51594,35.73927],[139.51804,35.73908],[139.5181,35.73911],[139.51876,35.73905],[139.51876,35.73903],[139.51915,35.73903],[139.51975,35.73898],[139.52023,35.73889],[139.52023,35.73893],[139.52048,35.7389],[139.52046,35.73877],[139.52068,35.73875],[139.5207,35.7389],[139.5212,35.73885],[139.52027,35.73344],[139.51987,35.7331],[139.51888,35.73363],[139.51836,35.73378],[139.51282,35.73486],[139.51318,35.73872],[139.5141,35.73867],[139.51437,35.74137],[139.51431,35.74139],[139.51437,35.74149],[139.51517,35.74137]]]}},{"type":"Feature","properties":{"id":"area-13211024004","name":"花小金井四丁目"},"geometry":{"type":"Polygon","coordinates":[[[139.50799,35.73831],[139.5123,35.73792],[139.51237,35.73841],[139.51248,35.73838],[139.51252,35.73877],[139.51265,35.73876],[139.51274,35.73978],[139.51272,35.73979],[139.51273,35.73996],[139.51278,35.73996],[139.51279,35.74011],[139.51275,35.74012],[139.51279,35.74063],[139.51283,35.74067],[139.51277,35.74068],[139.51277,35.74076],[139.51284,35.74075],[139.51286,35.74101],[139.51255,35.74103],[139.51257,35.74133],[139.51289,35.74132],[139.51291,35.74163],[139.51347,35.74158],[139.5135,35.74155],[139.51332,35.73974],[139.51306,35.73755],[139.51281,35.73485],[139.51201,35.73499],[139.51183,35.73507],[139.51128,35.73518],[139.51083,35.73526],[139.51082,35.73521],[139.51024,35.73532],[139.50998,35.73542],[139.50934,35.73554],[139.50939,35.73548],[139.509,35.73555],[139.50892,35.73563],[139.50741,35.7359],[139.5072,35.73593],[139.50707,35.73591],[139.50656,35.736],[139.50687,35.73983],[139.50567,35.74012],[139.50676,35.74185],[139.50828,35.7412],[139.50732,35.73968],[139.50804,35.7395],[139.50799,35.73831]]]}},{"type":"Feature","properties":{"id":"area-13211024005","name":"花小金井五丁目"},"geometry":{"type":"Polygon","coordinates":[[[139.50656,35.736],[139.50707,35.73591],[139.5072,35.73593],[139.50741,35.7359],[139.50892,35.73563],[139.509,35.73555],[139.50939,35.73548],[139.50934,35.73554],[139.50998,35.73542],[139.51024,35.73532],[139.51082,35.73521],[139.51083,35.73526],[139.51183,35.73507],[139.51201,35.73499],[139.51282,35.73486],[139.5123,35.73046],[139.5061,35.73061],[139.50656,35.736]]]}},{"type":"Feature","properties":{"id":"area-13211024006","name":"花小金井六丁目"},"geometry":{"type":"Polygon","coordinates":[[[139.50312,35.73065],[139.50747,35.73059],[139.5123,35.73046],[139.51112,35.72676],[139.50909,35.72693],[139.50794,35.72707],[139.5053,35.72694],[139.50584,35.72939],[139.50505,35.7297],[139.50441,35.72987],[139.50392,35.73008],[139.50392,35.73012],[139.50341,35.73042],[139.50312,35.73065]]]}},{"type":"Feature","properties":{"id":"area-13211024007","name":"花小金井七丁目"},"geometry":{"type":"Polygon","coordinates":[[[139.5053,35.72694],[139.50074,35.72669],[139.50142,35.73068],[139.50312,35.73065],[139.50341,35.73042],[139.50392,35.73012],[139.50392,35.73008],[139.50441,35.72987],[139.50505,35.7297],[139.50584,35.72939],[139.5053,35.72694]]]}},{"type":"Feature","properties":{"id":"area-13211024008","name":"花小金井八丁目"},"geometry":{"type":"Polygon","coordinates":[[[139.50207,35.73681],[139.50474,35.73631],[139.50462,35.73497],[139.50473,35.73496],[139.50468,35.73441],[139.50456,35.73441],[139.50455,35.73432],[139.50462,35.73432],[139.50461,35.73414],[139.50465,35.73413],[139.50459,35.7335],[139.50452,35.7335],[139.50443,35.73223],[139.50539,35.7322],[139.50569,35.73616],[139.50656,35.736],[139.5061,35.73061],[139.50312,35.73065],[139.50299,35.73078],[139.50252,35.7311],[139.50223,35.73125],[139.50171,35.73145],[139.50188,35.73366],[139.50207,35.73681]]]}}]}