{"type":"FeatureCollection","features":[{"type":"Feature","properties":{"id":"area-13215001001","name":"東一丁目"},"geometry":{"type":"Polygon","coordinates":[[[139.45145,35.69834],[139.45176,35.69811],[139.45187,35.69796],[139.45277,35.69727],[139.45353,35.69647],[139.45367,35.69628],[139.44677,35.69607],[139.44666,35.69819],[139.44619,35.69818],[139.44614,35.69888],[139.44635,35.69888],[139.4465,35.69903],[139.44626,35.69919],[139.4481,35.69927],[139.45058,35.69933],[139.45068,35.69908],[139.45145,35.69834]]]}},{"type":"Feature","properties":{"id":"area-13215001002","name":"東二丁目"},"geometry":{"type":"Polygon","coordinates":[[[139.45231,35.69623],[139.45252,35.6908],[139.44699,35.69064],[139.44692,35.69276],[139.44675,35.69608],[139.45231,35.69623]]]}},{"type":"Feature","properties":{"id":"area-13215001003","name":"東三丁目"},"geometry":{"type":"Polygon","coordinates":[[[139.45721,35.69363],[139.45969,35.69204],[139.45982,35.69178],[139.45982,35.6917],[139.45957,35.69167],[139.45932,35.69168],[139.45837,35.69224],[139.45799,35.69163],[139.45742,35.69182],[139.45735,35.6912],[139.45593,35.6915],[139.45586,35.69092],[139.45252,35.6908],[139.45231,35.69623],[139.45367,35.69628],[139.45441,35.69556],[139.45535,35.69499],[139.45621,35.69441],[139.4569,35.69391],[139.45721,35.69363]]]}},{"type":"Feature","properties":{"id":"area-13215001004","name":"東四丁目"},"geometry":{"type":"Polygon","coordinates":[[[139.45586,35.69092],[139.45584,35.69056],[139.4549,35.69069],[139.4548,35.69029],[139.45461,35.6903],[139.45461,35.69003],[139.45454,35.68978],[139.45454,35.6894],[139.45462,35.6894],[139.45461,35.68931],[139.45453,35.68931],[139.45443,35.68895],[139.4544,35.68895],[139.45425,35.68858],[139.45379,35.68868],[139.45357,35.68801],[139.45334,35.68702],[139.45325,35.68638],[139.45331,35.68636],[139.45021,35.68667],[139.44823,35.68696],[139.44715,35.68715],[139.44706,35.6899],[139.44699,35.69064],[139.45586,35.69092]]]}},{"type":"Feature","properties":{"id":"area-13215002001","name":"中一丁目"},"geometry":{"type":"Polygon","coordinates":[[[139.4465,35.69903],[139.44635,35.69888],[139.44614,35.69888],[139.44619,35.69818],[139.44666,35.69819],[139.44677,35.6961],[139.44675,35.69608],[139.43864,35.69584],[139.4386,35.69723],[139.43609,35.69717],[139.43604,35.69886],[139.44281,35.69905],[139.44302,35.69901],[139.44308,35.69907],[139.44626,35.69919],[139.4465,35.69903]]]}},{"type":"Feature","properties":{"id":"area-13215002002","name":"中二丁目"},"geometry":{"type":"Polygon","coordinates":[[[139.44675,35.69608],[139.44692,35.69276],[139.447,35.69062],[139.43887,35.69037],[139.43864,35.69584],[139.44675,35.69608]]]}},{"type":"Feature","properties":{"id":"area-13215002003","name":"中三丁目"},"geometry":{"type":"Polygon","coordinates":[[[139.44706,35.6899],[139.44715,35.68715],[139.44524,35.68751],[139.44381,35.68771],[139.44301,35.68763],[139.44176,35.68771],[139.44106,35.68785],[139.44055,35.68771],[139.43897,35.68787],[139.43887,35.69037],[139.447,35.69062],[139.44706,35.6899]]]}},{"type":"Feature","properties":{"id":"area-13215003001","name":"西一丁目"},"geometry":{"type":"Polygon","coordinates":[[[139.43604,35.69886],[139.43609,35.69717],[139.4386,35.69723],[139.43864,35.69583],[139.43069,35.69559],[139.43146,35.69696],[139.42958,35.69756],[139.42762,35.69825],[139.42719,35.69834],[139.42699,35.69842],[139.42697,35.69858],[139.43604,35.69886]]]}},{"type":"Feature","properties":{"id":"area-13215003002","name":"西二丁目"},"geometry":{"type":"Polygon","coordinates":[[[139.43864,35.69583],[139.43887,35.69037],[139.43401,35.69022],[139.43393,35.69026],[139.43215,35.69016],[139.43139,35.69033],[139.43128,35.69342],[139.43049,35.69344],[139.43017,35.6936],[139.42981,35.69371],[139.4298,35.69399],[139.43069,35.69559],[139.43864,35.69583]]]}},{"type":"Feature","properties":{"id":"area-13215003003","name":"西三丁目"},"geometry":{"type":"Polygon","coordinates":[[[139.43887,35.69037],[139.43896,35.68787],[139.43774,35.68803],[139.4376,35.68801],[139.43732,35.68804],[139.43563,35.6884],[139.43573,35.68876],[139.43458,35.6892],[139.43314,35.68981],[139.43215,35.69016],[139.43393,35.69026],[139.43401,35.69022],[139.43887,35.69037]]]}},{"type":"Feature","properties":{"id":"area-13215004001","name":"富士見台一丁目"},"geometry":{"type":"Polygon","coordinates":[[[139.45321,35.68537],[139.4528,35.68369],[139.45238,35.68378],[139.45169,35.68271],[139.45188,35.68259],[139.45176,35.68251],[139.45153,35.68245],[139.45141,35.68236],[139.45173,35.68165],[139.4516,35.68154],[139.45166,35.68148],[139.45138,35.68117],[139.45156,35.68105],[139.45149,35.68096],[139.45162,35.68088],[139.45128,35.68063],[139.45196,35.68],[139.45182,35.67962],[139.45213,35.6795],[139.45216,35.6794],[139.45229,35.67927],[139.45186,35.67887],[139.45109,35.67958],[139.45074,35.67981],[139.45017,35.68012],[139.44614,35.68159],[139.44636,35.68197],[139.44669,35.68185],[139.44706,35.68253],[139.44735,35.68359],[139.44717,35.68715],[139.44823,35.68696],[139.45021,35.68667],[139.45332,35.68636],[139.45331,35.68595],[139.45321,35.68537]]]}},{"type":"Feature","properties":{"id":"area-13215004002","name":"富士見台二丁目"},"geometry":{"type":"Polygon","coordinates":[[[139.4419,35.68771],[139.44301,35.68763],[139.44381,35.68771],[139.44524,35.68751],[139.44717,35.68715],[139.44735,35.68359],[139.44706,35.68253],[139.44669,35.68185],[139.44636,35.68197],[139.44614,35.68159],[139.44189,35.68312],[139.43998,35.6838],[139.43968,35.68388],[139.43982,35.68551],[139.44057,35.68651],[139.44054,35.6866],[139.44063,35.68671],[139.44075,35.68673],[139.44105,35.68713],[139.44141,35.68778],[139.4419,35.68771]]]}},{"type":"Feature","properties":{"id":"area-13215004003","name":"富士見台三丁目"},"geometry":{"type":"Polygon","coordinates":[[[139.43732,35.68804],[139.4376,35.68801],[139.43774,35.68803],[139.44055,35.68771],[139.44106,35.68785],[139.44141,35.68778],[139.44105,35.68713],[139.44075,35.68673],[139.44063,35.68671],[139.44054,35.6866],[139.44057,35.68651],[139.43982,35.68551],[139.43968,35.68388],[139.43885,35.68409],[139.43785,35.68426],[139.43189,35.68503],[139.43194,35.68536],[139.43243,35.6853],[139.43267,35.68594],[139.43288,35.68638],[139.43379,35.68787],[139.43399,35.68851],[139.43403,35.68894],[139.43402,35.68944],[139.43573,35.68876],[139.43563,35.6884],[139.43732,35.68804]]]}},{"type":"Feature","properties":{"id":"area-13215004004","name":"富士見台四丁目"},"geometry":{"type":"Polygon","coordinates":[[[139.43403,35.68894],[139.43399,35.68851],[139.43379,35.68787],[139.43288,35.68638],[139.43267,35.68594],[139.43243,35.6853],[139.43194,35.68536],[139.43189,35.68503],[139.42944,35.68537],[139.42865,35.68562],[139.42789,35.68599],[139.42763,35.68616],[139.4272,35.68653],[139.427,35.68672],[139.42673,35.68709],[139.42635,35.68776],[139.42643,35.68784],[139.42639,35.68799],[139.42642,35.68808],[139.42664,35.68835],[139.42619,35.68843],[139.42627,35.68886],[139.42693,35.68882],[139.42804,35.69066],[139.42831,35.69126],[139.42989,35.69079],[139.43104,35.6904],[139.43215,35.69016],[139.43314,35.68981],[139.43402,35.68944],[139.43403,35.68894]]]}},{"type":"Feature","properties":{"id":"area-13215005001","name":"北一丁目"},"geometry":{"type":"Polygon","coordinates":[[[139.44848,35.70091],[139.44852,35.70074],[139.44871,35.70073],[139.44889,35.70067],[139.44892,35.7007],[139.4496,35.70033],[139.44979,35.70019],[139.45038,35.69965],[139.45058,35.69933],[139.4481,35.69927],[139.44308,35.69907],[139.44302,35.69901],[139.44281,35.69905],[139.44213,35.69904],[139.44213,35.69934],[139.44242,35.69938],[139.44235,35.70025],[139.44238,35.70033],[139.44418,35.70039],[139.44418,35.70026],[139.44442,35.70025],[139.44468,35.70027],[139.44468,35.70041],[139.44509,35.70043],[139.4451,35.7003],[139.4455,35.7003],[139.4455,35.7002],[139.44568,35.70021],[139.44574,35.70005],[139.44656,35.7002],[139.4472,35.70022],[139.4472,35.70039],[139.44782,35.70041],[139.44784,35.70064],[139.448,35.7007],[139.44799,35.70088],[139.44812,35.70086],[139.44848,35.70091]]]}},{"type":"Feature","properties":{"id":"area-13215005002","name":"北二丁目"},"geometry":{"type":"Polygon","coordinates":[[[139.43831,35.70146],[139.43835,35.70132],[139.43861,35.70135],[139.43865,35.70131],[139.43924,35.70127],[139.44001,35.70134],[139.44006,35.70127],[139.441,35.70133],[139.44098,35.70139],[139.44119,35.7014],[139.44164,35.70074],[139.44192,35.70025],[139.44235,35.70025],[139.44242,35.69938],[139.44213,35.69934],[139.44213,35.69904],[139.43516,35.69883],[139.43433,35.7001],[139.43381,35.70097],[139.4352,35.7012],[139.43528,35.70119],[139.43543,35.70105],[139.43709,35.70138],[139.43752,35.70138],[139.43751,35.7014],[139.43764,35.70145],[139.43769,35.70137],[139.43809,35.70137],[139.43807,35.7014],[139.43831,35.70146]]]}},{"type":"Feature","properties":{"id":"area-13215005003","name":"北三丁目"},"geometry":{"type":"Polygon","coordinates":[[[139.4302,35.70374],[139.43023,35.70329],[139.43169,35.70336],[139.43177,35.70262],[139.43141,35.70261],[139.43142,35.70244],[139.43135,35.70244],[139.432,35.70137],[139.43342,35.70156],[139.43433,35.7001],[139.43516,35.69883],[139.42698,35.69859],[139.42716,35.69881],[139.42721,35.69894],[139.42703,35.69926],[139.42936,35.70057],[139.42897,35.70117],[139.42673,35.69976],[139.42602,35.70097],[139.4255,35.70094],[139.42542,35.70205],[139.42611,35.70209],[139.42619,35.70214],[139.42736,35.70219],[139.42729,35.70286],[139.42772,35.70314],[139.42761,35.70338],[139.42813,35.70373],[139.43047,35.70385],[139.43055,35.70375],[139.4302,35.70374]]]}},{"type":"Feature","properties":{"id":"area-13215006001","name":"谷保"},"geometry":{"type":"Polygon","coordinates":[[[139.44575,35.68173],[139.44469,35.68044],[139.44578,35.6799],[139.44523,35.67929],[139.44519,35.67931],[139.44514,35.67925],[139.44517,35.67923],[139.4447,35.6787],[139.44461,35.67875],[139.44458,35.6787],[139.44426,35.67885],[139.44387,35.67881],[139.44366,35.67878],[139.44366,35.6786],[139.44333,35.67863],[139.44305,35.67869],[139.44276,35.6787],[139.44239,35.67878],[139.44216,35.67877],[139.44194,35.67888],[139.44183,35.67842],[139.44152,35.67792],[139.44132,35.67773],[139.44129,35.67762],[139.4413,35.67737],[139.44124,35.67725],[139.44111,35.67718],[139.44082,35.67767],[139.44002,35.67809],[139.43963,35.67883],[139.43959,35.67897],[139.43964,35.67924],[139.43931,35.67913],[139.43916,35.67901],[139.43911,35.67879],[139.43875,35.67857],[139.43837,35.67861],[139.43842,35.67906],[139.43792,35.67963],[139.43767,35.67986],[139.43766,35.68012],[139.43747,35.68041],[139.43736,35.68095],[139.43797,35.68106],[139.4387,35.68113],[139.43908,35.68105],[139.43901,35.68134],[139.43916,35.68243],[139.43956,35.68343],[139.43965,35.68388],[139.43998,35.6838],[139.44189,35.68312],[139.44575,35.68173]]]}},{"type":"Feature","properties":{"id":"area-13215006002","name":"谷保"},"geometry":{"type":"MultiPolygon","coordinates":[[[[139.43785,35.68426],[139.43885,35.68409],[139.43965,35.68388],[139.43956,35.68343],[139.43916,35.68243],[139.43901,35.68134],[139.43908,35.68105],[139.4387,35.68113],[139.43797,35.68106],[139.43736,35.68095],[139.43728,35.68097],[139.43631,35.6809],[139.43396,35.68103],[139.43358,35.68087],[139.43316,35.68081],[139.43231,35.68089],[139.4316,35.68085],[139.43174,35.68131],[139.43179,35.68163],[139.43178,35.68228],[139.43014,35.6824],[139.42978,35.6827],[139.42949,35.68309],[139.42952,35.68313],[139.42978,35.68324],[139.43006,35.68324],[139.43006,35.68369],[139.4302,35.68382],[139.42991,35.68401],[139.42993,35.68424],[139.43007,35.68445],[139.43039,35.68424],[139.43041,35.68405],[139.43069,35.68374],[139.43108,35.68394],[139.43077,35.68423],[139.43081,35.68429],[139.43142,35.68419],[139.43147,35.68437],[139.43208,35.68427],[139.43235,35.68497],[139.43785,35.68426]]],[[[139.43093,35.68483],[139.43114,35.68477],[139.43129,35.6851],[139.43198,35.68502],[139.43182,35.68476],[139.4317,35.68478],[139.43153,35.68447],[139.43134,35.68454],[139.43126,35.68446],[139.43088,35.68453],[139.42978,35.6849],[139.42968,35.68482],[139.4296,35.68496],[139.42916,35.68515],[139.42896,35.68518],[139.4287,35.68545],[139.4288,35.68558],[139.42944,35.68537],[139.43069,35.68518],[139.43062,35.68505],[139.43095,35.68496],[139.43093,35.68483]]]]}},{"type":"Feature","properties":{"id":"area-13215006004","name":"谷保"},"geometry":{"type":"Polygon","coordinates":[[[139.45124,35.67946],[139.45186,35.67887],[139.45188,35.67889],[139.45219,35.67843],[139.452,35.67836],[139.45137,35.67844],[139.45129,35.67823],[139.4512,35.67826],[139.45111,35.67807],[139.45169,35.67786],[139.45166,35.67775],[139.45178,35.67772],[139.45172,35.67756],[139.45146,35.67764],[139.45149,35.67774],[139.45126,35.67779],[139.45128,35.67785],[139.45117,35.67788],[139.45105,35.67755],[139.45139,35.67746],[139.45136,35.6774],[139.45167,35.67728],[139.45151,35.67683],[139.44767,35.67893],[139.44671,35.67799],[139.44605,35.67776],[139.44457,35.67869],[139.44461,35.67875],[139.4447,35.6787],[139.44517,35.67923],[139.44514,35.67925],[139.44519,35.67931],[139.44523,35.67929],[139.44578,35.6799],[139.44469,35.68044],[139.44575,35.68173],[139.45017,35.68012],[139.45074,35.67981],[139.45124,35.67946]]]}},{"type":"Feature","properties":{"id":"area-13215006005","name":"谷保"},"geometry":{"type":"Polygon","coordinates":[[[139.44767,35.67893],[139.45072,35.67724],[139.45108,35.67708],[139.45071,35.67637],[139.451,35.67627],[139.45092,35.67608],[139.4511,35.67579],[139.45121,35.67539],[139.45121,35.67482],[139.45111,35.67425],[139.4511,35.67407],[139.45116,35.67365],[139.45112,35.67362],[139.4505,35.67408],[139.45023,35.67432],[139.4501,35.67423],[139.44971,35.6746],[139.44929,35.67508],[139.44891,35.67561],[139.44891,35.67569],[139.44879,35.67579],[139.44845,35.67624],[139.4483,35.67637],[139.4473,35.67604],[139.44615,35.67584],[139.44452,35.6758],[139.44281,35.67583],[139.44067,35.67591],[139.44085,35.67673],[139.44094,35.67697],[139.441,35.67708],[139.44124,35.67725],[139.4413,35.67737],[139.44129,35.67762],[139.44132,35.67773],[139.44152,35.67792],[139.44183,35.67842],[139.44194,35.67888],[139.44216,35.67877],[139.44239,35.67878],[139.44276,35.6787],[139.44305,35.67869],[139.44333,35.67863],[139.44366,35.6786],[139.44366,35.67878],[139.44426,35.67885],[139.44458,35.6787],[139.44468,35.6786],[139.44548,35.67813],[139.44605,35.67776],[139.44671,35.67799],[139.44767,35.67893]]]}},{"type":"Feature","properties":{"id":"area-13215006006","name":"谷保"},"geometry":{"type":"MultiPolygon","coordinates":[[[[139.44064,35.67577],[139.43912,35.67576],[139.43916,35.67901],[139.43931,35.67913],[139.43964,35.67924],[139.43959,35.67897],[139.43963,35.67883],[139.44002,35.67809],[139.44082,35.67767],[139.44111,35.67718],[139.441,35.67708],[139.44094,35.67697],[139.44085,35.67673],[139.44064,35.67577]]],[[[139.43631,35.6809],[139.43728,35.68097],[139.43736,35.68095],[139.43747,35.68041],[139.43766,35.68012],[139.43767,35.67986],[139.43792,35.67963],[139.43842,35.67906],[139.43837,35.67861],[139.43806,35.67875],[139.4379,35.67878],[139.43767,35.67879],[139.4363,35.67871],[139.43433,35.67845],[139.43402,35.67844],[139.43381,35.67852],[139.43373,35.67869],[139.43356,35.67855],[139.43341,35.67852],[139.43273,35.67867],[139.43258,35.67866],[139.43127,35.67922],[139.43087,35.67935],[139.43121,35.67982],[139.4316,35.68085],[139.43231,35.68089],[139.43316,35.68081],[139.43358,35.68087],[139.43396,35.68103],[139.43631,35.6809]]]]}},{"type":"Feature","properties":{"id":"area-13215006008","name":"谷保"},"geometry":{"type":"Polygon","coordinates":[[[139.42635,35.68776],[139.42673,35.68709],[139.427,35.68672],[139.4272,35.68653],[139.42763,35.68616],[139.42789,35.68599],[139.42879,35.68556],[139.4287,35.68545],[139.42896,35.68518],[139.42916,35.68515],[139.4296,35.68496],[139.42979,35.68458],[139.43007,35.68445],[139.42993,35.68424],[139.42991,35.68401],[139.4302,35.68382],[139.43006,35.68369],[139.43006,35.68324],[139.42978,35.68324],[139.42952,35.68313],[139.42949,35.68309],[139.42978,35.6827],[139.43014,35.6824],[139.42883,35.6825],[139.42782,35.68262],[139.42635,35.68289],[139.42686,35.68438],[139.42691,35.68526],[139.4267,35.68566],[139.42623,35.68608],[139.42611,35.68628],[139.42586,35.68653],[139.42581,35.68662],[139.42589,35.68674],[139.42589,35.68681],[139.42577,35.68697],[139.42597,35.68737],[139.42581,35.68743],[139.42598,35.68771],[139.42619,35.68762],[139.42635,35.68776]]]}},{"type":"Feature","properties":{"id":"area-13215006011","name":"谷保六丁目"},"geometry":{"type":"Polygon","coordinates":[[[139.44696,35.67597],[139.44887,35.67217],[139.4482,35.6724],[139.4476,35.67242],[139.44714,35.67257],[139.44682,35.67294],[139.44618,35.67321],[139.44589,35.67313],[139.44592,35.6729],[139.44545,35.67287],[139.44507,35.6728],[139.44507,35.67275],[139.44455,35.67259],[139.44442,35.67261],[139.44439,35.67252],[139.44455,35.67246],[139.44478,35.67225],[139.44477,35.67222],[139.44485,35.67214],[139.44484,35.6721],[139.44519,35.67208],[139.44489,35.67196],[139.44485,35.67198],[139.44438,35.67193],[139.44426,35.67202],[139.44392,35.67209],[139.44348,35.67229],[139.44337,35.67237],[139.4429,35.67232],[139.44235,35.67234],[139.44237,35.67221],[139.44212,35.67213],[139.44181,35.67197],[139.4417,35.67207],[139.44128,35.67192],[139.44136,35.67172],[139.44103,35.6716],[139.44057,35.67162],[139.44009,35.67151],[139.44007,35.67182],[139.44013,35.67207],[139.44037,35.67248],[139.44062,35.67272],[139.4391,35.67409],[139.43845,35.67463],[139.43897,35.67505],[139.4391,35.67532],[139.43912,35.67576],[139.44058,35.67576],[139.44064,35.67577],[139.44067,35.67591],[139.44281,35.67583],[139.44452,35.6758],[139.44615,35.67584],[139.44696,35.67597]]]}},{"type":"Feature","properties":{"id":"area-13215006012","name":"谷保七丁目"},"geometry":{"type":"Polygon","coordinates":[[[139.45103,35.67341],[139.4512,35.67311],[139.4513,35.67314],[139.45153,35.67305],[139.45247,35.67224],[139.45273,35.67208],[139.45266,35.67193],[139.45272,35.6719],[139.45268,35.67175],[139.45281,35.6716],[139.45305,35.67152],[139.45304,35.67145],[139.45311,35.67145],[139.45312,35.67136],[139.45326,35.67136],[139.45326,35.6715],[139.45376,35.6715],[139.45382,35.67156],[139.45416,35.67136],[139.45319,35.67125],[139.45249,35.6711],[139.45198,35.67112],[139.4521,35.67156],[139.45105,35.67178],[139.44992,35.67207],[139.44984,35.67185],[139.44887,35.67217],[139.44696,35.67597],[139.44755,35.67611],[139.4483,35.67637],[139.44845,35.67624],[139.44879,35.67579],[139.44891,35.67569],[139.44891,35.67561],[139.44929,35.67508],[139.44971,35.6746],[139.45083,35.67359],[139.45091,35.67355],[139.45103,35.67341]]]}},{"type":"Feature","properties":{"id":"area-13215007000","name":"青柳"},"geometry":{"type":"Polygon","coordinates":[[[139.43077,35.68423],[139.43108,35.68394],[139.43069,35.68374],[139.43041,35.68405],[139.43039,35.68424],[139.43064,35.68408],[139.43077,35.68423]]]}},{"type":"Feature","properties":{"id":"area-13215007001","name":"青柳一丁目"},"geometry":{"type":"Polygon","coordinates":[[[139.42298,35.68779],[139.42334,35.68762],[139.42365,35.68765],[139.42396,35.68759],[139.42437,35.68737],[139.42436,35.68723],[139.42483,35.68702],[139.42493,35.68703],[139.42498,35.68708],[139.42532,35.68691],[139.42554,35.68675],[139.42575,35.68689],[139.42577,35.68697],[139.42589,35.68681],[139.42589,35.68674],[139.42581,35.68662],[139.42586,35.68653],[139.42611,35.68628],[139.42623,35.68608],[139.4267,35.68566],[139.42691,35.68526],[139.42686,35.68438],[139.42634,35.68286],[139.42537,35.68304],[139.42106,35.68399],[139.42182,35.68603],[139.42259,35.68792],[139.42298,35.68779]]]}},{"type":"Feature","properties":{"id":"area-13215007002","name":"青柳二丁目"},"geometry":{"type":"Polygon","coordinates":[[[139.42634,35.68286],[139.42588,35.68097],[139.42574,35.68089],[139.42559,35.68091],[139.42516,35.6807],[139.42536,35.68047],[139.42529,35.6804],[139.42517,35.68047],[139.42415,35.68069],[139.42402,35.68031],[139.4236,35.67946],[139.42356,35.67947],[139.42341,35.6793],[139.42298,35.67891],[139.42262,35.6793],[139.42171,35.68011],[139.42062,35.68092],[139.41716,35.68276],[139.41767,35.68272],[139.41805,35.6826],[139.41858,35.68251],[139.41937,35.68205],[139.42012,35.6818],[139.421,35.684],[139.42537,35.68304],[139.42634,35.68286]]]}},{"type":"Feature","properties":{"id":"area-13215007003","name":"青柳三丁目"},"geometry":{"type":"Polygon","coordinates":[[[139.42259,35.68791],[139.42182,35.68603],[139.42106,35.68399],[139.421,35.684],[139.42012,35.6818],[139.41937,35.68205],[139.41864,35.68249],[139.41805,35.6826],[139.41767,35.68272],[139.41716,35.68276],[139.41688,35.68289],[139.4169,35.68307],[139.41718,35.68302],[139.41815,35.68365],[139.4189,35.68444],[139.41885,35.68457],[139.41947,35.68545],[139.42011,35.68644],[139.42078,35.68777],[139.42096,35.68795],[139.42178,35.68769],[139.42184,35.68777],[139.42194,35.68774],[139.42219,35.6882],[139.42259,35.68791]]]}},{"type":"Feature","properties":{"id":"area-132150080","name":"石田"},"geometry":{"type":"MultiPolygon","coordinates":[[[[139.43208,35.68427],[139.43147,35.68437],[139.43142,35.68419],[139.43081,35.68429],[139.43064,35.68408],[139.43025,35.68432],[139.4302,35.68438],[139.42979,35.68458],[139.42968,35.68482],[139.42978,35.6849],[139.43088,35.68453],[139.43126,35.68446],[139.43134,35.68454],[139.43153,35.68447],[139.4317,35.68478],[139.43182,35.68476],[139.43198,35.68502],[139.43235,35.68497],[139.43208,35.68427]]],[[[139.43114,35.68477],[139.43093,35.68483],[139.43095,35.68496],[139.43062,35.68505],[139.43069,35.68518],[139.43129,35.6851],[139.43114,35.68477]]]]}},{"type":"Feature","properties":{"id":"area-13215009001","name":"泉一丁目"},"geometry":{"type":"Polygon","coordinates":[[[139.44037,35.67248],[139.44013,35.67207],[139.44007,35.67182],[139.44009,35.67151],[139.44012,35.67151],[139.44015,35.67135],[139.44052,35.67143],[139.44066,35.67142],[139.44066,35.67131],[139.44069,35.67128],[139.44095,35.67123],[139.44096,35.67131],[139.44092,35.67134],[139.44106,35.67137],[139.44139,35.67133],[139.44151,35.6714],[139.44162,35.67152],[139.44189,35.67162],[139.44191,35.67129],[139.44233,35.6713],[139.44232,35.67121],[139.44292,35.67106],[139.44329,35.67101],[139.4433,35.67096],[139.44353,35.67095],[139.44352,35.6709],[139.44334,35.67073],[139.44271,35.67084],[139.44244,35.67093],[139.4418,35.67099],[139.44164,35.67106],[139.44145,35.67106],[139.44114,35.67096],[139.44111,35.67086],[139.44121,35.67077],[139.4412,35.67072],[139.44072,35.67081],[139.43955,35.67118],[139.43958,35.67141],[139.43915,35.67152],[139.43905,35.67132],[139.43867,35.6715],[139.43818,35.67179],[139.43805,35.6716],[139.43724,35.67203],[139.43723,35.6721],[139.43697,35.67225],[139.43702,35.67174],[139.43695,35.67173],[139.43696,35.67176],[139.43677,35.67181],[139.43643,35.67179],[139.43647,35.67142],[139.43638,35.67142],[139.43605,35.67154],[139.43588,35.67166],[139.43573,35.67148],[139.43526,35.67169],[139.43438,35.67218],[139.43417,35.6721],[139.43318,35.67303],[139.43067,35.67527],[139.43058,35.67529],[139.43037,35.67547],[139.43104,35.67566],[139.43224,35.67578],[139.43692,35.6758],[139.43816,35.67487],[139.4391,35.67409],[139.44062,35.67272],[139.44037,35.67248]]]}},{"type":"Feature","properties":{"id":"area-13215009002","name":"泉二丁目"},"geometry":{"type":"Polygon","coordinates":[[[139.43022,35.67529],[139.43057,35.67526],[139.43058,35.67529],[139.43067,35.67527],[139.43318,35.67303],[139.43417,35.6721],[139.4341,35.67201],[139.43347,35.67227],[139.43343,35.6722],[139.43303,35.67235],[139.43299,35.67241],[139.43181,35.67272],[139.43082,35.67204],[139.43089,35.67195],[139.43056,35.67175],[139.43048,35.67183],[139.42944,35.67117],[139.4277,35.67251],[139.4268,35.67341],[139.42631,35.67411],[139.42774,35.67401],[139.42836,35.6743],[139.42981,35.67507],[139.42982,35.67514],[139.43022,35.67529]]]}},{"type":"Feature","properties":{"id":"area-13215009003","name":"泉三丁目"},"geometry":{"type":"Polygon","coordinates":[[[139.42659,35.68042],[139.42802,35.68004],[139.42794,35.67959],[139.42792,35.6791],[139.42803,35.67834],[139.42816,35.6779],[139.42869,35.67704],[139.43011,35.67568],[139.43058,35.67529],[139.43057,35.67526],[139.43022,35.67529],[139.42982,35.67514],[139.42981,35.67507],[139.42836,35.6743],[139.42774,35.67401],[139.42631,35.67411],[139.42565,35.67523],[139.42532,35.67564],[139.4244,35.67664],[139.42298,35.67891],[139.42341,35.6793],[139.42356,35.67947],[139.4236,35.67946],[139.42402,35.68031],[139.42415,35.68069],[139.42517,35.68047],[139.42529,35.6804],[139.42536,35.68047],[139.42516,35.6807],[139.42592,35.68065],[139.42659,35.68042]]]}},{"type":"Feature","properties":{"id":"area-13215009004","name":"泉四丁目"},"geometry":{"type":"Polygon","coordinates":[[[139.43635,35.67622],[139.43692,35.6758],[139.43224,35.67578],[139.43104,35.67566],[139.43037,35.67547],[139.42869,35.67704],[139.42816,35.6779],[139.42803,35.67834],[139.42794,35.67885],[139.42927,35.67878],[139.43035,35.67864],[139.43152,35.67839],[139.43283,35.678],[139.43372,35.67767],[139.43458,35.67728],[139.43566,35.67666],[139.43635,35.67622]]]}},{"type":"Feature","properties":{"id":"area-13215009005","name":"泉五丁目"},"geometry":{"type":"Polygon","coordinates":[[[139.43187,35.67894],[139.43258,35.67866],[139.43273,35.67867],[139.43341,35.67852],[139.43356,35.67855],[139.43373,35.67869],[139.43381,35.67852],[139.43402,35.67844],[139.43411,35.67844],[139.4363,35.67871],[139.43767,35.67879],[139.4379,35.67878],[139.43806,35.67875],[139.43837,35.67861],[139.43866,35.67856],[139.43875,35.67857],[139.43911,35.67879],[139.43916,35.67901],[139.43915,35.6765],[139.43911,35.67545],[139.4391,35.67532],[139.43897,35.67505],[139.43845,35.67463],[139.43692,35.6758],[139.43635,35.67622],[139.43566,35.67666],[139.43446,35.67734],[139.43372,35.67767],[139.43283,35.678],[139.43152,35.67839],[139.43035,35.67864],[139.42927,35.67878],[139.42794,35.67885],[139.42792,35.6791],[139.42794,35.67959],[139.42802,35.68004],[139.42809,35.68016],[139.42835,35.68015],[139.4292,35.67994],[139.4299,35.67987],[139.4302,35.67976],[139.43066,35.67943],[139.43127,35.67922],[139.43187,35.67894]]]}},{"type":"Feature","properties":{"id":"area-132150100","name":"矢川"},"geometry":{"type":"Polygon","coordinates":[[[139.43174,35.68131],[139.43121,35.67982],[139.43087,35.67935],[139.43066,35.67943],[139.4302,35.67976],[139.4299,35.67987],[139.4292,35.67994],[139.42835,35.68015],[139.42809,35.68016],[139.42802,35.68004],[139.42745,35.68018],[139.42592,35.68065],[139.42516,35.6807],[139.42559,35.68091],[139.42574,35.68089],[139.42588,35.68097],[139.42621,35.68242],[139.42635,35.68289],[139.42782,35.68262],[139.42883,35.6825],[139.43178,35.68228],[139.43179,35.68163],[139.43174,35.68131]]]}}]}