{"type":"FeatureCollection","features":[{"type":"Feature","properties":{"id":"area-13219001001","name":"和泉本町一丁目"},"geometry":{"type":"Polygon","coordinates":[[[139.58013,35.63475],[139.58047,35.63469],[139.58057,35.63463],[139.58071,35.63436],[139.57989,35.63394],[139.57915,35.6335],[139.5778,35.63444],[139.57763,35.63461],[139.57716,35.6353],[139.57667,35.63587],[139.57558,35.63697],[139.57527,35.63724],[139.57447,35.63782],[139.57583,35.64121],[139.57637,35.64091],[139.57733,35.6403],[139.57931,35.6389],[139.57994,35.63858],[139.57987,35.63809],[139.57967,35.6351],[139.57968,35.63497],[139.57974,35.63487],[139.58013,35.63475]]]}},{"type":"Feature","properties":{"id":"area-13219001002","name":"和泉本町二丁目"},"geometry":{"type":"Polygon","coordinates":[[[139.57855,35.64297],[139.57885,35.643],[139.57904,35.64295],[139.57936,35.64248],[139.57959,35.64229],[139.58033,35.64201],[139.58061,35.64198],[139.58082,35.64171],[139.58105,35.64154],[139.58113,35.64144],[139.58107,35.64107],[139.58002,35.63959],[139.57994,35.63858],[139.57931,35.6389],[139.57733,35.6403],[139.57637,35.64091],[139.57583,35.64121],[139.57684,35.64367],[139.57695,35.64399],[139.57707,35.64386],[139.57766,35.64343],[139.57802,35.64334],[139.57855,35.64297]]]}},{"type":"Feature","properties":{"id":"area-13219001003","name":"和泉本町三丁目"},"geometry":{"type":"Polygon","coordinates":[[[139.57669,35.6439],[139.57687,35.64374],[139.57684,35.64367],[139.57447,35.63782],[139.57285,35.63902],[139.57206,35.63942],[139.57076,35.64021],[139.57051,35.6404],[139.57142,35.64104],[139.5717,35.64132],[139.57197,35.64167],[139.57239,35.64233],[139.57285,35.64285],[139.57321,35.64361],[139.57399,35.64358],[139.57439,35.64361],[139.57507,35.64379],[139.5753,35.64389],[139.57626,35.64386],[139.57647,35.6438],[139.57669,35.6439]]]}},{"type":"Feature","properties":{"id":"area-13219001004","name":"和泉本町四丁目"},"geometry":{"type":"Polygon","coordinates":[[[139.56769,35.64763],[139.5682,35.6474],[139.56819,35.64751],[139.56822,35.64751],[139.56824,35.64643],[139.56782,35.6456],[139.57094,35.64397],[139.57294,35.64369],[139.5732,35.6436],[139.57285,35.64285],[139.57239,35.64233],[139.57197,35.64167],[139.5717,35.64132],[139.57142,35.64104],[139.57051,35.6404],[139.57052,35.64039],[139.57048,35.64039],[139.5697,35.64083],[139.56936,35.64113],[139.56893,35.64162],[139.56878,35.64187],[139.56851,35.64222],[139.56682,35.64333],[139.56668,35.64349],[139.5659,35.64412],[139.56533,35.64464],[139.56485,35.64487],[139.5651,35.64526],[139.56528,35.64517],[139.56538,35.6453],[139.56546,35.64526],[139.56551,35.64533],[139.56523,35.64546],[139.56538,35.64569],[139.56532,35.64572],[139.5656,35.64612],[139.56568,35.64608],[139.56575,35.64617],[139.56582,35.64613],[139.56659,35.64731],[139.56727,35.64699],[139.56769,35.64763]]]}},{"type":"Feature","properties":{"id":"area-13219002001","name":"中和泉一丁目"},"geometry":{"type":"Polygon","coordinates":[[[139.57811,35.63369],[139.57562,35.63349],[139.57452,35.63315],[139.57374,35.63299],[139.57334,35.63298],[139.57274,35.63302],[139.57263,35.63306],[139.57274,35.63366],[139.57282,35.63388],[139.57444,35.63784],[139.57527,35.63724],[139.57558,35.63697],[139.57667,35.63587],[139.57716,35.6353],[139.57763,35.63461],[139.5778,35.63444],[139.57848,35.63395],[139.57811,35.63369]]]}},{"type":"Feature","properties":{"id":"area-13219002002","name":"中和泉二丁目"},"geometry":{"type":"Polygon","coordinates":[[[139.57444,35.63784],[139.57363,35.63587],[139.57227,35.63651],[139.57022,35.63736],[139.56843,35.63816],[139.56941,35.63953],[139.56999,35.64003],[139.57048,35.64039],[139.57052,35.64039],[139.57076,35.64021],[139.57206,35.63942],[139.57285,35.63902],[139.57444,35.63784]]]}},{"type":"Feature","properties":{"id":"area-13219002003","name":"中和泉三丁目"},"geometry":{"type":"Polygon","coordinates":[[[139.57274,35.63366],[139.57263,35.63306],[139.57264,35.63304],[139.57247,35.63304],[139.57129,35.63307],[139.56983,35.63332],[139.56959,35.63332],[139.569,35.63325],[139.56881,35.63326],[139.56738,35.63356],[139.5671,35.63359],[139.56667,35.63357],[139.56634,35.63368],[139.56692,35.63477],[139.56718,35.63584],[139.56748,35.63677],[139.5676,35.63695],[139.56825,35.63766],[139.56843,35.63816],[139.57022,35.63736],[139.57227,35.63651],[139.57363,35.63587],[139.57274,35.63366]]]}},{"type":"Feature","properties":{"id":"area-13219002004","name":"中和泉四丁目"},"geometry":{"type":"Polygon","coordinates":[[[139.56692,35.63477],[139.56634,35.63368],[139.56546,35.63395],[139.56511,35.63397],[139.56478,35.63414],[139.56347,35.63499],[139.56564,35.63787],[139.56578,35.63814],[139.56587,35.63839],[139.566,35.63907],[139.56642,35.63899],[139.56659,35.63868],[139.56697,35.63851],[139.56787,35.63838],[139.56843,35.63816],[139.56825,35.63766],[139.5676,35.63695],[139.56748,35.63677],[139.56718,35.63584],[139.56692,35.63477]]]}},{"type":"Feature","properties":{"id":"area-13219002005","name":"中和泉五丁目"},"geometry":{"type":"Polygon","coordinates":[[[139.56941,35.63953],[139.56843,35.63816],[139.56787,35.63838],[139.56697,35.63851],[139.56659,35.63868],[139.56642,35.63899],[139.566,35.63907],[139.56592,35.6396],[139.5657,35.64015],[139.56555,35.64042],[139.56481,35.64107],[139.56445,35.6413],[139.56361,35.64172],[139.56337,35.64179],[139.56412,35.6435],[139.56485,35.64487],[139.56533,35.64464],[139.5659,35.64412],[139.56668,35.64349],[139.56682,35.64333],[139.56851,35.64222],[139.56878,35.64187],[139.56893,35.64162],[139.56936,35.64113],[139.5697,35.64083],[139.57048,35.64039],[139.56941,35.63953]]]}},{"type":"Feature","properties":{"id":"area-13219003001","name":"西和泉一丁目"},"geometry":{"type":"Polygon","coordinates":[[[139.566,35.63907],[139.56587,35.63839],[139.56578,35.63814],[139.56556,35.63831],[139.56549,35.63832],[139.56543,35.63828],[139.56509,35.6383],[139.56503,35.63834],[139.56422,35.63835],[139.56314,35.63856],[139.56305,35.63851],[139.56298,35.63864],[139.56297,35.6388],[139.56337,35.64179],[139.56361,35.64172],[139.56445,35.6413],[139.56481,35.64107],[139.56555,35.64042],[139.5657,35.64015],[139.56592,35.6396],[139.566,35.63907]]]}},{"type":"Feature","properties":{"id":"area-13219003002","name":"西和泉二丁目"},"geometry":{"type":"Polygon","coordinates":[[[139.56509,35.6383],[139.56543,35.63828],[139.56549,35.63832],[139.56556,35.63831],[139.56578,35.63814],[139.56564,35.63787],[139.56543,35.63757],[139.56347,35.63499],[139.56278,35.6354],[139.5631,35.63796],[139.56311,35.63824],[139.56305,35.63851],[139.56314,35.63856],[139.56422,35.63835],[139.56503,35.63834],[139.56509,35.6383]]]}},{"type":"Feature","properties":{"id":"area-13219004001","name":"元和泉一丁目"},"geometry":{"type":"Polygon","coordinates":[[[139.57848,35.63395],[139.57915,35.6335],[139.57804,35.63269],[139.57794,35.6326],[139.57788,35.6325],[139.57653,35.63128],[139.57599,35.63063],[139.57459,35.62861],[139.57432,35.62859],[139.57424,35.62865],[139.57387,35.6292],[139.57377,35.6298],[139.57345,35.63039],[139.57289,35.63081],[139.5731,35.63102],[139.57325,35.63152],[139.57325,35.63169],[139.57319,35.63175],[139.57294,35.63191],[139.57293,35.63197],[139.57305,35.63216],[139.57306,35.63251],[139.57323,35.63283],[139.57295,35.6329],[139.57274,35.63302],[139.57334,35.63298],[139.57374,35.63299],[139.57452,35.63315],[139.57562,35.63349],[139.57811,35.63369],[139.57848,35.63395]]]}},{"type":"Feature","properties":{"id":"area-13219004002","name":"元和泉二丁目"},"geometry":{"type":"Polygon","coordinates":[[[139.56657,35.63359],[139.56738,35.63356],[139.56881,35.63326],[139.569,35.63325],[139.56959,35.63332],[139.56983,35.63332],[139.57129,35.63307],[139.57264,35.63304],[139.57295,35.6329],[139.57323,35.63283],[139.57306,35.63251],[139.57305,35.63216],[139.57293,35.63197],[139.57294,35.63191],[139.57319,35.63175],[139.57325,35.63169],[139.57325,35.63152],[139.5731,35.63102],[139.57289,35.63081],[139.57345,35.63039],[139.57377,35.6298],[139.57387,35.6292],[139.57395,35.62908],[139.5733,35.6291],[139.57281,35.62927],[139.57005,35.63078],[139.56894,35.63131],[139.56808,35.63168],[139.5678,35.63176],[139.56756,35.63178],[139.56732,35.63184],[139.5669,35.63218],[139.56655,35.63236],[139.5649,35.63371],[139.56511,35.63397],[139.5653,35.63397],[139.56582,35.63385],[139.56657,35.63359]]]}},{"type":"Feature","properties":{"id":"area-13219004003","name":"元和泉三丁目"},"geometry":{"type":"Polygon","coordinates":[[[139.56894,35.63131],[139.57005,35.63078],[139.57281,35.62927],[139.5733,35.6291],[139.57395,35.62908],[139.57408,35.62886],[139.57424,35.62865],[139.57432,35.62859],[139.57366,35.62847],[139.57322,35.62827],[139.57286,35.62802],[139.57138,35.62682],[139.57051,35.62618],[139.57014,35.62651],[139.56955,35.62773],[139.56919,35.6286],[139.56841,35.63031],[139.56822,35.63069],[139.56789,35.63116],[139.56801,35.63115],[139.56786,35.63151],[139.56769,35.63172],[139.56756,35.63178],[139.5678,35.63176],[139.56808,35.63168],[139.56894,35.63131]]]}},{"type":"Feature","properties":{"id":"area-13219005001","name":"東和泉一丁目"},"geometry":{"type":"Polygon","coordinates":[[[139.57524,35.62866],[139.57459,35.62861],[139.57599,35.63063],[139.57653,35.63128],[139.57788,35.6325],[139.57794,35.6326],[139.57872,35.63321],[139.57916,35.63351],[139.57989,35.63394],[139.58071,35.63436],[139.58082,35.63413],[139.58095,35.634],[139.58106,35.63396],[139.5811,35.63391],[139.58108,35.63383],[139.58062,35.63342],[139.58282,35.63183],[139.58206,35.63145],[139.57949,35.63036],[139.57604,35.62895],[139.57569,35.62877],[139.57524,35.62866]]]}},{"type":"Feature","properties":{"id":"area-13219005002","name":"東和泉二丁目"},"geometry":{"type":"Polygon","coordinates":[[[139.58049,35.62903],[139.57938,35.62903],[139.57874,35.62887],[139.5786,35.62831],[139.57767,35.6282],[139.57702,35.62824],[139.57564,35.62819],[139.57578,35.62869],[139.57588,35.62887],[139.57604,35.62895],[139.58031,35.6307],[139.58206,35.63145],[139.58307,35.63192],[139.58307,35.63178],[139.58265,35.63127],[139.58249,35.6311],[139.58204,35.63072],[139.58202,35.63036],[139.58198,35.63028],[139.58165,35.63016],[139.58163,35.62988],[139.58167,35.62987],[139.58163,35.62983],[139.58164,35.62971],[139.58162,35.62968],[139.58106,35.62932],[139.58076,35.62908],[139.58049,35.62903]]]}},{"type":"Feature","properties":{"id":"area-13219005003","name":"東和泉三丁目"},"geometry":{"type":"Polygon","coordinates":[[[139.57564,35.62819],[139.57532,35.62656],[139.57491,35.62511],[139.57476,35.62499],[139.57456,35.6249],[139.57395,35.62473],[139.57372,35.62462],[139.57358,35.62463],[139.57337,35.6247],[139.5723,35.62517],[139.57315,35.62648],[139.5731,35.62661],[139.57313,35.62667],[139.57327,35.62662],[139.57337,35.62674],[139.57417,35.62792],[139.57459,35.62861],[139.57524,35.62866],[139.57569,35.62877],[139.57588,35.62887],[139.57578,35.62869],[139.57564,35.62819]]]}},{"type":"Feature","properties":{"id":"area-13219005004","name":"東和泉四丁目"},"geometry":{"type":"Polygon","coordinates":[[[139.57459,35.62861],[139.57389,35.62749],[139.57337,35.62674],[139.57327,35.62662],[139.57313,35.62667],[139.5731,35.62661],[139.57315,35.62648],[139.5723,35.62517],[139.57166,35.62548],[139.57099,35.62584],[139.57051,35.62618],[139.57138,35.62682],[139.57286,35.62802],[139.57322,35.62827],[139.57366,35.62847],[139.57386,35.62853],[139.57459,35.62861]]]}},{"type":"Feature","properties":{"id":"area-13219006001","name":"猪方一丁目"},"geometry":{"type":"Polygon","coordinates":[[[139.58242,35.62933],[139.58248,35.62898],[139.58255,35.6289],[139.58272,35.62881],[139.58301,35.62873],[139.58334,35.62878],[139.58362,35.62898],[139.58377,35.62903],[139.58445,35.62879],[139.58467,35.62867],[139.58492,35.62844],[139.58528,35.62826],[139.58583,35.62821],[139.58622,35.62804],[139.5862,35.62797],[139.58626,35.62788],[139.5861,35.62761],[139.58605,35.62763],[139.58585,35.62723],[139.58554,35.6273],[139.58542,35.6274],[139.5853,35.62712],[139.58303,35.62758],[139.58076,35.62789],[139.57844,35.62829],[139.5786,35.62831],[139.57874,35.62887],[139.57938,35.62903],[139.58003,35.62901],[139.58057,35.62904],[139.58076,35.62908],[139.58106,35.62932],[139.58162,35.62968],[139.58164,35.62971],[139.58163,35.62983],[139.58167,35.62987],[139.58181,35.62985],[139.58202,35.62975],[139.58242,35.62933]]]}},{"type":"Feature","properties":{"id":"area-13219006002","name":"猪方二丁目"},"geometry":{"type":"Polygon","coordinates":[[[139.5828,35.6242],[139.58284,35.62404],[139.5825,35.62394],[139.58216,35.62413],[139.58215,35.62412],[139.58196,35.6242],[139.58122,35.6243],[139.58114,35.62483],[139.58083,35.62522],[139.58078,35.62535],[139.58064,35.62546],[139.58059,35.62578],[139.57988,35.62703],[139.57972,35.62746],[139.57958,35.6281],[139.58076,35.62789],[139.58303,35.62758],[139.5853,35.62712],[139.58523,35.62696],[139.58486,35.6267],[139.5848,35.6266],[139.58473,35.62638],[139.5848,35.62611],[139.58427,35.62607],[139.58427,35.62587],[139.58355,35.62532],[139.58364,35.62532],[139.58367,35.62518],[139.58309,35.62505],[139.58318,35.62475],[139.58303,35.6247],[139.58319,35.6243],[139.5828,35.6242]]]}},{"type":"Feature","properties":{"id":"area-13219006003","name":"猪方三丁目"},"geometry":{"type":"Polygon","coordinates":[[[139.57844,35.62829],[139.57958,35.6281],[139.57972,35.62746],[139.57988,35.62703],[139.58059,35.62578],[139.58064,35.62546],[139.58078,35.62535],[139.58083,35.62522],[139.58114,35.62483],[139.58122,35.6243],[139.57978,35.62425],[139.57814,35.62395],[139.57787,35.62398],[139.57754,35.62403],[139.57628,35.62452],[139.57546,35.6246],[139.575,35.62479],[139.57476,35.62499],[139.57491,35.62511],[139.57496,35.62522],[139.57532,35.62656],[139.57564,35.62819],[139.57702,35.62824],[139.57767,35.6282],[139.57844,35.62829]]]}},{"type":"Feature","properties":{"id":"area-13219006004","name":"猪方四丁目"},"geometry":{"type":"Polygon","coordinates":[[[139.56786,35.63151],[139.56801,35.63115],[139.56789,35.63116],[139.56822,35.63069],[139.56841,35.63031],[139.56919,35.6286],[139.56955,35.62773],[139.57014,35.62651],[139.57051,35.62618],[139.57099,35.62584],[139.57207,35.62527],[139.57358,35.62463],[139.57372,35.62462],[139.57395,35.62473],[139.57456,35.6249],[139.57476,35.62499],[139.575,35.62479],[139.57546,35.6246],[139.57628,35.62452],[139.57736,35.62409],[139.57771,35.62399],[139.57814,35.62395],[139.57978,35.62425],[139.58122,35.6243],[139.58196,35.6242],[139.58215,35.62412],[139.58165,35.62345],[139.58103,35.62283],[139.58265,35.6224],[139.58516,35.62149],[139.58589,35.62115],[139.5869,35.62088],[139.58746,35.62076],[139.58844,35.6208],[139.5894,35.6209],[139.58997,35.6193],[139.59002,35.61911],[139.59001,35.61854],[139.58803,35.61975],[139.58723,35.62014],[139.58653,35.62037],[139.58436,35.62124],[139.58338,35.62152],[139.58214,35.62175],[139.57996,35.62205],[139.57752,35.62171],[139.57643,35.62189],[139.57571,35.62222],[139.57464,35.6226],[139.57386,35.62298],[139.5714,35.62404],[139.57046,35.62472],[139.56985,35.6254],[139.56899,35.6261],[139.56817,35.6266],[139.56589,35.62762],[139.56666,35.62947],[139.56304,35.63112],[139.56299,35.63203],[139.56217,35.63245],[139.5618,35.63269],[139.56194,35.63294],[139.56253,35.63462],[139.56258,35.6349],[139.56267,35.63518],[139.56278,35.6354],[139.56478,35.63414],[139.56511,35.63397],[139.5649,35.63371],[139.56655,35.63236],[139.5669,35.63218],[139.56722,35.63189],[139.56769,35.63172],[139.56786,35.63151]]]}},{"type":"Feature","properties":{"id":"area-13219007001","name":"駒井町一丁目"},"geometry":{"type":"Polygon","coordinates":[[[139.58668,35.62795],[139.58696,35.62794],[139.58772,35.62779],[139.58772,35.62724],[139.58787,35.62713],[139.58794,35.62697],[139.58809,35.62633],[139.58766,35.62621],[139.58709,35.62617],[139.58706,35.62593],[139.58681,35.62538],[139.58669,35.62527],[139.58646,35.62522],[139.58635,35.62507],[139.586,35.62402],[139.58585,35.62373],[139.58573,35.62302],[139.58362,35.62286],[139.58285,35.62357],[139.5825,35.62394],[139.58284,35.62404],[139.5828,35.6242],[139.58319,35.6243],[139.58303,35.6247],[139.58318,35.62475],[139.58309,35.62505],[139.58367,35.62518],[139.58364,35.62532],[139.58355,35.62532],[139.58427,35.62587],[139.58427,35.62607],[139.5848,35.62611],[139.58473,35.62638],[139.5848,35.6266],[139.58486,35.6267],[139.58523,35.62696],[139.58542,35.6274],[139.58554,35.6273],[139.58585,35.62723],[139.58605,35.62763],[139.5861,35.62761],[139.58626,35.62788],[139.5862,35.62797],[139.58622,35.62804],[139.5865,35.62809],[139.58668,35.62795]]]}},{"type":"Feature","properties":{"id":"area-13219007002","name":"駒井町二丁目"},"geometry":{"type":"Polygon","coordinates":[[[139.5896,35.62362],[139.58942,35.62321],[139.58889,35.62321],[139.58826,35.62327],[139.58798,35.62325],[139.58748,35.62315],[139.58573,35.62302],[139.58585,35.62373],[139.586,35.62402],[139.58635,35.62507],[139.58646,35.62522],[139.58669,35.62527],[139.58681,35.62538],[139.58706,35.62593],[139.58709,35.62617],[139.58766,35.62621],[139.58809,35.62633],[139.58794,35.62697],[139.58787,35.62713],[139.58772,35.62724],[139.58774,35.62775],[139.58779,35.62768],[139.58802,35.62765],[139.58888,35.62727],[139.5892,35.627],[139.58975,35.62632],[139.58981,35.62621],[139.5898,35.62588],[139.58966,35.62569],[139.58945,35.62532],[139.58948,35.62518],[139.58946,35.62502],[139.58964,35.62492],[139.58986,35.62469],[139.58969,35.62455],[139.58964,35.62381],[139.5896,35.62362]]]}},{"type":"Feature","properties":{"id":"area-13219007003","name":"駒井町三丁目"},"geometry":{"type":"Polygon","coordinates":[[[139.58285,35.62357],[139.58362,35.62286],[139.58707,35.62311],[139.58826,35.62327],[139.58889,35.62321],[139.58966,35.62321],[139.5898,35.62243],[139.58985,35.62197],[139.58985,35.62169],[139.58922,35.62141],[139.5894,35.6209],[139.58844,35.6208],[139.58746,35.62076],[139.5869,35.62088],[139.58589,35.62115],[139.58516,35.62149],[139.58265,35.6224],[139.58103,35.62283],[139.58165,35.62345],[139.58216,35.62413],[139.5825,35.62394],[139.58285,35.62357]]]}},{"type":"Feature","properties":{"id":"area-13219008001","name":"岩戸南一丁目"},"geometry":{"type":"Polygon","coordinates":[[[139.58578,35.63111],[139.5856,35.63017],[139.5853,35.63023],[139.58506,35.62998],[139.58506,35.62978],[139.58471,35.62864],[139.58445,35.62879],[139.58377,35.62903],[139.58362,35.62898],[139.58334,35.62878],[139.58323,35.62875],[139.58301,35.62873],[139.58272,35.62881],[139.58255,35.6289],[139.58248,35.62898],[139.58242,35.62933],[139.58202,35.62975],[139.58181,35.62985],[139.58163,35.62988],[139.58165,35.63016],[139.58198,35.63028],[139.58202,35.63036],[139.58204,35.63072],[139.58249,35.6311],[139.58265,35.63127],[139.58307,35.63178],[139.58307,35.63192],[139.58451,35.63263],[139.58526,35.63273],[139.58568,35.63263],[139.58573,35.6325],[139.58597,35.63205],[139.58599,35.63168],[139.58596,35.6315],[139.58578,35.63111]]]}},{"type":"Feature","properties":{"id":"area-13219008002","name":"岩戸南二丁目"},"geometry":{"type":"Polygon","coordinates":[[[139.58922,35.63265],[139.58922,35.63248],[139.58903,35.63208],[139.58884,35.63143],[139.58848,35.63073],[139.5889,35.63051],[139.5888,35.63],[139.58952,35.6298],[139.58932,35.62949],[139.58917,35.62946],[139.58888,35.62951],[139.58859,35.62939],[139.58801,35.6293],[139.58779,35.62933],[139.58772,35.62926],[139.58764,35.62876],[139.58768,35.62854],[139.58782,35.6283],[139.58772,35.62778],[139.58696,35.62794],[139.58674,35.62793],[139.5865,35.62809],[139.58622,35.62804],[139.58583,35.62821],[139.58528,35.62826],[139.58492,35.62844],[139.58471,35.62864],[139.58506,35.62978],[139.58506,35.62998],[139.5853,35.63023],[139.5856,35.63017],[139.58578,35.63111],[139.58596,35.6315],[139.58599,35.63168],[139.58597,35.63205],[139.58573,35.6325],[139.58568,35.63263],[139.586,35.63263],[139.58674,35.63273],[139.58785,35.63281],[139.5891,35.633],[139.58922,35.63265]]]}},{"type":"Feature","properties":{"id":"area-13219008003","name":"岩戸南三丁目"},"geometry":{"type":"Polygon","coordinates":[[[139.59118,35.63293],[139.5915,35.6329],[139.59128,35.63208],[139.59153,35.63196],[139.5916,35.63189],[139.59118,35.63099],[139.59131,35.63089],[139.59198,35.63059],[139.5924,35.63034],[139.59242,35.63022],[139.59254,35.62999],[139.59258,35.62974],[139.59281,35.6296],[139.59223,35.62885],[139.59218,35.62875],[139.59242,35.62829],[139.59219,35.62751],[139.59227,35.62743],[139.59254,35.62727],[139.59265,35.62744],[139.59274,35.62744],[139.59286,35.62767],[139.59348,35.62759],[139.59355,35.62756],[139.59384,35.62734],[139.59384,35.6273],[139.59415,35.62707],[139.59376,35.62666],[139.59361,35.62672],[139.59353,35.62666],[139.59348,35.62676],[139.59338,35.62677],[139.59325,35.62653],[139.59314,35.62648],[139.59268,35.62656],[139.59216,35.62628],[139.59156,35.62646],[139.59119,35.62645],[139.59114,35.62649],[139.59118,35.62662],[139.59113,35.62704],[139.59104,35.62718],[139.59089,35.62729],[139.59061,35.6274],[139.59055,35.62758],[139.59049,35.62765],[139.59019,35.62774],[139.58987,35.62811],[139.58995,35.6283],[139.58992,35.62835],[139.58976,35.62845],[139.58954,35.62875],[139.58944,35.62877],[139.58897,35.62859],[139.58852,35.62882],[139.58838,35.6288],[139.58817,35.62889],[139.58808,35.62889],[139.58787,35.62881],[139.5878,35.62883],[139.58767,35.629],[139.58772,35.62926],[139.58779,35.62933],[139.58801,35.6293],[139.58859,35.62939],[139.58888,35.62951],[139.58917,35.62946],[139.58932,35.62949],[139.58952,35.6298],[139.5888,35.63],[139.5889,35.63051],[139.58848,35.63073],[139.58884,35.63143],[139.58903,35.63208],[139.58922,35.63248],[139.58922,35.63265],[139.5891,35.633],[139.59033,35.63321],[139.59101,35.63343],[139.59096,35.63353],[139.59109,35.63349],[139.59118,35.63293]]]}},{"type":"Feature","properties":{"id":"area-13219008004","name":"岩戸南四丁目"},"geometry":{"type":"Polygon","coordinates":[[[139.5878,35.62883],[139.58787,35.62881],[139.58808,35.62889],[139.58817,35.62889],[139.58838,35.6288],[139.58852,35.62882],[139.58897,35.62859],[139.58944,35.62877],[139.58954,35.62875],[139.58976,35.62845],[139.58992,35.62835],[139.58995,35.6283],[139.58987,35.62811],[139.59019,35.62774],[139.59049,35.62765],[139.59055,35.62758],[139.59061,35.6274],[139.59089,35.62729],[139.59104,35.62718],[139.59113,35.62704],[139.59118,35.62662],[139.59114,35.62649],[139.59119,35.62645],[139.59156,35.62646],[139.59216,35.62628],[139.59268,35.62656],[139.59314,35.62648],[139.59325,35.62653],[139.59338,35.62677],[139.59348,35.62676],[139.59353,35.62666],[139.59349,35.62664],[139.59354,35.62644],[139.59375,35.62624],[139.59348,35.62609],[139.59333,35.62594],[139.59252,35.62448],[139.5923,35.62416],[139.59241,35.62373],[139.59192,35.62381],[139.59185,35.62357],[139.59135,35.62367],[139.59098,35.6239],[139.59103,35.624],[139.59088,35.62407],[139.59079,35.62401],[139.59073,35.62406],[139.59076,35.62409],[139.59061,35.62413],[139.58986,35.62469],[139.58964,35.62492],[139.58946,35.62502],[139.58948,35.62518],[139.58945,35.62532],[139.58966,35.62569],[139.5898,35.62588],[139.58981,35.62621],[139.58975,35.62632],[139.5892,35.627],[139.58888,35.62727],[139.58802,35.62765],[139.58779,35.62768],[139.58772,35.62779],[139.58782,35.6283],[139.58768,35.62854],[139.58764,35.62876],[139.58767,35.629],[139.5878,35.62883]]]}},{"type":"Feature","properties":{"id":"area-13219009001","name":"岩戸北一丁目"},"geometry":{"type":"Polygon","coordinates":[[[139.58236,35.63506],[139.58071,35.63436],[139.58057,35.63463],[139.58047,35.63469],[139.57996,35.63479],[139.57974,35.63487],[139.57968,35.63497],[139.57967,35.63535],[139.57987,35.63809],[139.57994,35.63862],[139.58099,35.63811],[139.58167,35.63771],[139.58261,35.63727],[139.58397,35.63657],[139.58426,35.63644],[139.58507,35.63619],[139.58513,35.63611],[139.58509,35.63587],[139.583,35.63526],[139.58236,35.63506]]]}},{"type":"Feature","properties":{"id":"area-13219009002","name":"岩戸北二丁目"},"geometry":{"type":"Polygon","coordinates":[[[139.58522,35.6388],[139.58566,35.63768],[139.58609,35.637],[139.58661,35.63629],[139.58509,35.63587],[139.58513,35.63611],[139.58507,35.63619],[139.58426,35.63644],[139.58397,35.63657],[139.58261,35.63727],[139.58167,35.63771],[139.58099,35.63811],[139.57994,35.63862],[139.58001,35.63943],[139.5804,35.63941],[139.58046,35.63957],[139.58045,35.6397],[139.58052,35.63985],[139.58071,35.63979],[139.58142,35.63948],[139.58195,35.63917],[139.5823,35.63888],[139.58269,35.63875],[139.58286,35.63899],[139.58299,35.6391],[139.58363,35.63942],[139.58387,35.64004],[139.58387,35.64029],[139.58391,35.64058],[139.58413,35.64113],[139.58423,35.64117],[139.58435,35.64087],[139.58471,35.64024],[139.58507,35.6393],[139.58522,35.6388]]]}},{"type":"Feature","properties":{"id":"area-13219009003","name":"岩戸北三丁目"},"geometry":{"type":"Polygon","coordinates":[[[139.58552,35.63437],[139.58571,35.63264],[139.58526,35.63273],[139.58451,35.63263],[139.58282,35.63183],[139.58062,35.63342],[139.58108,35.63383],[139.5811,35.63391],[139.58106,35.63396],[139.58095,35.634],[139.58082,35.63413],[139.58071,35.63436],[139.58236,35.63506],[139.58509,35.63587],[139.585,35.63528],[139.58502,35.63513],[139.58508,35.63495],[139.58552,35.63437]]]}},{"type":"Feature","properties":{"id":"area-13219009004","name":"岩戸北四丁目"},"geometry":{"type":"Polygon","coordinates":[[[139.58661,35.63629],[139.58755,35.63514],[139.58772,35.63522],[139.58778,35.63516],[139.58878,35.63473],[139.58894,35.63477],[139.58922,35.63473],[139.58924,35.6348],[139.58934,35.63478],[139.5896,35.63464],[139.59096,35.63353],[139.59101,35.63343],[139.59033,35.63321],[139.58828,35.63287],[139.586,35.63263],[139.58571,35.63264],[139.58552,35.63437],[139.58508,35.63495],[139.58502,35.63513],[139.585,35.63528],[139.58509,35.63587],[139.58661,35.63629]]]}},{"type":"Feature","properties":{"id":"area-13219010001","name":"東野川一丁目"},"geometry":{"type":"Polygon","coordinates":[[[139.58387,35.64004],[139.58363,35.63942],[139.58299,35.6391],[139.58286,35.63899],[139.58269,35.63875],[139.5823,35.63888],[139.58195,35.63917],[139.58142,35.63948],[139.58071,35.63979],[139.58052,35.63985],[139.58045,35.6397],[139.58046,35.63957],[139.5804,35.63941],[139.58001,35.63943],[139.58002,35.63959],[139.58011,35.63973],[139.58076,35.64061],[139.58093,35.6409],[139.58107,35.64107],[139.58112,35.64136],[139.58113,35.64144],[139.58105,35.64154],[139.58082,35.64171],[139.58061,35.64198],[139.58033,35.64201],[139.58011,35.64209],[139.58043,35.64364],[139.58081,35.64445],[139.58096,35.64505],[139.58125,35.64487],[139.58161,35.64475],[139.58212,35.64448],[139.58262,35.64426],[139.58276,35.64424],[139.58297,35.64415],[139.58336,35.64384],[139.58353,35.64361],[139.58364,35.64321],[139.58365,35.64276],[139.58399,35.64229],[139.58406,35.64215],[139.58414,35.64156],[139.58424,35.64121],[139.58423,35.64117],[139.58413,35.64113],[139.58391,35.64058],[139.58387,35.64029],[139.58387,35.64004]]]}},{"type":"Feature","properties":{"id":"area-13219010002","name":"東野川二丁目"},"geometry":{"type":"Polygon","coordinates":[[[139.58043,35.64364],[139.58011,35.64209],[139.57959,35.64229],[139.57936,35.64248],[139.57904,35.64295],[139.57885,35.643],[139.57855,35.64297],[139.57802,35.64334],[139.57766,35.64343],[139.57707,35.64386],[139.57695,35.64399],[139.57703,35.64411],[139.57767,35.64576],[139.5781,35.64673],[139.57819,35.64679],[139.57823,35.64686],[139.57855,35.64677],[139.57891,35.64652],[139.57918,35.64639],[139.57972,35.64623],[139.5805,35.64593],[139.58054,35.64553],[139.58061,35.64542],[139.58096,35.64505],[139.58081,35.64445],[139.58043,35.64364]]]}},{"type":"Feature","properties":{"id":"area-13219010003","name":"東野川三丁目"},"geometry":{"type":"Polygon","coordinates":[[[139.58401,35.64843],[139.58375,35.64834],[139.58413,35.64769],[139.58415,35.64726],[139.58404,35.64691],[139.5844,35.64676],[139.58464,35.6466],[139.58488,35.64636],[139.58521,35.64623],[139.58537,35.64593],[139.58566,35.64605],[139.58589,35.64567],[139.58598,35.64571],[139.58556,35.64537],[139.58513,35.64584],[139.58507,35.64585],[139.58262,35.64554],[139.58201,35.64555],[139.58165,35.64568],[139.58101,35.64575],[139.57972,35.64623],[139.57918,35.64639],[139.57891,35.64652],[139.57855,35.64677],[139.57823,35.64686],[139.57851,35.64736],[139.57874,35.64762],[139.5793,35.64811],[139.58026,35.64784],[139.58045,35.6477],[139.58036,35.64758],[139.58095,35.64736],[139.58105,35.64738],[139.58127,35.64734],[139.58144,35.64746],[139.58213,35.64735],[139.58227,35.64736],[139.58291,35.6471],[139.58293,35.64716],[139.58287,35.64728],[139.58267,35.6475],[139.58271,35.64768],[139.582,35.64807],[139.58196,35.64835],[139.58191,35.64839],[139.58204,35.64856],[139.58225,35.64841],[139.58278,35.64813],[139.58323,35.6485],[139.58337,35.64838],[139.58356,35.64856],[139.58367,35.64857],[139.5839,35.64864],[139.58401,35.64843]]]}},{"type":"Feature","properties":{"id":"area-13219010004","name":"東野川四丁目"},"geometry":{"type":"Polygon","coordinates":[[[139.58753,35.64649],[139.58749,35.64626],[139.588,35.64587],[139.58806,35.64577],[139.58798,35.64572],[139.58797,35.64575],[139.58784,35.64583],[139.58786,35.64586],[139.58771,35.64595],[139.58772,35.64598],[139.58757,35.64607],[139.58758,35.6461],[139.58743,35.64618],[139.58735,35.64614],[139.58734,35.64607],[139.58746,35.64595],[139.58778,35.64576],[139.58782,35.6458],[139.58794,35.64573],[139.58794,35.6457],[139.58782,35.64563],[139.58782,35.64568],[139.58759,35.64575],[139.58736,35.64586],[139.58718,35.64605],[139.58706,35.64627],[139.58695,35.64623],[139.58697,35.64618],[139.58693,35.64616],[139.58704,35.64594],[139.58724,35.64574],[139.58752,35.6456],[139.58769,35.64555],[139.58751,35.64546],[139.5872,35.64543],[139.58709,35.64538],[139.58697,35.64482],[139.58728,35.64426],[139.5872,35.64396],[139.58714,35.64397],[139.58707,35.64389],[139.58701,35.64371],[139.58687,35.64373],[139.58681,35.64352],[139.58659,35.64356],[139.58648,35.64324],[139.58648,35.64298],[139.58642,35.64272],[139.58577,35.64275],[139.58576,35.64247],[139.58588,35.64201],[139.58572,35.64192],[139.58567,35.64194],[139.58556,35.64205],[139.58448,35.64158],[139.58458,35.64132],[139.58424,35.6412],[139.58414,35.64156],[139.58406,35.64215],[139.58399,35.64229],[139.58365,35.64276],[139.58364,35.64321],[139.5836,35.6434],[139.58353,35.64361],[139.58336,35.64384],[139.58297,35.64415],[139.58276,35.64424],[139.58262,35.64426],[139.58212,35.64448],[139.58161,35.64475],[139.58125,35.64487],[139.58096,35.64505],[139.58061,35.64542],[139.58054,35.64553],[139.5805,35.64593],[139.58101,35.64575],[139.58165,35.64568],[139.58201,35.64555],[139.58253,35.64554],[139.58507,35.64585],[139.58513,35.64584],[139.58556,35.64537],[139.58598,35.64571],[139.58676,35.64617],[139.58669,35.64628],[139.5867,35.64635],[139.58684,35.64643],[139.58691,35.64643],[139.58722,35.64659],[139.58733,35.64653],[139.58753,35.64649]]]}},{"type":"Feature","properties":{"id":"area-13219011001","name":"西野川一丁目"},"geometry":{"type":"Polygon","coordinates":[[[139.57603,35.65039],[139.57624,35.65029],[139.57661,35.65033],[139.57665,35.65026],[139.57668,35.65008],[139.57682,35.64983],[139.57689,35.64962],[139.57698,35.64958],[139.5772,35.64929],[139.57854,35.64908],[139.57857,35.64907],[139.5786,35.64888],[139.57896,35.64872],[139.57922,35.64874],[139.57924,35.64892],[139.57941,35.64914],[139.57971,35.64899],[139.58015,35.6492],[139.58036,35.64909],[139.58079,35.64946],[139.58087,35.64922],[139.58065,35.649],[139.58041,35.6491],[139.58003,35.6488],[139.5795,35.64867],[139.57935,35.64859],[139.57906,35.64816],[139.5793,35.64811],[139.57874,35.64762],[139.57851,35.64736],[139.57819,35.64679],[139.5781,35.64673],[139.57767,35.64576],[139.57703,35.64411],[139.57695,35.64399],[139.57663,35.64422],[139.57628,35.64464],[139.57577,35.64475],[139.57583,35.64505],[139.57582,35.64517],[139.57566,35.64531],[139.57553,35.64553],[139.57553,35.6456],[139.5757,35.64589],[139.57536,35.64601],[139.57534,35.64614],[139.57541,35.6462],[139.57538,35.64639],[139.57533,35.64644],[139.57528,35.64664],[139.57518,35.6467],[139.57535,35.64682],[139.57538,35.64724],[139.57562,35.64742],[139.57567,35.64748],[139.5757,35.64762],[139.57591,35.64785],[139.57582,35.6481],[139.57582,35.64822],[139.57591,35.64833],[139.57604,35.64873],[139.57609,35.64994],[139.5758,35.65027],[139.5759,35.65049],[139.576,35.65048],[139.57603,35.65039]]]}},{"type":"Feature","properties":{"id":"area-13219011002","name":"西野川二丁目"},"geometry":{"type":"Polygon","coordinates":[[[139.57695,35.64399],[139.57687,35.64374],[139.57669,35.6439],[139.57647,35.6438],[139.57626,35.64386],[139.57541,35.6439],[139.5753,35.64389],[139.57507,35.64379],[139.57439,35.64361],[139.57399,35.64358],[139.5732,35.6436],[139.5729,35.6437],[139.57307,35.64611],[139.5733,35.64702],[139.57345,35.64727],[139.57367,35.64749],[139.57399,35.64778],[139.57423,35.64788],[139.5744,35.6482],[139.57452,35.64862],[139.57457,35.64933],[139.57452,35.65088],[139.57497,35.65069],[139.5759,35.65049],[139.5758,35.65027],[139.57609,35.64994],[139.57604,35.64873],[139.57591,35.64833],[139.57582,35.64822],[139.57582,35.6481],[139.57591,35.64785],[139.5757,35.64762],[139.57567,35.64748],[139.57562,35.64742],[139.57538,35.64724],[139.57535,35.64682],[139.57518,35.6467],[139.57528,35.64664],[139.57533,35.64644],[139.57538,35.64639],[139.57541,35.6462],[139.57534,35.64614],[139.57536,35.64601],[139.5757,35.64589],[139.57553,35.6456],[139.57553,35.64553],[139.57566,35.64531],[139.57582,35.64517],[139.57583,35.64505],[139.57577,35.64475],[139.57628,35.64464],[139.57663,35.64422],[139.57695,35.64399]]]}},{"type":"Feature","properties":{"id":"area-13219011003","name":"西野川三丁目"},"geometry":{"type":"Polygon","coordinates":[[[139.57257,35.64587],[139.57276,35.64587],[139.57305,35.64593],[139.57301,35.64509],[139.57295,35.64462],[139.5729,35.6437],[139.57094,35.64397],[139.56782,35.6456],[139.56821,35.64637],[139.57009,35.64623],[139.57172,35.64602],[139.57257,35.64587]]]}},{"type":"Feature","properties":{"id":"area-13219011004","name":"西野川四丁目"},"geometry":{"type":"Polygon","coordinates":[[[139.57452,35.65088],[139.57457,35.64933],[139.57452,35.64862],[139.57446,35.64839],[139.57432,35.64802],[139.57423,35.64788],[139.57399,35.64778],[139.57367,35.64749],[139.57345,35.64727],[139.5733,35.64702],[139.57318,35.64658],[139.57305,35.64593],[139.57276,35.64587],[139.57257,35.64587],[139.57172,35.64602],[139.57009,35.64623],[139.56821,35.64637],[139.56824,35.64643],[139.56824,35.64662],[139.56822,35.64751],[139.56862,35.64756],[139.56863,35.64743],[139.56958,35.64776],[139.56967,35.64785],[139.56959,35.6482],[139.56962,35.64821],[139.56946,35.64886],[139.56967,35.64896],[139.56981,35.6491],[139.56993,35.64917],[139.5705,35.64934],[139.57118,35.64934],[139.57158,35.64938],[139.5718,35.64958],[139.57209,35.64975],[139.57213,35.64997],[139.5723,35.65019],[139.57268,35.65025],[139.57275,35.65037],[139.57341,35.65056],[139.57383,35.65061],[139.574,35.65079],[139.5742,35.65076],[139.57438,35.65081],[139.57452,35.65088]]]}}]}