{"type":"FeatureCollection","features":[{"type":"Feature","properties":{"id":"area-13218001090","name":"大字熊川"},"geometry":{"type":"Polygon","coordinates":[[[139.34102,35.73417],[139.34134,35.73346],[139.34163,35.7327],[139.34258,35.72967],[139.34251,35.72964],[139.34276,35.7291],[139.34284,35.7288],[139.3428,35.72873],[139.34291,35.72846],[139.34302,35.72742],[139.34297,35.72726],[139.34314,35.72726],[139.34478,35.72495],[139.34598,35.72549],[139.3469,35.72423],[139.34307,35.72382],[139.34203,35.72289],[139.34302,35.72158],[139.34294,35.72159],[139.34252,35.7214],[139.34233,35.72163],[139.34203,35.72147],[139.34189,35.72144],[139.34172,35.72146],[139.34108,35.72112],[139.34077,35.72091],[139.34059,35.72075],[139.34075,35.72125],[139.34126,35.7221],[139.3412,35.72216],[139.3398,35.72188],[139.33986,35.72197],[139.33974,35.72204],[139.33953,35.7227],[139.33845,35.72249],[139.33825,35.72276],[139.33882,35.72305],[139.3387,35.72328],[139.33862,35.72353],[139.33893,35.72346],[139.3388,35.72411],[139.33888,35.7242],[139.3386,35.72471],[139.338,35.72445],[139.33773,35.72499],[139.33766,35.72497],[139.33739,35.7255],[139.33678,35.72543],[139.33667,35.72611],[139.33741,35.72622],[139.33798,35.72645],[139.33847,35.72597],[139.33887,35.72534],[139.33914,35.72549],[139.33939,35.72555],[139.33756,35.72709],[139.33714,35.72699],[139.33658,35.7268],[139.33603,35.7267],[139.33498,35.72672],[139.33496,35.72631],[139.33419,35.72633],[139.33413,35.72615],[139.33348,35.72616],[139.33331,35.72655],[139.33323,35.72663],[139.33308,35.72669],[139.33302,35.72728],[139.33301,35.72812],[139.33283,35.72858],[139.33267,35.72886],[139.3311,35.73076],[139.33075,35.73103],[139.32968,35.73165],[139.32934,35.73181],[139.32911,35.73197],[139.32954,35.73242],[139.33057,35.73288],[139.33191,35.73329],[139.33337,35.73342],[139.33577,35.73359],[139.33662,35.73359],[139.33756,35.73351],[139.33757,35.73379],[139.3376,35.73376],[139.33823,35.73384],[139.34092,35.73428],[139.34102,35.73417]],[[139.33879,35.7331],[139.33915,35.7331],[139.33918,35.73339],[139.33868,35.73344],[139.33879,35.7331]]]}},{"type":"Feature","properties":{"id":"area-13218001091","name":"大字熊川"},"geometry":{"type":"MultiPolygon","coordinates":[[[[139.33939,35.72555],[139.33914,35.72549],[139.33887,35.72534],[139.33847,35.72597],[139.33798,35.72645],[139.33741,35.72622],[139.33667,35.72611],[139.33678,35.72543],[139.33739,35.7255],[139.33766,35.72497],[139.33773,35.72499],[139.338,35.72445],[139.3386,35.72471],[139.33888,35.7242],[139.3388,35.72411],[139.33893,35.72346],[139.33862,35.72353],[139.3387,35.72328],[139.33882,35.72305],[139.33825,35.72276],[139.33845,35.72249],[139.33953,35.7227],[139.33974,35.72204],[139.33986,35.72197],[139.3398,35.72188],[139.3412,35.72216],[139.34126,35.7221],[139.34075,35.72125],[139.34059,35.72075],[139.34039,35.72045],[139.33986,35.72025],[139.33984,35.71997],[139.33942,35.71993],[139.3394,35.71978],[139.33935,35.71974],[139.33934,35.71959],[139.33905,35.71959],[139.33891,35.71953],[139.33887,35.71916],[139.33882,35.71911],[139.33864,35.71904],[139.33856,35.71896],[139.33913,35.71784],[139.33927,35.71788],[139.3394,35.71763],[139.33908,35.71753],[139.33925,35.71696],[139.33941,35.717],[139.33887,35.7159],[139.33859,35.71521],[139.33816,35.71523],[139.33774,35.71535],[139.33743,35.71532],[139.33689,35.71498],[139.33633,35.71472],[139.33593,35.71443],[139.3358,35.71429],[139.33343,35.71322],[139.33292,35.71288],[139.33308,35.71319],[139.33311,35.71335],[139.33304,35.71364],[139.33222,35.71577],[139.33199,35.71624],[139.33124,35.71734],[139.33118,35.71751],[139.33099,35.71823],[139.33081,35.7186],[139.33079,35.71883],[139.33087,35.71907],[139.33103,35.71926],[139.33214,35.72037],[139.33255,35.72085],[139.33302,35.72151],[139.33403,35.72132],[139.33408,35.72114],[139.33436,35.72112],[139.33435,35.72105],[139.33441,35.72102],[139.33532,35.7209],[139.33496,35.72441],[139.33495,35.72631],[139.33498,35.72672],[139.33603,35.7267],[139.33658,35.7268],[139.33714,35.72699],[139.33756,35.72709],[139.33939,35.72555]]],[[[139.34952,35.72379],[139.34977,35.72406],[139.34992,35.72377],[139.35023,35.72399],[139.35079,35.72358],[139.3509,35.72339],[139.35102,35.72337],[139.35108,35.72319],[139.35232,35.7236],[139.35269,35.72363],[139.3527,35.72371],[139.35296,35.7235],[139.35278,35.72335],[139.35265,35.72317],[139.35254,35.72283],[139.35178,35.72262],[139.35188,35.72251],[139.35181,35.72246],[139.35166,35.72223],[139.3513,35.72242],[139.35103,35.72226],[139.351,35.72215],[139.35093,35.72211],[139.35041,35.72221],[139.35018,35.72237],[139.34961,35.72185],[139.34951,35.72189],[139.34915,35.72181],[139.34912,35.72144],[139.34702,35.72158],[139.34635,35.72105],[139.34625,35.72111],[139.34594,35.72094],[139.34581,35.72106],[139.3453,35.72088],[139.34503,35.72113],[139.34525,35.72145],[139.34521,35.72147],[139.34481,35.72138],[139.34433,35.72139],[139.34373,35.72119],[139.3434,35.72158],[139.34302,35.72158],[139.34203,35.72289],[139.34307,35.72382],[139.34554,35.72407],[139.34738,35.72429],[139.34813,35.72443],[139.34894,35.72467],[139.34952,35.72379]],[[139.34542,35.7215],[139.34575,35.72146],[139.34588,35.72168],[139.34624,35.7218],[139.34614,35.72202],[139.34624,35.72207],[139.34601,35.72244],[139.34585,35.72259],[139.34559,35.72274],[139.34516,35.72236],[139.34506,35.72164],[139.34542,35.7215]]]]}},{"type":"Feature","properties":{"id":"area-13218001092","name":"大字熊川"},"geometry":{"type":"MultiPolygon","coordinates":[[[[139.33309,35.71349],[139.33311,35.71335],[139.33308,35.71319],[139.33292,35.71288],[139.33251,35.71261],[139.33222,35.71405],[139.33121,35.71348],[139.32968,35.71958],[139.32963,35.7198],[139.32965,35.71994],[139.33176,35.71996],[139.33127,35.71951],[139.33087,35.71907],[139.33079,35.71883],[139.33081,35.7186],[139.33099,35.71823],[139.33124,35.71734],[139.33199,35.71624],[139.33222,35.71577],[139.33309,35.71349]]],[[[139.34575,35.72146],[139.34542,35.7215],[139.34506,35.72164],[139.34516,35.72236],[139.34559,35.72274],[139.34585,35.72259],[139.34601,35.72244],[139.34624,35.72207],[139.34614,35.72202],[139.34624,35.7218],[139.34588,35.72168],[139.34575,35.72146]]],[[[139.33413,35.72615],[139.33419,35.72633],[139.33495,35.72631],[139.33496,35.72441],[139.33513,35.72295],[139.33531,35.72089],[139.33441,35.72102],[139.33435,35.72105],[139.33436,35.72112],[139.33408,35.72114],[139.33403,35.72132],[139.33301,35.7215],[139.33339,35.72222],[139.33343,35.72253],[139.33319,35.72455],[139.33308,35.72669],[139.33323,35.72663],[139.33331,35.72655],[139.33348,35.72616],[139.33413,35.72615]]],[[[139.35381,35.72843],[139.35396,35.7284],[139.35422,35.7282],[139.35445,35.72795],[139.35547,35.72659],[139.35525,35.7265],[139.35521,35.72641],[139.35535,35.72556],[139.3549,35.72519],[139.35432,35.72511],[139.35424,35.72512],[139.35304,35.72494],[139.35303,35.7249],[139.35295,35.72489],[139.35269,35.72363],[139.35232,35.7236],[139.35108,35.72319],[139.35102,35.72337],[139.3509,35.72339],[139.35079,35.72358],[139.35023,35.72399],[139.34992,35.72377],[139.34977,35.72406],[139.34952,35.72379],[139.34894,35.72467],[139.34813,35.72443],[139.34738,35.72429],[139.3469,35.72423],[139.34683,35.72433],[139.35282,35.72716],[139.35245,35.72844],[139.35248,35.72847],[139.35246,35.72855],[139.35293,35.72874],[139.35297,35.72839],[139.35381,35.72843]]]]}},{"type":"Feature","properties":{"id":"area-13218002090","name":"大字福生"},"geometry":{"type":"MultiPolygon","coordinates":[[[[139.31871,35.74863],[139.31981,35.74834],[139.31943,35.74795],[139.31992,35.74764],[139.32053,35.74738],[139.32125,35.74684],[139.32134,35.7466],[139.32175,35.74662],[139.32206,35.74647],[139.32233,35.74611],[139.32284,35.74559],[139.32302,35.74532],[139.32303,35.74524],[139.32283,35.74484],[139.32387,35.74486],[139.32396,35.74467],[139.32551,35.74544],[139.32827,35.74174],[139.32822,35.74175],[139.32805,35.74168],[139.32785,35.74191],[139.327,35.74154],[139.32595,35.74123],[139.32491,35.74102],[139.32581,35.73898],[139.32585,35.73876],[139.32585,35.73842],[139.32581,35.73812],[139.32563,35.73767],[139.32592,35.73744],[139.32594,35.73754],[139.32585,35.73788],[139.32593,35.73791],[139.32623,35.73791],[139.32646,35.73749],[139.32644,35.73748],[139.32644,35.73732],[139.32649,35.73695],[139.32644,35.73678],[139.32623,35.73663],[139.32634,35.73592],[139.3265,35.73561],[139.32763,35.73426],[139.32726,35.73383],[139.32712,35.73377],[139.32635,35.73368],[139.32599,35.73369],[139.32589,35.73373],[139.32578,35.73382],[139.32573,35.73399],[139.32545,35.7345],[139.3252,35.7347],[139.32537,35.73497],[139.32533,35.73507],[139.32489,35.73538],[139.32444,35.73562],[139.32407,35.73586],[139.32393,35.7357],[139.3238,35.73577],[139.32388,35.7361],[139.32351,35.73648],[139.32338,35.73667],[139.32295,35.73713],[139.32254,35.73747],[139.32236,35.73767],[139.32209,35.73806],[139.32189,35.73818],[139.32179,35.73831],[139.3209,35.73883],[139.32094,35.73889],[139.32064,35.7391],[139.32053,35.73911],[139.32049,35.73919],[139.32017,35.73932],[139.31926,35.7391],[139.31918,35.73952],[139.31911,35.73968],[139.31852,35.74436],[139.3186,35.74432],[139.31868,35.74419],[139.31879,35.74381],[139.31896,35.74356],[139.31896,35.74335],[139.31904,35.74324],[139.31997,35.74263],[139.3202,35.74275],[139.31958,35.74466],[139.31911,35.74467],[139.31876,35.74473],[139.31831,35.74487],[139.31795,35.74508],[139.31773,35.74529],[139.31663,35.74656],[139.3163,35.74668],[139.31542,35.74768],[139.31619,35.74818],[139.31678,35.74863],[139.31717,35.74903],[139.31733,35.74902],[139.31788,35.74975],[139.31801,35.74981],[139.31822,35.75024],[139.31848,35.74996],[139.31856,35.74983],[139.31871,35.74863]]],[[[139.33728,35.74741],[139.33764,35.74463],[139.3376,35.74462],[139.33815,35.73995],[139.33713,35.73947],[139.335,35.73899],[139.33364,35.73883],[139.33294,35.73865],[139.33275,35.73908],[139.33364,35.73924],[139.33356,35.73955],[139.3332,35.74002],[139.33416,35.74058],[139.33422,35.74068],[139.33463,35.74084],[139.33427,35.74173],[139.33451,35.74177],[139.33437,35.74216],[139.33411,35.74262],[139.33392,35.74262],[139.33348,35.74251],[139.33315,35.74315],[139.33332,35.74322],[139.33316,35.74344],[139.33487,35.74405],[139.33468,35.74458],[139.33589,35.7446],[139.33589,35.74497],[139.33609,35.74622],[139.33538,35.74603],[139.33513,35.74695],[139.33635,35.74749],[139.3366,35.74839],[139.33731,35.75022],[139.33872,35.75032],[139.3385,35.74994],[139.33853,35.74991],[139.33726,35.74778],[139.33731,35.74753],[139.33728,35.74741]]],[[[139.32873,35.74702],[139.32881,35.74668],[139.32983,35.74681],[139.3298,35.74662],[139.33024,35.74605],[139.33049,35.7455],[139.32809,35.74566],[139.32675,35.74564],[139.32652,35.74594],[139.32706,35.74648],[139.32751,35.7472],[139.32776,35.74728],[139.32841,35.74774],[139.32852,35.74731],[139.32854,35.74704],[139.32858,35.74699],[139.32873,35.74702]]]]}},{"type":"Feature","properties":{"id":"area-13218002091","name":"大字福生"},"geometry":{"type":"MultiPolygon","coordinates":[[[[139.33952,35.73407],[139.33948,35.73441],[139.33966,35.73442],[139.33965,35.73448],[139.33989,35.73451],[139.33983,35.73478],[139.34028,35.73484],[139.34028,35.73495],[139.34058,35.73497],[139.34092,35.73428],[139.33952,35.73407]]],[[[139.34005,35.73537],[139.33993,35.73544],[139.3399,35.7353],[139.33967,35.73534],[139.33965,35.73548],[139.34003,35.73561],[139.34013,35.73541],[139.34005,35.73537]]],[[[139.33125,35.74375],[139.33209,35.74427],[139.33257,35.74452],[139.33468,35.74458],[139.33487,35.74405],[139.33316,35.74344],[139.33332,35.74322],[139.33315,35.74315],[139.33348,35.74251],[139.33392,35.74262],[139.33411,35.74262],[139.33437,35.74216],[139.33451,35.74177],[139.33427,35.74173],[139.33463,35.74084],[139.33422,35.74068],[139.33416,35.74058],[139.3332,35.74002],[139.33356,35.73955],[139.33364,35.73924],[139.33275,35.73908],[139.33294,35.73865],[139.33364,35.73883],[139.335,35.73899],[139.33713,35.73947],[139.33815,35.73995],[139.33822,35.73978],[139.33823,35.73969],[139.34003,35.73607],[139.33942,35.73607],[139.33944,35.73592],[139.33915,35.73587],[139.33919,35.73571],[139.3392,35.73548],[139.33888,35.73542],[139.33898,35.735],[139.33936,35.73506],[139.33939,35.73483],[139.33908,35.73477],[139.33918,35.7343],[139.33849,35.73418],[139.33857,35.7339],[139.3376,35.73376],[139.33749,35.73412],[139.33726,35.73443],[139.33721,35.73489],[139.33719,35.73488],[139.33711,35.73523],[139.337,35.73555],[139.33665,35.73578],[139.33634,35.73627],[139.33626,35.73632],[139.33597,35.73676],[139.33509,35.73655],[139.3348,35.73655],[139.33428,35.73671],[139.33418,35.73675],[139.33399,35.73691],[139.33372,35.73722],[139.33333,35.73782],[139.33251,35.73852],[139.33172,35.73937],[139.33154,35.7396],[139.33177,35.73975],[139.33093,35.74083],[139.33092,35.74099],[139.33022,35.74157],[139.3297,35.74131],[139.32929,35.74116],[139.3292,35.74124],[139.32894,35.7411],[139.32854,35.7413],[139.32851,35.74137],[139.32873,35.7416],[139.32886,35.74168],[139.32908,35.74179],[139.32963,35.7419],[139.32919,35.74252],[139.32811,35.74386],[139.32675,35.74564],[139.32809,35.74566],[139.32906,35.74561],[139.33033,35.74549],[139.33051,35.74517],[139.33079,35.74476],[139.33085,35.74474],[139.331,35.74447],[139.33105,35.7443],[139.3312,35.744],[139.33115,35.74392],[139.33117,35.74385],[139.33125,35.74375]]],[[[139.31958,35.74466],[139.3202,35.74275],[139.31997,35.74263],[139.31904,35.74324],[139.31896,35.74335],[139.31896,35.74356],[139.31879,35.74381],[139.31868,35.74419],[139.3186,35.74432],[139.31852,35.74436],[139.31911,35.73968],[139.31918,35.73952],[139.31926,35.73915],[139.31794,35.73884],[139.31711,35.74144],[139.31608,35.74384],[139.31524,35.74548],[139.31399,35.74678],[139.31542,35.74768],[139.3163,35.74668],[139.31663,35.74656],[139.31773,35.74529],[139.31795,35.74508],[139.31831,35.74487],[139.31876,35.74473],[139.31911,35.74467],[139.31958,35.74466]]]]}},{"type":"Feature","properties":{"id":"area-132180030","name":"牛浜"},"geometry":{"type":"Polygon","coordinates":[[[139.33597,35.73676],[139.33626,35.73632],[139.33634,35.73627],[139.33665,35.73578],[139.337,35.73555],[139.33711,35.73523],[139.33719,35.73488],[139.33721,35.73489],[139.33726,35.73443],[139.33749,35.73412],[139.33759,35.73379],[139.33756,35.73351],[139.33662,35.73359],[139.33577,35.73359],[139.33337,35.73342],[139.33191,35.73329],[139.33057,35.73288],[139.32954,35.73242],[139.32911,35.73197],[139.32905,35.73195],[139.32799,35.73285],[139.32755,35.73337],[139.32732,35.73371],[139.32731,35.7338],[139.32737,35.73393],[139.32763,35.73426],[139.32877,35.73351],[139.32893,35.7337],[139.32906,35.73364],[139.32981,35.73398],[139.32953,35.73447],[139.33428,35.73671],[139.3348,35.73655],[139.335,35.73654],[139.33597,35.73676]]]}},{"type":"Feature","properties":{"id":"area-132180040","name":"志茂"},"geometry":{"type":"Polygon","coordinates":[[[139.33251,35.73852],[139.33333,35.73782],[139.33372,35.73722],[139.33399,35.73691],[139.33418,35.73675],[139.33428,35.73671],[139.32953,35.73447],[139.32981,35.73398],[139.32906,35.73364],[139.32893,35.7337],[139.32877,35.73351],[139.32763,35.73426],[139.32649,35.73563],[139.32634,35.73592],[139.3263,35.73608],[139.32623,35.73663],[139.32644,35.73678],[139.32649,35.73695],[139.32644,35.73732],[139.32644,35.73748],[139.32646,35.73749],[139.32623,35.73791],[139.32593,35.73791],[139.32585,35.73788],[139.32594,35.73754],[139.32592,35.73744],[139.32563,35.73767],[139.32581,35.73812],[139.32738,35.73828],[139.32752,35.73804],[139.33012,35.73929],[139.3313,35.73991],[139.33172,35.73937],[139.33251,35.73852]]]}},{"type":"Feature","properties":{"id":"area-132180050","name":"本町"},"geometry":{"type":"Polygon","coordinates":[[[139.32785,35.74191],[139.32805,35.74168],[139.32822,35.74175],[139.32854,35.7413],[139.32894,35.7411],[139.3292,35.74124],[139.32929,35.74116],[139.3297,35.74131],[139.33022,35.74157],[139.33092,35.74099],[139.33093,35.74083],[139.33177,35.73975],[139.33154,35.7396],[139.3313,35.73991],[139.33012,35.73929],[139.32752,35.73804],[139.32738,35.73828],[139.32581,35.73812],[139.32585,35.73842],[139.32585,35.73876],[139.32581,35.73898],[139.32491,35.74102],[139.32595,35.74123],[139.327,35.74154],[139.32785,35.74191]]]}},{"type":"Feature","properties":{"id":"area-13218006000","name":"北田園"},"geometry":{"type":"Polygon","coordinates":[[[139.31926,35.73915],[139.31926,35.7391],[139.31922,35.73909],[139.32041,35.7351],[139.32069,35.73456],[139.321,35.73412],[139.32135,35.73371],[139.32207,35.73318],[139.32165,35.73285],[139.32159,35.73289],[139.32129,35.73267],[139.32011,35.73379],[139.31977,35.7342],[139.31923,35.73511],[139.31908,35.73545],[139.31794,35.73884],[139.31926,35.73915]]]}},{"type":"Feature","properties":{"id":"area-13218006001","name":"北田園一丁目"},"geometry":{"type":"Polygon","coordinates":[[[139.32599,35.73369],[139.32635,35.73368],[139.32712,35.73377],[139.32726,35.73383],[139.32736,35.73395],[139.32731,35.7338],[139.32732,35.73371],[139.32755,35.73337],[139.32799,35.73285],[139.32905,35.73195],[139.32902,35.73191],[139.32883,35.73183],[139.32675,35.73115],[139.3267,35.73109],[139.32528,35.73206],[139.32501,35.7318],[139.32527,35.73163],[139.32435,35.73065],[139.32165,35.73285],[139.32299,35.73387],[139.32534,35.73502],[139.32537,35.73497],[139.3252,35.7347],[139.32545,35.7345],[139.32573,35.73399],[139.32578,35.73382],[139.32589,35.73373],[139.32599,35.73369]]]}},{"type":"Feature","properties":{"id":"area-13218006002","name":"北田園二丁目"},"geometry":{"type":"Polygon","coordinates":[[[139.32351,35.73648],[139.32389,35.73606],[139.3238,35.73577],[139.32393,35.7357],[139.32407,35.73586],[139.3252,35.73518],[139.32533,35.73507],[139.32534,35.73502],[139.32299,35.73387],[139.32207,35.73318],[139.32135,35.73371],[139.32082,35.73436],[139.32053,35.73485],[139.32041,35.7351],[139.31922,35.73909],[139.32017,35.73932],[139.32049,35.73919],[139.32053,35.73911],[139.32064,35.7391],[139.32094,35.73889],[139.3209,35.73883],[139.32179,35.73831],[139.32189,35.73818],[139.32209,35.73806],[139.32236,35.73767],[139.32254,35.73747],[139.32295,35.73713],[139.32338,35.73667],[139.32351,35.73648]]]}},{"type":"Feature","properties":{"id":"area-13218007000","name":"南田園"},"geometry":{"type":"Polygon","coordinates":[[[139.32629,35.73067],[139.32786,35.72963],[139.32808,35.72956],[139.32851,35.72952],[139.32909,35.72802],[139.32904,35.72778],[139.3295,35.72624],[139.32999,35.72408],[139.33004,35.71995],[139.32965,35.71994],[139.32969,35.72013],[139.32902,35.7221],[139.32857,35.7236],[139.32856,35.72375],[139.32869,35.72449],[139.32866,35.72478],[139.32793,35.72712],[139.32795,35.72738],[139.32815,35.7276],[139.32435,35.73065],[139.32503,35.73137],[139.32629,35.73067]]]}},{"type":"Feature","properties":{"id":"area-13218007001","name":"南田園一丁目"},"geometry":{"type":"Polygon","coordinates":[[[139.33176,35.71996],[139.33004,35.71995],[139.32999,35.72408],[139.33324,35.72404],[139.33343,35.72253],[139.33342,35.72237],[139.33332,35.72207],[139.33301,35.7215],[139.33255,35.72085],[139.33176,35.71996]]]}},{"type":"Feature","properties":{"id":"area-13218007002","name":"南田園二丁目"},"geometry":{"type":"Polygon","coordinates":[[[139.33319,35.72455],[139.33324,35.72404],[139.32999,35.72408],[139.3295,35.72624],[139.32904,35.72778],[139.33283,35.72858],[139.33302,35.72805],[139.33302,35.72728],[139.33308,35.72668],[139.33319,35.72455]]]}},{"type":"Feature","properties":{"id":"area-13218007003","name":"南田園三丁目"},"geometry":{"type":"Polygon","coordinates":[[[139.32528,35.73206],[139.3267,35.73109],[139.32675,35.73115],[139.32883,35.73183],[139.32911,35.73197],[139.32934,35.73181],[139.32968,35.73165],[139.33075,35.73103],[139.3311,35.73076],[139.33267,35.72886],[139.33283,35.72857],[139.32904,35.72778],[139.32909,35.72802],[139.32851,35.72952],[139.32808,35.72956],[139.32786,35.72963],[139.32629,35.73067],[139.32503,35.73137],[139.32527,35.73163],[139.32501,35.7318],[139.32528,35.73206]]]}},{"type":"Feature","properties":{"id":"area-13218008001","name":"武蔵野台一丁目"},"geometry":{"type":"Polygon","coordinates":[[[139.33164,35.75302],[139.3321,35.7516],[139.33376,35.75188],[139.33386,35.75114],[139.334,35.75114],[139.33404,35.7511],[139.33418,35.75111],[139.33424,35.75103],[139.33469,35.74885],[139.33504,35.74733],[139.33517,35.74698],[139.33513,35.74695],[139.33538,35.74603],[139.33609,35.74622],[139.33589,35.74497],[139.33589,35.7446],[139.33257,35.74452],[139.33163,35.74707],[139.33169,35.7471],[139.33121,35.74838],[139.33104,35.7487],[139.33055,35.75004],[139.33058,35.75003],[139.3297,35.75237],[139.33151,35.75303],[139.33164,35.75302]]]}},{"type":"Feature","properties":{"id":"area-13218008002","name":"武蔵野台二丁目"},"geometry":{"type":"Polygon","coordinates":[[[139.32909,35.75359],[139.32956,35.75235],[139.32959,35.75233],[139.3297,35.75237],[139.33058,35.75003],[139.33055,35.75004],[139.33104,35.7487],[139.33121,35.74838],[139.33169,35.7471],[139.33163,35.74707],[139.33257,35.74452],[139.33209,35.74427],[139.33125,35.74375],[139.33115,35.74392],[139.3312,35.744],[139.33105,35.7443],[139.331,35.74447],[139.33085,35.74474],[139.33079,35.74476],[139.33051,35.74517],[139.33033,35.74549],[139.33049,35.7455],[139.33034,35.74587],[139.33007,35.7463],[139.3298,35.74662],[139.32983,35.74681],[139.32934,35.74675],[139.32928,35.7471],[139.32921,35.74716],[139.32916,35.74742],[139.32939,35.7475],[139.32903,35.74814],[139.32813,35.74937],[139.32808,35.74985],[139.32728,35.7528],[139.32733,35.75282],[139.32741,35.75276],[139.32909,35.75359]]]}},{"type":"Feature","properties":{"id":"area-13218009001","name":"加美平一丁目"},"geometry":{"type":"Polygon","coordinates":[[[139.32257,35.75364],[139.32397,35.75175],[139.32526,35.75239],[139.32561,35.75192],[139.3273,35.75276],[139.32808,35.74985],[139.32813,35.74937],[139.32903,35.74814],[139.32939,35.7475],[139.32916,35.74742],[139.32921,35.74716],[139.32928,35.7471],[139.32934,35.74675],[139.32881,35.74668],[139.32873,35.74702],[139.32858,35.74699],[139.32854,35.74704],[139.32852,35.74731],[139.32841,35.74774],[139.32776,35.74728],[139.32751,35.7472],[139.32706,35.74648],[139.32652,35.74594],[139.32581,35.74686],[139.32557,35.74742],[139.32506,35.74907],[139.32472,35.7496],[139.32269,35.75236],[139.32269,35.75248],[139.32203,35.75339],[139.32257,35.75364]]]}},{"type":"Feature","properties":{"id":"area-13218009002","name":"加美平二丁目"},"geometry":{"type":"Polygon","coordinates":[[[139.32623,35.74564],[139.32552,35.74547],[139.32502,35.74611],[139.3223,35.7498],[139.32172,35.75066],[139.32106,35.75156],[139.32269,35.75236],[139.32472,35.7496],[139.32506,35.74907],[139.32557,35.74742],[139.32581,35.74686],[139.32652,35.74594],[139.32623,35.74564]]]}},{"type":"Feature","properties":{"id":"area-13218009003","name":"加美平三丁目"},"geometry":{"type":"Polygon","coordinates":[[[139.31887,35.75091],[139.31914,35.75084],[139.31945,35.75086],[139.32037,35.7505],[139.32072,35.75031],[139.32097,35.75028],[139.32169,35.75067],[139.32172,35.75066],[139.3223,35.7498],[139.32502,35.74611],[139.32552,35.74547],[139.32551,35.74544],[139.32396,35.74467],[139.32387,35.74486],[139.32283,35.74484],[139.32303,35.74524],[139.32302,35.74532],[139.32284,35.74559],[139.32233,35.74611],[139.32206,35.74647],[139.32175,35.74662],[139.32134,35.7466],[139.32125,35.74684],[139.32053,35.74738],[139.31992,35.74764],[139.31943,35.74795],[139.31981,35.74834],[139.31871,35.74863],[139.31856,35.74983],[139.31848,35.74996],[139.31822,35.75024],[139.31862,35.75074],[139.31879,35.75089],[139.31887,35.75091]]]}},{"type":"Feature","properties":{"id":"area-13218009004","name":"加美平四丁目"},"geometry":{"type":"Polygon","coordinates":[[[139.3254,35.75383],[139.32546,35.75383],[139.32632,35.75424],[139.32666,35.75367],[139.3273,35.75276],[139.32561,35.75192],[139.32526,35.75239],[139.32397,35.75175],[139.32257,35.75364],[139.32472,35.75471],[139.3254,35.75383]]]}},{"type":"Feature","properties":{"id":"area-132180100","name":"東町"},"geometry":{"type":"Polygon","coordinates":[[[139.32873,35.7416],[139.32851,35.74137],[139.32849,35.74138],[139.32824,35.74172],[139.32827,35.74174],[139.32551,35.74544],[139.32552,35.74547],[139.32623,35.74564],[139.32652,35.74594],[139.32811,35.74386],[139.32919,35.74252],[139.32963,35.7419],[139.32908,35.74179],[139.32873,35.7416]]]}},{"type":"Feature","properties":{"id":"area-132180110","name":"横田基地内"},"geometry":{"type":"Polygon","coordinates":[[[139.33709,35.75149],[139.33723,35.75145],[139.33744,35.75169],[139.33738,35.75194],[139.33744,35.75203],[139.3379,35.75194],[139.33795,35.75145],[139.33802,35.75125],[139.33806,35.75118],[139.3381,35.75118],[139.3382,35.75082],[139.33843,35.75075],[139.33845,35.75081],[139.33867,35.75074],[139.33864,35.75067],[139.33923,35.75048],[139.33912,35.75027],[139.34016,35.7502],[139.34033,35.7503],[139.34058,35.74983],[139.34081,35.74955],[139.341,35.74947],[139.34175,35.74976],[139.34193,35.74956],[139.34262,35.74966],[139.34226,35.7461],[139.34575,35.747],[139.35185,35.74129],[139.35216,35.74163],[139.35334,35.74257],[139.351,35.74507],[139.35088,35.74528],[139.35008,35.74787],[139.35107,35.74694],[139.35458,35.74582],[139.35554,35.74538],[139.35446,35.74305],[139.35607,35.74247],[139.35884,35.74198],[139.35867,35.74136],[139.35865,35.74116],[139.35914,35.74106],[139.35982,35.73992],[139.35987,35.73994],[139.3605,35.73974],[139.35984,35.7399],[139.35864,35.73952],[139.35924,35.73759],[139.35632,35.73696],[139.35276,35.73624],[139.35314,35.7344],[139.35338,35.73305],[139.3523,35.73294],[139.35223,35.73261],[139.35223,35.73238],[139.35227,35.73223],[139.35233,35.73218],[139.35283,35.72949],[139.35293,35.72874],[139.35246,35.72855],[139.35248,35.72847],[139.35245,35.72844],[139.35282,35.72716],[139.34683,35.72433],[139.34598,35.72549],[139.34478,35.72495],[139.34314,35.72726],[139.34297,35.72726],[139.34302,35.72742],[139.34291,35.72846],[139.3428,35.72873],[139.34284,35.7288],[139.34276,35.7291],[139.34251,35.72964],[139.34258,35.72967],[139.34163,35.7327],[139.34144,35.73319],[139.34102,35.73417],[139.34092,35.73428],[139.34049,35.73514],[139.3404,35.73538],[139.34022,35.73568],[139.33892,35.73829],[139.33823,35.73969],[139.33822,35.73978],[139.33815,35.73995],[139.3376,35.74462],[139.33764,35.74463],[139.33728,35.74741],[139.33731,35.74753],[139.33726,35.74778],[139.33853,35.74991],[139.3385,35.74994],[139.33872,35.75032],[139.33731,35.75022],[139.3366,35.74839],[139.33635,35.74749],[139.33517,35.74698],[139.33504,35.74733],[139.33469,35.74885],[139.33429,35.75086],[139.33424,35.75103],[139.33418,35.75111],[139.33421,35.75113],[139.33422,35.75111],[139.33463,35.7511],[139.33539,35.75115],[139.33552,35.75112],[139.33586,35.75115],[139.33586,35.75138],[139.33617,35.75159],[139.33641,35.75163],[139.33627,35.75193],[139.33674,35.75212],[139.33707,35.75203],[139.33709,35.75149]]]}},{"type":"Feature","properties":{"id":"area-132180120","name":"大字熊川二宮"},"geometry":{"type":"Polygon","coordinates":[[[139.33918,35.73339],[139.33915,35.7331],[139.33879,35.7331],[139.33868,35.73344],[139.33918,35.73339]]]}},{"type":"Feature","properties":{"id":"area-132180130","name":"大字福生二宮"},"geometry":{"type":"Polygon","coordinates":[[[139.34003,35.73607],[139.3404,35.73538],[139.34058,35.73497],[139.34028,35.73495],[139.34028,35.73484],[139.33983,35.73478],[139.33989,35.73451],[139.33965,35.73448],[139.33966,35.73442],[139.33948,35.73441],[139.33952,35.73407],[139.33857,35.7339],[139.33849,35.73418],[139.33918,35.7343],[139.33908,35.73477],[139.33939,35.73483],[139.33936,35.73506],[139.33898,35.735],[139.33888,35.73542],[139.3392,35.73548],[139.33919,35.73571],[139.33915,35.73587],[139.33944,35.73592],[139.33942,35.73607],[139.34003,35.73607]],[[139.33967,35.73534],[139.3399,35.7353],[139.33993,35.73544],[139.34004,35.7354],[139.34005,35.73536],[139.34013,35.73541],[139.34003,35.73561],[139.33965,35.73548],[139.33967,35.73534]]]}}]}