{"type":"FeatureCollection","features":[{"type":"Feature","properties":{"id":"area-13213001001","name":"本町一丁目"},"geometry":{"type":"Polygon","coordinates":[[[139.46878,35.75799],[139.46886,35.7574],[139.46893,35.75653],[139.46897,35.75441],[139.46916,35.75316],[139.46885,35.75286],[139.4705,35.75142],[139.4704,35.7514],[139.46953,35.75152],[139.46804,35.75151],[139.46783,35.75159],[139.46746,35.75188],[139.46735,35.75192],[139.46679,35.75198],[139.46663,35.75205],[139.4663,35.75228],[139.46618,35.75233],[139.46536,35.7523],[139.46522,35.75233],[139.4652,35.7525],[139.46525,35.75328],[139.46538,35.75489],[139.46552,35.75805],[139.46653,35.75798],[139.46754,35.758],[139.46781,35.75807],[139.46829,35.75841],[139.46876,35.75867],[139.46878,35.75799]]]}},{"type":"Feature","properties":{"id":"area-13213001002","name":"本町二丁目"},"geometry":{"type":"Polygon","coordinates":[[[139.47043,35.75906],[139.46876,35.75867],[139.46846,35.75852],[139.46781,35.75807],[139.46754,35.758],[139.46653,35.75798],[139.46552,35.75805],[139.46558,35.7593],[139.46551,35.76027],[139.46552,35.76098],[139.4656,35.7619],[139.46564,35.76211],[139.46623,35.76323],[139.4669,35.76438],[139.46717,35.76478],[139.46758,35.76466],[139.46767,35.7646],[139.46784,35.76438],[139.46805,35.76421],[139.46803,35.76419],[139.46838,35.76402],[139.46852,35.76393],[139.46863,35.76382],[139.46868,35.76351],[139.46869,35.76324],[139.46866,35.76276],[139.46868,35.76205],[139.46865,35.76163],[139.46874,35.76111],[139.46872,35.76061],[139.46963,35.76011],[139.47031,35.75964],[139.47041,35.75954],[139.47043,35.75906]]]}},{"type":"Feature","properties":{"id":"area-13213001003","name":"本町三丁目"},"geometry":{"type":"Polygon","coordinates":[[[139.47342,35.75959],[139.47399,35.75855],[139.47397,35.75796],[139.47389,35.75737],[139.47403,35.7562],[139.47408,35.75605],[139.47328,35.75581],[139.47265,35.75569],[139.47101,35.75546],[139.46897,35.75499],[139.46893,35.75653],[139.46886,35.7574],[139.4688,35.75776],[139.46876,35.75867],[139.46947,35.75886],[139.47041,35.75905],[139.47041,35.75954],[139.47097,35.75915],[139.47155,35.75927],[139.47155,35.75925],[139.47271,35.75944],[139.4727,35.75946],[139.47321,35.75956],[139.47342,35.75959]]]}},{"type":"Feature","properties":{"id":"area-13213001004","name":"本町四丁目"},"geometry":{"type":"Polygon","coordinates":[[[139.47453,35.75519],[139.47473,35.75492],[139.47521,35.75508],[139.47535,35.75486],[139.47563,35.75499],[139.47592,35.75447],[139.47623,35.75404],[139.47626,35.75409],[139.4763,35.75408],[139.47615,35.75395],[139.47498,35.75343],[139.47475,35.75329],[139.47348,35.75228],[139.47314,35.75205],[139.47273,35.7517],[139.47246,35.75159],[139.47185,35.75144],[139.47072,35.75146],[139.47054,35.75139],[139.46885,35.75286],[139.46916,35.75316],[139.46897,35.75441],[139.46897,35.75499],[139.47101,35.75546],[139.47265,35.75569],[139.47328,35.75581],[139.47408,35.75605],[139.47453,35.75519]]]}},{"type":"Feature","properties":{"id":"area-13213002001","name":"久米川町一丁目"},"geometry":{"type":"Polygon","coordinates":[[[139.48056,35.77218],[139.48081,35.77201],[139.48154,35.77175],[139.48374,35.77071],[139.48491,35.77006],[139.48611,35.76946],[139.48777,35.76812],[139.48868,35.76744],[139.48903,35.76708],[139.48864,35.76685],[139.48855,35.76665],[139.48844,35.76656],[139.48793,35.7663],[139.48779,35.7662],[139.48748,35.76612],[139.48694,35.76615],[139.48673,35.76613],[139.48638,35.76575],[139.48621,35.76561],[139.48598,35.76545],[139.48574,35.76535],[139.48568,35.76526],[139.48566,35.76515],[139.48567,35.765],[139.48565,35.76483],[139.48559,35.76472],[139.48493,35.76432],[139.48468,35.76403],[139.48452,35.7642],[139.48437,35.76445],[139.48382,35.76553],[139.48384,35.76564],[139.48378,35.76576],[139.48361,35.76596],[139.48364,35.76611],[139.4831,35.76639],[139.4832,35.76662],[139.48298,35.76666],[139.48295,35.76661],[139.48286,35.76662],[139.48162,35.76706],[139.48142,35.76715],[139.48119,35.76755],[139.48075,35.76754],[139.47986,35.76768],[139.47937,35.76789],[139.47867,35.76796],[139.47825,35.7681],[139.47758,35.76819],[139.4771,35.76862],[139.47679,35.769],[139.47562,35.77011],[139.47457,35.77062],[139.47453,35.77061],[139.47468,35.77077],[139.47485,35.77087],[139.47515,35.77114],[139.47771,35.77206],[139.4789,35.7723],[139.48032,35.77239],[139.48056,35.77218]]]}},{"type":"Feature","properties":{"id":"area-13213002002","name":"久米川町二丁目"},"geometry":{"type":"Polygon","coordinates":[[[139.48075,35.76754],[139.48119,35.76755],[139.48142,35.76715],[139.48162,35.76706],[139.48286,35.76662],[139.48295,35.76661],[139.48298,35.76666],[139.4832,35.76662],[139.4831,35.76639],[139.48364,35.76611],[139.48361,35.76596],[139.48378,35.76576],[139.48384,35.76564],[139.48382,35.76553],[139.48437,35.76445],[139.48452,35.7642],[139.48468,35.76403],[139.48437,35.76363],[139.48396,35.76321],[139.48369,35.76285],[139.48334,35.76254],[139.48328,35.76244],[139.48324,35.76223],[139.4833,35.76205],[139.4834,35.76198],[139.48342,35.76192],[139.48342,35.76158],[139.48346,35.76142],[139.4809,35.76093],[139.48079,35.76111],[139.48019,35.76166],[139.48002,35.76192],[139.48004,35.76211],[139.48002,35.7621],[139.47901,35.763],[139.47859,35.76373],[139.47829,35.76404],[139.47814,35.7644],[139.47756,35.7651],[139.47721,35.76541],[139.47642,35.76599],[139.47586,35.76659],[139.47551,35.76679],[139.47539,35.76704],[139.47257,35.76822],[139.47323,35.76887],[139.47399,35.76971],[139.47425,35.77007],[139.47453,35.77061],[139.47457,35.77062],[139.47562,35.77011],[139.47679,35.769],[139.4771,35.76862],[139.47758,35.76819],[139.47825,35.7681],[139.47867,35.76796],[139.47937,35.76789],[139.47986,35.76768],[139.48075,35.76754]]]}},{"type":"Feature","properties":{"id":"area-13213002003","name":"久米川町三丁目"},"geometry":{"type":"Polygon","coordinates":[[[139.47901,35.763],[139.48002,35.7621],[139.48004,35.76211],[139.48002,35.76192],[139.48019,35.76166],[139.48079,35.76111],[139.4809,35.76093],[139.47574,35.75996],[139.47343,35.75961],[139.47327,35.75998],[139.47316,35.7603],[139.47301,35.76052],[139.47305,35.76117],[139.47312,35.76135],[139.47317,35.76198],[139.47303,35.76272],[139.47284,35.76316],[139.47279,35.76334],[139.47287,35.76384],[139.47283,35.76495],[139.47265,35.76546],[139.47263,35.76563],[139.47262,35.76612],[139.47294,35.76729],[139.47249,35.76818],[139.47257,35.76822],[139.47539,35.76704],[139.47551,35.76679],[139.47586,35.76659],[139.47642,35.76599],[139.47721,35.76541],[139.47756,35.7651],[139.47814,35.7644],[139.47829,35.76404],[139.47859,35.76373],[139.47901,35.763]]]}},{"type":"Feature","properties":{"id":"area-13213002004","name":"久米川町四丁目"},"geometry":{"type":"Polygon","coordinates":[[[139.47327,35.75998],[139.47345,35.75958],[139.47342,35.75959],[139.47321,35.75956],[139.4727,35.75946],[139.47271,35.75944],[139.47094,35.75916],[139.47031,35.75964],[139.46963,35.76011],[139.46872,35.76061],[139.46874,35.76111],[139.46865,35.76163],[139.46868,35.76205],[139.46866,35.76276],[139.46869,35.76324],[139.46868,35.76351],[139.46863,35.76382],[139.46852,35.76393],[139.46838,35.76402],[139.46803,35.76419],[139.46805,35.76421],[139.46784,35.76438],[139.46767,35.7646],[139.46758,35.76466],[139.46717,35.76478],[139.46987,35.76934],[139.47062,35.76905],[139.47107,35.76882],[139.47182,35.76837],[139.47249,35.76818],[139.47294,35.76729],[139.47262,35.76612],[139.47263,35.76563],[139.47265,35.76546],[139.47283,35.76495],[139.47287,35.76384],[139.47279,35.76334],[139.47284,35.76316],[139.47303,35.76272],[139.47317,35.76198],[139.47312,35.76135],[139.47305,35.76117],[139.47301,35.76052],[139.47316,35.7603],[139.47327,35.75998]]]}},{"type":"Feature","properties":{"id":"area-13213002005","name":"久米川町五丁目"},"geometry":{"type":"Polygon","coordinates":[[[139.47499,35.77544],[139.47532,35.77542],[139.47572,35.77552],[139.47608,35.7754],[139.47626,35.77539],[139.47772,35.77207],[139.47515,35.77114],[139.47485,35.77087],[139.47468,35.77077],[139.47453,35.77061],[139.47425,35.77007],[139.47399,35.76971],[139.47323,35.76887],[139.47257,35.76822],[139.47249,35.76818],[139.47182,35.76837],[139.47107,35.76882],[139.47062,35.76905],[139.46987,35.76934],[139.47124,35.77171],[139.47164,35.77234],[139.47086,35.77265],[139.47076,35.77278],[139.47073,35.77287],[139.47075,35.77311],[139.47081,35.77324],[139.47076,35.77327],[139.47137,35.77375],[139.47151,35.77406],[139.47142,35.77413],[139.4713,35.77402],[139.47121,35.77409],[139.47132,35.7742],[139.47137,35.77416],[139.47153,35.77428],[139.4718,35.77416],[139.47212,35.77445],[139.47225,35.7745],[139.47274,35.7745],[139.47305,35.77456],[139.47336,35.77471],[139.47368,35.77471],[139.47389,35.77479],[139.47391,35.77484],[139.47389,35.77491],[139.47366,35.77512],[139.47355,35.77533],[139.47353,35.77555],[139.47354,35.77599],[139.47365,35.77605],[139.47409,35.77589],[139.47455,35.77556],[139.47499,35.77544]]]}},{"type":"Feature","properties":{"id":"area-13213003001","name":"秋津町一丁目"},"geometry":{"type":"Polygon","coordinates":[[[139.49665,35.77551],[139.49704,35.77489],[139.49715,35.77462],[139.49724,35.77403],[139.49764,35.77319],[139.4976,35.77302],[139.49767,35.77271],[139.49799,35.7721],[139.49775,35.77187],[139.49743,35.77166],[139.49711,35.77152],[139.49644,35.77134],[139.49615,35.77127],[139.49558,35.77121],[139.49564,35.77116],[139.49561,35.77115],[139.49501,35.7711],[139.4939,35.77091],[139.49283,35.77041],[139.49248,35.77029],[139.49233,35.77027],[139.4921,35.77026],[139.4919,35.77042],[139.49146,35.77065],[139.49087,35.77083],[139.49059,35.77097],[139.49089,35.77112],[139.49079,35.77149],[139.49068,35.7715],[139.49062,35.77185],[139.49046,35.77183],[139.49032,35.77224],[139.49002,35.77221],[139.48993,35.77267],[139.49025,35.77277],[139.48994,35.77324],[139.48982,35.77378],[139.48974,35.77447],[139.49216,35.77477],[139.49219,35.77465],[139.49335,35.77482],[139.49339,35.77483],[139.49328,35.77533],[139.49379,35.77544],[139.49395,35.77538],[139.49517,35.77537],[139.49519,35.77526],[139.49665,35.77551]]]}},{"type":"Feature","properties":{"id":"area-13213003002","name":"秋津町二丁目"},"geometry":{"type":"Polygon","coordinates":[[[139.48831,35.7745],[139.4891,35.7744],[139.48974,35.77447],[139.48982,35.77378],[139.48994,35.77324],[139.49025,35.77277],[139.48993,35.77267],[139.49002,35.77221],[139.49032,35.77224],[139.49046,35.77183],[139.49062,35.77185],[139.49068,35.7715],[139.49079,35.77149],[139.49089,35.77112],[139.49059,35.77097],[139.49087,35.77083],[139.49139,35.77068],[139.49199,35.77035],[139.49155,35.77009],[139.49129,35.76985],[139.49058,35.76903],[139.4905,35.76886],[139.49049,35.76867],[139.49043,35.76848],[139.49022,35.76819],[139.49014,35.768],[139.49007,35.76765],[139.48985,35.76726],[139.48965,35.76719],[139.48903,35.76708],[139.48868,35.76744],[139.48777,35.76812],[139.48611,35.76946],[139.48491,35.77006],[139.48395,35.77061],[139.48414,35.77085],[139.48433,35.7712],[139.48438,35.77194],[139.48418,35.772],[139.48417,35.77218],[139.484,35.77268],[139.48382,35.77292],[139.48362,35.77393],[139.4839,35.77404],[139.48388,35.77405],[139.48432,35.77401],[139.48488,35.77412],[139.48498,35.7742],[139.48501,35.77454],[139.48509,35.77467],[139.48536,35.77494],[139.48587,35.77517],[139.48592,35.7751],[139.48655,35.77493],[139.4877,35.77469],[139.48831,35.7745]]]}},{"type":"Feature","properties":{"id":"area-13213003003","name":"秋津町三丁目"},"geometry":{"type":"Polygon","coordinates":[[[139.48162,35.78004],[139.48126,35.7798],[139.48114,35.77967],[139.48111,35.77956],[139.48111,35.77936],[139.48122,35.77914],[139.48126,35.77894],[139.48122,35.77872],[139.48108,35.77845],[139.48096,35.77831],[139.48078,35.77817],[139.48097,35.77796],[139.48104,35.77756],[139.48115,35.77741],[139.4815,35.77747],[139.48167,35.77744],[139.48201,35.77727],[139.482,35.77703],[139.48204,35.77662],[139.4821,35.77653],[139.48225,35.77603],[139.4825,35.77547],[139.48275,35.77555],[139.48306,35.77527],[139.48333,35.77497],[139.48358,35.77437],[139.48378,35.77413],[139.4839,35.77404],[139.48362,35.77393],[139.48369,35.77367],[139.48369,35.7735],[139.48382,35.77292],[139.484,35.77268],[139.48417,35.77218],[139.48418,35.772],[139.48438,35.77194],[139.48433,35.7712],[139.48414,35.77085],[139.48395,35.77061],[139.48154,35.77175],[139.48081,35.77201],[139.48049,35.77223],[139.48032,35.77239],[139.4789,35.7723],[139.47803,35.77214],[139.47771,35.77205],[139.47626,35.77539],[139.47648,35.77544],[139.47639,35.77582],[139.47614,35.77621],[139.47571,35.7763],[139.47555,35.7766],[139.47548,35.77668],[139.47592,35.77685],[139.47605,35.77705],[139.47621,35.77717],[139.47644,35.77754],[139.47636,35.77759],[139.47654,35.77784],[139.47663,35.77779],[139.47667,35.77782],[139.47665,35.77787],[139.47686,35.77802],[139.47706,35.7781],[139.47712,35.77809],[139.47719,35.77801],[139.47707,35.77787],[139.47718,35.77776],[139.47741,35.77788],[139.4773,35.77804],[139.47733,35.77809],[139.47763,35.77822],[139.47775,35.77836],[139.47784,35.77841],[139.47808,35.77842],[139.47838,35.77853],[139.47833,35.77882],[139.47912,35.77936],[139.47884,35.77975],[139.47952,35.78011],[139.47998,35.78027],[139.48023,35.77999],[139.4803,35.77996],[139.48073,35.78018],[139.48119,35.78032],[139.48167,35.78052],[139.4817,35.78022],[139.48162,35.78004]]]}},{"type":"Feature","properties":{"id":"area-13213003004","name":"秋津町四丁目"},"geometry":{"type":"Polygon","coordinates":[[[139.48277,35.78107],[139.48285,35.78079],[139.48309,35.78084],[139.4831,35.78088],[139.48326,35.78086],[139.48329,35.78076],[139.48363,35.78082],[139.48398,35.78077],[139.48397,35.78086],[139.48464,35.78098],[139.48494,35.78094],[139.4854,35.78081],[139.48584,35.78081],[139.48596,35.78077],[139.48623,35.78059],[139.48669,35.78018],[139.48685,35.78009],[139.48734,35.78003],[139.48769,35.77986],[139.48791,35.77997],[139.48817,35.77981],[139.4891,35.77981],[139.48913,35.77938],[139.48884,35.77946],[139.48885,35.77927],[139.48893,35.77906],[139.489,35.77905],[139.48927,35.77912],[139.48947,35.77858],[139.48904,35.77846],[139.48932,35.77757],[139.48879,35.77744],[139.48912,35.77703],[139.48933,35.77668],[139.48914,35.77663],[139.4894,35.77609],[139.48957,35.77557],[139.48979,35.77449],[139.4891,35.7744],[139.48831,35.7745],[139.4877,35.77469],[139.48719,35.77478],[139.48592,35.7751],[139.48587,35.77517],[139.48536,35.77494],[139.48509,35.77467],[139.48501,35.77454],[139.48498,35.7742],[139.48488,35.77412],[139.48432,35.77401],[139.484,35.77403],[139.48388,35.77405],[139.48378,35.77413],[139.48358,35.77437],[139.48333,35.77497],[139.48306,35.77527],[139.48275,35.77555],[139.4825,35.77547],[139.48225,35.77603],[139.4821,35.77653],[139.48204,35.77662],[139.482,35.77703],[139.48201,35.77727],[139.48167,35.77744],[139.4815,35.77747],[139.48115,35.77741],[139.48104,35.77756],[139.48097,35.77796],[139.48078,35.77817],[139.48096,35.77831],[139.48108,35.77845],[139.48122,35.77872],[139.48126,35.77894],[139.48122,35.77914],[139.48111,35.77936],[139.48111,35.77956],[139.48114,35.77967],[139.48126,35.7798],[139.48162,35.78004],[139.4817,35.78022],[139.48168,35.78047],[139.48206,35.78053],[139.48203,35.78061],[139.48235,35.78065],[139.48229,35.78083],[139.48244,35.78088],[139.48277,35.78107]]]}},{"type":"Feature","properties":{"id":"area-13213003005","name":"秋津町五丁目"},"geometry":{"type":"Polygon","coordinates":[[[139.49469,35.78146],[139.49526,35.78131],[139.4954,35.7813],[139.49566,35.78136],[139.49605,35.78103],[139.496,35.78097],[139.49612,35.78054],[139.49615,35.77994],[139.49642,35.77894],[139.49674,35.77839],[139.49688,35.77835],[139.49683,35.77818],[139.4968,35.77818],[139.4966,35.77774],[139.49639,35.77705],[139.49639,35.77636],[139.49651,35.77611],[139.49665,35.77551],[139.49519,35.77526],[139.49517,35.77537],[139.49395,35.77538],[139.49379,35.77544],[139.49328,35.77533],[139.49339,35.77483],[139.49335,35.77482],[139.49219,35.77465],[139.49216,35.77477],[139.48979,35.77449],[139.48957,35.77557],[139.4894,35.77609],[139.48914,35.77663],[139.48933,35.77668],[139.48912,35.77703],[139.48879,35.77744],[139.48932,35.77757],[139.48904,35.77846],[139.48947,35.77858],[139.48927,35.77912],[139.48966,35.77913],[139.48966,35.77931],[139.49018,35.77934],[139.49034,35.78011],[139.48995,35.78022],[139.48984,35.78031],[139.48979,35.78047],[139.48982,35.78056],[139.48996,35.78072],[139.49023,35.78087],[139.49042,35.7807],[139.49041,35.78052],[139.4905,35.7803],[139.49092,35.78048],[139.49114,35.78042],[139.49119,35.78032],[139.49139,35.78022],[139.4921,35.78017],[139.49249,35.78009],[139.49265,35.78018],[139.4927,35.78016],[139.49277,35.7797],[139.49374,35.77941],[139.49392,35.77948],[139.49378,35.77981],[139.4936,35.7804],[139.49357,35.78065],[139.49362,35.78124],[139.4936,35.78147],[139.49403,35.78144],[139.4945,35.78147],[139.49469,35.78146]]]}},{"type":"Feature","properties":{"id":"area-13213004001","name":"青葉町一丁目"},"geometry":{"type":"Polygon","coordinates":[[[139.49448,35.76395],[139.49679,35.76242],[139.49687,35.76247],[139.49898,35.76213],[139.50363,35.76147],[139.50487,35.76126],[139.50319,35.76081],[139.49995,35.76003],[139.498,35.75947],[139.4973,35.75937],[139.49709,35.75932],[139.49589,35.75886],[139.49342,35.75782],[139.49207,35.75717],[139.4906,35.75819],[139.48978,35.75892],[139.48845,35.7597],[139.48844,35.75975],[139.49053,35.76126],[139.49087,35.76154],[139.49153,35.76201],[139.49218,35.76257],[139.49371,35.76335],[139.49448,35.76395]]]}},{"type":"Feature","properties":{"id":"area-13213004002","name":"青葉町二丁目"},"geometry":{"type":"Polygon","coordinates":[[[139.49041,35.76622],[139.49268,35.76513],[139.49448,35.76395],[139.49371,35.76335],[139.49218,35.76257],[139.49153,35.76201],[139.49087,35.76154],[139.49053,35.76126],[139.48844,35.75975],[139.4884,35.75976],[139.48739,35.76058],[139.4845,35.76198],[139.48328,35.76244],[139.48334,35.76254],[139.48369,35.76285],[139.48396,35.76321],[139.48437,35.76363],[139.48482,35.76421],[139.48493,35.76432],[139.48559,35.76472],[139.48565,35.76483],[139.48567,35.765],[139.48566,35.76515],[139.48568,35.76526],[139.48574,35.76535],[139.48598,35.76545],[139.48621,35.76561],[139.48638,35.76575],[139.48673,35.76613],[139.48694,35.76615],[139.48748,35.76612],[139.48779,35.7662],[139.48793,35.7663],[139.48844,35.76656],[139.48855,35.76665],[139.48864,35.76685],[139.489,35.76706],[139.49041,35.76622]]]}},{"type":"Feature","properties":{"id":"area-13213004003","name":"青葉町三丁目"},"geometry":{"type":"Polygon","coordinates":[[[139.49874,35.77229],[139.49923,35.77152],[139.49967,35.77104],[139.49999,35.77044],[139.50023,35.76993],[139.4982,35.76937],[139.4978,35.76933],[139.49769,35.7696],[139.4964,35.76921],[139.49681,35.76829],[139.49676,35.7682],[139.49555,35.768],[139.49472,35.76703],[139.49412,35.76678],[139.49382,35.76661],[139.49385,35.7665],[139.49307,35.76628],[139.49302,35.76642],[139.49286,35.76639],[139.4926,35.76612],[139.49214,35.7659],[139.49172,35.7656],[139.49147,35.76569],[139.49006,35.7664],[139.489,35.76706],[139.48985,35.76726],[139.49007,35.76765],[139.49014,35.768],[139.49022,35.76819],[139.49043,35.76848],[139.49049,35.76867],[139.4905,35.76886],[139.49058,35.76903],[139.49129,35.76985],[139.49155,35.77009],[139.49199,35.77035],[139.4921,35.77026],[139.49248,35.77029],[139.49283,35.77041],[139.4939,35.77091],[139.49501,35.7711],[139.49561,35.77115],[139.49564,35.77116],[139.49558,35.77121],[139.49615,35.77127],[139.49711,35.77152],[139.49758,35.77175],[139.49784,35.77193],[139.49799,35.7721],[139.49806,35.77201],[139.4982,35.77211],[139.49842,35.77221],[139.49853,35.77233],[139.49858,35.7725],[139.49865,35.77258],[139.49884,35.77234],[139.49874,35.77229]]]}},{"type":"Feature","properties":{"id":"area-13213004004","name":"青葉町四丁目"},"geometry":{"type":"Polygon","coordinates":[[[139.50042,35.7694],[139.50079,35.76817],[139.50119,35.76662],[139.50142,35.76558],[139.50133,35.76545],[139.50094,35.76517],[139.49679,35.76242],[139.49268,35.76513],[139.49172,35.7656],[139.49214,35.7659],[139.4926,35.76612],[139.49286,35.76639],[139.49302,35.76642],[139.49307,35.76628],[139.49385,35.7665],[139.49382,35.76661],[139.49412,35.76678],[139.49472,35.76703],[139.49555,35.768],[139.49676,35.7682],[139.49681,35.76829],[139.4964,35.76921],[139.49769,35.7696],[139.4978,35.76933],[139.4982,35.76937],[139.50023,35.76993],[139.50042,35.7694]]]}},{"type":"Feature","properties":{"id":"area-13213005001","name":"恩多町一丁目"},"geometry":{"type":"Polygon","coordinates":[[[139.49465,35.75561],[139.49445,35.75552],[139.49395,35.7552],[139.49395,35.75495],[139.49382,35.75483],[139.49396,35.75467],[139.49378,35.75455],[139.49368,35.75441],[139.49352,35.75432],[139.49389,35.75338],[139.49293,35.75307],[139.49282,35.75318],[139.49251,35.75302],[139.49291,35.75287],[139.49339,35.75256],[139.49407,35.75221],[139.4936,35.7517],[139.49324,35.75166],[139.49236,35.75193],[139.49177,35.75185],[139.49076,35.75225],[139.49063,35.75214],[139.49017,35.75146],[139.49002,35.75151],[139.48995,35.7515],[139.48944,35.75075],[139.48896,35.75097],[139.48888,35.75095],[139.48807,35.75026],[139.48807,35.75016],[139.48826,35.75007],[139.48769,35.74953],[139.48799,35.74925],[139.48727,35.7489],[139.48657,35.74955],[139.48624,35.75021],[139.4861,35.75042],[139.48565,35.75074],[139.48575,35.75157],[139.48574,35.75292],[139.4856,35.75303],[139.48522,35.75345],[139.48513,35.75352],[139.48506,35.75353],[139.48577,35.75446],[139.48615,35.75491],[139.48666,35.75529],[139.48697,35.75548],[139.48719,35.75556],[139.48788,35.75561],[139.48985,35.75621],[139.49079,35.75658],[139.49198,35.75711],[139.49342,35.75782],[139.49518,35.75856],[139.49545,35.75817],[139.49538,35.75814],[139.49555,35.75788],[139.49509,35.75767],[139.49543,35.75735],[139.49488,35.75709],[139.49517,35.75664],[139.4943,35.75626],[139.49442,35.75607],[139.49427,35.75597],[139.49465,35.75561]]]}},{"type":"Feature","properties":{"id":"area-13213005002","name":"恩多町二丁目"},"geometry":{"type":"Polygon","coordinates":[[[139.48722,35.74607],[139.48714,35.74602],[139.48703,35.74602],[139.4794,35.7486],[139.47774,35.74913],[139.47952,35.75016],[139.48058,35.75083],[139.48136,35.75128],[139.48204,35.75158],[139.48324,35.75204],[139.48363,35.75225],[139.48431,35.75253],[139.48505,35.75353],[139.48513,35.75352],[139.4856,35.75303],[139.48574,35.75292],[139.48575,35.75157],[139.48565,35.75074],[139.4861,35.75042],[139.48624,35.75021],[139.48657,35.74955],[139.48727,35.7489],[139.48661,35.74872],[139.48669,35.74839],[139.4874,35.7476],[139.48754,35.74718],[139.48753,35.74676],[139.48722,35.74607]]]}},{"type":"Feature","properties":{"id":"area-13213005003","name":"恩多町三丁目"},"geometry":{"type":"Polygon","coordinates":[[[139.48314,35.75661],[139.48364,35.7559],[139.4832,35.75565],[139.48385,35.75477],[139.48431,35.75395],[139.48452,35.75376],[139.48505,35.75353],[139.48439,35.75262],[139.48431,35.75253],[139.48363,35.75225],[139.48324,35.75204],[139.48204,35.75158],[139.48136,35.75128],[139.48058,35.75083],[139.47952,35.75016],[139.47776,35.74914],[139.47763,35.74916],[139.47756,35.74926],[139.47764,35.74959],[139.47827,35.75109],[139.47831,35.75187],[139.4784,35.75222],[139.478,35.75404],[139.4778,35.75468],[139.47775,35.75513],[139.47758,35.75545],[139.47754,35.75548],[139.47868,35.75585],[139.47947,35.75623],[139.47957,35.75633],[139.48015,35.75662],[139.48081,35.75723],[139.48148,35.75764],[139.48166,35.75771],[139.48201,35.75791],[139.48261,35.75728],[139.48314,35.75661]]]}},{"type":"Feature","properties":{"id":"area-13213005004","name":"恩多町四丁目"},"geometry":{"type":"Polygon","coordinates":[[[139.48015,35.75662],[139.47957,35.75633],[139.47947,35.75623],[139.47868,35.75585],[139.47754,35.75548],[139.47749,35.75539],[139.47721,35.75528],[139.47713,35.75522],[139.47716,35.75519],[139.47705,35.75508],[139.47703,35.7551],[139.47657,35.75443],[139.47623,35.75404],[139.47592,35.75447],[139.47563,35.75499],[139.47535,35.75486],[139.47521,35.75508],[139.47473,35.75492],[139.47452,35.75521],[139.47404,35.75612],[139.47389,35.75737],[139.47397,35.75796],[139.47399,35.75855],[139.47343,35.75961],[139.47574,35.75996],[139.48348,35.76142],[139.48354,35.76109],[139.48358,35.7603],[139.48353,35.75968],[139.48337,35.75934],[139.48298,35.75886],[139.48217,35.75801],[139.48176,35.75776],[139.48148,35.75764],[139.48081,35.75723],[139.48015,35.75662]]]}},{"type":"Feature","properties":{"id":"area-13213005005","name":"恩多町五丁目"},"geometry":{"type":"Polygon","coordinates":[[[139.4845,35.76198],[139.48739,35.76058],[139.4884,35.75976],[139.48844,35.75975],[139.48845,35.7597],[139.48978,35.75892],[139.4906,35.75819],[139.49207,35.75717],[139.49079,35.75658],[139.48985,35.75621],[139.48788,35.75561],[139.48706,35.75553],[139.48666,35.75529],[139.48615,35.75491],[139.48577,35.75446],[139.48506,35.75353],[139.48452,35.75376],[139.48431,35.75395],[139.48385,35.75477],[139.4832,35.75565],[139.48364,35.7559],[139.48275,35.75711],[139.48201,35.75791],[139.48228,35.75812],[139.48312,35.75902],[139.48344,35.75945],[139.48353,35.75968],[139.48358,35.7603],[139.48354,35.76109],[139.48348,35.76142],[139.48346,35.76142],[139.48342,35.76158],[139.48342,35.76192],[139.4834,35.76198],[139.4833,35.76205],[139.48324,35.76223],[139.48328,35.76244],[139.4845,35.76198]]]}},{"type":"Feature","properties":{"id":"area-13213006001","name":"萩山町一丁目"},"geometry":{"type":"Polygon","coordinates":[[[139.4871,35.74094],[139.4869,35.73947],[139.48662,35.73866],[139.48655,35.73856],[139.4867,35.73834],[139.48646,35.73728],[139.48632,35.73726],[139.48618,35.73436],[139.48356,35.73445],[139.4836,35.73523],[139.48197,35.73528],[139.48186,35.73524],[139.47903,35.73534],[139.47907,35.73582],[139.479,35.7372],[139.47824,35.7371],[139.47823,35.73731],[139.47815,35.73732],[139.47814,35.73741],[139.47803,35.73741],[139.47803,35.73733],[139.47777,35.73736],[139.47777,35.73742],[139.47762,35.73742],[139.4776,35.73735],[139.4775,35.73736],[139.47756,35.73749],[139.47788,35.73928],[139.47789,35.73951],[139.47783,35.73972],[139.47773,35.73991],[139.478,35.74005],[139.47813,35.73996],[139.47849,35.73983],[139.47899,35.73974],[139.47972,35.73984],[139.48159,35.74022],[139.48194,35.74025],[139.48245,35.74024],[139.48279,35.7402],[139.48324,35.74009],[139.48384,35.73986],[139.48386,35.73996],[139.48301,35.74069],[139.48506,35.74085],[139.4871,35.74094]]]}},{"type":"Feature","properties":{"id":"area-13213006002","name":"萩山町二丁目"},"geometry":{"type":"Polygon","coordinates":[[[139.48009,35.74318],[139.48386,35.73996],[139.48384,35.73986],[139.48324,35.74009],[139.48279,35.7402],[139.48194,35.74025],[139.48104,35.74013],[139.47972,35.73984],[139.47916,35.73975],[139.47882,35.73975],[139.47827,35.7399],[139.478,35.74005],[139.47773,35.73991],[139.47769,35.73992],[139.47771,35.7399],[139.47754,35.73999],[139.47713,35.7401],[139.4761,35.74053],[139.47512,35.74081],[139.47471,35.74099],[139.4749,35.74128],[139.47511,35.74168],[139.47545,35.74252],[139.47554,35.74302],[139.47602,35.74288],[139.47628,35.74284],[139.47724,35.74281],[139.4782,35.74289],[139.47924,35.74305],[139.47935,35.74301],[139.47952,35.74303],[139.47991,35.7431],[139.4799,35.74313],[139.48009,35.74318]]]}},{"type":"Feature","properties":{"id":"area-13213006003","name":"萩山町三丁目"},"geometry":{"type":"Polygon","coordinates":[[[139.474,35.74774],[139.47545,35.74306],[139.47554,35.74302],[139.47545,35.74252],[139.47511,35.74168],[139.47474,35.74103],[139.47286,35.7423],[139.472,35.74265],[139.4678,35.74389],[139.46762,35.74392],[139.46694,35.74392],[139.46697,35.74417],[139.46709,35.7442],[139.46905,35.74563],[139.47027,35.74641],[139.47026,35.74646],[139.47078,35.74673],[139.47133,35.74695],[139.474,35.74774]]]}},{"type":"Feature","properties":{"id":"area-13213006004","name":"萩山町四丁目"},"geometry":{"type":"Polygon","coordinates":[[[139.47991,35.7431],[139.47935,35.74301],[139.47924,35.74305],[139.4782,35.74289],[139.47724,35.74281],[139.47628,35.74284],[139.47602,35.74288],[139.47545,35.74306],[139.474,35.74774],[139.4746,35.74791],[139.47719,35.74572],[139.48009,35.74318],[139.4799,35.74313],[139.47991,35.7431]]]}},{"type":"Feature","properties":{"id":"area-13213006005","name":"萩山町五丁目"},"geometry":{"type":"Polygon","coordinates":[[[139.48644,35.74566],[139.48591,35.74553],[139.48571,35.74565],[139.48565,35.74566],[139.4854,35.74554],[139.48512,35.74526],[139.48502,35.74509],[139.48495,35.7446],[139.48478,35.74431],[139.48547,35.74387],[139.48538,35.74371],[139.48568,35.74261],[139.48458,35.74239],[139.48506,35.74085],[139.48298,35.74069],[139.47719,35.74572],[139.47459,35.74792],[139.47662,35.74851],[139.47772,35.74901],[139.47774,35.74904],[139.47766,35.74915],[139.47776,35.74914],[139.48645,35.74622],[139.48703,35.74602],[139.48714,35.74602],[139.4869,35.74583],[139.48644,35.74566]]]}},{"type":"Feature","properties":{"id":"area-13213007001","name":"栄町一丁目"},"geometry":{"type":"Polygon","coordinates":[[[139.47775,35.75513],[139.4778,35.75468],[139.478,35.75404],[139.4784,35.75222],[139.47831,35.75187],[139.47827,35.75109],[139.47764,35.74959],[139.47756,35.74926],[139.47774,35.74904],[139.47772,35.74901],[139.47662,35.74851],[139.47459,35.74792],[139.47329,35.74902],[139.47327,35.749],[139.47054,35.75139],[139.47072,35.75146],[139.4717,35.75143],[139.47201,35.75146],[139.47246,35.75159],[139.47273,35.7517],[139.47314,35.75205],[139.47348,35.75228],[139.47475,35.75329],[139.47498,35.75343],[139.47615,35.75395],[139.4763,35.75408],[139.47626,35.75409],[139.47657,35.75443],[139.47703,35.7551],[139.47705,35.75508],[139.47716,35.75519],[139.47713,35.75522],[139.47721,35.75528],[139.47749,35.75539],[139.47755,35.75547],[139.47758,35.75545],[139.47775,35.75513]]]}},{"type":"Feature","properties":{"id":"area-13213007002","name":"栄町二丁目"},"geometry":{"type":"Polygon","coordinates":[[[139.46805,35.75151],[139.46953,35.75152],[139.4704,35.7514],[139.4705,35.75142],[139.47327,35.749],[139.47329,35.74902],[139.4746,35.74791],[139.47233,35.74727],[139.47133,35.74695],[139.47078,35.74673],[139.47026,35.74646],[139.47027,35.74641],[139.46923,35.74727],[139.4675,35.74887],[139.46883,35.74929],[139.46802,35.75006],[139.46805,35.75151]]]}},{"type":"Feature","properties":{"id":"area-13213007003","name":"栄町三丁目"},"geometry":{"type":"Polygon","coordinates":[[[139.46522,35.75233],[139.46536,35.7523],[139.46618,35.75233],[139.4663,35.75228],[139.46663,35.75205],[139.46679,35.75198],[139.46735,35.75192],[139.46746,35.75188],[139.46783,35.75159],[139.46805,35.75151],[139.46802,35.75006],[139.46883,35.74929],[139.4675,35.74887],[139.46923,35.74727],[139.47027,35.74641],[139.46905,35.74563],[139.46709,35.7442],[139.46694,35.74416],[139.46443,35.7431],[139.46487,35.74574],[139.46482,35.74586],[139.46504,35.74707],[139.4651,35.74841],[139.46519,35.75231],[139.46522,35.75233]]]}},{"type":"Feature","properties":{"id":"area-13213008001","name":"富士見町一丁目"},"geometry":{"type":"Polygon","coordinates":[[[139.45777,35.74494],[139.4594,35.7449],[139.4603,35.74484],[139.46251,35.7445],[139.46464,35.74436],[139.46443,35.7431],[139.46324,35.74255],[139.46162,35.74159],[139.45686,35.7394],[139.45512,35.73864],[139.45503,35.73876],[139.45499,35.73934],[139.4549,35.73936],[139.45473,35.74488],[139.45657,35.74495],[139.45658,35.74493],[139.45777,35.74494]]]}},{"type":"Feature","properties":{"id":"area-13213008002","name":"富士見町二丁目"},"geometry":{"type":"Polygon","coordinates":[[[139.45105,35.74519],[139.45351,35.74486],[139.45473,35.74488],[139.4549,35.73936],[139.45499,35.73934],[139.45503,35.73876],[139.45512,35.73864],[139.45141,35.73698],[139.45115,35.73696],[139.45111,35.73701],[139.45098,35.73696],[139.45086,35.73717],[139.45049,35.73703],[139.45003,35.738],[139.45062,35.73818],[139.45062,35.7384],[139.45012,35.73841],[139.45006,35.73877],[139.45055,35.73882],[139.45054,35.73901],[139.45103,35.73904],[139.45111,35.73886],[139.45149,35.73894],[139.45131,35.73936],[139.4513,35.73946],[139.45156,35.73951],[139.45153,35.73964],[139.45138,35.73962],[139.45135,35.7399],[139.45137,35.74048],[139.45188,35.74055],[139.45184,35.74115],[139.45165,35.74116],[139.45158,35.74147],[139.45131,35.74143],[139.45106,35.74186],[139.45106,35.74201],[139.45086,35.74202],[139.45092,35.74269],[139.45123,35.74436],[139.45094,35.74441],[139.45105,35.74519]]]}},{"type":"Feature","properties":{"id":"area-13213008003","name":"富士見町三丁目"},"geometry":{"type":"Polygon","coordinates":[[[139.45372,35.75031],[139.45376,35.74975],[139.45344,35.74928],[139.45624,35.74807],[139.45657,35.74495],[139.45473,35.74488],[139.45351,35.74486],[139.45119,35.74518],[139.45117,35.74555],[139.45159,35.7456],[139.45142,35.74655],[139.4513,35.74661],[139.45024,35.74655],[139.4501,35.74758],[139.45002,35.74763],[139.44941,35.74759],[139.44938,35.74777],[139.44838,35.74771],[139.44831,35.74844],[139.44825,35.74845],[139.44823,35.74866],[139.44821,35.74905],[139.44901,35.74907],[139.449,35.74928],[139.4491,35.74931],[139.4491,35.74943],[139.44916,35.7497],[139.44977,35.74958],[139.45064,35.74968],[139.45176,35.75007],[139.452,35.75007],[139.45228,35.75002],[139.45263,35.75005],[139.45372,35.75031]]]}},{"type":"Feature","properties":{"id":"area-13213008004","name":"富士見町四丁目"},"geometry":{"type":"Polygon","coordinates":[[[139.45372,35.75031],[139.45263,35.75005],[139.45228,35.75002],[139.452,35.75007],[139.45176,35.75007],[139.45064,35.74968],[139.45001,35.7496],[139.44977,35.74958],[139.44916,35.7497],[139.44914,35.74966],[139.44888,35.74974],[139.44888,35.74939],[139.4482,35.74934],[139.44738,35.74924],[139.44728,35.74979],[139.44762,35.74984],[139.44759,35.75018],[139.44731,35.75021],[139.44713,35.75078],[139.44704,35.75148],[139.44693,35.75185],[139.44702,35.75231],[139.44742,35.75257],[139.44738,35.75265],[139.4476,35.75271],[139.44823,35.75283],[139.44929,35.75288],[139.45268,35.75138],[139.45264,35.75137],[139.45445,35.75062],[139.4544,35.75054],[139.45374,35.75034],[139.45372,35.75031]]]}},{"type":"Feature","properties":{"id":"area-13213008005","name":"富士見町五丁目"},"geometry":{"type":"Polygon","coordinates":[[[139.46487,35.74574],[139.46464,35.74436],[139.46251,35.7445],[139.46058,35.7448],[139.45998,35.74486],[139.45742,35.74496],[139.45658,35.74493],[139.45624,35.74807],[139.45344,35.74928],[139.45376,35.74975],[139.45374,35.75034],[139.4544,35.75054],[139.45447,35.75062],[139.46487,35.74609],[139.46482,35.74586],[139.46487,35.74574]]]}},{"type":"Feature","properties":{"id":"area-13213009001","name":"美住町一丁目"},"geometry":{"type":"Polygon","coordinates":[[[139.46286,35.7518],[139.46374,35.75185],[139.46454,35.75226],[139.46489,35.75234],[139.46519,35.75231],[139.46506,35.74746],[139.46499,35.74668],[139.46487,35.74609],[139.45447,35.75062],[139.45468,35.75087],[139.45517,35.75093],[139.4556,35.75115],[139.45594,35.75117],[139.45629,35.75115],[139.45648,35.75119],[139.45685,35.75132],[139.45768,35.75152],[139.45872,35.75187],[139.45948,35.75193],[139.45988,35.75206],[139.46038,35.75213],[139.46105,35.75235],[139.46139,35.75233],[139.46208,35.7522],[139.46254,35.75193],[139.46271,35.75184],[139.46286,35.7518]]]}},{"type":"Feature","properties":{"id":"area-13213009002","name":"美住町二丁目"},"geometry":{"type":"Polygon","coordinates":[[[139.46453,35.75808],[139.46552,35.75805],[139.46538,35.75489],[139.46525,35.75328],[139.4652,35.7525],[139.46522,35.75233],[139.46519,35.75231],[139.46504,35.75234],[139.46475,35.75233],[139.46454,35.75226],[139.46374,35.75185],[139.46305,35.7518],[139.46271,35.75184],[139.46208,35.7522],[139.46139,35.75233],[139.46105,35.75235],[139.46038,35.75213],[139.45988,35.75206],[139.45948,35.75193],[139.45872,35.75187],[139.45768,35.75152],[139.45685,35.75132],[139.45648,35.75119],[139.45629,35.75115],[139.45594,35.75117],[139.4556,35.75115],[139.45517,35.75093],[139.45468,35.75087],[139.45445,35.75062],[139.45264,35.75137],[139.45268,35.75138],[139.44929,35.75288],[139.45095,35.75316],[139.45273,35.75356],[139.45462,35.75446],[139.45558,35.75481],[139.45734,35.75534],[139.45969,35.75637],[139.46195,35.75725],[139.46327,35.75783],[139.46453,35.75808]]]}},{"type":"Feature","properties":{"id":"area-13213010001","name":"廻田町一丁目"},"geometry":{"type":"Polygon","coordinates":[[[139.4551,35.75838],[139.45526,35.75828],[139.45588,35.75831],[139.45687,35.75646],[139.45734,35.75534],[139.45558,35.75481],[139.45462,35.75446],[139.45273,35.75356],[139.4514,35.75325],[139.44996,35.75678],[139.45039,35.75698],[139.4516,35.75743],[139.45213,35.7576],[139.45253,35.75769],[139.45287,35.75772],[139.45335,35.758],[139.45392,35.75815],[139.4551,35.75838]]]}},{"type":"Feature","properties":{"id":"area-13213010002","name":"廻田町二丁目"},"geometry":{"type":"Polygon","coordinates":[[[139.44996,35.75678],[139.4514,35.75326],[139.45062,35.7531],[139.44929,35.75288],[139.44823,35.75283],[139.44738,35.75265],[139.44695,35.75374],[139.44698,35.75376],[139.44684,35.75411],[139.44679,35.75417],[139.44659,35.75463],[139.44641,35.75523],[139.44634,35.75557],[139.44556,35.7555],[139.44535,35.7555],[139.44531,35.75556],[139.44523,35.75555],[139.44496,35.75545],[139.44489,35.75539],[139.44465,35.75595],[139.44538,35.75616],[139.44605,35.75629],[139.44672,35.75639],[139.44766,35.75643],[139.44789,35.75641],[139.44899,35.75654],[139.44938,35.75651],[139.44973,35.75661],[139.44996,35.75678]]]}},{"type":"Feature","properties":{"id":"area-13213010003","name":"廻田町三丁目"},"geometry":{"type":"Polygon","coordinates":[[[139.44831,35.7607],[139.44896,35.75927],[139.44903,35.7589],[139.44902,35.7588],[139.44929,35.75807],[139.44943,35.7581],[139.44996,35.75678],[139.44973,35.75661],[139.44938,35.75651],[139.44899,35.75654],[139.44789,35.75641],[139.44766,35.75643],[139.44672,35.75639],[139.44605,35.75629],[139.44507,35.75607],[139.44433,35.75583],[139.44411,35.75605],[139.44385,35.75649],[139.44364,35.75669],[139.44347,35.75692],[139.44333,35.75743],[139.44278,35.75818],[139.44316,35.75868],[139.44385,35.75894],[139.44431,35.75962],[139.4447,35.7589],[139.44483,35.75891],[139.44526,35.75899],[139.44562,35.75926],[139.44616,35.75942],[139.44622,35.75949],[139.44633,35.75973],[139.44642,35.7597],[139.44646,35.75983],[139.44666,35.7598],[139.44672,35.76003],[139.44706,35.76038],[139.44755,35.75993],[139.44776,35.76029],[139.44801,35.76052],[139.44826,35.76063],[139.44831,35.7607]]]}},{"type":"Feature","properties":{"id":"area-13213010004","name":"廻田町四丁目"},"geometry":{"type":"Polygon","coordinates":[[[139.4523,35.76198],[139.45254,35.76153],[139.45325,35.76173],[139.45342,35.76155],[139.45355,35.76124],[139.45401,35.76043],[139.45437,35.76004],[139.45435,35.76002],[139.45525,35.75924],[139.45588,35.75831],[139.45526,35.75828],[139.4551,35.75838],[139.45503,35.75838],[139.45371,35.7581],[139.45335,35.758],[139.45287,35.75772],[139.45253,35.75769],[139.45213,35.7576],[139.4516,35.75743],[139.45039,35.75698],[139.44996,35.75678],[139.44943,35.7581],[139.44929,35.75807],[139.44902,35.7588],[139.44903,35.7589],[139.44896,35.75927],[139.44831,35.7607],[139.4486,35.761],[139.44912,35.76123],[139.44947,35.76133],[139.45035,35.76148],[139.45146,35.76185],[139.45154,35.76179],[139.45159,35.76166],[139.4523,35.76198]]]}},{"type":"Feature","properties":{"id":"area-13213011001","name":"多摩湖町一丁目"},"geometry":{"type":"Polygon","coordinates":[[[139.45124,35.7657],[139.45192,35.76561],[139.45256,35.7656],[139.4526,35.76509],[139.4527,35.76473],[139.45286,35.76448],[139.4529,35.76437],[139.4531,35.76328],[139.45333,35.76239],[139.45332,35.76217],[139.45323,35.76189],[139.45325,35.76173],[139.45254,35.76153],[139.4523,35.76198],[139.45159,35.76166],[139.45154,35.76179],[139.45146,35.76185],[139.45035,35.76148],[139.44947,35.76133],[139.44912,35.76123],[139.4486,35.761],[139.44832,35.76071],[139.44655,35.76399],[139.44725,35.7643],[139.44798,35.76468],[139.44847,35.76514],[139.44862,35.76525],[139.44877,35.76531],[139.44978,35.76552],[139.45053,35.76563],[139.45084,35.76566],[139.45105,35.76564],[139.45124,35.7657]]]}},{"type":"Feature","properties":{"id":"area-13213011002","name":"多摩湖町二丁目"},"geometry":{"type":"Polygon","coordinates":[[[139.44801,35.76052],[139.44769,35.7602],[139.44755,35.75993],[139.44706,35.76038],[139.44672,35.76003],[139.44666,35.7598],[139.44646,35.75983],[139.44642,35.7597],[139.44633,35.75973],[139.44622,35.75949],[139.44616,35.75942],[139.44562,35.75926],[139.44526,35.75899],[139.4447,35.7589],[139.44431,35.75962],[139.44385,35.75894],[139.44316,35.75868],[139.44278,35.75818],[139.44268,35.7583],[139.44196,35.75875],[139.44125,35.75928],[139.44079,35.75991],[139.44071,35.75998],[139.44057,35.76067],[139.44117,35.7607],[139.44124,35.76073],[139.44223,35.76231],[139.44237,35.76239],[139.44259,35.7625],[139.44391,35.76288],[139.44479,35.76318],[139.44489,35.76324],[139.44515,35.76354],[139.44527,35.7636],[139.44597,35.76376],[139.44655,35.76398],[139.44832,35.76071],[139.44826,35.76063],[139.44801,35.76052]]]}},{"type":"Feature","properties":{"id":"area-13213011003","name":"多摩湖町三丁目"},"geometry":{"type":"Polygon","coordinates":[[[139.44339,35.76722],[139.44419,35.76687],[139.44467,35.76659],[139.44481,35.76662],[139.44502,35.76674],[139.44542,35.76609],[139.44615,35.76463],[139.44655,35.76398],[139.44597,35.76376],[139.44527,35.7636],[139.44515,35.76354],[139.44489,35.76324],[139.44479,35.76318],[139.44391,35.76288],[139.44259,35.7625],[139.44237,35.76239],[139.44223,35.76231],[139.44124,35.76073],[139.44117,35.7607],[139.44057,35.76067],[139.44055,35.76088],[139.44049,35.76103],[139.44051,35.76122],[139.44041,35.76151],[139.44043,35.7616],[139.44054,35.76179],[139.44072,35.76258],[139.44067,35.76271],[139.44064,35.76354],[139.44008,35.76367],[139.44,35.76381],[139.44002,35.76389],[139.43995,35.76399],[139.44055,35.76637],[139.44081,35.76698],[139.44088,35.76713],[139.44114,35.76703],[139.44154,35.76696],[139.44239,35.76706],[139.44292,35.76724],[139.44339,35.76722]]]}},{"type":"Feature","properties":{"id":"area-13213011004","name":"多摩湖町四丁目"},"geometry":{"type":"Polygon","coordinates":[[[139.45224,35.7688],[139.45282,35.76861],[139.45228,35.76799],[139.45226,35.7678],[139.45202,35.76733],[139.45215,35.76667],[139.45239,35.76649],[139.45243,35.76628],[139.45242,35.76617],[139.45254,35.76577],[139.45256,35.7656],[139.45192,35.76561],[139.45124,35.7657],[139.45105,35.76564],[139.45084,35.76566],[139.44978,35.76552],[139.44877,35.76531],[139.44862,35.76525],[139.44847,35.76514],[139.44798,35.76468],[139.44725,35.7643],[139.44655,35.76399],[139.44615,35.76463],[139.44542,35.76609],[139.44502,35.76674],[139.4454,35.76697],[139.44576,35.76739],[139.44626,35.76786],[139.44681,35.76824],[139.44699,35.76863],[139.44777,35.76886],[139.44807,35.76891],[139.44873,35.76873],[139.44988,35.7686],[139.45075,35.76905],[139.45122,35.76921],[139.45159,35.76912],[139.45224,35.7688]]]}},{"type":"Feature","properties":{"id":"area-13213012001","name":"諏訪町一丁目"},"geometry":{"type":"Polygon","coordinates":[[[139.47073,35.77287],[139.47076,35.77278],[139.47086,35.77265],[139.47164,35.77234],[139.47124,35.77171],[139.47043,35.77028],[139.4689,35.76767],[139.46635,35.76345],[139.46644,35.76394],[139.46645,35.76431],[139.46614,35.76433],[139.46565,35.76444],[139.46517,35.76464],[139.46446,35.76505],[139.46449,35.76562],[139.46459,35.76619],[139.46539,35.76789],[139.46551,35.76806],[139.46584,35.76906],[139.46631,35.77006],[139.46637,35.77012],[139.46652,35.77016],[139.46675,35.77009],[139.46689,35.77009],[139.46755,35.77034],[139.46764,35.77051],[139.46765,35.77074],[139.46781,35.77088],[139.46794,35.77108],[139.46805,35.77116],[139.46848,35.77121],[139.46859,35.77125],[139.46867,35.77132],[139.46852,35.77149],[139.46858,35.77161],[139.46862,35.77196],[139.46908,35.77238],[139.46942,35.77276],[139.46948,35.77286],[139.46956,35.77292],[139.46978,35.77293],[139.47021,35.77285],[139.47033,35.77286],[139.47067,35.77302],[139.47075,35.77311],[139.47073,35.77287]]]}},{"type":"Feature","properties":{"id":"area-13213012002","name":"諏訪町二丁目"},"geometry":{"type":"Polygon","coordinates":[[[139.4699,35.77418],[139.46992,35.77415],[139.46997,35.77387],[139.47009,35.77379],[139.47018,35.7736],[139.47038,35.77359],[139.47046,35.77343],[139.47055,35.77316],[139.47076,35.77327],[139.47081,35.77324],[139.47075,35.77311],[139.47067,35.77302],[139.47033,35.77286],[139.47021,35.77285],[139.46978,35.77293],[139.46956,35.77292],[139.46948,35.77286],[139.46942,35.77276],[139.46908,35.77238],[139.46862,35.77196],[139.46858,35.77161],[139.46852,35.77149],[139.46867,35.77132],[139.46859,35.77125],[139.46848,35.77121],[139.46814,35.77119],[139.46805,35.77116],[139.46794,35.77108],[139.46781,35.77088],[139.46765,35.77074],[139.46764,35.77051],[139.46755,35.77034],[139.46689,35.77009],[139.46675,35.77009],[139.46652,35.77016],[139.46637,35.77012],[139.46631,35.77006],[139.46584,35.76906],[139.46551,35.76806],[139.46539,35.76789],[139.46442,35.76814],[139.46388,35.76819],[139.46354,35.76817],[139.46315,35.76811],[139.46241,35.76908],[139.46223,35.76939],[139.46211,35.76974],[139.46284,35.77027],[139.46278,35.77053],[139.46288,35.7708],[139.46285,35.77087],[139.46288,35.77108],[139.46295,35.77131],[139.46322,35.77188],[139.46369,35.77275],[139.4637,35.7728],[139.46356,35.77283],[139.46377,35.77287],[139.4644,35.77338],[139.46456,35.77346],[139.46512,35.77355],[139.46556,35.77346],[139.46615,35.77353],[139.46681,35.77376],[139.4675,35.77386],[139.46761,35.77389],[139.46775,35.77407],[139.46828,35.77417],[139.46862,35.77415],[139.46891,35.77424],[139.4699,35.77418]]]}},{"type":"Feature","properties":{"id":"area-13213012003","name":"諏訪町三丁目"},"geometry":{"type":"Polygon","coordinates":[[[139.46211,35.76974],[139.46223,35.76939],[139.46241,35.76908],[139.46315,35.76811],[139.45651,35.76698],[139.45402,35.76648],[139.45371,35.76645],[139.45291,35.76646],[139.45238,35.76652],[139.45215,35.76667],[139.45202,35.76733],[139.45226,35.7678],[139.45228,35.76799],[139.45281,35.7686],[139.45303,35.76863],[139.4536,35.7693],[139.4539,35.7695],[139.4548,35.76977],[139.45528,35.76988],[139.45634,35.76981],[139.4569,35.76987],[139.45743,35.76966],[139.45775,35.76963],[139.45802,35.76965],[139.45811,35.7697],[139.45832,35.77001],[139.45887,35.77045],[139.45889,35.77053],[139.45876,35.77081],[139.45876,35.77088],[139.45888,35.77153],[139.45916,35.77214],[139.45954,35.77241],[139.45969,35.77247],[139.4602,35.77252],[139.46035,35.7726],[139.46092,35.77295],[139.46111,35.77324],[139.46147,35.77344],[139.46188,35.77348],[139.46219,35.77346],[139.46232,35.77339],[139.46275,35.77304],[139.4637,35.7728],[139.46295,35.77131],[139.46288,35.77108],[139.46285,35.77087],[139.46288,35.7708],[139.46278,35.77053],[139.46284,35.77027],[139.46211,35.76974]]]}},{"type":"Feature","properties":{"id":"area-13213013001","name":"野口町一丁目"},"geometry":{"type":"Polygon","coordinates":[[[139.46635,35.76345],[139.46564,35.76211],[139.4656,35.7619],[139.46552,35.76098],[139.46551,35.76027],[139.46558,35.7593],[139.46552,35.75805],[139.46551,35.75803],[139.46453,35.75808],[139.46327,35.75783],[139.46281,35.75764],[139.46243,35.75843],[139.46216,35.75915],[139.46182,35.75969],[139.46138,35.75971],[139.46133,35.75974],[139.46082,35.76033],[139.46068,35.76062],[139.4615,35.76083],[139.46161,35.76089],[139.46169,35.76099],[139.46185,35.76132],[139.46262,35.76207],[139.46335,35.76245],[139.46385,35.76261],[139.46406,35.76278],[139.46417,35.76303],[139.46427,35.76365],[139.46424,35.76461],[139.46441,35.76489],[139.46444,35.76506],[139.46517,35.76464],[139.46565,35.76444],[139.46614,35.76433],[139.46645,35.76431],[139.46644,35.76394],[139.46635,35.76345]]]}},{"type":"Feature","properties":{"id":"area-13213013002","name":"野口町二丁目"},"geometry":{"type":"Polygon","coordinates":[[[139.45969,35.75637],[139.45734,35.75534],[139.45687,35.75646],[139.45599,35.75814],[139.45575,35.75854],[139.45525,35.75924],[139.45435,35.76002],[139.45512,35.76047],[139.45586,35.76085],[139.45635,35.76104],[139.45795,35.76139],[139.45836,35.76145],[139.45983,35.76186],[139.46064,35.76213],[139.46103,35.76214],[139.46239,35.76184],[139.46185,35.76132],[139.46169,35.76099],[139.46161,35.76089],[139.4615,35.76083],[139.46068,35.76062],[139.46082,35.76033],[139.46133,35.75974],[139.46138,35.75971],[139.46182,35.75969],[139.46216,35.75915],[139.46243,35.75843],[139.46281,35.75764],[139.46195,35.75725],[139.45969,35.75637]]]}},{"type":"Feature","properties":{"id":"area-13213013003","name":"野口町三丁目"},"geometry":{"type":"Polygon","coordinates":[[[139.45786,35.76657],[139.45802,35.76637],[139.45768,35.76624],[139.45763,35.76612],[139.45767,35.76592],[139.45811,35.76502],[139.45811,35.76466],[139.45789,35.7634],[139.45923,35.76357],[139.45945,35.76176],[139.45836,35.76145],[139.45795,35.76139],[139.45635,35.76104],[139.45586,35.76085],[139.45512,35.76047],[139.45437,35.76004],[139.45401,35.76043],[139.45355,35.76124],[139.45342,35.76155],[139.45325,35.76173],[139.45323,35.76189],[139.45332,35.76217],[139.45333,35.76239],[139.4531,35.76328],[139.4529,35.76437],[139.45286,35.76448],[139.4527,35.76473],[139.4526,35.76509],[139.45254,35.76577],[139.45242,35.76617],[139.45243,35.76628],[139.45238,35.76652],[139.45321,35.76644],[139.45402,35.76648],[139.45651,35.76698],[139.45757,35.76716],[139.45761,35.76677],[139.45786,35.76657]]]}},{"type":"Feature","properties":{"id":"area-13213013004","name":"野口町四丁目"},"geometry":{"type":"Polygon","coordinates":[[[139.46449,35.76562],[139.46446,35.76505],[139.46444,35.76506],[139.46441,35.76489],[139.46424,35.76461],[139.46427,35.76358],[139.46417,35.76303],[139.46406,35.76278],[139.46399,35.76271],[139.46385,35.76261],[139.46321,35.76239],[139.46262,35.76207],[139.46239,35.76184],[139.46103,35.76214],[139.46083,35.76216],[139.46064,35.76213],[139.45945,35.76176],[139.45923,35.76357],[139.45789,35.7634],[139.45811,35.76466],[139.45811,35.76502],[139.45767,35.76592],[139.45763,35.76612],[139.45768,35.76624],[139.45802,35.76637],[139.45786,35.76657],[139.45761,35.76677],[139.45757,35.76716],[139.46182,35.7679],[139.46354,35.76817],[139.46388,35.76819],[139.46442,35.76814],[139.46539,35.76789],[139.46459,35.76619],[139.46449,35.76562]]]}}]}