{"type":"FeatureCollection","features":[{"type":"Feature","properties":{"id":"area-13210001001","name":"東町一丁目"},"geometry":{"type":"Polygon","coordinates":[[[139.5314,35.69482],[139.53156,35.69362],[139.53225,35.68932],[139.53232,35.68862],[139.53172,35.68866],[139.53173,35.6889],[139.5307,35.68946],[139.52996,35.68952],[139.52999,35.68986],[139.52891,35.69045],[139.52837,35.68955],[139.5275,35.69],[139.52703,35.68967],[139.52631,35.69011],[139.52585,35.68996],[139.52566,35.69006],[139.525,35.68941],[139.52517,35.6893],[139.52451,35.68848],[139.52496,35.6883],[139.5256,35.68791],[139.52621,35.68762],[139.52654,35.68715],[139.52683,35.68621],[139.5268,35.68584],[139.52665,35.68562],[139.52668,35.68547],[139.52681,35.68509],[139.52733,35.68417],[139.52764,35.68389],[139.52663,35.684],[139.52638,35.68394],[139.52632,35.68397],[139.52608,35.68432],[139.52593,35.68459],[139.52582,35.68463],[139.52571,35.68473],[139.52555,35.68518],[139.52559,35.68543],[139.52556,35.68555],[139.5255,35.68559],[139.52512,35.68568],[139.52505,35.68576],[139.52503,35.68621],[139.52521,35.68649],[139.52551,35.68665],[139.52553,35.68669],[139.52551,35.68683],[139.52527,35.687],[139.52465,35.68725],[139.52426,35.6875],[139.5242,35.68759],[139.52414,35.68783],[139.52378,35.68791],[139.52328,35.68819],[139.52315,35.68785],[139.52319,35.68751],[139.52307,35.68734],[139.52221,35.68761],[139.52317,35.68962],[139.52326,35.68999],[139.52539,35.69439],[139.52781,35.69442],[139.52865,35.69455],[139.5314,35.69482]]]}},{"type":"Feature","properties":{"id":"area-13210001002","name":"東町二丁目"},"geometry":{"type":"Polygon","coordinates":[[[139.52865,35.69455],[139.52781,35.69442],[139.5276,35.69442],[139.52748,35.69615],[139.52724,35.69643],[139.52724,35.69647],[139.53348,35.7004],[139.5337,35.69921],[139.53378,35.69855],[139.53401,35.69503],[139.53116,35.6948],[139.52865,35.69455]]]}},{"type":"Feature","properties":{"id":"area-13210001003","name":"東町三丁目"},"geometry":{"type":"Polygon","coordinates":[[[139.53249,35.70128],[139.5325,35.70113],[139.5333,35.70117],[139.53335,35.7009],[139.53341,35.70084],[139.53348,35.7004],[139.52724,35.69647],[139.52716,35.69762],[139.52737,35.69766],[139.52727,35.6994],[139.52721,35.69987],[139.52689,35.69989],[139.52711,35.70087],[139.52703,35.70089],[139.52699,35.70157],[139.5298,35.70167],[139.53242,35.70172],[139.53244,35.7013],[139.53249,35.70128]]]}},{"type":"Feature","properties":{"id":"area-13210001004","name":"東町四丁目"},"geometry":{"type":"Polygon","coordinates":[[[139.52748,35.69615],[139.5276,35.69442],[139.52456,35.69438],[139.52218,35.6944],[139.52219,35.69629],[139.52207,35.70144],[139.52699,35.70157],[139.52703,35.70089],[139.52711,35.70087],[139.52689,35.69989],[139.52721,35.69987],[139.52727,35.6994],[139.52737,35.69766],[139.52716,35.69762],[139.52724,35.69643],[139.52748,35.69615]]]}},{"type":"Feature","properties":{"id":"area-13210001005","name":"東町五丁目"},"geometry":{"type":"Polygon","coordinates":[[[139.52187,35.69439],[139.52539,35.69439],[139.52326,35.68999],[139.52317,35.68962],[139.52225,35.68771],[139.52206,35.68721],[139.522,35.68743],[139.52193,35.68756],[139.52183,35.68771],[139.52158,35.68796],[139.52142,35.68831],[139.52127,35.68841],[139.52076,35.68862],[139.5206,35.68873],[139.52045,35.68906],[139.52025,35.6897],[139.51958,35.69016],[139.5194,35.69032],[139.51912,35.69064],[139.51897,35.69063],[139.51871,35.69084],[139.51884,35.69112],[139.51829,35.69143],[139.51871,35.69191],[139.51913,35.69247],[139.51902,35.69252],[139.519,35.69257],[139.5192,35.69312],[139.51908,35.69318],[139.5194,35.69387],[139.5195,35.69442],[139.52187,35.69439]]]}},{"type":"Feature","properties":{"id":"area-13210002001","name":"梶野町一丁目"},"geometry":{"type":"Polygon","coordinates":[[[139.53242,35.70172],[139.52759,35.70158],[139.52741,35.70365],[139.52738,35.70515],[139.52875,35.7052],[139.5321,35.70525],[139.5321,35.70205],[139.53241,35.702],[139.53242,35.70172]]]}},{"type":"Feature","properties":{"id":"area-13210002002","name":"梶野町二丁目"},"geometry":{"type":"Polygon","coordinates":[[[139.5322,35.70752],[139.5321,35.70525],[139.52875,35.7052],[139.52734,35.70514],[139.52739,35.70523],[139.52766,35.70688],[139.52793,35.70916],[139.52803,35.70944],[139.52812,35.70962],[139.53231,35.70906],[139.5322,35.70752]]]}},{"type":"Feature","properties":{"id":"area-13210002003","name":"梶野町三丁目"},"geometry":{"type":"Polygon","coordinates":[[[139.52703,35.70995],[139.5277,35.70949],[139.52772,35.7097],[139.52803,35.70967],[139.52812,35.70962],[139.52803,35.70944],[139.52793,35.70916],[139.52786,35.70852],[139.52576,35.70869],[139.52574,35.70858],[139.52437,35.70871],[139.52253,35.70882],[139.52254,35.70892],[139.52174,35.70887],[139.52173,35.71025],[139.52162,35.71218],[139.52163,35.71257],[139.52752,35.7124],[139.52721,35.71008],[139.52703,35.70995]]]}},{"type":"Feature","properties":{"id":"area-13210002004","name":"梶野町四丁目"},"geometry":{"type":"Polygon","coordinates":[[[139.52253,35.70882],[139.52574,35.70858],[139.52576,35.70869],[139.52786,35.70852],[139.52766,35.70688],[139.52739,35.70523],[139.52734,35.70514],[139.52586,35.70495],[139.52462,35.70487],[139.52284,35.70496],[139.52262,35.70505],[139.5219,35.70522],[139.52174,35.70887],[139.52254,35.70892],[139.52253,35.70882]]]}},{"type":"Feature","properties":{"id":"area-13210002005","name":"梶野町五丁目"},"geometry":{"type":"Polygon","coordinates":[[[139.52398,35.7049],[139.52503,35.70489],[139.52586,35.70495],[139.52738,35.70515],[139.52741,35.70365],[139.52759,35.70158],[139.52207,35.70144],[139.5219,35.70522],[139.52262,35.70505],[139.52284,35.70496],[139.52398,35.7049]]]}},{"type":"Feature","properties":{"id":"area-13210003001","name":"関野町一丁目"},"geometry":{"type":"Polygon","coordinates":[[[139.52529,35.71432],[139.52464,35.71249],[139.52071,35.71259],[139.51819,35.7126],[139.51821,35.71261],[139.51823,35.71429],[139.51823,35.71791],[139.52293,35.7189],[139.52293,35.71752],[139.52644,35.71745],[139.52534,35.71433],[139.52529,35.71432]]]}},{"type":"Feature","properties":{"id":"area-13210003002","name":"関野町二丁目"},"geometry":{"type":"Polygon","coordinates":[[[139.51821,35.71261],[139.51275,35.71257],[139.51304,35.71436],[139.51314,35.71437],[139.51316,35.717],[139.51823,35.71791],[139.51821,35.71261]]]}},{"type":"Feature","properties":{"id":"area-13210004001","name":"緑町一丁目"},"geometry":{"type":"Polygon","coordinates":[[[139.5177,35.70491],[139.51813,35.70492],[139.51881,35.70478],[139.52032,35.70453],[139.52195,35.70431],[139.52205,35.70212],[139.52205,35.70143],[139.51702,35.70129],[139.51708,35.70145],[139.51715,35.70145],[139.51821,35.70308],[139.5169,35.70309],[139.51743,35.70496],[139.5177,35.70491]]]}},{"type":"Feature","properties":{"id":"area-13210004002","name":"緑町二丁目"},"geometry":{"type":"Polygon","coordinates":[[[139.52175,35.70881],[139.52195,35.70431],[139.52032,35.70453],[139.51881,35.70478],[139.51829,35.7049],[139.5177,35.70491],[139.51724,35.705],[139.51769,35.70635],[139.51788,35.70767],[139.51787,35.70799],[139.51818,35.70904],[139.51838,35.7096],[139.51926,35.71146],[139.51931,35.71261],[139.52163,35.71257],[139.52162,35.71218],[139.52173,35.71025],[139.52175,35.70881]]]}},{"type":"Feature","properties":{"id":"area-13210004003","name":"緑町三丁目"},"geometry":{"type":"Polygon","coordinates":[[[139.51443,35.71258],[139.51931,35.71261],[139.51926,35.71146],[139.51865,35.7102],[139.51824,35.7101],[139.51766,35.71016],[139.5168,35.70957],[139.51632,35.70937],[139.51522,35.70875],[139.51475,35.70858],[139.51424,35.70834],[139.51266,35.70816],[139.51213,35.70815],[139.51217,35.70858],[139.51234,35.70906],[139.51242,35.71007],[139.51249,35.7103],[139.51265,35.71136],[139.51432,35.71138],[139.51443,35.71258]]]}},{"type":"Feature","properties":{"id":"area-13210004004","name":"緑町四丁目"},"geometry":{"type":"Polygon","coordinates":[[[139.51865,35.7102],[139.51838,35.7096],[139.51787,35.70799],[139.51788,35.70767],[139.51769,35.70635],[139.51724,35.705],[139.51426,35.70553],[139.51152,35.70557],[139.51214,35.70764],[139.51218,35.70789],[139.51213,35.70815],[139.51266,35.70816],[139.51424,35.70834],[139.51475,35.70858],[139.51522,35.70875],[139.51632,35.70937],[139.5168,35.70957],[139.51766,35.71016],[139.51824,35.7101],[139.51865,35.7102]]]}},{"type":"Feature","properties":{"id":"area-13210004005","name":"緑町五丁目"},"geometry":{"type":"Polygon","coordinates":[[[139.51743,35.70496],[139.5169,35.70309],[139.51821,35.70308],[139.51715,35.70145],[139.51708,35.70145],[139.51702,35.70129],[139.51119,35.7011],[139.51011,35.7011],[139.51015,35.70111],[139.51067,35.70208],[139.51075,35.70207],[139.51121,35.70306],[139.51114,35.70309],[139.51144,35.70412],[139.51152,35.70445],[139.51153,35.70473],[139.51173,35.70557],[139.51426,35.70553],[139.51743,35.70496]]]}},{"type":"Feature","properties":{"id":"area-13210005001","name":"中町一丁目"},"geometry":{"type":"Polygon","coordinates":[[[139.51035,35.69739],[139.51166,35.69678],[139.51255,35.69626],[139.51265,35.69617],[139.51321,35.69587],[139.51349,35.69577],[139.51435,35.69557],[139.51732,35.69468],[139.51772,35.6946],[139.51832,35.69456],[139.5195,35.69442],[139.5194,35.69387],[139.51908,35.69318],[139.5192,35.69312],[139.519,35.69257],[139.51902,35.69252],[139.51913,35.69247],[139.51911,35.69242],[139.51871,35.69191],[139.51835,35.69153],[139.51781,35.69183],[139.51357,35.69334],[139.51296,35.69352],[139.51206,35.69361],[139.51146,35.69357],[139.50966,35.69316],[139.50932,35.69317],[139.50903,35.69322],[139.50872,35.69335],[139.50926,35.69426],[139.50953,35.69479],[139.50992,35.69587],[139.51008,35.69616],[139.51011,35.69642],[139.51004,35.69674],[139.51035,35.69739]]]}},{"type":"Feature","properties":{"id":"area-13210005002","name":"中町二丁目"},"geometry":{"type":"Polygon","coordinates":[[[139.52219,35.69534],[139.52218,35.69439],[139.5195,35.69442],[139.51832,35.69456],[139.51772,35.6946],[139.51732,35.69468],[139.51515,35.69535],[139.51396,35.69566],[139.51417,35.69632],[139.51446,35.69691],[139.5146,35.69734],[139.51501,35.69807],[139.5152,35.69833],[139.51555,35.6986],[139.5159,35.69913],[139.51628,35.70016],[139.51656,35.70072],[139.51688,35.70116],[139.51691,35.70128],[139.52205,35.70143],[139.52205,35.70146],[139.5221,35.70071],[139.52219,35.69534]]]}},{"type":"Feature","properties":{"id":"area-13210005003","name":"中町三丁目"},"geometry":{"type":"Polygon","coordinates":[[[139.51227,35.70115],[139.51691,35.70128],[139.51688,35.70116],[139.51656,35.70072],[139.51628,35.70016],[139.5159,35.69913],[139.51555,35.6986],[139.5152,35.69833],[139.51501,35.69807],[139.5146,35.69734],[139.51446,35.69691],[139.51417,35.69632],[139.51396,35.69566],[139.51321,35.69587],[139.51265,35.69617],[139.51255,35.69626],[139.51166,35.69678],[139.51074,35.69723],[139.5115,35.69896],[139.51227,35.70115]]]}},{"type":"Feature","properties":{"id":"area-13210005004","name":"中町四丁目"},"geometry":{"type":"Polygon","coordinates":[[[139.50904,35.69387],[139.50872,35.69335],[139.5082,35.6936],[139.50783,35.69372],[139.50598,35.6939],[139.50547,35.69509],[139.50621,35.69747],[139.50626,35.69837],[139.50634,35.69874],[139.50992,35.69761],[139.51035,35.69739],[139.51004,35.69674],[139.51011,35.69642],[139.51008,35.69616],[139.50992,35.69587],[139.50953,35.69479],[139.50904,35.69387]]]}},{"type":"Feature","properties":{"id":"area-13210006001","name":"前原町一丁目"},"geometry":{"type":"Polygon","coordinates":[[[139.51145,35.69099],[139.51317,35.69079],[139.51359,35.69071],[139.51388,35.69063],[139.51389,35.69059],[139.51569,35.69025],[139.51591,35.69019],[139.51601,35.6901],[139.51591,35.68984],[139.5152,35.69003],[139.51439,35.68822],[139.51475,35.68816],[139.51439,35.68562],[139.50686,35.68633],[139.50637,35.6866],[139.50609,35.68651],[139.50584,35.68681],[139.50621,35.68719],[139.50594,35.68751],[139.50585,35.68752],[139.50682,35.68853],[139.50706,35.6886],[139.5084,35.68876],[139.50643,35.69286],[139.50687,35.69276],[139.50936,35.6917],[139.50984,35.69137],[139.51145,35.69099]]]}},{"type":"Feature","properties":{"id":"area-13210006002","name":"前原町二丁目"},"geometry":{"type":"Polygon","coordinates":[[[139.50932,35.69317],[139.50986,35.69319],[139.51114,35.69352],[139.51146,35.69357],[139.51206,35.69361],[139.51296,35.69352],[139.51357,35.69334],[139.51781,35.69183],[139.51835,35.69153],[139.51827,35.69141],[139.51816,35.69145],[139.51794,35.69122],[139.51798,35.69117],[139.5176,35.69078],[139.51659,35.69081],[139.51655,35.69064],[139.51608,35.69067],[139.51591,35.69019],[139.51389,35.69059],[139.51388,35.69063],[139.51359,35.69071],[139.51145,35.69099],[139.50984,35.69137],[139.50936,35.6917],[139.50687,35.69276],[139.50643,35.69286],[139.50598,35.6939],[139.50783,35.69372],[139.5082,35.6936],[139.50887,35.69327],[139.50932,35.69317]]]}},{"type":"Feature","properties":{"id":"area-13210006003","name":"前原町三丁目"},"geometry":{"type":"Polygon","coordinates":[[[139.50284,35.69905],[139.50634,35.69874],[139.50626,35.69837],[139.50621,35.69747],[139.50547,35.69509],[139.50598,35.6939],[139.50479,35.69399],[139.50454,35.6936],[139.5043,35.69351],[139.50395,35.69328],[139.5038,35.69326],[139.50342,35.69323],[139.50311,35.69328],[139.50282,35.69327],[139.50252,35.69343],[139.50172,35.69361],[139.50158,35.69359],[139.50148,35.69352],[139.50133,35.69326],[139.50121,35.69313],[139.50092,35.6929],[139.50026,35.69305],[139.4999,35.69297],[139.4996,35.69294],[139.49946,35.69296],[139.49927,35.6931],[139.49918,35.69324],[139.49918,35.6934],[139.49931,35.69376],[139.49921,35.69404],[139.4988,35.69428],[139.49874,35.69459],[139.49882,35.6953],[139.49879,35.69548],[139.49867,35.69571],[139.49865,35.69584],[139.49867,35.69593],[139.49879,35.69607],[139.49909,35.69579],[139.49942,35.69583],[139.49946,35.69597],[139.49991,35.69597],[139.49985,35.69625],[139.49973,35.69633],[139.49969,35.69648],[139.49933,35.69647],[139.49921,35.69677],[139.49914,35.69718],[139.49939,35.69721],[139.49936,35.69872],[139.49927,35.69876],[139.49919,35.69899],[139.49926,35.69935],[139.49978,35.69927],[139.50284,35.69905]]]}},{"type":"Feature","properties":{"id":"area-13210006004","name":"前原町四丁目"},"geometry":{"type":"Polygon","coordinates":[[[139.50565,35.6873],[139.5057,35.68718],[139.50555,35.68719],[139.50472,35.68625],[139.50305,35.68454],[139.5028,35.68432],[139.50209,35.68384],[139.50196,35.68381],[139.50011,35.68416],[139.50018,35.6844],[139.5008,35.68426],[139.50119,35.68531],[139.50199,35.68515],[139.5023,35.68557],[139.50323,35.68726],[139.50259,35.68728],[139.50122,35.6875],[139.50178,35.68807],[139.50221,35.68866],[139.50256,35.68938],[139.50274,35.68984],[139.50287,35.69026],[139.50286,35.69052],[139.50306,35.69109],[139.50356,35.69189],[139.5036,35.69199],[139.50356,35.69205],[139.50363,35.69211],[139.50479,35.69399],[139.50598,35.6939],[139.50642,35.69289],[139.5084,35.68876],[139.50706,35.6886],[139.50682,35.68853],[139.50565,35.6873]]]}},{"type":"Feature","properties":{"id":"area-13210006005","name":"前原町五丁目"},"geometry":{"type":"Polygon","coordinates":[[[139.5026,35.69339],[139.50282,35.69327],[139.50311,35.69328],[139.50342,35.69323],[139.5038,35.69326],[139.50395,35.69328],[139.5043,35.69351],[139.50454,35.6936],[139.50363,35.69211],[139.50356,35.69205],[139.5036,35.69199],[139.50356,35.69189],[139.50306,35.69109],[139.50286,35.69052],[139.50287,35.69026],[139.50274,35.68984],[139.50256,35.68938],[139.50221,35.68866],[139.50178,35.68807],[139.50073,35.68703],[139.49999,35.68733],[139.49949,35.68686],[139.49933,35.68691],[139.49912,35.68656],[139.4987,35.68564],[139.49798,35.68565],[139.49803,35.68603],[139.49788,35.68604],[139.49787,35.68597],[139.49704,35.68604],[139.49752,35.68672],[139.49678,35.68675],[139.49663,35.68679],[139.49644,35.68691],[139.4962,35.68684],[139.49543,35.68678],[139.49535,35.68686],[139.4955,35.68716],[139.49556,35.68719],[139.49629,35.68725],[139.49635,35.68742],[139.49676,35.68741],[139.49669,35.68718],[139.49718,35.68714],[139.49768,35.68721],[139.49767,35.68753],[139.4976,35.68751],[139.49792,35.68831],[139.49861,35.68816],[139.49834,35.68948],[139.49874,35.68947],[139.49925,35.69061],[139.49948,35.69101],[139.49975,35.6917],[139.49971,35.6917],[139.50005,35.69271],[139.50013,35.69304],[139.50026,35.69305],[139.50092,35.6929],[139.50121,35.69313],[139.50133,35.69326],[139.50148,35.69352],[139.50158,35.69359],[139.50172,35.69361],[139.5026,35.69339]]]}},{"type":"Feature","properties":{"id":"area-13210007001","name":"本町一丁目"},"geometry":{"type":"Polygon","coordinates":[[[139.51076,35.69722],[139.50992,35.69761],[139.50634,35.69874],[139.5072,35.70037],[139.50721,35.70101],[139.51227,35.70115],[139.5115,35.69896],[139.51074,35.69723],[139.51076,35.69722]]]}},{"type":"Feature","properties":{"id":"area-13210007002","name":"本町二丁目"},"geometry":{"type":"Polygon","coordinates":[[[139.50919,35.70559],[139.51173,35.70557],[139.51153,35.70473],[139.51152,35.70445],[139.51144,35.70412],[139.51114,35.70309],[139.51121,35.70306],[139.51075,35.70207],[139.51067,35.70208],[139.51015,35.70111],[139.50721,35.70101],[139.50719,35.70126],[139.50723,35.70205],[139.50761,35.70387],[139.50786,35.70553],[139.50919,35.70559]]]}},{"type":"Feature","properties":{"id":"area-13210007003","name":"本町三丁目"},"geometry":{"type":"Polygon","coordinates":[[[139.51095,35.7093],[139.51089,35.70777],[139.51143,35.708],[139.51212,35.70817],[139.51218,35.70789],[139.51214,35.70764],[139.51152,35.70557],[139.50969,35.70559],[139.50787,35.70553],[139.50793,35.70624],[139.50798,35.70654],[139.50794,35.70747],[139.50797,35.70921],[139.51059,35.70926],[139.51064,35.70931],[139.51063,35.70942],[139.51093,35.70943],[139.51095,35.7093]]]}},{"type":"Feature","properties":{"id":"area-13210007004","name":"本町四丁目"},"geometry":{"type":"Polygon","coordinates":[[[139.50074,35.70961],[139.50425,35.70933],[139.50418,35.709],[139.50444,35.70898],[139.50448,35.70877],[139.50443,35.70837],[139.50588,35.70826],[139.50592,35.7089],[139.50796,35.70879],[139.50794,35.70747],[139.50798,35.70654],[139.50793,35.70624],[139.50787,35.70553],[139.50665,35.70544],[139.50645,35.70546],[139.50553,35.70572],[139.50504,35.70574],[139.50437,35.70586],[139.50382,35.70601],[139.50321,35.70622],[139.50306,35.7064],[139.50291,35.70651],[139.5027,35.70657],[139.50251,35.7066],[139.50241,35.70653],[139.50103,35.70688],[139.50087,35.7065],[139.50028,35.70662],[139.50074,35.70961]]]}},{"type":"Feature","properties":{"id":"area-13210007005","name":"本町五丁目"},"geometry":{"type":"Polygon","coordinates":[[[139.50103,35.70688],[139.50241,35.70653],[139.50251,35.7066],[139.50291,35.70651],[139.50306,35.7064],[139.50321,35.70622],[139.50382,35.70601],[139.50504,35.70574],[139.50553,35.70572],[139.50645,35.70546],[139.50665,35.70544],[139.50786,35.70553],[139.50761,35.70387],[139.50723,35.70205],[139.50719,35.70126],[139.5072,35.70094],[139.504,35.7009],[139.4994,35.70077],[139.49937,35.70079],[139.49993,35.70275],[139.5,35.7029],[139.49968,35.703],[139.49991,35.70363],[139.49985,35.70365],[139.50025,35.70662],[139.50087,35.7065],[139.50103,35.70688]]]}},{"type":"Feature","properties":{"id":"area-13210007006","name":"本町六丁目"},"geometry":{"type":"Polygon","coordinates":[[[139.50721,35.70097],[139.5072,35.70037],[139.50634,35.69874],[139.50468,35.69887],[139.5043,35.69893],[139.50252,35.69909],[139.49978,35.69927],[139.49926,35.69935],[139.4994,35.70075],[139.49937,35.70079],[139.4994,35.70077],[139.504,35.7009],[139.5072,35.70094],[139.50721,35.70097]]]}},{"type":"Feature","properties":{"id":"area-13210008001","name":"桜町一丁目"},"geometry":{"type":"Polygon","coordinates":[[[139.51443,35.71258],[139.51432,35.71138],[139.51265,35.71136],[139.51249,35.7103],[139.51242,35.71007],[139.51234,35.70906],[139.51217,35.70858],[139.51212,35.70817],[139.51143,35.708],[139.51089,35.70777],[139.51095,35.7093],[139.51093,35.70943],[139.51063,35.70942],[139.51064,35.70931],[139.51059,35.70926],[139.50797,35.70921],[139.50796,35.71052],[139.50803,35.71172],[139.50804,35.71251],[139.51443,35.71258]]]}},{"type":"Feature","properties":{"id":"area-13210008002","name":"桜町二丁目"},"geometry":{"type":"Polygon","coordinates":[[[139.50796,35.71052],[139.50796,35.70879],[139.50592,35.7089],[139.50588,35.70826],[139.50443,35.70837],[139.50448,35.70877],[139.50444,35.70898],[139.50418,35.709],[139.50425,35.70933],[139.50212,35.7095],[139.50221,35.71014],[139.50221,35.71063],[139.50237,35.71067],[139.50239,35.71106],[139.50277,35.71108],[139.50328,35.7125],[139.50804,35.71251],[139.50803,35.71172],[139.50796,35.71052]]]}},{"type":"Feature","properties":{"id":"area-13210008003","name":"桜町三丁目"},"geometry":{"type":"Polygon","coordinates":[[[139.51275,35.71257],[139.50804,35.71251],[139.50834,35.71628],[139.51316,35.717],[139.51314,35.71437],[139.51304,35.71436],[139.51275,35.71257]]]}},{"type":"Feature","properties":{"id":"area-13210009001","name":"貫井北町一丁目"},"geometry":{"type":"Polygon","coordinates":[[[139.49993,35.70275],[139.49937,35.70079],[139.4994,35.70075],[139.49184,35.70057],[139.49194,35.70092],[139.4936,35.70409],[139.49693,35.7037],[139.49696,35.70365],[139.49842,35.70333],[139.49968,35.703],[139.5,35.7029],[139.49993,35.70275]]]}},{"type":"Feature","properties":{"id":"area-13210009002","name":"貫井北町二丁目"},"geometry":{"type":"Polygon","coordinates":[[[139.49991,35.70363],[139.49968,35.703],[139.49842,35.70333],[139.49696,35.70365],[139.49651,35.70506],[139.49592,35.70712],[139.49587,35.70778],[139.49596,35.70835],[139.49632,35.70809],[139.49674,35.70775],[139.49671,35.70773],[139.49693,35.7077],[139.49691,35.70752],[139.49764,35.70703],[139.49899,35.7069],[139.50022,35.7064],[139.49985,35.70365],[139.49991,35.70363]]]}},{"type":"Feature","properties":{"id":"area-13210009003","name":"貫井北町三丁目"},"geometry":{"type":"Polygon","coordinates":[[[139.50221,35.71014],[139.50212,35.70949],[139.50074,35.70961],[139.50028,35.70662],[139.50025,35.70662],[139.50022,35.7064],[139.49899,35.7069],[139.49764,35.70703],[139.49691,35.70752],[139.49693,35.7077],[139.49671,35.70773],[139.49674,35.70775],[139.496,35.70834],[139.49596,35.70835],[139.49589,35.70783],[139.4928,35.70817],[139.4925,35.70817],[139.49194,35.70824],[139.49208,35.70905],[139.49286,35.7089],[139.49311,35.71025],[139.49557,35.70976],[139.49559,35.70984],[139.49563,35.70983],[139.49566,35.70995],[139.49583,35.70993],[139.49586,35.71006],[139.49564,35.71009],[139.49575,35.71061],[139.49572,35.71062],[139.49617,35.71349],[139.49965,35.71284],[139.50077,35.71259],[139.50146,35.71253],[139.50328,35.7125],[139.50277,35.71108],[139.50239,35.71106],[139.50237,35.71067],[139.50221,35.71063],[139.50221,35.71014]]]}},{"type":"Feature","properties":{"id":"area-13210009004","name":"貫井北町四丁目"},"geometry":{"type":"Polygon","coordinates":[[[139.49194,35.70824],[139.4925,35.70817],[139.4928,35.70817],[139.49589,35.70783],[139.49587,35.70778],[139.49592,35.70712],[139.49693,35.7037],[139.4936,35.70409],[139.49365,35.70417],[139.49216,35.70433],[139.49207,35.70391],[139.48736,35.70448],[139.48767,35.70657],[139.48604,35.70829],[139.48568,35.70863],[139.48768,35.70853],[139.49194,35.70824]]]}},{"type":"Feature","properties":{"id":"area-13210009005","name":"貫井北町五丁目"},"geometry":{"type":"Polygon","coordinates":[[[139.48736,35.70448],[139.49207,35.70391],[139.49216,35.70433],[139.49365,35.70417],[139.4934,35.70374],[139.49194,35.70092],[139.49184,35.70058],[139.48868,35.70049],[139.48868,35.70103],[139.4879,35.7013],[139.488,35.70149],[139.48791,35.70159],[139.48808,35.70194],[139.48659,35.70236],[139.4863,35.70184],[139.48447,35.70251],[139.48481,35.70311],[139.48558,35.70463],[139.48575,35.70457],[139.48677,35.70407],[139.48746,35.7061],[139.48767,35.70657],[139.48736,35.70448]]]}},{"type":"Feature","properties":{"id":"area-13210010001","name":"貫井南町一丁目"},"geometry":{"type":"Polygon","coordinates":[[[139.49925,35.69061],[139.49874,35.68947],[139.49834,35.68948],[139.49861,35.68816],[139.49792,35.68831],[139.49764,35.68766],[139.49745,35.68773],[139.49747,35.68781],[139.49684,35.68792],[139.49703,35.68838],[139.49636,35.68857],[139.49622,35.68858],[139.49597,35.688],[139.49556,35.68806],[139.49583,35.68884],[139.49213,35.68965],[139.49296,35.69077],[139.49332,35.69133],[139.49386,35.69227],[139.4942,35.69276],[139.49455,35.69313],[139.49691,35.69225],[139.49779,35.69202],[139.49975,35.6917],[139.49948,35.69101],[139.49925,35.69061]]]}},{"type":"Feature","properties":{"id":"area-13210010002","name":"貫井南町二丁目"},"geometry":{"type":"Polygon","coordinates":[[[139.49809,35.69772],[139.49887,35.69753],[139.49912,35.69761],[139.49938,35.69763],[139.49939,35.69721],[139.49914,35.69718],[139.49921,35.69677],[139.49933,35.69647],[139.49969,35.69648],[139.49973,35.69633],[139.49985,35.69625],[139.49991,35.69597],[139.49946,35.69597],[139.49942,35.69583],[139.49909,35.69579],[139.49879,35.69607],[139.49867,35.69593],[139.49865,35.69584],[139.49867,35.69571],[139.49879,35.69548],[139.49882,35.6953],[139.49874,35.69459],[139.4988,35.69428],[139.49921,35.69404],[139.49931,35.69376],[139.49918,35.6934],[139.49918,35.69324],[139.49927,35.6931],[139.49946,35.69296],[139.4996,35.69294],[139.4999,35.69297],[139.50013,35.69304],[139.50005,35.69271],[139.49971,35.6917],[139.49779,35.69202],[139.49691,35.69225],[139.49455,35.69313],[139.49479,35.69336],[139.49518,35.69387],[139.49653,35.69549],[139.49669,35.69572],[139.49689,35.69625],[139.49698,35.6964],[139.49712,35.69659],[139.49779,35.69732],[139.49809,35.69772]]]}},{"type":"Feature","properties":{"id":"area-13210010003","name":"貫井南町三丁目"},"geometry":{"type":"Polygon","coordinates":[[[139.4994,35.70075],[139.49926,35.69935],[139.49919,35.69899],[139.49927,35.69876],[139.49936,35.69872],[139.49938,35.69763],[139.49912,35.69761],[139.49887,35.69753],[139.49808,35.69772],[139.4982,35.698],[139.49667,35.69804],[139.49427,35.69806],[139.49364,35.69818],[139.4926,35.69822],[139.49224,35.6982],[139.49193,35.69814],[139.49149,35.69799],[139.49134,35.6979],[139.49135,35.69804],[139.49141,35.6981],[139.49155,35.69836],[139.49164,35.69903],[139.49167,35.70003],[139.49123,35.70019],[139.49126,35.70035],[139.49062,35.70041],[139.49042,35.70049],[139.49012,35.70048],[139.49005,35.70053],[139.4994,35.70075]]]}},{"type":"Feature","properties":{"id":"area-13210010004","name":"貫井南町四丁目"},"geometry":{"type":"Polygon","coordinates":[[[139.49224,35.6982],[139.49364,35.69818],[139.49427,35.69806],[139.49667,35.69804],[139.4982,35.698],[139.49809,35.69772],[139.49779,35.69732],[139.49712,35.69659],[139.49698,35.6964],[139.49689,35.69625],[139.49669,35.69572],[139.49653,35.69549],[139.49457,35.69313],[139.49322,35.69348],[139.49194,35.69364],[139.49102,35.69379],[139.49104,35.69382],[139.48946,35.69412],[139.48911,35.69424],[139.48977,35.69539],[139.48994,35.69564],[139.49034,35.69617],[139.49105,35.69699],[139.49136,35.69746],[139.49134,35.6979],[139.49167,35.69806],[139.49224,35.6982]]]}},{"type":"Feature","properties":{"id":"area-13210010005","name":"貫井南町五丁目"},"geometry":{"type":"Polygon","coordinates":[[[139.4942,35.69276],[139.49386,35.69227],[139.49332,35.69133],[139.49296,35.69077],[139.49223,35.68982],[139.49118,35.69003],[139.49123,35.69023],[139.49049,35.69014],[139.49058,35.69054],[139.48899,35.69098],[139.48919,35.69176],[139.48932,35.69251],[139.4886,35.69248],[139.48832,35.69196],[139.48825,35.69191],[139.48773,35.69197],[139.48891,35.69397],[139.48911,35.69424],[139.48946,35.69412],[139.49104,35.69382],[139.49102,35.69379],[139.49194,35.69364],[139.49322,35.69348],[139.49455,35.69313],[139.4942,35.69276]]]}}]}