{"type":"FeatureCollection","features":[{"type":"Feature","properties":{"id":"area-13214001001","name":"東元町一丁目"},"geometry":{"type":"Polygon","coordinates":[[[139.48758,35.69798],[139.48834,35.69743],[139.4885,35.6975],[139.48861,35.69773],[139.48901,35.69773],[139.48914,35.69784],[139.4896,35.69796],[139.48974,35.69796],[139.48977,35.69768],[139.49021,35.69769],[139.49056,35.69742],[139.49082,35.69726],[139.49095,35.69724],[139.49111,35.69729],[139.49136,35.69746],[139.49105,35.69699],[139.49034,35.69617],[139.48977,35.69539],[139.48897,35.69508],[139.48829,35.69489],[139.48795,35.69476],[139.48795,35.69409],[139.48761,35.69406],[139.48752,35.69311],[139.48674,35.69308],[139.48672,35.69272],[139.4868,35.692],[139.48616,35.69199],[139.48593,35.69194],[139.48523,35.69194],[139.4852,35.69288],[139.48464,35.69287],[139.48457,35.69408],[139.48445,35.69499],[139.48416,35.69501],[139.484,35.69643],[139.4833,35.6964],[139.48321,35.69731],[139.4842,35.69747],[139.48541,35.69748],[139.48673,35.69764],[139.48724,35.69773],[139.48758,35.69798]]]}},{"type":"Feature","properties":{"id":"area-13214001002","name":"東元町二丁目"},"geometry":{"type":"Polygon","coordinates":[[[139.48321,35.69731],[139.4833,35.6964],[139.484,35.69643],[139.48416,35.69501],[139.48445,35.69499],[139.48457,35.69408],[139.48464,35.69287],[139.4852,35.69288],[139.48523,35.69194],[139.48461,35.69193],[139.48462,35.69174],[139.48442,35.69174],[139.48442,35.6916],[139.48422,35.6916],[139.48421,35.69154],[139.48382,35.69155],[139.48377,35.69145],[139.48364,35.69141],[139.48359,35.69124],[139.48177,35.6914],[139.48162,35.69138],[139.48152,35.69052],[139.48044,35.69061],[139.48082,35.69171],[139.48089,35.69183],[139.48096,35.6923],[139.4808,35.69455],[139.48078,35.69633],[139.4809,35.69652],[139.48103,35.69663],[139.48122,35.69671],[139.48192,35.69715],[139.48275,35.69729],[139.48321,35.69731]]]}},{"type":"Feature","properties":{"id":"area-13214001003","name":"東元町三丁目"},"geometry":{"type":"Polygon","coordinates":[[[139.47814,35.69674],[139.47875,35.69664],[139.47924,35.69677],[139.47987,35.69636],[139.47999,35.69631],[139.48028,35.69628],[139.48068,35.69633],[139.4809,35.69652],[139.48078,35.69633],[139.48078,35.69609],[139.4808,35.69455],[139.48091,35.6932],[139.4799,35.69293],[139.47959,35.6929],[139.47882,35.69298],[139.47836,35.69316],[139.47799,35.69326],[139.47749,35.69337],[139.47724,35.69339],[139.47644,35.69329],[139.47571,35.69327],[139.47524,35.69309],[139.4749,35.69303],[139.47459,35.69302],[139.47427,35.6931],[139.47384,35.69309],[139.47377,35.6939],[139.47401,35.69411],[139.47409,35.69445],[139.4739,35.6965],[139.47465,35.69656],[139.47519,35.6965],[139.47572,35.69655],[139.47613,35.69665],[139.47642,35.69676],[139.47731,35.69725],[139.47741,35.69726],[139.47761,35.69717],[139.47777,35.69695],[139.47791,35.69683],[139.47814,35.69674]]]}},{"type":"Feature","properties":{"id":"area-13214001004","name":"東元町四丁目"},"geometry":{"type":"Polygon","coordinates":[[[139.47749,35.69337],[139.47836,35.69316],[139.47882,35.69298],[139.47959,35.6929],[139.4799,35.69293],[139.48091,35.6932],[139.48096,35.6923],[139.48089,35.69183],[139.48082,35.69171],[139.48044,35.69061],[139.48018,35.69068],[139.48012,35.69059],[139.47994,35.69063],[139.47988,35.69046],[139.47945,35.69053],[139.47939,35.69023],[139.47839,35.69017],[139.47839,35.69009],[139.4783,35.69003],[139.478,35.68999],[139.47797,35.68985],[139.4778,35.68984],[139.47775,35.68973],[139.47771,35.68922],[139.47737,35.68916],[139.47691,35.68916],[139.47562,35.68905],[139.47558,35.69005],[139.47553,35.69016],[139.47556,35.69071],[139.47554,35.69099],[139.47549,35.69121],[139.47545,35.69162],[139.4755,35.69193],[139.47548,35.6921],[139.47544,35.69219],[139.47535,35.6927],[139.47524,35.69309],[139.47571,35.69327],[139.47644,35.69329],[139.47724,35.69339],[139.47749,35.69337]]]}},{"type":"Feature","properties":{"id":"area-13214002001","name":"西元町一丁目"},"geometry":{"type":"Polygon","coordinates":[[[139.4739,35.6965],[139.47409,35.69445],[139.47401,35.69411],[139.47377,35.6939],[139.47384,35.69309],[139.47318,35.69304],[139.47284,35.69297],[139.47218,35.69276],[139.47145,35.6927],[139.47128,35.69337],[139.47116,35.69344],[139.47071,35.69355],[139.47051,35.69365],[139.47034,35.6938],[139.47012,35.69409],[139.46998,35.69442],[139.46908,35.69601],[139.47091,35.69636],[139.47133,35.69642],[139.47293,35.69643],[139.4739,35.6965]]]}},{"type":"Feature","properties":{"id":"area-13214002002","name":"西元町二丁目"},"geometry":{"type":"Polygon","coordinates":[[[139.47128,35.69337],[139.47145,35.6927],[139.47218,35.69276],[139.4722,35.69191],[139.47206,35.69184],[139.4707,35.69166],[139.47016,35.69119],[139.46941,35.6908],[139.46918,35.69063],[139.46859,35.69029],[139.46845,35.69018],[139.46839,35.69],[139.46776,35.69188],[139.46797,35.69191],[139.46788,35.69222],[139.46787,35.69226],[139.46774,35.69223],[139.4677,35.69226],[139.46719,35.69371],[139.46722,35.69379],[139.46715,35.69465],[139.46706,35.69497],[139.46718,35.69499],[139.46715,35.69549],[139.46725,35.69553],[139.46725,35.69563],[139.46908,35.69601],[139.46977,35.69481],[139.47023,35.69392],[139.47051,35.69365],[139.47091,35.69349],[139.47116,35.69344],[139.47128,35.69337]]]}},{"type":"Feature","properties":{"id":"area-13214002003","name":"西元町三丁目"},"geometry":{"type":"Polygon","coordinates":[[[139.47427,35.6931],[139.47459,35.69302],[139.4749,35.69303],[139.47524,35.69309],[139.47535,35.6927],[139.47544,35.69219],[139.47548,35.6921],[139.4755,35.69193],[139.47545,35.69162],[139.47549,35.69121],[139.47554,35.69099],[139.47556,35.69071],[139.47553,35.69016],[139.47558,35.69005],[139.47562,35.68905],[139.4755,35.689],[139.47516,35.68896],[139.47415,35.68895],[139.47411,35.68921],[139.47318,35.68925],[139.47317,35.68935],[139.47285,35.68936],[139.47288,35.68896],[139.4728,35.68893],[139.47223,35.6889],[139.47179,35.68883],[139.47161,35.68877],[139.47097,35.68862],[139.47024,35.68855],[139.46982,35.68854],[139.46982,35.68857],[139.46973,35.68857],[139.46947,35.68856],[139.46889,35.68841],[139.46839,35.69],[139.46845,35.69018],[139.46941,35.6908],[139.47016,35.69119],[139.4707,35.69166],[139.47206,35.69184],[139.4722,35.69191],[139.47218,35.69276],[139.47265,35.69292],[139.47318,35.69304],[139.47405,35.69311],[139.47427,35.6931]]]}},{"type":"Feature","properties":{"id":"area-13214002004","name":"西元町四丁目"},"geometry":{"type":"Polygon","coordinates":[[[139.46718,35.69231],[139.46736,35.69214],[139.46769,35.69222],[139.46781,35.69189],[139.46776,35.69188],[139.46889,35.68841],[139.46798,35.68815],[139.4679,35.68879],[139.46752,35.68874],[139.46746,35.68859],[139.46668,35.68845],[139.46659,35.68878],[139.4651,35.6885],[139.46506,35.68876],[139.46439,35.68869],[139.46432,35.68892],[139.46451,35.68924],[139.46449,35.68977],[139.46496,35.68982],[139.46498,35.6899],[139.46596,35.69005],[139.46597,35.69003],[139.46605,35.69012],[139.46633,35.69021],[139.46629,35.69027],[139.46663,35.69045],[139.46668,35.69037],[139.46693,35.69053],[139.46694,35.69064],[139.46686,35.69072],[139.46658,35.6908],[139.46621,35.69101],[139.46585,35.69111],[139.4658,35.69115],[139.46584,35.69159],[139.4659,35.69184],[139.46625,35.69201],[139.46718,35.69231]]]}},{"type":"Feature","properties":{"id":"area-13214003001","name":"南町一丁目"},"geometry":{"type":"Polygon","coordinates":[[[139.48868,35.70056],[139.48868,35.70049],[139.49005,35.70053],[139.49012,35.70048],[139.49042,35.70049],[139.49062,35.70041],[139.49126,35.70035],[139.49123,35.70019],[139.49167,35.70003],[139.49164,35.69903],[139.49159,35.6986],[139.49155,35.69836],[139.49141,35.6981],[139.49135,35.69804],[139.49136,35.69746],[139.49111,35.69729],[139.49095,35.69724],[139.49082,35.69726],[139.49056,35.69742],[139.49021,35.69769],[139.48977,35.69768],[139.48974,35.69796],[139.4896,35.69796],[139.48914,35.69784],[139.48901,35.69773],[139.48861,35.69773],[139.4885,35.6975],[139.48834,35.69743],[139.4858,35.69928],[139.48555,35.69944],[139.48498,35.69963],[139.48427,35.6997],[139.48425,35.70035],[139.48829,35.70053],[139.48868,35.70056]]]}},{"type":"Feature","properties":{"id":"area-13214003002","name":"南町二丁目"},"geometry":{"type":"Polygon","coordinates":[[[139.48425,35.70035],[139.48427,35.6997],[139.48498,35.69963],[139.48555,35.69944],[139.4858,35.69928],[139.48758,35.69798],[139.48724,35.69773],[139.48673,35.69764],[139.48541,35.69748],[139.4842,35.69747],[139.48348,35.69733],[139.48275,35.69729],[139.48192,35.69715],[139.48122,35.69671],[139.48103,35.69663],[139.4813,35.69704],[139.48135,35.69723],[139.48133,35.6976],[139.48126,35.69815],[139.48108,35.69895],[139.48099,35.69954],[139.48071,35.69953],[139.48058,35.69941],[139.48056,35.6997],[139.48335,35.70026],[139.48425,35.70035]]]}},{"type":"Feature","properties":{"id":"area-13214003003","name":"南町三丁目"},"geometry":{"type":"Polygon","coordinates":[[[139.47742,35.70009],[139.47742,35.70005],[139.47771,35.70005],[139.47831,35.69997],[139.47914,35.69996],[139.47915,35.69965],[139.47999,35.69961],[139.48056,35.6997],[139.48058,35.69941],[139.48071,35.69953],[139.48099,35.69954],[139.48108,35.69895],[139.48126,35.69815],[139.48135,35.69738],[139.4813,35.69704],[139.48103,35.69663],[139.48068,35.69633],[139.48028,35.69628],[139.47999,35.69631],[139.47987,35.69636],[139.47924,35.69677],[139.47875,35.69664],[139.47814,35.69674],[139.47791,35.69683],[139.47777,35.69695],[139.47761,35.69717],[139.47741,35.69726],[139.47723,35.69727],[139.47709,35.69731],[139.47697,35.69741],[139.47668,35.69791],[139.47668,35.69809],[139.47672,35.69833],[139.47667,35.69851],[139.47641,35.69871],[139.47603,35.6989],[139.47596,35.699],[139.47595,35.69909],[139.47598,35.69927],[139.47609,35.69954],[139.47611,35.69967],[139.47608,35.69986],[139.47601,35.70004],[139.47742,35.70009]]]}},{"type":"Feature","properties":{"id":"area-13214004001","name":"泉町一丁目"},"geometry":{"type":"Polygon","coordinates":[[[139.47601,35.70004],[139.47608,35.69986],[139.47611,35.69967],[139.47609,35.69954],[139.47598,35.69927],[139.47595,35.69909],[139.47596,35.699],[139.47603,35.6989],[139.47641,35.69871],[139.47667,35.69851],[139.47672,35.69833],[139.47668,35.69809],[139.47668,35.69791],[139.47697,35.69741],[139.47709,35.69731],[139.47723,35.69727],[139.47741,35.69726],[139.47731,35.69725],[139.47642,35.69676],[139.47613,35.69665],[139.47572,35.69655],[139.47519,35.6965],[139.47465,35.69656],[139.47389,35.69649],[139.4738,35.69695],[139.47368,35.69725],[139.47336,35.6983],[139.47329,35.69887],[139.47313,35.6994],[139.47309,35.69995],[139.47443,35.70001],[139.47601,35.70004]]]}},{"type":"Feature","properties":{"id":"area-13214004002","name":"泉町二丁目"},"geometry":{"type":"Polygon","coordinates":[[[139.47309,35.69995],[139.47313,35.6994],[139.47329,35.69887],[139.47336,35.6983],[139.47368,35.69725],[139.4738,35.69695],[139.47389,35.69649],[139.47293,35.69643],[139.47133,35.69642],[139.4707,35.69632],[139.4673,35.69564],[139.46712,35.69567],[139.46695,35.69795],[139.46662,35.6996],[139.46716,35.69969],[139.46722,35.69971],[139.46724,35.69976],[139.46765,35.69978],[139.4689,35.69982],[139.4696,35.6998],[139.47101,35.69988],[139.47309,35.69995]]]}},{"type":"Feature","properties":{"id":"area-13214004003","name":"泉町三丁目"},"geometry":{"type":"Polygon","coordinates":[[[139.46308,35.69963],[139.46478,35.69958],[139.46662,35.6996],[139.46695,35.69795],[139.46712,35.69567],[139.46725,35.69563],[139.46725,35.69553],[139.46715,35.69549],[139.46718,35.69499],[139.4668,35.69491],[139.46678,35.69497],[139.46542,35.69494],[139.46542,35.69486],[139.46521,35.69486],[139.46521,35.69495],[139.46461,35.69491],[139.46449,35.69527],[139.46445,35.69524],[139.46444,35.69528],[139.46392,35.69488],[139.46386,35.69495],[139.46373,35.69584],[139.46337,35.69715],[139.46394,35.69713],[139.46376,35.69759],[139.46378,35.69759],[139.46378,35.69767],[139.4637,35.69766],[139.46363,35.69775],[139.46352,35.698],[139.46347,35.69853],[139.46346,35.69893],[139.46327,35.69894],[139.46326,35.69919],[139.46334,35.69938],[139.46311,35.69945],[139.46308,35.69963]]]}},{"type":"Feature","properties":{"id":"area-13214005001","name":"本町一丁目"},"geometry":{"type":"Polygon","coordinates":[[[139.48447,35.70251],[139.4863,35.70184],[139.48659,35.70236],[139.48808,35.70194],[139.48791,35.70159],[139.488,35.70149],[139.4879,35.7013],[139.48868,35.70103],[139.48868,35.70056],[139.48829,35.70053],[139.48425,35.70035],[139.48419,35.70086],[139.48407,35.7011],[139.48383,35.70139],[139.48417,35.70195],[139.48447,35.70251]]]}},{"type":"Feature","properties":{"id":"area-13214005002","name":"本町二丁目"},"geometry":{"type":"Polygon","coordinates":[[[139.48362,35.70031],[139.48023,35.69963],[139.47999,35.69961],[139.47915,35.69965],[139.47914,35.69996],[139.47831,35.69997],[139.47771,35.70005],[139.47742,35.70005],[139.47739,35.70027],[139.48099,35.70035],[139.48093,35.70259],[139.48117,35.70366],[139.48447,35.70251],[139.48417,35.70195],[139.48383,35.70139],[139.48407,35.7011],[139.48419,35.70086],[139.48425,35.70035],[139.48362,35.70031]]]}},{"type":"Feature","properties":{"id":"area-13214005003","name":"本町三丁目"},"geometry":{"type":"Polygon","coordinates":[[[139.47758,35.70489],[139.48117,35.70366],[139.48093,35.70259],[139.48099,35.70035],[139.48003,35.70032],[139.47991,35.70068],[139.47951,35.70095],[139.47934,35.70115],[139.47758,35.70489]]]}},{"type":"Feature","properties":{"id":"area-13214005004","name":"本町四丁目"},"geometry":{"type":"Polygon","coordinates":[[[139.47758,35.70489],[139.47927,35.70126],[139.47951,35.70095],[139.47991,35.70068],[139.48003,35.70032],[139.47739,35.70027],[139.47742,35.70009],[139.47587,35.70004],[139.47586,35.7002],[139.47634,35.70029],[139.47626,35.70078],[139.47662,35.70081],[139.4766,35.70103],[139.47673,35.70123],[139.47706,35.70142],[139.47689,35.70178],[139.47657,35.70222],[139.47631,35.70252],[139.47619,35.70319],[139.47704,35.7033],[139.47703,35.70345],[139.47684,35.70421],[139.47679,35.70515],[139.47725,35.70506],[139.47758,35.70489]]]}},{"type":"Feature","properties":{"id":"area-13214006001","name":"本多一丁目"},"geometry":{"type":"Polygon","coordinates":[[[139.48481,35.70311],[139.48447,35.70251],[139.48118,35.70366],[139.48214,35.70623],[139.48558,35.70463],[139.48481,35.70311]]]}},{"type":"Feature","properties":{"id":"area-13214006002","name":"本多二丁目"},"geometry":{"type":"Polygon","coordinates":[[[139.48214,35.70623],[139.48118,35.70366],[139.47758,35.70489],[139.47753,35.70524],[139.47755,35.70556],[139.47818,35.70809],[139.48214,35.70623]]]}},{"type":"Feature","properties":{"id":"area-13214006003","name":"本多三丁目"},"geometry":{"type":"Polygon","coordinates":[[[139.48031,35.71438],[139.48024,35.7141],[139.48064,35.71402],[139.48061,35.7139],[139.48071,35.71388],[139.48069,35.7138],[139.48122,35.71322],[139.48135,35.7132],[139.48133,35.71311],[139.48156,35.71288],[139.4821,35.71278],[139.48207,35.71264],[139.48192,35.71268],[139.48189,35.71253],[139.48218,35.71248],[139.48052,35.70698],[139.47818,35.70809],[139.47831,35.70867],[139.47841,35.70865],[139.47945,35.71222],[139.47942,35.71223],[139.47951,35.71255],[139.47955,35.71254],[139.48008,35.71436],[139.48022,35.71433],[139.48024,35.7144],[139.48031,35.71438]]]}},{"type":"Feature","properties":{"id":"area-13214006004","name":"本多四丁目"},"geometry":{"type":"Polygon","coordinates":[[[139.48523,35.70905],[139.48537,35.70902],[139.4854,35.70914],[139.48555,35.70911],[139.48551,35.70886],[139.48541,35.70887],[139.48543,35.70884],[139.48502,35.70877],[139.48435,35.70851],[139.48351,35.70812],[139.48276,35.70791],[139.48248,35.70776],[139.48212,35.70623],[139.48052,35.70698],[139.48212,35.71231],[139.48242,35.71198],[139.48257,35.71195],[139.48256,35.71185],[139.48276,35.71182],[139.48273,35.7117],[139.48287,35.71169],[139.48284,35.71154],[139.48299,35.71152],[139.48298,35.71142],[139.4832,35.71118],[139.48324,35.71117],[139.48323,35.71113],[139.4834,35.711],[139.48343,35.71093],[139.48354,35.71088],[139.48422,35.71016],[139.48438,35.71001],[139.48448,35.70999],[139.48447,35.70994],[139.4846,35.70992],[139.48456,35.70979],[139.48496,35.70937],[139.48514,35.70934],[139.48509,35.70923],[139.48527,35.70916],[139.48523,35.70905]]]}},{"type":"Feature","properties":{"id":"area-13214006005","name":"本多五丁目"},"geometry":{"type":"Polygon","coordinates":[[[139.48746,35.7061],[139.48677,35.70407],[139.48575,35.70457],[139.48212,35.70623],[139.48248,35.70776],[139.48276,35.70791],[139.48351,35.70812],[139.48455,35.7086],[139.48502,35.70877],[139.48543,35.70884],[139.48604,35.70829],[139.48767,35.70657],[139.48746,35.7061]]]}},{"type":"Feature","properties":{"id":"area-13214007001","name":"東恋ケ窪一丁目"},"geometry":{"type":"Polygon","coordinates":[[[139.47679,35.70515],[139.47684,35.70421],[139.47703,35.70345],[139.47704,35.7033],[139.47619,35.70319],[139.47631,35.70252],[139.47657,35.70222],[139.47689,35.70178],[139.47706,35.70142],[139.47673,35.70123],[139.4766,35.70103],[139.47662,35.70081],[139.47626,35.70078],[139.47634,35.70029],[139.47586,35.7002],[139.47587,35.70004],[139.47444,35.70001],[139.4743,35.70032],[139.47329,35.70061],[139.47292,35.70076],[139.4721,35.70145],[139.47066,35.70323],[139.46966,35.7044],[139.47095,35.70429],[139.47115,35.70437],[139.47158,35.70483],[139.47156,35.70501],[139.47165,35.70497],[139.47271,35.70515],[139.47272,35.70519],[139.47321,35.70527],[139.47434,35.70535],[139.47537,35.70538],[139.47624,35.70526],[139.47679,35.70515]]]}},{"type":"Feature","properties":{"id":"area-13214007002","name":"東恋ケ窪二丁目"},"geometry":{"type":"Polygon","coordinates":[[[139.47145,35.71105],[139.47341,35.71032],[139.47639,35.70893],[139.47645,35.70913],[139.47831,35.70867],[139.47755,35.70556],[139.47753,35.70524],[139.47758,35.70489],[139.47725,35.70506],[139.47624,35.70526],[139.47624,35.70537],[139.4762,35.70546],[139.47564,35.70583],[139.47559,35.70598],[139.47563,35.70615],[139.47575,35.70643],[139.47387,35.70775],[139.47164,35.70904],[139.4715,35.7091],[139.47123,35.70915],[139.471,35.70932],[139.47102,35.71023],[139.47106,35.71054],[139.4711,35.71067],[139.47144,35.71056],[139.47145,35.71105]]]}},{"type":"Feature","properties":{"id":"area-13214007003","name":"東恋ケ窪三丁目"},"geometry":{"type":"Polygon","coordinates":[[[139.47564,35.70583],[139.4762,35.70546],[139.47624,35.70537],[139.47624,35.70526],[139.47537,35.70538],[139.47434,35.70535],[139.47321,35.70527],[139.47272,35.70519],[139.47271,35.70515],[139.47165,35.70497],[139.47156,35.70501],[139.47158,35.70483],[139.47115,35.70437],[139.47095,35.70429],[139.46966,35.7044],[139.4687,35.7056],[139.46938,35.7055],[139.46944,35.70572],[139.46983,35.70636],[139.47087,35.70767],[139.47083,35.70792],[139.4709,35.70838],[139.47103,35.70878],[139.47123,35.70915],[139.4715,35.7091],[139.47164,35.70904],[139.47387,35.70775],[139.47575,35.70643],[139.47563,35.70615],[139.47559,35.70598],[139.47564,35.70583]]]}},{"type":"Feature","properties":{"id":"area-13214007004","name":"東恋ケ窪四丁目"},"geometry":{"type":"Polygon","coordinates":[[[139.47145,35.71105],[139.47144,35.71056],[139.4711,35.71067],[139.47106,35.71054],[139.47102,35.71023],[139.471,35.70932],[139.47124,35.70914],[139.47103,35.70878],[139.4709,35.70838],[139.47083,35.70792],[139.47087,35.70767],[139.46983,35.70636],[139.46944,35.70572],[139.46938,35.7055],[139.4687,35.7056],[139.46786,35.70664],[139.46826,35.70761],[139.46838,35.70818],[139.4684,35.71122],[139.4673,35.71249],[139.46719,35.71265],[139.46771,35.71249],[139.47145,35.71105]]]}},{"type":"Feature","properties":{"id":"area-13214007005","name":"東恋ケ窪五丁目"},"geometry":{"type":"Polygon","coordinates":[[[139.4684,35.71122],[139.46838,35.70818],[139.46834,35.70797],[139.46826,35.70761],[139.46786,35.70664],[139.46684,35.70791],[139.46572,35.70927],[139.46569,35.70927],[139.46443,35.71081],[139.46544,35.71137],[139.46543,35.71139],[139.4673,35.71249],[139.4684,35.71122]]]}},{"type":"Feature","properties":{"id":"area-13214007006","name":"東恋ケ窪六丁目"},"geometry":{"type":"Polygon","coordinates":[[[139.47235,35.71539],[139.47222,35.71079],[139.47204,35.71082],[139.4675,35.71255],[139.46792,35.7128],[139.46777,35.71299],[139.4687,35.71351],[139.4719,35.71547],[139.47235,35.71539]]]}},{"type":"Feature","properties":{"id":"area-13214008001","name":"西恋ケ窪一丁目"},"geometry":{"type":"Polygon","coordinates":[[[139.46783,35.70666],[139.46942,35.70471],[139.46938,35.70471],[139.47066,35.70323],[139.4721,35.70145],[139.47292,35.70076],[139.47329,35.70061],[139.4743,35.70032],[139.47443,35.70001],[139.47101,35.69988],[139.4696,35.6998],[139.4689,35.69982],[139.46765,35.69978],[139.46724,35.69976],[139.46722,35.69971],[139.46716,35.69969],[139.46662,35.6996],[139.46656,35.69994],[139.46658,35.69997],[139.46643,35.70072],[139.46635,35.70089],[139.46612,35.70225],[139.46607,35.70225],[139.46617,35.70307],[139.46783,35.70666]]]}},{"type":"Feature","properties":{"id":"area-13214008002","name":"西恋ケ窪二丁目"},"geometry":{"type":"Polygon","coordinates":[[[139.46262,35.70233],[139.46284,35.70225],[139.46422,35.70225],[139.46526,35.7023],[139.46612,35.70225],[139.46635,35.70089],[139.46643,35.70072],[139.46658,35.69997],[139.46656,35.69994],[139.46662,35.6996],[139.46478,35.69958],[139.46308,35.69963],[139.46305,35.69985],[139.46257,35.69983],[139.46249,35.7003],[139.46218,35.70103],[139.46193,35.70182],[139.4619,35.70228],[139.46262,35.70233]]]}},{"type":"Feature","properties":{"id":"area-13214008003","name":"西恋ケ窪三丁目"},"geometry":{"type":"Polygon","coordinates":[[[139.46608,35.7024],[139.46607,35.70225],[139.46526,35.7023],[139.46422,35.70225],[139.46284,35.70225],[139.46262,35.70233],[139.4619,35.70228],[139.46195,35.70398],[139.46169,35.70401],[139.46189,35.70419],[139.46241,35.7051],[139.46264,35.70539],[139.46334,35.70675],[139.4651,35.70606],[139.46623,35.7057],[139.46686,35.70512],[139.46707,35.70504],[139.46617,35.70307],[139.46611,35.70243],[139.46608,35.7024]]]}},{"type":"Feature","properties":{"id":"area-13214008004","name":"西恋ケ窪四丁目"},"geometry":{"type":"Polygon","coordinates":[[[139.46443,35.71081],[139.46569,35.70927],[139.46572,35.70927],[139.46786,35.70664],[139.46783,35.70666],[139.46707,35.70504],[139.46686,35.70512],[139.46623,35.7057],[139.4651,35.70606],[139.46334,35.70675],[139.46362,35.70725],[139.46409,35.70795],[139.46415,35.70794],[139.46252,35.70972],[139.46443,35.71081]]]}},{"type":"Feature","properties":{"id":"area-13214009001","name":"東戸倉一丁目"},"geometry":{"type":"Polygon","coordinates":[[[139.46749,35.71653],[139.46761,35.71639],[139.46771,35.71646],[139.46768,35.7165],[139.46778,35.71655],[139.46772,35.71661],[139.46821,35.71655],[139.4682,35.7164],[139.47106,35.71588],[139.47114,35.71563],[139.4719,35.71547],[139.4687,35.71351],[139.46777,35.71299],[139.46792,35.7128],[139.4675,35.71255],[139.46719,35.71265],[139.46637,35.71478],[139.46523,35.71694],[139.46749,35.71653]]]}},{"type":"Feature","properties":{"id":"area-13214009002","name":"東戸倉二丁目"},"geometry":{"type":"Polygon","coordinates":[[[139.461,35.71769],[139.46433,35.7171],[139.46476,35.71699],[139.4652,35.71705],[139.46523,35.71694],[139.46637,35.71478],[139.46719,35.71265],[139.4673,35.71249],[139.46543,35.71139],[139.46544,35.71137],[139.46452,35.71085],[139.46271,35.71302],[139.46252,35.7132],[139.46199,35.71383],[139.46083,35.7153],[139.46165,35.71548],[139.46233,35.7157],[139.46166,35.71664],[139.46153,35.71705],[139.46118,35.71753],[139.46115,35.71752],[139.461,35.71769]]]}},{"type":"Feature","properties":{"id":"area-13214010001","name":"戸倉一丁目"},"geometry":{"type":"Polygon","coordinates":[[[139.46155,35.70883],[139.46047,35.71009],[139.45961,35.71102],[139.46,35.71123],[139.45865,35.71269],[139.45742,35.71413],[139.45805,35.71448],[139.45892,35.71491],[139.46083,35.7153],[139.46199,35.71383],[139.46252,35.7132],[139.46271,35.71302],[139.46452,35.71085],[139.46221,35.70954],[139.46188,35.70924],[139.46155,35.70883]]]}},{"type":"Feature","properties":{"id":"area-13214010002","name":"戸倉二丁目"},"geometry":{"type":"Polygon","coordinates":[[[139.46077,35.70825],[139.46068,35.70815],[139.46043,35.708],[139.46016,35.70773],[139.45961,35.70729],[139.45889,35.70703],[139.45809,35.70665],[139.45781,35.70648],[139.45673,35.70595],[139.45539,35.7051],[139.45416,35.70451],[139.45349,35.70412],[139.4525,35.70508],[139.45373,35.70591],[139.45388,35.70597],[139.45417,35.70616],[139.4547,35.70656],[139.4563,35.70764],[139.45638,35.70754],[139.45722,35.70813],[139.4588,35.70919],[139.46047,35.71009],[139.46155,35.70882],[139.46146,35.70871],[139.46109,35.70843],[139.46077,35.70825]]]}},{"type":"Feature","properties":{"id":"area-13214010003","name":"戸倉三丁目"},"geometry":{"type":"Polygon","coordinates":[[[139.45373,35.70591],[139.4525,35.70508],[139.44837,35.70919],[139.45291,35.71167],[139.45424,35.71029],[139.45349,35.70987],[139.45595,35.7074],[139.4547,35.70656],[139.45417,35.70616],[139.45388,35.70597],[139.45373,35.70591]]]}},{"type":"Feature","properties":{"id":"area-13214010004","name":"戸倉四丁目"},"geometry":{"type":"Polygon","coordinates":[[[139.45722,35.70813],[139.45638,35.70754],[139.4563,35.70764],[139.45595,35.7074],[139.45349,35.70987],[139.45424,35.71029],[139.45291,35.71167],[139.45742,35.71413],[139.45865,35.71269],[139.46,35.71123],[139.45961,35.71102],[139.46047,35.71009],[139.4588,35.70919],[139.45722,35.70813]]]}},{"type":"Feature","properties":{"id":"area-13214011001","name":"日吉町一丁目"},"geometry":{"type":"Polygon","coordinates":[[[139.45986,35.70417],[139.46159,35.7036],[139.46169,35.70401],[139.46195,35.70398],[139.4619,35.70228],[139.46193,35.70182],[139.46218,35.70103],[139.46249,35.7003],[139.46257,35.69983],[139.46201,35.69977],[139.4617,35.69979],[139.46044,35.69976],[139.46039,35.69955],[139.45654,35.69943],[139.45658,35.69936],[139.45643,35.69935],[139.4564,35.69965],[139.45504,35.70109],[139.45698,35.70257],[139.45695,35.70259],[139.45964,35.70448],[139.45986,35.70417]]]}},{"type":"Feature","properties":{"id":"area-13214011002","name":"日吉町二丁目"},"geometry":{"type":"Polygon","coordinates":[[[139.45274,35.70353],[139.4564,35.69965],[139.45643,35.69935],[139.45629,35.69942],[139.4546,35.69934],[139.45393,35.69934],[139.4539,35.69931],[139.4524,35.69931],[139.45225,35.69926],[139.45061,35.69925],[139.45051,35.69948],[139.45038,35.69965],[139.44979,35.70019],[139.4496,35.70033],[139.44892,35.7007],[139.44889,35.70067],[139.44871,35.70073],[139.44891,35.70073],[139.44914,35.70083],[139.44977,35.70134],[139.45166,35.70276],[139.45196,35.70294],[139.45274,35.70353]]]}},{"type":"Feature","properties":{"id":"area-13214011003","name":"日吉町三丁目"},"geometry":{"type":"Polygon","coordinates":[[[139.45698,35.70257],[139.45504,35.70109],[139.4527,35.70356],[139.45349,35.70412],[139.45416,35.70451],[139.45539,35.7051],[139.45673,35.70595],[139.45813,35.70667],[139.45873,35.70572],[139.45903,35.70533],[139.459,35.70531],[139.45964,35.70448],[139.45695,35.70259],[139.45698,35.70257]]]}},{"type":"Feature","properties":{"id":"area-13214011004","name":"日吉町四丁目"},"geometry":{"type":"Polygon","coordinates":[[[139.46252,35.70972],[139.46415,35.70794],[139.46409,35.70795],[139.46362,35.70725],[139.46264,35.70539],[139.46241,35.7051],[139.46189,35.70419],[139.46169,35.70401],[139.46159,35.7036],[139.45986,35.70417],[139.459,35.70531],[139.45903,35.70533],[139.45873,35.70572],[139.45813,35.70667],[139.45889,35.70703],[139.45961,35.70729],[139.46016,35.70773],[139.46043,35.708],[139.46068,35.70815],[139.46077,35.70825],[139.46109,35.70843],[139.46146,35.70871],[139.46188,35.70924],[139.46221,35.70954],[139.46252,35.70972]]]}},{"type":"Feature","properties":{"id":"area-13214012001","name":"内藤一丁目"},"geometry":{"type":"Polygon","coordinates":[[[139.45974,35.69431],[139.45966,35.6935],[139.45904,35.69392],[139.45887,35.69308],[139.4594,35.69274],[139.45958,35.69271],[139.45956,35.69225],[139.45969,35.69204],[139.45721,35.69363],[139.4569,35.69391],[139.45604,35.69453],[139.45612,35.69484],[139.45619,35.69534],[139.45628,35.69548],[139.45725,35.69686],[139.45841,35.69831],[139.45905,35.69924],[139.45933,35.69942],[139.45935,35.69952],[139.46039,35.69955],[139.45996,35.69703],[139.45981,35.69544],[139.45974,35.69431]]]}},{"type":"Feature","properties":{"id":"area-13214012002","name":"内藤二丁目"},"geometry":{"type":"Polygon","coordinates":[[[139.45933,35.69942],[139.45905,35.69924],[139.45841,35.69831],[139.45725,35.69686],[139.45628,35.69548],[139.45619,35.69534],[139.45612,35.69484],[139.45604,35.69453],[139.45535,35.69499],[139.45441,35.69556],[139.45367,35.69628],[139.45353,35.69647],[139.45277,35.69727],[139.45187,35.69796],[139.45176,35.69811],[139.45145,35.69834],[139.45073,35.69903],[139.45061,35.69925],[139.45225,35.69926],[139.4524,35.69931],[139.4539,35.69931],[139.45393,35.69934],[139.4546,35.69934],[139.45629,35.69942],[139.45643,35.69935],[139.45658,35.69936],[139.45654,35.69943],[139.45935,35.69952],[139.45933,35.69942]]]}},{"type":"Feature","properties":{"id":"area-13214013001","name":"富士本一丁目"},"geometry":{"type":"Polygon","coordinates":[[[139.45166,35.70276],[139.44977,35.70134],[139.44767,35.7047],[139.44865,35.70515],[139.44931,35.7055],[139.44886,35.70603],[139.45058,35.70697],[139.45349,35.70412],[139.4527,35.70356],[139.45274,35.70353],[139.45196,35.70294],[139.45166,35.70276]]]}},{"type":"Feature","properties":{"id":"area-13214013002","name":"富士本二丁目"},"geometry":{"type":"Polygon","coordinates":[[[139.44835,35.705],[139.44767,35.7047],[139.44552,35.70813],[139.44717,35.70852],[139.44837,35.70919],[139.45058,35.70697],[139.44886,35.70603],[139.44931,35.7055],[139.44835,35.705]]]}},{"type":"Feature","properties":{"id":"area-13214013003","name":"富士本三丁目"},"geometry":{"type":"Polygon","coordinates":[[[139.44717,35.70852],[139.44552,35.70813],[139.44418,35.71101],[139.44452,35.71319],[139.44539,35.71222],[139.44618,35.71169],[139.44637,35.71144],[139.44834,35.70954],[139.44837,35.70919],[139.44717,35.70852]]]}},{"type":"Feature","properties":{"id":"area-13214014001","name":"新町一丁目"},"geometry":{"type":"Polygon","coordinates":[[[139.45552,35.71404],[139.45537,35.71301],[139.45012,35.71014],[139.45101,35.71389],[139.45233,35.71371],[139.45258,35.71371],[139.45397,35.71379],[139.45405,35.7142],[139.45552,35.71404]]]}},{"type":"Feature","properties":{"id":"area-13214014002","name":"新町二丁目"},"geometry":{"type":"Polygon","coordinates":[[[139.45012,35.71014],[139.44837,35.70919],[139.4483,35.71002],[139.44931,35.7142],[139.45101,35.71389],[139.45012,35.71014]]]}},{"type":"Feature","properties":{"id":"area-13214014003","name":"新町三丁目"},"geometry":{"type":"Polygon","coordinates":[[[139.4483,35.71002],[139.44834,35.70954],[139.44637,35.71144],[139.44618,35.71169],[139.44539,35.71222],[139.44487,35.71277],[139.44452,35.71319],[139.44465,35.71397],[139.44583,35.71406],[139.44937,35.71452],[139.4483,35.71002]]]}},{"type":"Feature","properties":{"id":"area-13214015001","name":"並木町一丁目"},"geometry":{"type":"Polygon","coordinates":[[[139.46153,35.71705],[139.46166,35.71664],[139.46179,35.71642],[139.46233,35.7157],[139.46165,35.71548],[139.45892,35.71491],[139.45805,35.71448],[139.45537,35.71301],[139.45567,35.71493],[139.45514,35.71498],[139.45545,35.71669],[139.46153,35.71705]]]}},{"type":"Feature","properties":{"id":"area-13214015002","name":"並木町二丁目"},"geometry":{"type":"Polygon","coordinates":[[[139.45444,35.71667],[139.45545,35.71669],[139.45514,35.71498],[139.45567,35.71493],[139.45552,35.71404],[139.45405,35.7142],[139.45397,35.71379],[139.45233,35.71371],[139.45101,35.71389],[139.44931,35.7142],[139.44966,35.71579],[139.45001,35.71706],[139.45444,35.71667]]]}},{"type":"Feature","properties":{"id":"area-13214015003","name":"並木町三丁目"},"geometry":{"type":"Polygon","coordinates":[[[139.44583,35.71406],[139.44465,35.71397],[139.44485,35.71543],[139.4452,35.71728],[139.4453,35.71791],[139.44608,35.7177],[139.44754,35.71741],[139.44845,35.71726],[139.45,35.71708],[139.44937,35.71452],[139.44583,35.71406]]]}},{"type":"Feature","properties":{"id":"area-13214016001","name":"北町一丁目"},"geometry":{"type":"Polygon","coordinates":[[[139.461,35.71769],[139.46115,35.71752],[139.46118,35.71753],[139.46153,35.71705],[139.45791,35.71681],[139.45785,35.71684],[139.45607,35.71673],[139.45665,35.72094],[139.458,35.7207],[139.45846,35.71815],[139.461,35.71769]]]}},{"type":"Feature","properties":{"id":"area-13214016002","name":"北町二丁目"},"geometry":{"type":"Polygon","coordinates":[[[139.45607,35.71673],[139.45444,35.71667],[139.45001,35.71706],[139.45008,35.71752],[139.45068,35.71992],[139.45639,35.71904],[139.45607,35.71673]]]}},{"type":"Feature","properties":{"id":"area-13214016003","name":"北町三丁目"},"geometry":{"type":"Polygon","coordinates":[[[139.45008,35.71752],[139.45,35.71708],[139.44935,35.71715],[139.44754,35.71741],[139.44608,35.7177],[139.44535,35.7179],[139.44573,35.72053],[139.44569,35.72053],[139.44572,35.72072],[139.45068,35.71992],[139.45008,35.71752]]]}},{"type":"Feature","properties":{"id":"area-13214016004","name":"北町四丁目"},"geometry":{"type":"Polygon","coordinates":[[[139.44612,35.72291],[139.44834,35.72244],[139.44836,35.72247],[139.44875,35.72243],[139.44895,35.72238],[139.44893,35.72231],[139.4509,35.72195],[139.45095,35.72209],[139.45075,35.72213],[139.45079,35.72223],[139.45109,35.72217],[139.45105,35.72206],[139.45136,35.72199],[139.45132,35.72188],[139.45118,35.7219],[139.45068,35.71992],[139.44572,35.72072],[139.44612,35.72291]]]}},{"type":"Feature","properties":{"id":"area-13214016005","name":"北町五丁目"},"geometry":{"type":"Polygon","coordinates":[[[139.45665,35.72094],[139.45639,35.71904],[139.45068,35.71992],[139.45118,35.7219],[139.45222,35.72171],[139.45262,35.72168],[139.45521,35.72123],[139.45665,35.72094]]]}},{"type":"Feature","properties":{"id":"area-13214017001","name":"光町一丁目"},"geometry":{"type":"Polygon","coordinates":[[[139.44572,35.70779],[139.44977,35.70134],[139.44914,35.70083],[139.44891,35.70073],[139.44852,35.70074],[139.44848,35.70091],[139.44812,35.70086],[139.44799,35.70088],[139.448,35.7007],[139.44784,35.70064],[139.44782,35.70041],[139.4472,35.70039],[139.4472,35.70022],[139.44656,35.7002],[139.44574,35.70005],[139.44568,35.70021],[139.4455,35.7002],[139.4455,35.7003],[139.4451,35.7003],[139.44509,35.70043],[139.44468,35.70041],[139.44468,35.70027],[139.44442,35.70025],[139.44418,35.705],[139.44427,35.70499],[139.44353,35.70576],[139.44333,35.70587],[139.44216,35.70619],[139.44199,35.7063],[139.44413,35.70713],[139.44572,35.70779]]]}},{"type":"Feature","properties":{"id":"area-13214017002","name":"光町二丁目"},"geometry":{"type":"Polygon","coordinates":[[[139.44367,35.70564],[139.44427,35.70499],[139.44418,35.705],[139.44442,35.70025],[139.44418,35.70026],[139.44418,35.70039],[139.44238,35.70033],[139.44235,35.70025],[139.44192,35.70025],[139.44164,35.70074],[139.44119,35.7014],[139.44098,35.70139],[139.441,35.70133],[139.44006,35.70127],[139.44001,35.70134],[139.43952,35.7013],[139.43748,35.70447],[139.44151,35.70634],[139.44199,35.7063],[139.44216,35.70619],[139.44333,35.70587],[139.44353,35.70576],[139.44367,35.70564]]]}},{"type":"Feature","properties":{"id":"area-13214017003","name":"光町三丁目"},"geometry":{"type":"Polygon","coordinates":[[[139.44413,35.70713],[139.44199,35.7063],[139.44151,35.70634],[139.43976,35.70553],[139.43953,35.70671],[139.43902,35.70859],[139.4447,35.70986],[139.44552,35.70813],[139.44572,35.70779],[139.44413,35.70713]]]}},{"type":"Feature","properties":{"id":"area-13214018001","name":"高木町一丁目"},"geometry":{"type":"Polygon","coordinates":[[[139.43998,35.71314],[139.44288,35.71373],[139.4447,35.70986],[139.44123,35.70906],[139.44034,35.71169],[139.43998,35.71314]]]}},{"type":"Feature","properties":{"id":"area-13214018002","name":"高木町二丁目"},"geometry":{"type":"Polygon","coordinates":[[[139.44034,35.71169],[139.44123,35.70906],[139.43902,35.70859],[139.43871,35.7097],[139.43811,35.70955],[139.43762,35.71126],[139.4383,35.71138],[139.43789,35.71271],[139.43998,35.71314],[139.44034,35.71169]]]}},{"type":"Feature","properties":{"id":"area-13214018003","name":"高木町三丁目"},"geometry":{"type":"Polygon","coordinates":[[[139.44258,35.71439],[139.44288,35.71373],[139.44252,35.71368],[139.43787,35.71271],[139.43739,35.71413],[139.43678,35.71481],[139.44069,35.71555],[139.44188,35.71582],[139.44196,35.71567],[139.44192,35.71559],[139.44203,35.71543],[139.44254,35.71441],[139.44258,35.71439]]]}},{"type":"Feature","properties":{"id":"area-13214019001","name":"西町一丁目"},"geometry":{"type":"Polygon","coordinates":[[[139.43749,35.70445],[139.43952,35.7013],[139.43924,35.70127],[139.43871,35.7013],[139.43865,35.70131],[139.43861,35.70135],[139.43835,35.70132],[139.43831,35.70146],[139.43807,35.7014],[139.43809,35.70137],[139.43769,35.70137],[139.43764,35.70145],[139.43751,35.7014],[139.43752,35.70138],[139.43709,35.70138],[139.43684,35.70134],[139.43543,35.70105],[139.43528,35.70119],[139.4352,35.7012],[139.43381,35.70097],[139.43342,35.70156],[139.432,35.70137],[139.43135,35.70244],[139.43142,35.70244],[139.43141,35.70261],[139.43177,35.70262],[139.43169,35.70336],[139.43023,35.70329],[139.4302,35.70374],[139.43055,35.70375],[139.43047,35.70385],[139.43051,35.70383],[139.43285,35.70393],[139.43448,35.70393],[139.43561,35.70387],[139.43549,35.70418],[139.43584,35.7043],[139.43608,35.70379],[139.43749,35.70445]]]}},{"type":"Feature","properties":{"id":"area-13214019002","name":"西町二丁目"},"geometry":{"type":"Polygon","coordinates":[[[139.43871,35.7097],[139.43953,35.70671],[139.43976,35.70553],[139.43748,35.70447],[139.43749,35.70445],[139.43608,35.70379],[139.43542,35.70512],[139.43442,35.70687],[139.43585,35.70703],[139.43675,35.70716],[139.43686,35.70721],[139.43748,35.70714],[139.43732,35.70757],[139.43656,35.70748],[139.43644,35.70763],[139.43573,35.70756],[139.43583,35.70739],[139.43469,35.70724],[139.43471,35.7072],[139.43429,35.7071],[139.43373,35.70808],[139.43524,35.70838],[139.43502,35.70876],[139.43554,35.70884],[139.43555,35.70896],[139.43871,35.7097]]]}},{"type":"Feature","properties":{"id":"area-13214019003","name":"西町三丁目"},"geometry":{"type":"Polygon","coordinates":[[[139.43789,35.71271],[139.4383,35.71138],[139.43762,35.71126],[139.43811,35.70955],[139.43555,35.70896],[139.43554,35.70884],[139.43502,35.70876],[139.43524,35.70838],[139.43373,35.70808],[139.43191,35.71126],[139.43336,35.71159],[139.4334,35.71156],[139.43399,35.71164],[139.43515,35.71197],[139.4363,35.71237],[139.43789,35.71271]]]}},{"type":"Feature","properties":{"id":"area-13214019004","name":"西町四丁目"},"geometry":{"type":"Polygon","coordinates":[[[139.43739,35.71413],[139.43787,35.71271],[139.4363,35.71237],[139.43515,35.71197],[139.43399,35.71164],[139.4334,35.71156],[139.43336,35.71159],[139.43298,35.71222],[139.43145,35.71197],[139.43099,35.71277],[139.43091,35.71299],[139.43086,35.71298],[139.43068,35.71335],[139.43216,35.7136],[139.43181,35.71424],[139.43344,35.71447],[139.43393,35.71462],[139.43367,35.71524],[139.43356,35.7157],[139.43552,35.71622],[139.43739,35.71413]]]}},{"type":"Feature","properties":{"id":"area-13214019005","name":"西町五丁目"},"geometry":{"type":"Polygon","coordinates":[[[139.43325,35.71948],[139.43299,35.71849],[139.43358,35.71855],[139.43376,35.71822],[139.43534,35.7165],[139.43552,35.71622],[139.43356,35.7157],[139.43367,35.71524],[139.43393,35.71462],[139.43344,35.71447],[139.4318,35.71426],[139.43029,35.71402],[139.42984,35.71481],[139.42991,35.71482],[139.42989,35.71508],[139.42968,35.71505],[139.4295,35.7154],[139.43268,35.71582],[139.4327,35.71585],[139.43234,35.71649],[139.43057,35.71625],[139.42914,35.71602],[139.42834,35.71741],[139.43159,35.71782],[139.43156,35.71799],[139.43142,35.71798],[139.4314,35.71817],[139.43114,35.7186],[139.4309,35.71914],[139.43211,35.71929],[139.4322,35.71929],[139.43219,35.71924],[139.43267,35.7192],[139.43269,35.71938],[139.43325,35.71948]]]}}]}