{"type":"FeatureCollection","features":[{"type":"Feature","properties":{"id":"area-13227001000","name":"川崎"},"geometry":{"type":"MultiPolygon","coordinates":[[[[139.3383,35.75532],[139.33874,35.75558],[139.3392,35.75554],[139.33899,35.75531],[139.3391,35.7552],[139.33912,35.75515],[139.33872,35.75491],[139.33896,35.75447],[139.33899,35.75432],[139.33971,35.75431],[139.33995,35.75392],[139.34046,35.75408],[139.34142,35.75373],[139.34166,35.75404],[139.34217,35.75394],[139.34234,35.75408],[139.34323,35.75362],[139.34262,35.74966],[139.34193,35.74956],[139.34175,35.74976],[139.341,35.74947],[139.34081,35.74955],[139.34058,35.74983],[139.34033,35.7503],[139.34016,35.7502],[139.33912,35.75027],[139.33923,35.75048],[139.33864,35.75067],[139.33867,35.75074],[139.33845,35.75081],[139.33843,35.75075],[139.3382,35.75082],[139.3381,35.75118],[139.33806,35.75118],[139.33802,35.75125],[139.33795,35.75145],[139.3379,35.75194],[139.33744,35.75203],[139.33738,35.75194],[139.33744,35.75169],[139.33723,35.75145],[139.33709,35.75149],[139.33707,35.75203],[139.33674,35.75212],[139.33627,35.75193],[139.33641,35.75163],[139.33617,35.75159],[139.33586,35.75138],[139.33586,35.75115],[139.33552,35.75112],[139.33539,35.75115],[139.33463,35.7511],[139.33436,35.75112],[139.33459,35.75128],[139.33456,35.75135],[139.33466,35.75139],[139.33411,35.7525],[139.33392,35.7525],[139.33388,35.75295],[139.33388,35.75309],[139.33397,35.7534],[139.33362,35.75475],[139.33345,35.7551],[139.33447,35.75596],[139.3374,35.75723],[139.33855,35.75698],[139.33847,35.75654],[139.33848,35.75641],[139.33858,35.75601],[139.33817,35.7559],[139.3383,35.75532]]],[[[139.33531,35.7636],[139.33566,35.7637],[139.33578,35.76351],[139.33632,35.76372],[139.33635,35.76367],[139.33634,35.76359],[139.33611,35.76341],[139.33558,35.7631],[139.33586,35.76262],[139.33609,35.76269],[139.3363,35.7623],[139.33586,35.76213],[139.33596,35.76174],[139.33512,35.76144],[139.3345,35.76133],[139.33201,35.76063],[139.3318,35.76159],[139.33245,35.76164],[139.33287,35.76171],[139.33289,35.76202],[139.33325,35.762],[139.33334,35.76318],[139.33396,35.76323],[139.33401,35.76262],[139.33405,35.76268],[139.33458,35.76282],[139.33449,35.7633],[139.33444,35.76345],[139.33434,35.76358],[139.33516,35.76386],[139.33531,35.7636]]]]}},{"type":"Feature","properties":{"id":"area-13227001001","name":"川崎一丁目"},"geometry":{"type":"Polygon","coordinates":[[[139.31798,35.75269],[139.31764,35.75263],[139.31728,35.75272],[139.31651,35.7539],[139.31548,35.75507],[139.3161,35.75595],[139.31662,35.7568],[139.31682,35.75721],[139.31748,35.75635],[139.31744,35.75632],[139.31922,35.7539],[139.31842,35.7533],[139.31813,35.753],[139.31798,35.75269]]]}},{"type":"Feature","properties":{"id":"area-13227001002","name":"川崎二丁目"},"geometry":{"type":"Polygon","coordinates":[[[139.31923,35.75391],[139.321,35.75152],[139.32106,35.75156],[139.32172,35.75066],[139.32097,35.75028],[139.32072,35.75031],[139.32037,35.7505],[139.31945,35.75086],[139.31914,35.75084],[139.31887,35.75091],[139.31879,35.75089],[139.31862,35.75074],[139.3183,35.75113],[139.31728,35.75272],[139.31764,35.75263],[139.31798,35.75269],[139.31813,35.753],[139.31842,35.7533],[139.31923,35.75391]]]}},{"type":"Feature","properties":{"id":"area-13227001003","name":"川崎三丁目"},"geometry":{"type":"Polygon","coordinates":[[[139.31788,35.74975],[139.31733,35.74902],[139.31717,35.74903],[139.317,35.74885],[139.31621,35.74945],[139.31549,35.7499],[139.31528,35.7501],[139.31511,35.75032],[139.3147,35.75115],[139.31475,35.75118],[139.31481,35.75131],[139.3148,35.75138],[139.31501,35.75155],[139.31684,35.75277],[139.31692,35.75279],[139.31728,35.75272],[139.3183,35.75113],[139.31862,35.75074],[139.31822,35.75024],[139.31801,35.74981],[139.31788,35.74975]]]}},{"type":"Feature","properties":{"id":"area-13227001004","name":"川崎四丁目"},"geometry":{"type":"Polygon","coordinates":[[[139.31651,35.7539],[139.31728,35.75272],[139.31692,35.75279],[139.31684,35.75277],[139.31501,35.75155],[139.3148,35.75138],[139.31481,35.75131],[139.31475,35.75118],[139.3147,35.75115],[139.31452,35.75147],[139.31412,35.75199],[139.31268,35.75313],[139.31254,35.75319],[139.314,35.75357],[139.31414,35.75364],[139.31459,35.75402],[139.31548,35.75507],[139.31651,35.7539]]]}},{"type":"Feature","properties":{"id":"area-13227002000","name":"五ノ神"},"geometry":{"type":"Polygon","coordinates":[[[139.33274,35.7715],[139.33285,35.77113],[139.33338,35.77117],[139.3334,35.77107],[139.33353,35.77104],[139.33371,35.77106],[139.33368,35.77022],[139.33362,35.77022],[139.33356,35.76946],[139.33345,35.76878],[139.33325,35.76799],[139.33316,35.76789],[139.33314,35.7678],[139.33321,35.76765],[139.3329,35.76759],[139.33268,35.7677],[139.3323,35.76782],[139.33158,35.76791],[139.33142,35.76791],[139.33052,35.76705],[139.3286,35.76836],[139.33031,35.7701],[139.32974,35.77049],[139.32886,35.77119],[139.3289,35.77122],[139.33129,35.77278],[139.33228,35.77195],[139.33274,35.7715]]]}},{"type":"Feature","properties":{"id":"area-13227002001","name":"五ノ神一丁目"},"geometry":{"type":"Polygon","coordinates":[[[139.3204,35.75864],[139.31748,35.75635],[139.31675,35.7573],[139.31597,35.75842],[139.31807,35.75984],[139.31864,35.76039],[139.3204,35.75864]]]}},{"type":"Feature","properties":{"id":"area-13227002002","name":"五ノ神二丁目"},"geometry":{"type":"Polygon","coordinates":[[[139.32357,35.76109],[139.3204,35.75864],[139.31864,35.76039],[139.31989,35.76181],[139.32039,35.76214],[139.32212,35.76303],[139.32357,35.76109]]]}},{"type":"Feature","properties":{"id":"area-13227002003","name":"五ノ神三丁目"},"geometry":{"type":"Polygon","coordinates":[[[139.32054,35.76514],[139.32212,35.76303],[139.32039,35.76214],[139.31989,35.76181],[139.31864,35.76039],[139.31839,35.76065],[139.31823,35.76089],[139.31816,35.76154],[139.31809,35.7619],[139.31735,35.76291],[139.31892,35.76405],[139.32054,35.76514]]]}},{"type":"Feature","properties":{"id":"area-13227002004","name":"五ノ神四丁目"},"geometry":{"type":"Polygon","coordinates":[[[139.31823,35.76089],[139.31839,35.76065],[139.31864,35.76039],[139.31807,35.75984],[139.31597,35.75842],[139.31509,35.75957],[139.31488,35.75978],[139.31418,35.76073],[139.3142,35.76076],[139.31423,35.76074],[139.31455,35.76095],[139.31731,35.76292],[139.31735,35.76291],[139.31809,35.7619],[139.31816,35.76154],[139.31823,35.76089]]]}},{"type":"Feature","properties":{"id":"area-132270040","name":"羽"},"geometry":{"type":"MultiPolygon","coordinates":[[[[139.30475,35.75515],[139.3063,35.7543],[139.3073,35.75345],[139.30773,35.75286],[139.3083,35.75199],[139.30802,35.75212],[139.30794,35.75226],[139.30777,35.75217],[139.30772,35.75224],[139.30764,35.7522],[139.30753,35.75236],[139.30744,35.75241],[139.30701,35.75212],[139.30619,35.75285],[139.30259,35.75499],[139.3023,35.75502],[139.30178,35.75485],[139.30226,35.75572],[139.30399,35.75541],[139.30433,35.75531],[139.30475,35.75515]]],[[[139.33052,35.76705],[139.33142,35.76791],[139.33158,35.76791],[139.3323,35.76782],[139.33268,35.7677],[139.3329,35.76759],[139.33321,35.76765],[139.33433,35.76715],[139.33665,35.76601],[139.33663,35.76597],[139.33561,35.76632],[139.33509,35.76615],[139.33534,35.76555],[139.33525,35.76551],[139.33546,35.76501],[139.33517,35.76501],[139.335,35.76505],[139.3347,35.76479],[139.33526,35.76422],[139.33571,35.76445],[139.33614,35.7639],[139.33632,35.76372],[139.33578,35.76351],[139.33566,35.7637],[139.33531,35.7636],[139.33516,35.76386],[139.33434,35.76358],[139.33444,35.76345],[139.33449,35.7633],[139.33458,35.76282],[139.33405,35.76268],[139.33401,35.76262],[139.33396,35.76323],[139.33334,35.76318],[139.33325,35.762],[139.33289,35.76202],[139.33287,35.76171],[139.33245,35.76164],[139.3318,35.76159],[139.3316,35.76237],[139.33141,35.76276],[139.33104,35.7633],[139.33095,35.76336],[139.3308,35.76358],[139.33088,35.76363],[139.3307,35.76389],[139.3308,35.76393],[139.33063,35.76417],[139.33071,35.76422],[139.33014,35.76512],[139.32976,35.76546],[139.3294,35.76591],[139.32915,35.76567],[139.3291,35.76575],[139.32899,35.7657],[139.32887,35.76588],[139.32897,35.76593],[139.32859,35.76645],[139.32771,35.7674],[139.32823,35.768],[139.3286,35.76836],[139.33052,35.76705]]]]}},{"type":"Feature","properties":{"id":"area-13227008001","name":"小作台一丁目"},"geometry":{"type":"Polygon","coordinates":[[[139.30167,35.77989],[139.30178,35.77964],[139.30183,35.77964],[139.30203,35.77905],[139.3023,35.77845],[139.30242,35.77801],[139.30384,35.77805],[139.30393,35.77799],[139.30564,35.77767],[139.3056,35.77765],[139.30542,35.77732],[139.30543,35.77725],[139.30493,35.77625],[139.30387,35.77476],[139.30214,35.77626],[139.30223,35.77633],[139.30199,35.77652],[139.302,35.77659],[139.30192,35.77662],[139.30173,35.77644],[139.30081,35.77707],[139.30118,35.77747],[139.30069,35.77778],[139.30076,35.77845],[139.30118,35.77939],[139.30124,35.77963],[139.3012,35.77977],[139.30107,35.78001],[139.30167,35.77989]]]}},{"type":"Feature","properties":{"id":"area-13227008002","name":"小作台二丁目"},"geometry":{"type":"Polygon","coordinates":[[[139.30118,35.77747],[139.30081,35.77707],[139.29994,35.77756],[139.2966,35.77904],[139.29709,35.77954],[139.29717,35.77979],[139.29733,35.78001],[139.29742,35.78057],[139.29748,35.7813],[139.2979,35.78132],[139.29969,35.78104],[139.2998,35.78099],[139.29988,35.78068],[139.29992,35.7806],[139.30003,35.78052],[139.3001,35.78041],[139.30011,35.78014],[139.30061,35.78011],[139.30107,35.78001],[139.3012,35.77977],[139.30124,35.77963],[139.30118,35.77939],[139.30076,35.77845],[139.30069,35.77778],[139.30118,35.77747]]]}},{"type":"Feature","properties":{"id":"area-13227008003","name":"小作台三丁目"},"geometry":{"type":"Polygon","coordinates":[[[139.2966,35.77904],[139.29994,35.77756],[139.30081,35.77707],[139.30173,35.77644],[139.30132,35.77607],[139.30155,35.77591],[139.30006,35.77477],[139.29677,35.77687],[139.29634,35.7771],[139.29583,35.77729],[139.29505,35.77749],[139.29507,35.77752],[139.29515,35.77751],[139.29552,35.77796],[139.29577,35.77833],[139.29586,35.77829],[139.29592,35.77836],[139.29613,35.77871],[139.29628,35.77859],[139.2966,35.77904]]]}},{"type":"Feature","properties":{"id":"area-13227008004","name":"小作台四丁目"},"geometry":{"type":"Polygon","coordinates":[[[139.29505,35.77749],[139.29583,35.77729],[139.29634,35.7771],[139.29677,35.77687],[139.30006,35.77477],[139.29863,35.77303],[139.29961,35.77287],[139.30131,35.77265],[139.30179,35.77248],[139.30005,35.77257],[139.2994,35.77248],[139.29851,35.77228],[139.29807,35.77252],[139.29778,35.77257],[139.29779,35.77272],[139.29759,35.7732],[139.2973,35.77358],[139.29712,35.77375],[139.29688,35.77386],[139.29639,35.77417],[139.29521,35.77474],[139.29486,35.77494],[139.29446,35.77531],[139.29408,35.77583],[139.29368,35.77651],[139.29366,35.77655],[139.294,35.77669],[139.29408,35.77679],[139.2944,35.77695],[139.2945,35.77704],[139.2947,35.77734],[139.29479,35.77742],[139.29497,35.77738],[139.29505,35.77749]]]}},{"type":"Feature","properties":{"id":"area-13227008005","name":"小作台五丁目"},"geometry":{"type":"Polygon","coordinates":[[[139.30362,35.77141],[139.30345,35.77119],[139.30269,35.77185],[139.30244,35.77209],[139.30212,35.77232],[139.30147,35.77261],[139.29863,35.77303],[139.30006,35.77477],[139.30155,35.77591],[139.30132,35.77607],[139.30192,35.77662],[139.302,35.77659],[139.30199,35.77652],[139.30223,35.77633],[139.30214,35.77626],[139.30387,35.77476],[139.3038,35.77468],[139.30418,35.77425],[139.30436,35.77394],[139.30538,35.77258],[139.30481,35.77231],[139.30495,35.77212],[139.30362,35.77141]]]}},{"type":"Feature","properties":{"id":"area-13227009001","name":"双葉町一丁目"},"geometry":{"type":"Polygon","coordinates":[[[139.33201,35.76063],[139.33169,35.76053],[139.33113,35.76248],[139.3305,35.76347],[139.33016,35.76389],[139.33063,35.76417],[139.3308,35.76393],[139.3307,35.76389],[139.33088,35.76363],[139.3308,35.76358],[139.33095,35.76336],[139.33104,35.7633],[139.33141,35.76276],[139.3316,35.76237],[139.33201,35.76063]]]}},{"type":"Feature","properties":{"id":"area-13227009002","name":"双葉町二丁目"},"geometry":{"type":"Polygon","coordinates":[[[139.33568,35.76],[139.33599,35.76],[139.33568,35.75923],[139.33604,35.75906],[139.33468,35.75739],[139.33404,35.75675],[139.33375,35.75638],[139.33308,35.75528],[139.33303,35.75524],[139.33169,35.76053],[139.33309,35.76096],[139.3345,35.76133],[139.33512,35.76144],[139.33596,35.76174],[139.33617,35.76138],[139.33612,35.76135],[139.3362,35.76124],[139.3361,35.76114],[139.33609,35.76101],[139.33571,35.76041],[139.33568,35.76]]]}},{"type":"Feature","properties":{"id":"area-13227009003","name":"双葉町三丁目"},"geometry":{"type":"Polygon","coordinates":[[[139.33722,35.75755],[139.33733,35.75742],[139.33753,35.75751],[139.33767,35.75738],[139.33783,35.75746],[139.3381,35.75708],[139.3374,35.75723],[139.33447,35.75596],[139.33345,35.7551],[139.33362,35.75475],[139.33397,35.7534],[139.33388,35.75309],[139.33388,35.75295],[139.33392,35.7525],[139.33411,35.7525],[139.33466,35.75139],[139.33456,35.75135],[139.33459,35.75128],[139.33436,35.75112],[139.33422,35.75111],[139.33421,35.75113],[139.33404,35.7511],[139.334,35.75114],[139.33386,35.75114],[139.33353,35.75331],[139.33303,35.75524],[139.33308,35.75528],[139.33375,35.75638],[139.33404,35.75675],[139.33468,35.75739],[139.33517,35.75802],[139.33561,35.75849],[139.33612,35.75915],[139.33629,35.75904],[139.33696,35.75811],[139.33737,35.75768],[139.33722,35.75755]]]}},{"type":"Feature","properties":{"id":"area-13227010001","name":"神明台一丁目"},"geometry":{"type":"Polygon","coordinates":[[[139.32283,35.7557],[139.32314,35.75526],[139.32334,35.75532],[139.32452,35.7549],[139.32468,35.75469],[139.32203,35.75339],[139.32269,35.75248],[139.32269,35.75236],[139.321,35.75152],[139.31744,35.75632],[139.32039,35.75863],[139.32122,35.75788],[139.32153,35.75741],[139.3219,35.75659],[139.32283,35.7557]]]}},{"type":"Feature","properties":{"id":"area-13227010002","name":"神明台二丁目"},"geometry":{"type":"Polygon","coordinates":[[[139.32357,35.76109],[139.32856,35.75456],[139.32915,35.75369],[139.32903,35.75364],[139.32906,35.75358],[139.32741,35.75276],[139.32733,35.75282],[139.32728,35.7528],[139.32666,35.75367],[139.32632,35.75424],[139.32546,35.75383],[139.3254,35.75383],[139.32472,35.75471],[139.32468,35.75469],[139.32452,35.7549],[139.32334,35.75532],[139.32314,35.75526],[139.32277,35.75577],[139.3219,35.75659],[139.32153,35.75741],[139.32122,35.75788],[139.32039,35.75863],[139.32357,35.76109]]]}},{"type":"Feature","properties":{"id":"area-13227010003","name":"神明台三丁目"},"geometry":{"type":"Polygon","coordinates":[[[139.32888,35.75965],[139.32572,35.75829],[139.32353,35.76114],[139.32465,35.76189],[139.32522,35.76215],[139.32935,35.76351],[139.33016,35.76389],[139.3305,35.76347],[139.33113,35.76248],[139.33169,35.76053],[139.32888,35.75965]]]}},{"type":"Feature","properties":{"id":"area-13227010004","name":"神明台四丁目"},"geometry":{"type":"Polygon","coordinates":[[[139.33169,35.76053],[139.33353,35.75331],[139.33376,35.75188],[139.3321,35.7516],[139.33164,35.75302],[139.33151,35.75303],[139.32959,35.75233],[139.32956,35.75235],[139.32909,35.75359],[139.32906,35.75358],[139.32903,35.75364],[139.32915,35.75369],[139.32892,35.75406],[139.32813,35.75513],[139.32572,35.75829],[139.32888,35.75965],[139.33169,35.76053]]]}},{"type":"Feature","properties":{"id":"area-13227011001","name":"栄町一丁目"},"geometry":{"type":"Polygon","coordinates":[[[139.306,35.77809],[139.30672,35.77711],[139.30701,35.77679],[139.30782,35.77718],[139.30889,35.77576],[139.30973,35.77616],[139.31082,35.77471],[139.30995,35.77425],[139.30564,35.77225],[139.30436,35.77394],[139.30418,35.77425],[139.3038,35.77468],[139.30493,35.77625],[139.30543,35.77725],[139.30542,35.77732],[139.3056,35.77765],[139.30563,35.77764],[139.30585,35.77811],[139.306,35.77809]]]}},{"type":"Feature","properties":{"id":"area-13227011002","name":"栄町二丁目"},"geometry":{"type":"Polygon","coordinates":[[[139.31003,35.76789],[139.30914,35.76753],[139.30887,35.76801],[139.30705,35.77046],[139.30564,35.77225],[139.30995,35.77425],[139.31082,35.77471],[139.31398,35.77042],[139.31238,35.76948],[139.31003,35.76789]]]}},{"type":"Feature","properties":{"id":"area-13227011003","name":"栄町三丁目"},"geometry":{"type":"Polygon","coordinates":[[[139.31946,35.77585],[139.31857,35.77534],[139.31423,35.77331],[139.31564,35.7715],[139.31398,35.77042],[139.30973,35.77616],[139.31092,35.77673],[139.31142,35.77693],[139.31161,35.77675],[139.31255,35.77555],[139.31873,35.7785],[139.3207,35.77706],[139.31946,35.77585]]]}},{"type":"Feature","properties":{"id":"area-13227012001","name":"緑ケ丘一丁目"},"geometry":{"type":"Polygon","coordinates":[[[139.31731,35.76292],[139.31423,35.76074],[139.3142,35.76076],[139.31197,35.76376],[139.31366,35.76458],[139.31308,35.76535],[139.31487,35.76626],[139.31731,35.76292]]]}},{"type":"Feature","properties":{"id":"area-13227012002","name":"緑ケ丘二丁目"},"geometry":{"type":"Polygon","coordinates":[[[139.32054,35.76514],[139.31892,35.76405],[139.31735,35.76291],[139.31731,35.76292],[139.31487,35.76626],[139.3183,35.768],[139.32009,35.76566],[139.32054,35.76514]]]}},{"type":"Feature","properties":{"id":"area-13227012003","name":"緑ケ丘三丁目"},"geometry":{"type":"Polygon","coordinates":[[[139.32873,35.77125],[139.32902,35.77107],[139.32974,35.77049],[139.33031,35.7701],[139.32937,35.76917],[139.32887,35.76876],[139.32838,35.76847],[139.32659,35.7677],[139.32505,35.76712],[139.32459,35.7669],[139.32108,35.76547],[139.32101,35.76548],[139.32054,35.76514],[139.32009,35.76566],[139.31423,35.77331],[139.31857,35.77534],[139.31946,35.77585],[139.32073,35.7771],[139.32722,35.77232],[139.32873,35.77125]]]}},{"type":"Feature","properties":{"id":"area-13227012004","name":"緑ケ丘四丁目"},"geometry":{"type":"Polygon","coordinates":[[[139.3183,35.768],[139.31487,35.76626],[139.31238,35.76948],[139.31398,35.77042],[139.31564,35.7715],[139.3183,35.768]]]}},{"type":"Feature","properties":{"id":"area-13227012005","name":"緑ケ丘五丁目"},"geometry":{"type":"Polygon","coordinates":[[[139.31366,35.76458],[139.31197,35.76376],[139.31014,35.76624],[139.30914,35.76753],[139.31003,35.76789],[139.31238,35.76948],[139.31487,35.76626],[139.31308,35.76535],[139.31366,35.76458]]]}},{"type":"Feature","properties":{"id":"area-13227013001","name":"玉川一丁目"},"geometry":{"type":"Polygon","coordinates":[[[139.30972,35.75534],[139.31113,35.75459],[139.31236,35.75371],[139.31303,35.75339],[139.31305,35.75334],[139.31254,35.75319],[139.31268,35.75313],[139.3136,35.75239],[139.31299,35.75195],[139.31224,35.75151],[139.3096,35.75497],[139.30907,35.75526],[139.30882,35.75526],[139.3087,35.75572],[139.30847,35.75582],[139.30801,35.75633],[139.30816,35.75639],[139.30972,35.75534]]]}},{"type":"Feature","properties":{"id":"area-13227013002","name":"玉川二丁目"},"geometry":{"type":"Polygon","coordinates":[[[139.31619,35.74818],[139.31542,35.74768],[139.31535,35.74772],[139.31444,35.74877],[139.31311,35.75039],[139.31225,35.75152],[139.31299,35.75195],[139.31361,35.75241],[139.31412,35.75199],[139.31452,35.75147],[139.31511,35.75032],[139.31528,35.7501],[139.31549,35.7499],[139.31621,35.74945],[139.317,35.74885],[139.31678,35.74863],[139.31619,35.74818]]]}},{"type":"Feature","properties":{"id":"area-13227014001","name":"富士見平一丁目"},"geometry":{"type":"Polygon","coordinates":[[[139.32868,35.76591],[139.32423,35.7641],[139.32211,35.76305],[139.32054,35.76514],[139.32101,35.76548],[139.32108,35.76547],[139.32459,35.7669],[139.32505,35.76712],[139.32557,35.7673],[139.32719,35.76795],[139.32868,35.76591]]]}},{"type":"Feature","properties":{"id":"area-13227014002","name":"富士見平二丁目"},"geometry":{"type":"Polygon","coordinates":[[[139.32465,35.76189],[139.32353,35.76114],[139.32211,35.76305],[139.32423,35.7641],[139.32868,35.76591],[139.33015,35.76388],[139.32935,35.76351],[139.32522,35.76215],[139.32465,35.76189]]]}},{"type":"Feature","properties":{"id":"area-13227014003","name":"富士見平三丁目"},"geometry":{"type":"Polygon","coordinates":[[[139.32887,35.76588],[139.32899,35.7657],[139.3291,35.76575],[139.32915,35.76567],[139.3294,35.76591],[139.32976,35.76546],[139.33014,35.76512],[139.33071,35.76422],[139.33015,35.76388],[139.32719,35.76795],[139.32862,35.76859],[139.32937,35.76917],[139.32823,35.768],[139.32771,35.7674],[139.32859,35.76645],[139.32897,35.76593],[139.32887,35.76588]]]}},{"type":"Feature","properties":{"id":"area-13227015001","name":"羽東一丁目"},"geometry":{"type":"Polygon","coordinates":[[[139.31197,35.76376],[139.3142,35.76076],[139.31418,35.76073],[139.31488,35.75978],[139.31509,35.75957],[139.31597,35.75842],[139.31682,35.75721],[139.31662,35.7568],[139.3161,35.75595],[139.31549,35.75508],[139.31058,35.76054],[139.31017,35.76117],[139.30989,35.76174],[139.31104,35.76303],[139.31161,35.76355],[139.31197,35.76372],[139.31197,35.76376]]]}},{"type":"Feature","properties":{"id":"area-13227015002","name":"羽東二丁目"},"geometry":{"type":"Polygon","coordinates":[[[139.31058,35.76054],[139.31549,35.75508],[139.31459,35.75402],[139.31414,35.75364],[139.31384,35.75353],[139.31323,35.75371],[139.31304,35.7538],[139.31257,35.75414],[139.31251,35.75428],[139.31243,35.7546],[139.31237,35.75504],[139.31238,35.75554],[139.31249,35.75556],[139.3127,35.75598],[139.31307,35.7562],[139.3131,35.75626],[139.31279,35.75612],[139.31258,35.75607],[139.3121,35.75608],[139.31234,35.75658],[139.31216,35.75764],[139.31219,35.75783],[139.31192,35.75754],[139.31145,35.75778],[139.31101,35.75833],[139.31083,35.75851],[139.30974,35.75944],[139.3094,35.75966],[139.30897,35.7603],[139.3089,35.76033],[139.30867,35.76056],[139.30866,35.76074],[139.30901,35.76076],[139.30989,35.76174],[139.31017,35.76117],[139.31058,35.76054]]]}},{"type":"Feature","properties":{"id":"area-13227015003","name":"羽東三丁目"},"geometry":{"type":"Polygon","coordinates":[[[139.31145,35.75778],[139.31192,35.75754],[139.31219,35.75783],[139.31216,35.75764],[139.31234,35.75658],[139.3121,35.75608],[139.31258,35.75607],[139.31279,35.75612],[139.3131,35.75626],[139.31307,35.7562],[139.3127,35.75598],[139.31249,35.75556],[139.31238,35.75554],[139.31237,35.75504],[139.31243,35.7546],[139.31257,35.75414],[139.31304,35.7538],[139.31323,35.75371],[139.31384,35.75353],[139.31305,35.75334],[139.31303,35.75339],[139.31293,35.75346],[139.31236,35.75371],[139.31113,35.75459],[139.30972,35.75534],[139.30816,35.75639],[139.30803,35.75655],[139.30795,35.75676],[139.30767,35.7579],[139.3075,35.75821],[139.30776,35.75835],[139.30829,35.75902],[139.30918,35.75998],[139.3094,35.75966],[139.30974,35.75944],[139.31101,35.75833],[139.31145,35.75778]]]}},{"type":"Feature","properties":{"id":"area-13227016001","name":"羽中一丁目"},"geometry":{"type":"Polygon","coordinates":[[[139.31197,35.76372],[139.31161,35.76355],[139.31104,35.76303],[139.30989,35.76174],[139.30944,35.76329],[139.30872,35.7654],[139.30834,35.76612],[139.30854,35.76625],[139.30825,35.76654],[139.30769,35.76697],[139.30916,35.76751],[139.31101,35.76508],[139.31197,35.76376],[139.31197,35.76372]]]}},{"type":"Feature","properties":{"id":"area-13227016002","name":"羽中二丁目"},"geometry":{"type":"Polygon","coordinates":[[[139.30989,35.76174],[139.30964,35.76146],[139.30845,35.76197],[139.30578,35.76344],[139.30415,35.76448],[139.30449,35.76483],[139.30483,35.7651],[139.30561,35.76558],[139.30757,35.76693],[139.30769,35.76697],[139.30825,35.76654],[139.30854,35.76625],[139.30834,35.76612],[139.30872,35.7654],[139.30944,35.76329],[139.30989,35.76174]]]}},{"type":"Feature","properties":{"id":"area-13227016003","name":"羽中三丁目"},"geometry":{"type":"Polygon","coordinates":[[[139.30776,35.75835],[139.3075,35.75821],[139.30707,35.75877],[139.30547,35.76051],[139.3044,35.76119],[139.30415,35.76131],[139.30284,35.76163],[139.3027,35.76169],[139.30249,35.76189],[139.30275,35.76267],[139.30288,35.76294],[139.30323,35.76351],[139.30415,35.76448],[139.30578,35.76344],[139.30773,35.76237],[139.30845,35.76197],[139.30964,35.76146],[139.30901,35.76076],[139.30866,35.76074],[139.30867,35.76056],[139.3089,35.76033],[139.30897,35.7603],[139.30918,35.75998],[139.30829,35.75902],[139.30776,35.75835]]]}},{"type":"Feature","properties":{"id":"area-13227016004","name":"羽中四丁目"},"geometry":{"type":"Polygon","coordinates":[[[139.30816,35.75639],[139.30795,35.75629],[139.30776,35.75638],[139.30714,35.75691],[139.30712,35.757],[139.30692,35.7571],[139.30475,35.75746],[139.30318,35.75791],[139.30234,35.75821],[139.30156,35.75856],[139.30275,35.76052],[139.30248,35.76066],[139.30225,35.76086],[139.30228,35.76137],[139.30253,35.76175],[139.30249,35.76188],[139.3027,35.76169],[139.30284,35.76163],[139.30415,35.76131],[139.3044,35.76119],[139.30547,35.76051],[139.30707,35.75877],[139.30763,35.75801],[139.30795,35.75676],[139.30803,35.75655],[139.30816,35.75639]]]}},{"type":"Feature","properties":{"id":"area-13227017001","name":"羽加美一丁目"},"geometry":{"type":"Polygon","coordinates":[[[139.30916,35.76751],[139.30757,35.76693],[139.30681,35.76642],[139.30644,35.76666],[139.30606,35.76678],[139.30561,35.76702],[139.30516,35.76674],[139.30489,35.76682],[139.3049,35.76712],[139.30483,35.76727],[139.30479,35.7675],[139.30469,35.76756],[139.30466,35.76803],[139.30436,35.76873],[139.30378,35.76937],[139.30343,35.76958],[139.30322,35.76963],[139.30262,35.76969],[139.30272,35.77002],[139.30286,35.77025],[139.30286,35.77029],[139.30302,35.77062],[139.30362,35.77141],[139.30495,35.77212],[139.30481,35.77231],[139.30538,35.77258],[139.30705,35.77046],[139.30887,35.76801],[139.30916,35.76751]]]}},{"type":"Feature","properties":{"id":"area-13227017002","name":"羽加美二丁目"},"geometry":{"type":"Polygon","coordinates":[[[139.30489,35.76682],[139.30516,35.76674],[139.30561,35.76702],[139.30606,35.76678],[139.30644,35.76666],[139.30681,35.76642],[139.30561,35.76558],[139.30483,35.7651],[139.30449,35.76483],[139.30415,35.76448],[139.30197,35.76574],[139.30205,35.76645],[139.30227,35.76769],[139.30251,35.76795],[139.30279,35.76855],[139.30283,35.76896],[139.30278,35.76913],[139.30264,35.76937],[139.30261,35.76951],[139.30262,35.76969],[139.30322,35.76963],[139.30343,35.76958],[139.30378,35.76937],[139.30436,35.76873],[139.30466,35.76803],[139.30469,35.76756],[139.30479,35.7675],[139.30483,35.76727],[139.3049,35.76712],[139.30489,35.76682]]]}},{"type":"Feature","properties":{"id":"area-13227017003","name":"羽加美三丁目"},"geometry":{"type":"Polygon","coordinates":[[[139.30272,35.77002],[139.30262,35.76969],[139.30261,35.76951],[139.30283,35.76896],[139.30279,35.76855],[139.30251,35.76795],[139.30227,35.76769],[139.30205,35.76645],[139.30197,35.76574],[139.30415,35.76448],[139.30323,35.76351],[139.30288,35.76294],[139.30275,35.76267],[139.30249,35.76189],[139.30186,35.76253],[139.30138,35.76309],[139.30081,35.76407],[139.30077,35.76424],[139.30048,35.7649],[139.30021,35.76592],[139.3002,35.767],[139.29961,35.76781],[139.30015,35.76807],[139.30034,35.76822],[139.30064,35.76837],[139.30067,35.76853],[139.30072,35.76859],[139.30105,35.76876],[139.30134,35.76905],[139.30137,35.76912],[139.30184,35.76974],[139.30194,35.76978],[139.30235,35.76986],[139.30274,35.77015],[139.3028,35.77014],[139.30272,35.77002]]]}},{"type":"Feature","properties":{"id":"area-13227017004","name":"羽加美四丁目"},"geometry":{"type":"Polygon","coordinates":[[[139.30021,35.76592],[139.30048,35.7649],[139.30077,35.76424],[139.30081,35.76407],[139.3012,35.76337],[139.30152,35.76291],[139.30249,35.76188],[139.30253,35.76175],[139.30228,35.76137],[139.30225,35.76086],[139.30248,35.76066],[139.30275,35.76052],[139.30156,35.75856],[139.29951,35.75946],[139.29922,35.75968],[139.29794,35.76163],[139.29802,35.7617],[139.29774,35.76262],[139.29775,35.76271],[139.29812,35.76375],[139.29831,35.76417],[139.2984,35.76445],[139.2984,35.76497],[139.29846,35.76504],[139.29866,35.765],[139.29906,35.76528],[139.29927,35.76602],[139.29952,35.7663],[139.29963,35.76653],[139.29976,35.76665],[139.29951,35.7669],[139.29975,35.7671],[139.29993,35.76734],[139.3002,35.767],[139.30021,35.76592]]]}},{"type":"Feature","properties":{"id":"area-13227018001","name":"羽西一丁目"},"geometry":{"type":"Polygon","coordinates":[[[139.29838,35.77232],[139.29851,35.77228],[139.2994,35.77248],[139.30005,35.77257],[139.30179,35.77248],[139.30212,35.77232],[139.30244,35.77209],[139.30269,35.77185],[139.30345,35.77119],[139.30302,35.77062],[139.3028,35.77014],[139.30274,35.77015],[139.30235,35.76986],[139.30194,35.76978],[139.30184,35.76974],[139.30137,35.76912],[139.30134,35.76905],[139.30105,35.76876],[139.30072,35.76859],[139.30067,35.76853],[139.30064,35.76837],[139.30034,35.76822],[139.30015,35.76807],[139.29961,35.76781],[139.29844,35.76959],[139.29819,35.77015],[139.29806,35.77073],[139.29781,35.77229],[139.29771,35.77257],[139.29807,35.77252],[139.29835,35.77239],[139.29838,35.77232]]]}},{"type":"Feature","properties":{"id":"area-13227018002","name":"羽西二丁目"},"geometry":{"type":"Polygon","coordinates":[[[139.29784,35.77209],[139.29806,35.77073],[139.29819,35.77015],[139.29828,35.7699],[139.29844,35.76959],[139.29993,35.76734],[139.29975,35.7671],[139.29951,35.7669],[139.29976,35.76665],[139.29963,35.76653],[139.29952,35.7663],[139.29927,35.76602],[139.29906,35.76528],[139.29866,35.765],[139.29846,35.76504],[139.29847,35.76697],[139.29845,35.76713],[139.29839,35.7671],[139.29832,35.76733],[139.29835,35.76748],[139.298,35.76832],[139.29733,35.769],[139.2969,35.76966],[139.29697,35.76977],[139.297,35.76999],[139.29691,35.77006],[139.29688,35.77035],[139.29692,35.77033],[139.29676,35.77078],[139.29605,35.77159],[139.29571,35.77151],[139.29544,35.77123],[139.29514,35.7713],[139.29461,35.77159],[139.2946,35.77165],[139.29392,35.77231],[139.29413,35.77244],[139.2968,35.77213],[139.29784,35.77209]]]}},{"type":"Feature","properties":{"id":"area-13227018003","name":"羽西三丁目"},"geometry":{"type":"Polygon","coordinates":[[[139.29357,35.77653],[139.29366,35.77655],[139.29408,35.77583],[139.29446,35.77531],[139.29486,35.77494],[139.29521,35.77474],[139.29639,35.77417],[139.29688,35.77386],[139.29712,35.77375],[139.2973,35.77358],[139.29759,35.7732],[139.29779,35.77272],[139.29778,35.77257],[139.29771,35.77257],[139.29784,35.77209],[139.2968,35.77213],[139.29413,35.77244],[139.29362,35.77214],[139.2934,35.77235],[139.29306,35.77283],[139.29284,35.77321],[139.29283,35.77341],[139.293,35.77329],[139.29283,35.7736],[139.29248,35.77494],[139.29239,35.77536],[139.29238,35.7757],[139.29288,35.77664],[139.29303,35.77668],[139.29338,35.77684],[139.29357,35.77653]]]}},{"type":"Feature","properties":{"id":"area-132270190","name":"多摩川"},"geometry":{"type":"Polygon","coordinates":[[[139.29392,35.77231],[139.2946,35.77165],[139.29461,35.77159],[139.29514,35.7713],[139.29544,35.77123],[139.29571,35.77151],[139.29605,35.77159],[139.29676,35.77078],[139.29682,35.77064],[139.29692,35.77033],[139.29688,35.77035],[139.29691,35.77006],[139.297,35.76999],[139.29697,35.76977],[139.2969,35.76966],[139.29733,35.769],[139.298,35.76832],[139.29835,35.76748],[139.29832,35.76733],[139.29839,35.7671],[139.29845,35.76713],[139.29848,35.76667],[139.29846,35.76504],[139.2984,35.76497],[139.2984,35.76445],[139.29831,35.76417],[139.29812,35.76375],[139.29775,35.76271],[139.29774,35.76262],[139.29802,35.7617],[139.29794,35.76163],[139.29922,35.75968],[139.29951,35.75946],[139.30234,35.75821],[139.30318,35.75791],[139.30475,35.75746],[139.30692,35.7571],[139.30712,35.757],[139.30714,35.75691],[139.30776,35.75638],[139.30795,35.75629],[139.30801,35.75633],[139.30847,35.75582],[139.3087,35.75572],[139.30882,35.75526],[139.30907,35.75526],[139.3096,35.75497],[139.31311,35.75039],[139.31444,35.74877],[139.31542,35.74768],[139.31399,35.74678],[139.31239,35.74923],[139.31092,35.7508],[139.30944,35.75135],[139.30846,35.75187],[139.3083,35.75199],[139.30735,35.75339],[139.30667,35.754],[139.3063,35.7543],[139.30533,35.75485],[139.30475,35.75515],[139.30433,35.75531],[139.30399,35.75541],[139.30226,35.75572],[139.30178,35.75485],[139.3017,35.7548],[139.29931,35.75471],[139.29896,35.75478],[139.29836,35.75496],[139.29801,35.75489],[139.29773,35.75478],[139.29751,35.75479],[139.29704,35.75465],[139.29679,35.75392],[139.29663,35.75404],[139.29643,35.75412],[139.29591,35.75461],[139.2962,35.75487],[139.29653,35.75534],[139.29686,35.75596],[139.29704,35.75656],[139.29721,35.75745],[139.29714,35.75984],[139.2972,35.76055],[139.29696,35.76196],[139.29673,35.76268],[139.29661,35.76336],[139.29671,35.76582],[139.29662,35.76646],[139.29648,35.76696],[139.29619,35.7676],[139.29591,35.76806],[139.29509,35.76916],[139.29444,35.77032],[139.29387,35.7714],[139.29369,35.7719],[139.29368,35.7721],[139.29362,35.77214],[139.29392,35.77231]]]}}]}