{"type":"FeatureCollection","features":[{"type":"Feature","properties":{"id":"area-132230010","name":"大字三ツ木"},"geometry":{"type":"Polygon","coordinates":[[[139.36849,35.74657],[139.36894,35.74641],[139.36947,35.74603],[139.36974,35.74569],[139.36972,35.74565],[139.36979,35.74549],[139.36946,35.74483],[139.36947,35.74401],[139.36905,35.74272],[139.36903,35.74257],[139.36899,35.74249],[139.36904,35.74237],[139.37044,35.74148],[139.37065,35.74122],[139.37099,35.74122],[139.37102,35.741],[139.37096,35.74084],[139.37084,35.73987],[139.36984,35.73846],[139.36972,35.73818],[139.36955,35.73743],[139.36933,35.73696],[139.36879,35.73621],[139.36719,35.73715],[139.36591,35.73795],[139.36317,35.73944],[139.36341,35.7409],[139.36366,35.7427],[139.36517,35.74271],[139.3652,35.74303],[139.36496,35.7431],[139.3649,35.74324],[139.36497,35.74334],[139.36522,35.74338],[139.3653,35.74423],[139.36549,35.74474],[139.36538,35.7448],[139.36536,35.74492],[139.36555,35.7451],[139.36576,35.74506],[139.366,35.74551],[139.36659,35.74608],[139.36687,35.7463],[139.36687,35.74634],[139.36708,35.74646],[139.36753,35.74664],[139.36797,35.74666],[139.36849,35.74657]]]}},{"type":"Feature","properties":{"id":"area-132230020","name":"大字岸"},"geometry":{"type":"Polygon","coordinates":[[[139.35717,35.75004],[139.35781,35.7469],[139.35787,35.74685],[139.36222,35.74778],[139.36239,35.74767],[139.36245,35.74745],[139.36193,35.7427],[139.36366,35.7427],[139.36341,35.7409],[139.36317,35.73944],[139.3629,35.73919],[139.3605,35.73974],[139.35987,35.73994],[139.35982,35.73992],[139.35914,35.74106],[139.35865,35.74116],[139.35867,35.74136],[139.35884,35.74198],[139.35607,35.74247],[139.35446,35.74305],[139.35554,35.74538],[139.35461,35.74581],[139.3564,35.74663],[139.35643,35.74668],[139.35651,35.7475],[139.35586,35.74748],[139.35573,35.74764],[139.35528,35.74742],[139.35518,35.74755],[139.3552,35.74769],[139.35531,35.74795],[139.35555,35.74835],[139.35574,35.74835],[139.35604,35.74934],[139.35656,35.75051],[139.35707,35.75039],[139.35713,35.75003],[139.35717,35.75004]],[[139.35675,35.74583],[139.35626,35.74509],[139.35815,35.74446],[139.35859,35.74536],[139.3568,35.74584],[139.35675,35.74583]]]}},{"type":"Feature","properties":{"id":"area-13223003001","name":"大南一丁目"},"geometry":{"type":"Polygon","coordinates":[[[139.3994,35.73845],[139.39927,35.73809],[139.39897,35.7363],[139.39863,35.73631],[139.39858,35.73626],[139.39827,35.73562],[139.39819,35.73538],[139.39806,35.73513],[139.39771,35.73467],[139.39766,35.7345],[139.3966,35.73428],[139.39642,35.7345],[139.39584,35.73594],[139.39288,35.74212],[139.39248,35.74307],[139.3978,35.74256],[139.39792,35.74206],[139.39836,35.74151],[139.39865,35.74126],[139.39914,35.74102],[139.39926,35.74087],[139.39946,35.73974],[139.3995,35.7391],[139.3994,35.73845]]]}},{"type":"Feature","properties":{"id":"area-13223003002","name":"大南二丁目"},"geometry":{"type":"Polygon","coordinates":[[[139.4064,35.7395],[139.40592,35.73717],[139.40135,35.73778],[139.40135,35.73784],[139.39927,35.73808],[139.3994,35.73845],[139.3995,35.7391],[139.39946,35.73974],[139.39926,35.74087],[139.39914,35.74102],[139.39865,35.74126],[139.39836,35.74151],[139.39792,35.74206],[139.39779,35.74257],[139.40029,35.74235],[139.4012,35.74224],[139.4047,35.74143],[139.40418,35.73997],[139.4064,35.7395]]]}},{"type":"Feature","properties":{"id":"area-13223003003","name":"大南三丁目"},"geometry":{"type":"Polygon","coordinates":[[[139.40591,35.73717],[139.40558,35.73544],[139.40665,35.73531],[139.40636,35.73391],[139.4058,35.73365],[139.40566,35.7337],[139.40246,35.73419],[139.40209,35.73365],[139.40204,35.73361],[139.40189,35.73358],[139.40011,35.73393],[139.39981,35.73501],[139.3984,35.73528],[139.39801,35.73483],[139.398,35.73477],[139.39782,35.73479],[139.39806,35.73513],[139.39819,35.73538],[139.39827,35.73562],[139.39858,35.73626],[139.39863,35.73631],[139.39897,35.7363],[139.39927,35.73809],[139.40135,35.73784],[139.40135,35.73778],[139.40591,35.73717]]]}},{"type":"Feature","properties":{"id":"area-13223003004","name":"大南四丁目"},"geometry":{"type":"Polygon","coordinates":[[[139.41403,35.7365],[139.41431,35.73574],[139.41451,35.73535],[139.41411,35.73525],[139.4148,35.73305],[139.41486,35.73297],[139.41482,35.73299],[139.41085,35.73274],[139.40942,35.73255],[139.40875,35.73359],[139.40943,35.73389],[139.40928,35.73414],[139.40825,35.73369],[139.40773,35.73373],[139.40725,35.73363],[139.40726,35.73368],[139.40712,35.73368],[139.40707,35.73366],[139.407,35.73344],[139.4058,35.73365],[139.40636,35.73391],[139.40665,35.73531],[139.40934,35.735],[139.40988,35.73502],[139.40993,35.73433],[139.41016,35.73444],[139.41241,35.73615],[139.41263,35.73628],[139.41275,35.73608],[139.41366,35.73639],[139.41366,35.73641],[139.41403,35.7365]]]}},{"type":"Feature","properties":{"id":"area-13223003005","name":"大南五丁目"},"geometry":{"type":"Polygon","coordinates":[[[139.41095,35.74118],[139.41103,35.7408],[139.4113,35.74084],[139.4113,35.74031],[139.41134,35.73992],[139.41167,35.73983],[139.41156,35.73931],[139.41202,35.73925],[139.41191,35.73869],[139.41221,35.73861],[139.41216,35.73839],[139.41206,35.73817],[139.41193,35.73819],[139.41175,35.73779],[139.41132,35.73792],[139.41122,35.73758],[139.41121,35.73747],[139.41138,35.73742],[139.41136,35.73734],[139.41197,35.73704],[139.41204,35.73713],[139.41235,35.73703],[139.41254,35.7373],[139.413,35.73715],[139.41297,35.73703],[139.41308,35.737],[139.41306,35.73692],[139.41281,35.73692],[139.41261,35.73645],[139.41263,35.73628],[139.41241,35.73615],[139.41016,35.73444],[139.40993,35.73433],[139.40988,35.73502],[139.40934,35.735],[139.40883,35.73508],[139.40827,35.7351],[139.40558,35.73544],[139.40608,35.73795],[139.41025,35.73741],[139.41079,35.73979],[139.41065,35.74116],[139.41095,35.74118]]]}},{"type":"Feature","properties":{"id":"area-13223004001","name":"学園一丁目"},"geometry":{"type":"Polygon","coordinates":[[[139.39695,35.74619],[139.39157,35.74537],[139.39022,35.74833],[139.38899,35.75067],[139.38927,35.75092],[139.39174,35.75033],[139.39171,35.75031],[139.39515,35.74951],[139.39735,35.7493],[139.39722,35.74867],[139.39721,35.74832],[139.39708,35.74808],[139.39676,35.74762],[139.39669,35.74758],[139.39695,35.74619]]]}},{"type":"Feature","properties":{"id":"area-13223004002","name":"学園二丁目"},"geometry":{"type":"Polygon","coordinates":[[[139.40363,35.74658],[139.39709,35.7456],[139.39669,35.74758],[139.39676,35.74762],[139.39708,35.74808],[139.39721,35.74832],[139.39722,35.74867],[139.39733,35.74926],[139.40328,35.74877],[139.4032,35.74843],[139.40363,35.74658]]]}},{"type":"Feature","properties":{"id":"area-13223004003","name":"学園三丁目"},"geometry":{"type":"Polygon","coordinates":[[[139.40626,35.74559],[139.4047,35.74143],[139.40352,35.74171],[139.40363,35.74222],[139.4035,35.74311],[139.40321,35.74436],[139.40418,35.7445],[139.40367,35.74652],[139.40363,35.74658],[139.4032,35.74843],[139.40328,35.74877],[139.4073,35.74849],[139.40626,35.74559]]]}},{"type":"Feature","properties":{"id":"area-13223004004","name":"学園四丁目"},"geometry":{"type":"Polygon","coordinates":[[[139.40363,35.74222],[139.40352,35.74171],[139.4012,35.74224],[139.40029,35.74235],[139.39779,35.74257],[139.39709,35.7456],[139.40363,35.74658],[139.40367,35.74652],[139.40418,35.7445],[139.40321,35.74436],[139.4035,35.74311],[139.40363,35.74222]]]}},{"type":"Feature","properties":{"id":"area-13223004005","name":"学園五丁目"},"geometry":{"type":"Polygon","coordinates":[[[139.39779,35.74257],[139.39248,35.74307],[139.39157,35.74537],[139.39695,35.74619],[139.39779,35.74257]]]}},{"type":"Feature","properties":{"id":"area-13223005001","name":"榎一丁目"},"geometry":{"type":"Polygon","coordinates":[[[139.39022,35.74655],[139.39048,35.74652],[139.39079,35.74654],[139.38919,35.7448],[139.38861,35.74347],[139.38859,35.74319],[139.38896,35.74147],[139.38886,35.74085],[139.39356,35.74071],[139.39414,35.73953],[139.39431,35.73909],[139.39584,35.73594],[139.39642,35.7345],[139.39666,35.73422],[139.39643,35.73413],[139.39613,35.73407],[139.39574,35.73377],[139.39475,35.73417],[139.39475,35.73422],[139.3946,35.73423],[139.39413,35.7344],[139.39297,35.73525],[139.39201,35.73602],[139.39102,35.73687],[139.39079,35.73714],[139.39059,35.73726],[139.38903,35.7385],[139.38908,35.73855],[139.38843,35.73894],[139.38814,35.73925],[139.38802,35.73947],[139.38754,35.73931],[139.38635,35.74146],[139.38607,35.74177],[139.38587,35.74182],[139.38594,35.74192],[139.3854,35.7426],[139.38517,35.74298],[139.38491,35.74281],[139.38468,35.74275],[139.38414,35.74338],[139.38323,35.74416],[139.38365,35.74465],[139.38302,35.74533],[139.38298,35.74433],[139.38311,35.74406],[139.38316,35.74386],[139.38316,35.7429],[139.38351,35.74313],[139.38352,35.74292],[139.3841,35.74229],[139.38421,35.74199],[139.38435,35.74176],[139.38443,35.74169],[139.38473,35.74156],[139.38512,35.74111],[139.3849,35.74088],[139.3844,35.7402],[139.38513,35.73952],[139.38515,35.73947],[139.38526,35.7389],[139.385,35.7379],[139.38551,35.73766],[139.38543,35.73736],[139.38566,35.73726],[139.38582,35.73751],[139.38634,35.73725],[139.38658,35.73752],[139.38714,35.73698],[139.38756,35.73626],[139.38841,35.73592],[139.38923,35.73547],[139.38952,35.73577],[139.38974,35.73513],[139.39021,35.73479],[139.39062,35.73442],[139.39078,35.73452],[139.39134,35.7339],[139.39134,35.73382],[139.3912,35.73358],[139.38986,35.73356],[139.38926,35.73413],[139.3886,35.73378],[139.38797,35.73424],[139.38731,35.73456],[139.38659,35.73479],[139.38632,35.73482],[139.38618,35.73474],[139.38478,35.73553],[139.38455,35.73562],[139.38364,35.73579],[139.38342,35.73539],[139.38493,35.73415],[139.38351,35.73343],[139.38307,35.73377],[139.38307,35.73577],[139.38293,35.73637],[139.38286,35.73942],[139.38284,35.74201],[139.38282,35.74201],[139.3828,35.7482],[139.38382,35.74846],[139.3854,35.74845],[139.38559,35.74839],[139.38655,35.74776],[139.38938,35.7468],[139.39022,35.74655]]]}},{"type":"Feature","properties":{"id":"area-13223005002","name":"榎二丁目"},"geometry":{"type":"Polygon","coordinates":[[[139.39288,35.74212],[139.39356,35.74071],[139.38886,35.74085],[139.38896,35.74147],[139.38859,35.74319],[139.38861,35.74347],[139.38919,35.7448],[139.39097,35.74673],[139.39157,35.74537],[139.39245,35.74313],[139.39288,35.74212]]]}},{"type":"Feature","properties":{"id":"area-13223005003","name":"榎三丁目"},"geometry":{"type":"Polygon","coordinates":[[[139.38881,35.75099],[139.39022,35.74833],[139.39097,35.74673],[139.39079,35.74654],[139.39048,35.74652],[139.39022,35.74655],[139.38938,35.7468],[139.38655,35.74776],[139.38559,35.74839],[139.3854,35.74845],[139.38382,35.74846],[139.3828,35.7482],[139.38286,35.75019],[139.38318,35.75125],[139.38369,35.75224],[139.38881,35.75099]]]}},{"type":"Feature","properties":{"id":"area-13223006001","name":"伊奈平一丁目"},"geometry":{"type":"Polygon","coordinates":[[[139.38053,35.74681],[139.38062,35.74673],[139.38083,35.74675],[139.38283,35.74611],[139.38282,35.74201],[139.38011,35.74225],[139.37555,35.74246],[139.37475,35.74471],[139.37587,35.74452],[139.37688,35.74426],[139.37719,35.74494],[139.37734,35.74547],[139.37746,35.74666],[139.37766,35.74765],[139.38053,35.74681]]]}},{"type":"Feature","properties":{"id":"area-13223006002","name":"伊奈平二丁目"},"geometry":{"type":"Polygon","coordinates":[[[139.38293,35.73637],[139.38305,35.73579],[139.38142,35.73713],[139.37715,35.73783],[139.37618,35.74043],[139.37552,35.74244],[139.37555,35.74246],[139.38011,35.74225],[139.38284,35.74201],[139.38286,35.73942],[139.38293,35.73637]]]}},{"type":"Feature","properties":{"id":"area-13223006003","name":"伊奈平三丁目"},"geometry":{"type":"Polygon","coordinates":[[[139.38307,35.73577],[139.38307,35.73377],[139.38154,35.73506],[139.37875,35.73345],[139.37875,35.73351],[139.37821,35.73491],[139.37814,35.73494],[139.37715,35.73783],[139.38142,35.73713],[139.38307,35.73577]]]}},{"type":"Feature","properties":{"id":"area-13223006004","name":"伊奈平四丁目"},"geometry":{"type":"Polygon","coordinates":[[[139.37033,35.73916],[139.37715,35.7378],[139.37715,35.73783],[139.37814,35.73494],[139.37667,35.73553],[139.37375,35.73664],[139.37092,35.73709],[139.37016,35.73733],[139.3697,35.73645],[139.36954,35.7362],[139.36928,35.73588],[139.36879,35.73621],[139.36933,35.73696],[139.36955,35.73743],[139.36972,35.73818],[139.36984,35.73846],[139.37033,35.73916]]]}},{"type":"Feature","properties":{"id":"area-13223006005","name":"伊奈平五丁目"},"geometry":{"type":"Polygon","coordinates":[[[139.36906,35.74255],[139.37136,35.74257],[139.37552,35.74244],[139.37618,35.74043],[139.37715,35.7378],[139.37033,35.73916],[139.37084,35.73987],[139.37096,35.74084],[139.37102,35.741],[139.37102,35.74118],[139.37099,35.74122],[139.37065,35.74122],[139.37044,35.74148],[139.36904,35.74237],[139.36899,35.74249],[139.36903,35.74257],[139.36906,35.74255]]]}},{"type":"Feature","properties":{"id":"area-13223006006","name":"伊奈平六丁目"},"geometry":{"type":"Polygon","coordinates":[[[139.37277,35.74491],[139.37274,35.74459],[139.37323,35.74449],[139.37461,35.74473],[139.37475,35.74471],[139.37555,35.74246],[139.37552,35.74244],[139.37488,35.74245],[139.37136,35.74257],[139.36906,35.74255],[139.36903,35.74257],[139.36905,35.74272],[139.36947,35.74401],[139.36946,35.74483],[139.36962,35.74516],[139.37132,35.74483],[139.37134,35.74481],[139.37196,35.74466],[139.37224,35.74562],[139.37277,35.74491]]]}},{"type":"Feature","properties":{"id":"area-13223007001","name":"残堀一丁目"},"geometry":{"type":"Polygon","coordinates":[[[139.37577,35.74958],[139.37591,35.74951],[139.37605,35.74951],[139.37784,35.74855],[139.37746,35.74666],[139.37734,35.74547],[139.37719,35.74494],[139.37688,35.74426],[139.37587,35.74452],[139.37475,35.74471],[139.37389,35.74715],[139.37366,35.74809],[139.37362,35.74884],[139.37357,35.74886],[139.37361,35.74942],[139.37399,35.75135],[139.37444,35.75062],[139.37463,35.75041],[139.37485,35.75022],[139.37534,35.74991],[139.37543,35.74974],[139.37556,35.74964],[139.37577,35.74958]]]}},{"type":"Feature","properties":{"id":"area-13223007002","name":"残堀二丁目"},"geometry":{"type":"Polygon","coordinates":[[[139.37097,35.7499],[139.3711,35.7499],[139.37256,35.7493],[139.37315,35.74908],[139.3732,35.74908],[139.37357,35.74891],[139.37357,35.74886],[139.37362,35.74884],[139.37366,35.74809],[139.37377,35.74755],[139.37475,35.74471],[139.37461,35.74473],[139.37323,35.74449],[139.37274,35.74459],[139.37277,35.74491],[139.37224,35.74562],[139.37196,35.74466],[139.37134,35.74481],[139.37132,35.74483],[139.36962,35.74516],[139.36979,35.74549],[139.36972,35.74565],[139.37127,35.74815],[139.37097,35.7499]]]}},{"type":"Feature","properties":{"id":"area-13223007003","name":"残堀三丁目"},"geometry":{"type":"Polygon","coordinates":[[[139.3661,35.74923],[139.36614,35.74874],[139.36627,35.74874],[139.36641,35.7486],[139.36631,35.74849],[139.36685,35.7482],[139.36679,35.74814],[139.36724,35.74758],[139.36741,35.74707],[139.36776,35.74677],[139.36775,35.74672],[139.36797,35.74666],[139.36753,35.74664],[139.36687,35.74634],[139.36687,35.7463],[139.36659,35.74608],[139.366,35.74551],[139.36576,35.74506],[139.36555,35.7451],[139.36536,35.74492],[139.36538,35.7448],[139.36549,35.74474],[139.3653,35.74423],[139.36522,35.74338],[139.36497,35.74334],[139.3649,35.74324],[139.36496,35.7431],[139.3652,35.74303],[139.36517,35.74271],[139.36193,35.7427],[139.36249,35.74781],[139.36257,35.74787],[139.3638,35.74817],[139.3661,35.74923]]]}},{"type":"Feature","properties":{"id":"area-13223007004","name":"残堀四丁目"},"geometry":{"type":"Polygon","coordinates":[[[139.36489,35.75244],[139.37101,35.74992],[139.37102,35.74989],[139.37097,35.7499],[139.37127,35.74815],[139.36974,35.74569],[139.36947,35.74603],[139.36894,35.74641],[139.36849,35.74657],[139.36775,35.74672],[139.36776,35.74677],[139.36741,35.74707],[139.36724,35.74758],[139.36679,35.74814],[139.36685,35.7482],[139.36631,35.74849],[139.36641,35.7486],[139.36627,35.74874],[139.36614,35.74874],[139.3661,35.74923],[139.3638,35.74817],[139.36257,35.74787],[139.3625,35.74798],[139.36267,35.74865],[139.36292,35.74941],[139.36294,35.74983],[139.36307,35.75046],[139.36299,35.75115],[139.36304,35.75141],[139.36367,35.75144],[139.36362,35.75169],[139.36431,35.75183],[139.36438,35.75145],[139.36489,35.75244]]]}},{"type":"Feature","properties":{"id":"area-13223007005","name":"残堀五丁目"},"geometry":{"type":"Polygon","coordinates":[[[139.37402,35.75153],[139.37361,35.74942],[139.37357,35.74891],[139.3732,35.74908],[139.37315,35.74908],[139.37256,35.7493],[139.3711,35.7499],[139.37102,35.74989],[139.37101,35.74992],[139.37056,35.75011],[139.36842,35.75096],[139.36489,35.75244],[139.36743,35.75692],[139.36775,35.75662],[139.36795,35.75632],[139.3685,35.7557],[139.36896,35.75501],[139.36923,35.75479],[139.37008,35.7546],[139.37044,35.75424],[139.37106,35.75378],[139.37142,35.75336],[139.37164,35.7532],[139.37271,35.75271],[139.37307,35.75258],[139.37335,35.7524],[139.37372,35.752],[139.37402,35.75153]]]}},{"type":"Feature","properties":{"id":"area-13223008001","name":"三ツ藤一丁目"},"geometry":{"type":"Polygon","coordinates":[[[139.37778,35.75366],[139.38369,35.75224],[139.38318,35.75125],[139.38286,35.75019],[139.3828,35.74783],[139.38283,35.74611],[139.38083,35.74675],[139.38062,35.74673],[139.38053,35.74681],[139.37765,35.74765],[139.37788,35.74877],[139.37781,35.74889],[139.37754,35.74906],[139.37698,35.74992],[139.37692,35.75014],[139.37692,35.75076],[139.37698,35.7509],[139.37719,35.75123],[139.3773,35.75149],[139.37752,35.75286],[139.37743,35.75299],[139.3776,35.75298],[139.37767,35.7534],[139.37778,35.75366]]]}},{"type":"Feature","properties":{"id":"area-13223008002","name":"三ツ藤二丁目"},"geometry":{"type":"Polygon","coordinates":[[[139.37767,35.7534],[139.3776,35.75298],[139.37743,35.75299],[139.37752,35.75286],[139.3773,35.75149],[139.37719,35.75123],[139.37698,35.7509],[139.37692,35.75076],[139.37692,35.75014],[139.37698,35.74992],[139.37754,35.74906],[139.37781,35.74889],[139.37788,35.74877],[139.37784,35.74855],[139.37605,35.74951],[139.37591,35.74951],[139.37577,35.74958],[139.37556,35.74964],[139.37543,35.74974],[139.37534,35.74991],[139.37485,35.75022],[139.37463,35.75041],[139.37444,35.75062],[139.37399,35.75135],[139.37418,35.75222],[139.37427,35.7525],[139.37471,35.75344],[139.3747,35.75352],[139.3753,35.7547],[139.3759,35.7544],[139.37755,35.75372],[139.37778,35.75366],[139.37767,35.7534]]]}},{"type":"Feature","properties":{"id":"area-13223008003","name":"三ツ藤三丁目"},"geometry":{"type":"Polygon","coordinates":[[[139.36819,35.75826],[139.37145,35.75665],[139.37152,35.75658],[139.37263,35.75601],[139.37376,35.75549],[139.3753,35.7547],[139.3747,35.75352],[139.37471,35.75344],[139.37427,35.7525],[139.37418,35.75222],[139.37402,35.75153],[139.37372,35.752],[139.37335,35.7524],[139.37307,35.75258],[139.37271,35.75271],[139.37164,35.7532],[139.37142,35.75336],[139.37106,35.75378],[139.37044,35.75424],[139.37008,35.7546],[139.36923,35.75479],[139.36896,35.75501],[139.3685,35.7557],[139.36795,35.75632],[139.36775,35.75662],[139.36743,35.75692],[139.36816,35.75826],[139.36819,35.75826]]]}},{"type":"Feature","properties":{"id":"area-13223009001","name":"神明一丁目"},"geometry":{"type":"Polygon","coordinates":[[[139.40152,35.75276],[139.40155,35.75198],[139.40151,35.75197],[139.40134,35.75205],[139.40111,35.75209],[139.4008,35.75208],[139.40061,35.75202],[139.40133,35.74892],[139.39733,35.74926],[139.39935,35.75411],[139.39938,35.75407],[139.40026,35.75388],[139.40026,35.75385],[139.40073,35.7535],[139.40101,35.75297],[139.40152,35.75276]]]}},{"type":"Feature","properties":{"id":"area-13223009002","name":"神明二丁目"},"geometry":{"type":"Polygon","coordinates":[[[139.40443,35.75688],[139.40506,35.75664],[139.40609,35.75642],[139.40685,35.75634],[139.40691,35.75606],[139.40729,35.75603],[139.40751,35.75606],[139.40775,35.75617],[139.40802,35.75604],[139.40798,35.75599],[139.40799,35.75581],[139.40857,35.75507],[139.40846,35.75496],[139.40821,35.75479],[139.40767,35.75461],[139.40665,35.7546],[139.40637,35.75456],[139.40542,35.75432],[139.40441,35.75433],[139.40363,35.75431],[139.40365,35.75418],[139.40362,35.75403],[139.40356,35.75394],[139.40426,35.75308],[139.40397,35.75311],[139.39938,35.75407],[139.39935,35.75411],[139.39942,35.75416],[139.40059,35.75632],[139.40122,35.7563],[139.40137,35.7564],[139.40167,35.75636],[139.40207,35.75641],[139.40257,35.75639],[139.40267,35.75645],[139.40274,35.75655],[139.40296,35.75669],[139.40379,35.75685],[139.40405,35.75685],[139.40441,35.75677],[139.40443,35.75688]]]}},{"type":"Feature","properties":{"id":"area-13223009003","name":"神明三丁目"},"geometry":{"type":"Polygon","coordinates":[[[139.4087,35.75485],[139.40828,35.75445],[139.40799,35.75429],[139.40783,35.7541],[139.40768,35.75375],[139.40733,35.75313],[139.40723,35.75284],[139.40721,35.75263],[139.40725,35.75235],[139.40723,35.75169],[139.40708,35.75129],[139.40706,35.75113],[139.40715,35.75079],[139.40718,35.75036],[139.40727,35.75019],[139.40729,35.74934],[139.40712,35.74851],[139.40574,35.74861],[139.40572,35.74887],[139.40557,35.74939],[139.40526,35.74994],[139.40476,35.75061],[139.40451,35.75108],[139.40431,35.75172],[139.4043,35.75185],[139.40433,35.75293],[139.40427,35.75307],[139.40356,35.75394],[139.40362,35.75403],[139.40365,35.75418],[139.40363,35.75431],[139.40441,35.75433],[139.40542,35.75432],[139.40637,35.75456],[139.40665,35.7546],[139.40767,35.75461],[139.40821,35.75479],[139.40846,35.75496],[139.40857,35.75507],[139.40868,35.75492],[139.4087,35.75485]]]}},{"type":"Feature","properties":{"id":"area-13223009004","name":"神明四丁目"},"geometry":{"type":"Polygon","coordinates":[[[139.40433,35.75293],[139.40431,35.75172],[139.40451,35.75108],[139.40476,35.75061],[139.40526,35.74994],[139.40557,35.74939],[139.40572,35.74887],[139.40574,35.74861],[139.40133,35.74892],[139.40061,35.75202],[139.4008,35.75208],[139.40111,35.75209],[139.40134,35.75205],[139.40151,35.75197],[139.40155,35.75198],[139.40152,35.75276],[139.40101,35.75297],[139.40073,35.7535],[139.40026,35.75385],[139.40026,35.75388],[139.40397,35.75311],[139.40427,35.75307],[139.40433,35.75293]]]}},{"type":"Feature","properties":{"id":"area-13223010001","name":"中藤一丁目"},"geometry":{"type":"Polygon","coordinates":[[[139.40035,35.75678],[139.4005,35.75671],[139.40079,35.75666],[139.39942,35.75416],[139.39932,35.75407],[139.3969,35.75431],[139.39697,35.75472],[139.39706,35.75477],[139.39726,35.75475],[139.39754,35.75612],[139.39751,35.75618],[139.39702,35.75631],[139.39714,35.75669],[139.3968,35.75675],[139.39667,35.75631],[139.39638,35.75639],[139.39634,35.75643],[139.396,35.75658],[139.39617,35.75686],[139.39613,35.75697],[139.39597,35.75703],[139.39529,35.75736],[139.39478,35.75749],[139.39626,35.75778],[139.39677,35.75826],[139.39646,35.75847],[139.3967,35.75871],[139.39699,35.75846],[139.39737,35.75823],[139.39792,35.75806],[139.39801,35.75796],[139.39814,35.75768],[139.39888,35.75731],[139.39911,35.75724],[139.3997,35.75698],[139.40035,35.75678]]]}},{"type":"Feature","properties":{"id":"area-13223010002","name":"中藤二丁目"},"geometry":{"type":"Polygon","coordinates":[[[139.39496,35.76293],[139.39528,35.76272],[139.39552,35.76274],[139.39565,35.76278],[139.39596,35.76301],[139.39607,35.76304],[139.39688,35.76282],[139.39749,35.76252],[139.39774,35.76251],[139.39799,35.76212],[139.398,35.76196],[139.39767,35.76115],[139.39762,35.76077],[139.39762,35.7604],[139.39705,35.7601],[139.39708,35.75989],[139.39699,35.75975],[139.39683,35.75921],[139.39686,35.75907],[139.39693,35.75897],[139.39646,35.75847],[139.39677,35.75826],[139.39626,35.75778],[139.39478,35.75749],[139.3936,35.75778],[139.39346,35.75795],[139.39349,35.75796],[139.3936,35.75824],[139.3936,35.75836],[139.39351,35.7587],[139.39353,35.75907],[139.39346,35.75922],[139.39331,35.75936],[139.39313,35.75972],[139.39331,35.7601],[139.39344,35.76027],[139.39358,35.76055],[139.39355,35.76159],[139.39372,35.7618],[139.39374,35.76188],[139.39363,35.7623],[139.39384,35.76246],[139.39401,35.76264],[139.39412,35.76279],[139.39407,35.76279],[139.39429,35.7629],[139.39479,35.76305],[139.3949,35.76303],[139.39496,35.76293]]]}},{"type":"Feature","properties":{"id":"area-13223010003","name":"中藤三丁目"},"geometry":{"type":"Polygon","coordinates":[[[139.39828,35.76265],[139.39925,35.76218],[139.39947,35.76215],[139.39985,35.76221],[139.40033,35.76218],[139.40063,35.76207],[139.40091,35.76186],[139.40053,35.76025],[139.40055,35.76008],[139.40103,35.75993],[139.40115,35.75984],[139.4013,35.75948],[139.4015,35.75914],[139.40177,35.75873],[139.40206,35.75839],[139.40193,35.75788],[139.40151,35.75776],[139.40129,35.75759],[139.40079,35.75666],[139.4005,35.75671],[139.40003,35.75689],[139.3997,35.75698],[139.39911,35.75724],[139.39888,35.75731],[139.39814,35.75768],[139.39801,35.75796],[139.39792,35.75806],[139.39737,35.75823],[139.39699,35.75846],[139.3967,35.75871],[139.39693,35.75897],[139.39686,35.75907],[139.39683,35.75921],[139.39699,35.75975],[139.39708,35.75989],[139.39705,35.7601],[139.39762,35.7604],[139.39762,35.76077],[139.39767,35.76115],[139.398,35.76196],[139.39799,35.76212],[139.39774,35.76251],[139.39785,35.76251],[139.39806,35.76263],[139.39828,35.76265]]]}},{"type":"Feature","properties":{"id":"area-13223010004","name":"中藤四丁目"},"geometry":{"type":"Polygon","coordinates":[[[139.40219,35.76127],[139.40273,35.76121],[139.40317,35.76132],[139.40359,35.76161],[139.40383,35.76184],[139.40463,35.76148],[139.40465,35.76126],[139.40471,35.76114],[139.40494,35.76088],[139.40494,35.76061],[139.4049,35.76038],[139.40476,35.76008],[139.40474,35.7598],[139.40482,35.75969],[139.40499,35.75962],[139.40499,35.75927],[139.40486,35.75857],[139.40487,35.75784],[139.40559,35.75779],[139.4059,35.75734],[139.4059,35.75726],[139.40562,35.75679],[139.40553,35.75655],[139.40506,35.75664],[139.40443,35.75688],[139.40441,35.75677],[139.40405,35.75685],[139.40379,35.75685],[139.40296,35.75669],[139.40274,35.75655],[139.40267,35.75645],[139.40257,35.75639],[139.40207,35.75641],[139.40167,35.75636],[139.40137,35.7564],[139.40122,35.7563],[139.40059,35.75632],[139.40129,35.75759],[139.40151,35.75776],[139.40193,35.75788],[139.40206,35.75839],[139.40177,35.75873],[139.4015,35.75914],[139.4013,35.75948],[139.40115,35.75984],[139.40103,35.75993],[139.40055,35.76008],[139.40053,35.76025],[139.40091,35.76186],[139.40169,35.76143],[139.40219,35.76127]]]}},{"type":"Feature","properties":{"id":"area-13223010005","name":"中藤五丁目"},"geometry":{"type":"Polygon","coordinates":[[[139.40919,35.75622],[139.40902,35.75601],[139.40896,35.75585],[139.40906,35.75564],[139.40916,35.75558],[139.40908,35.75532],[139.40886,35.75494],[139.4087,35.75485],[139.40868,35.75492],[139.40842,35.75528],[139.40799,35.75581],[139.40798,35.75599],[139.40802,35.75604],[139.40775,35.75617],[139.40751,35.75606],[139.40729,35.75603],[139.40691,35.75606],[139.40685,35.75634],[139.40609,35.75642],[139.40553,35.75655],[139.40562,35.75679],[139.4059,35.75726],[139.4059,35.75734],[139.40559,35.75779],[139.40487,35.75784],[139.40486,35.75857],[139.40499,35.75927],[139.40499,35.75962],[139.40482,35.75969],[139.40474,35.7598],[139.40476,35.76008],[139.4049,35.76038],[139.40494,35.76061],[139.40494,35.76088],[139.40471,35.76114],[139.40465,35.76126],[139.40463,35.76148],[139.40383,35.76184],[139.40405,35.76209],[139.40416,35.76214],[139.4045,35.76217],[139.40486,35.76226],[139.40507,35.76218],[139.4055,35.76177],[139.40579,35.76154],[139.40617,35.76131],[139.40671,35.76113],[139.40705,35.76109],[139.40741,35.76096],[139.4076,35.76086],[139.40821,35.76021],[139.40846,35.7597],[139.40868,35.75917],[139.40864,35.75902],[139.40909,35.75901],[139.40904,35.75882],[139.40932,35.75834],[139.40935,35.7579],[139.40947,35.75767],[139.40958,35.75732],[139.40969,35.75716],[139.40957,35.7567],[139.40943,35.75636],[139.40936,35.75627],[139.40919,35.75622]]]}},{"type":"Feature","properties":{"id":"area-13223011001","name":"中央一丁目"},"geometry":{"type":"Polygon","coordinates":[[[139.39359,35.7537],[139.39329,35.75329],[139.3932,35.75335],[139.3928,35.75265],[139.39267,35.75228],[139.39243,35.7518],[139.39269,35.75148],[139.39239,35.7513],[139.39211,35.75109],[139.39194,35.75087],[139.39174,35.75033],[139.38927,35.75092],[139.38899,35.75067],[139.38813,35.75225],[139.38807,35.7524],[139.38805,35.75278],[139.3887,35.75495],[139.39078,35.75478],[139.39383,35.75458],[139.39393,35.75424],[139.39376,35.75404],[139.39359,35.7537]]]}},{"type":"Feature","properties":{"id":"area-13223011002","name":"中央二丁目"},"geometry":{"type":"Polygon","coordinates":[[[139.39934,35.75406],[139.39735,35.7493],[139.39515,35.74951],[139.39171,35.75031],[139.39174,35.75033],[139.39194,35.75087],[139.39211,35.75109],[139.39239,35.7513],[139.39269,35.75148],[139.39243,35.7518],[139.39267,35.75228],[139.3928,35.75265],[139.3932,35.75335],[139.39329,35.75329],[139.39359,35.7537],[139.39376,35.75404],[139.39393,35.75424],[139.39383,35.75458],[139.39468,35.75452],[139.39934,35.75406]]]}},{"type":"Feature","properties":{"id":"area-13223011003","name":"中央三丁目"},"geometry":{"type":"Polygon","coordinates":[[[139.39346,35.75795],[139.3936,35.75778],[139.39529,35.75736],[139.39597,35.75703],[139.39613,35.75697],[139.39617,35.75686],[139.396,35.75658],[139.39634,35.75643],[139.39638,35.75639],[139.39667,35.75631],[139.3968,35.75675],[139.39714,35.75669],[139.39702,35.75631],[139.39751,35.75618],[139.39754,35.75612],[139.39726,35.75475],[139.39706,35.75477],[139.39697,35.75472],[139.3969,35.75431],[139.39468,35.75452],[139.39078,35.75478],[139.3887,35.75495],[139.38793,35.75518],[139.38821,35.75575],[139.38814,35.7558],[139.38842,35.75618],[139.38801,35.75666],[139.38845,35.75716],[139.38891,35.75688],[139.38973,35.75651],[139.39057,35.75637],[139.39058,35.75673],[139.39111,35.75679],[139.39124,35.75693],[139.39131,35.75709],[139.39158,35.75731],[139.39217,35.75767],[139.39255,35.75779],[139.39295,35.75787],[139.39331,35.7579],[139.39346,35.75795]]]}},{"type":"Feature","properties":{"id":"area-13223011004","name":"中央四丁目"},"geometry":{"type":"Polygon","coordinates":[[[139.3917,35.75956],[139.39177,35.75955],[139.39291,35.75975],[139.39313,35.75972],[139.39331,35.75936],[139.39346,35.75922],[139.39353,35.75907],[139.39351,35.7587],[139.3936,35.75836],[139.3936,35.75824],[139.39349,35.75796],[139.39331,35.7579],[139.39295,35.75787],[139.3923,35.75773],[139.3919,35.75752],[139.39158,35.75731],[139.39131,35.75709],[139.39124,35.75693],[139.39111,35.75679],[139.39058,35.75673],[139.39057,35.75637],[139.38973,35.75651],[139.38911,35.7568],[139.38928,35.75703],[139.38931,35.75716],[139.38929,35.75729],[139.38908,35.75741],[139.38874,35.75775],[139.38848,35.75788],[139.38819,35.75813],[139.38805,35.75837],[139.38802,35.75862],[139.38827,35.75908],[139.38833,35.7596],[139.38898,35.76093],[139.38953,35.76166],[139.3897,35.7616],[139.38998,35.76124],[139.39026,35.76074],[139.39042,35.76034],[139.39095,35.76029],[139.39126,35.7602],[139.39138,35.76009],[139.3917,35.75956]]]}},{"type":"Feature","properties":{"id":"area-13223011005","name":"中央五丁目"},"geometry":{"type":"Polygon","coordinates":[[[139.39077,35.76385],[139.39086,35.76354],[139.39126,35.76354],[139.39187,35.76309],[139.39204,35.76329],[139.39231,35.76353],[139.39246,35.76359],[139.39286,35.76364],[139.39294,35.76315],[139.39306,35.76295],[139.39361,35.76283],[139.39412,35.76279],[139.39384,35.76246],[139.39363,35.7623],[139.39374,35.76188],[139.39372,35.7618],[139.39355,35.76159],[139.39358,35.76055],[139.39344,35.76027],[139.39331,35.7601],[139.39313,35.75972],[139.39291,35.75975],[139.39177,35.75955],[139.3917,35.75956],[139.39138,35.76009],[139.39126,35.7602],[139.39095,35.76029],[139.39042,35.76034],[139.39026,35.76074],[139.38998,35.76124],[139.3897,35.7616],[139.38914,35.76181],[139.38899,35.76194],[139.38854,35.76254],[139.38802,35.76296],[139.38783,35.76301],[139.38778,35.76305],[139.38811,35.76322],[139.38841,35.76331],[139.39077,35.76385]]]}},{"type":"Feature","properties":{"id":"area-13223012001","name":"本町一丁目"},"geometry":{"type":"Polygon","coordinates":[[[139.38807,35.7524],[139.38881,35.75099],[139.38296,35.75241],[139.38286,35.75305],[139.38277,35.75324],[139.3828,35.75352],[139.38301,35.75416],[139.3832,35.75439],[139.38368,35.75469],[139.38471,35.75512],[139.38511,35.7552],[139.38563,35.75592],[139.38669,35.75556],[139.3887,35.75495],[139.38805,35.75278],[139.38807,35.7524]]]}},{"type":"Feature","properties":{"id":"area-13223012002","name":"本町二丁目"},"geometry":{"type":"Polygon","coordinates":[[[139.38286,35.75305],[139.38296,35.75241],[139.37778,35.75366],[139.37793,35.75406],[139.37846,35.7552],[139.37881,35.75578],[139.37923,35.75658],[139.37971,35.75721],[139.37989,35.75763],[139.38015,35.75793],[139.38046,35.75777],[139.38085,35.75766],[139.38156,35.75754],[139.38307,35.75708],[139.38427,35.75648],[139.38563,35.75592],[139.38511,35.7552],[139.38471,35.75512],[139.38368,35.75469],[139.3832,35.75439],[139.38301,35.75416],[139.3828,35.75352],[139.38277,35.75324],[139.38286,35.75305]]]}},{"type":"Feature","properties":{"id":"area-13223012003","name":"本町三丁目"},"geometry":{"type":"Polygon","coordinates":[[[139.3833,35.76142],[139.38349,35.76139],[139.38363,35.76149],[139.38397,35.76143],[139.38413,35.76123],[139.3847,35.7609],[139.38494,35.76082],[139.38506,35.76074],[139.38517,35.76062],[139.38556,35.76048],[139.38579,35.76031],[139.38608,35.76024],[139.38608,35.75998],[139.38671,35.75995],[139.38678,35.75992],[139.38671,35.75964],[139.38677,35.75927],[139.38673,35.75914],[139.3862,35.75911],[139.38623,35.75847],[139.38583,35.7581],[139.38574,35.75739],[139.38564,35.75714],[139.38559,35.75678],[139.38543,35.7565],[139.38534,35.75603],[139.38427,35.75648],[139.38307,35.75708],[139.38156,35.75754],[139.38085,35.75766],[139.38046,35.75777],[139.38011,35.75795],[139.38066,35.75837],[139.38065,35.75876],[139.38071,35.7591],[139.38085,35.75946],[139.38087,35.7596],[139.38082,35.75971],[139.38108,35.75986],[139.38098,35.76039],[139.38119,35.76072],[139.3814,35.76142],[139.38131,35.7619],[139.38129,35.76232],[139.38084,35.76274],[139.38105,35.76276],[139.38127,35.76286],[139.38143,35.76288],[139.38162,35.7628],[139.38178,35.76264],[139.38224,35.76196],[139.38247,35.76179],[139.3831,35.76163],[139.38315,35.76149],[139.3833,35.76142]]]}},{"type":"Feature","properties":{"id":"area-13223012004","name":"本町四丁目"},"geometry":{"type":"Polygon","coordinates":[[[139.38929,35.75729],[139.38931,35.75716],[139.38928,35.75703],[139.3891,35.75679],[139.38845,35.75716],[139.38801,35.75666],[139.38842,35.75618],[139.38814,35.7558],[139.38821,35.75575],[139.38793,35.75518],[139.38599,35.75579],[139.38534,35.75603],[139.38543,35.7565],[139.38559,35.75678],[139.38564,35.75714],[139.38574,35.75739],[139.38583,35.7581],[139.38623,35.75847],[139.3862,35.75911],[139.38673,35.75914],[139.38677,35.75927],[139.38671,35.75964],[139.38678,35.75992],[139.38676,35.75992],[139.38694,35.76006],[139.38753,35.76067],[139.38752,35.76087],[139.38776,35.76114],[139.38803,35.7613],[139.38892,35.76204],[139.38914,35.76181],[139.38953,35.76166],[139.38898,35.76093],[139.38833,35.7596],[139.38827,35.75908],[139.38802,35.75862],[139.38805,35.75837],[139.38819,35.75813],[139.38848,35.75788],[139.38874,35.75775],[139.38908,35.75741],[139.38929,35.75729]]]}},{"type":"Feature","properties":{"id":"area-13223012005","name":"本町五丁目"},"geometry":{"type":"Polygon","coordinates":[[[139.38202,35.76633],[139.38266,35.76593],[139.38318,35.76587],[139.38319,35.76558],[139.38371,35.76516],[139.38389,35.76468],[139.38402,35.76457],[139.38424,35.76417],[139.38441,35.764],[139.38577,35.76371],[139.38671,35.76331],[139.38707,35.76326],[139.38751,35.76325],[139.38783,35.76301],[139.38802,35.76296],[139.38854,35.76254],[139.38892,35.76204],[139.38803,35.7613],[139.38776,35.76114],[139.38752,35.76087],[139.38753,35.76067],[139.38694,35.76006],[139.38676,35.75992],[139.38671,35.75995],[139.38608,35.75998],[139.38608,35.76024],[139.38579,35.76031],[139.38556,35.76048],[139.38517,35.76062],[139.38506,35.76074],[139.38494,35.76082],[139.3847,35.7609],[139.38413,35.76123],[139.38397,35.76143],[139.38363,35.76149],[139.38349,35.76139],[139.3833,35.76142],[139.38315,35.76149],[139.3831,35.76163],[139.38247,35.76179],[139.38224,35.76196],[139.38178,35.76264],[139.38162,35.7628],[139.38143,35.76288],[139.38127,35.76286],[139.38105,35.76276],[139.38084,35.76274],[139.38056,35.76287],[139.38023,35.76324],[139.38009,35.76346],[139.37987,35.76412],[139.3799,35.76423],[139.37988,35.76426],[139.38,35.76442],[139.3802,35.76482],[139.38041,35.76509],[139.38058,35.76524],[139.38071,35.76543],[139.38077,35.76568],[139.38078,35.76594],[139.38072,35.76621],[139.38095,35.76605],[139.38123,35.76602],[139.38139,35.76604],[139.38186,35.76629],[139.38202,35.76633]]]}},{"type":"Feature","properties":{"id":"area-13223012006","name":"本町六丁目"},"geometry":{"type":"Polygon","coordinates":[[[139.38318,35.76587],[139.38326,35.76587],[139.38342,35.76578],[139.38368,35.76555],[139.38409,35.76559],[139.38476,35.76539],[139.385,35.7654],[139.38533,35.76557],[139.3867,35.76606],[139.38708,35.76612],[139.38724,35.7662],[139.38773,35.76621],[139.38799,35.76628],[139.38829,35.76644],[139.38849,35.76649],[139.38921,35.76656],[139.38928,35.76662],[139.38925,35.76677],[139.38931,35.76695],[139.38943,35.76707],[139.38953,35.76712],[139.38972,35.76716],[139.39052,35.76699],[139.39189,35.76687],[139.39193,35.76683],[139.39166,35.76617],[139.39163,35.76602],[139.39148,35.76578],[139.39148,35.76548],[139.3914,35.76532],[139.39109,35.76494],[139.39069,35.76432],[139.3907,35.76406],[139.39077,35.76385],[139.38841,35.76331],[139.38811,35.76322],[139.38778,35.76305],[139.38751,35.76325],[139.38707,35.76326],[139.38671,35.76331],[139.38577,35.76371],[139.38441,35.764],[139.38424,35.76417],[139.38402,35.76457],[139.38389,35.76468],[139.38371,35.76516],[139.38319,35.76558],[139.38318,35.76587]]]}},{"type":"Feature","properties":{"id":"area-13223013000","name":"緑が丘"},"geometry":{"type":"Polygon","coordinates":[[[139.41058,35.74153],[139.41077,35.74006],[139.41079,35.73979],[139.41075,35.7396],[139.40828,35.74003],[139.4084,35.74061],[139.40661,35.74104],[139.40723,35.74269],[139.40535,35.74314],[139.4073,35.74849],[139.4081,35.74843],[139.41033,35.74808],[139.41044,35.74769],[139.41053,35.74717],[139.41044,35.74576],[139.41044,35.74425],[139.41058,35.74153]]]}},{"type":"Feature","properties":{"id":"area-13223013001","name":"緑が丘"},"geometry":{"type":"Polygon","coordinates":[[[139.41075,35.7396],[139.41025,35.73741],[139.40608,35.73795],[139.4064,35.7395],[139.40418,35.73997],[139.40535,35.74314],[139.40723,35.74269],[139.40661,35.74104],[139.4084,35.74061],[139.40828,35.74003],[139.41075,35.7396]]]}},{"type":"Feature","properties":{"id":"area-13223014001","name":"三ツ木一丁目"},"geometry":{"type":"Polygon","coordinates":[[[139.37793,35.75406],[139.37778,35.75366],[139.37755,35.75372],[139.3759,35.7544],[139.37376,35.75549],[139.37406,35.75685],[139.37405,35.75708],[139.37416,35.75728],[139.37431,35.75743],[139.37501,35.75905],[139.3772,35.75921],[139.37747,35.75919],[139.3783,35.75893],[139.37868,35.75878],[139.37909,35.75855],[139.37924,35.7585],[139.38015,35.75793],[139.37989,35.75763],[139.37971,35.75721],[139.37923,35.75658],[139.37881,35.75578],[139.37846,35.7552],[139.37793,35.75406]]]}},{"type":"Feature","properties":{"id":"area-13223014002","name":"三ツ木二丁目"},"geometry":{"type":"Polygon","coordinates":[[[139.37037,35.76053],[139.3739,35.75928],[139.37465,35.75906],[139.37501,35.75905],[139.37431,35.75743],[139.37416,35.75728],[139.37405,35.75708],[139.37406,35.75685],[139.37376,35.75549],[139.37263,35.75601],[139.37152,35.75658],[139.37145,35.75665],[139.36819,35.75826],[139.36962,35.76088],[139.36971,35.76087],[139.36985,35.76073],[139.3704,35.76054],[139.37037,35.76053]]]}},{"type":"Feature","properties":{"id":"area-13223014003","name":"三ツ木三丁目"},"geometry":{"type":"Polygon","coordinates":[[[139.37834,35.76469],[139.37787,35.76396],[139.37776,35.76385],[139.37756,35.76373],[139.37701,35.76358],[139.37683,35.76348],[139.37644,35.76315],[139.37631,35.763],[139.37624,35.76283],[139.3754,35.76215],[139.37482,35.76123],[139.37457,35.76091],[139.37477,35.76055],[139.37491,35.76038],[139.3748,35.76027],[139.37449,35.75982],[139.37424,35.75964],[139.37387,35.75931],[139.37037,35.76053],[139.3704,35.76054],[139.36985,35.76073],[139.36971,35.76087],[139.36969,35.76171],[139.3696,35.76211],[139.36962,35.76221],[139.36959,35.76234],[139.36993,35.76242],[139.37029,35.76269],[139.37047,35.76273],[139.37041,35.76302],[139.37048,35.76324],[139.37078,35.76364],[139.37087,35.76384],[139.37102,35.76397],[139.37109,35.76412],[139.37126,35.76421],[139.37159,35.76444],[139.37201,35.76451],[139.37201,35.76445],[139.37212,35.76447],[139.3733,35.76474],[139.37325,35.76466],[139.37467,35.76504],[139.3749,35.76513],[139.37512,35.76504],[139.37528,35.76494],[139.37555,35.7649],[139.37572,35.76478],[139.37559,35.7644],[139.37588,35.76441],[139.37613,35.76459],[139.37635,35.76469],[139.37683,35.76478],[139.37763,35.7656],[139.37789,35.7657],[139.37821,35.76573],[139.37839,35.7657],[139.37862,35.76558],[139.37853,35.76543],[139.37843,35.76511],[139.37842,35.7649],[139.37834,35.76469]]]}},{"type":"Feature","properties":{"id":"area-13223014004","name":"三ツ木四丁目"},"geometry":{"type":"Polygon","coordinates":[[[139.37927,35.77117],[139.37914,35.77075],[139.37914,35.77043],[139.37926,35.7701],[139.37962,35.76961],[139.37967,35.76946],[139.37961,35.76923],[139.37988,35.76867],[139.37987,35.76853],[139.37968,35.7683],[139.37977,35.76765],[139.37996,35.76735],[139.38006,35.76714],[139.3801,35.76691],[139.38038,35.7664],[139.38065,35.76627],[139.38073,35.76619],[139.38078,35.76594],[139.38077,35.76568],[139.38071,35.76543],[139.38058,35.76524],[139.38041,35.76509],[139.3802,35.76482],[139.37961,35.76501],[139.37839,35.7657],[139.37821,35.76573],[139.37789,35.7657],[139.37763,35.7656],[139.37683,35.76478],[139.37635,35.76469],[139.37613,35.76459],[139.37588,35.76441],[139.37559,35.7644],[139.37572,35.76478],[139.37555,35.7649],[139.37528,35.76494],[139.37512,35.76504],[139.3749,35.76513],[139.37508,35.76524],[139.37587,35.76596],[139.37601,35.76604],[139.3753,35.76628],[139.37522,35.76672],[139.37525,35.76709],[139.37528,35.7672],[139.37547,35.76754],[139.37554,35.76833],[139.37533,35.76836],[139.37522,35.76791],[139.37514,35.76773],[139.37483,35.76809],[139.37478,35.7682],[139.37477,35.7689],[139.37483,35.76903],[139.37505,35.76933],[139.37585,35.77012],[139.376,35.77038],[139.37658,35.77024],[139.37691,35.77022],[139.37711,35.7703],[139.3775,35.77056],[139.37765,35.77061],[139.37778,35.77073],[139.37783,35.77096],[139.37796,35.77104],[139.37832,35.77113],[139.37855,35.77132],[139.37873,35.77138],[139.37893,35.77138],[139.37912,35.77123],[139.37925,35.77115],[139.37927,35.77117]]]}},{"type":"Feature","properties":{"id":"area-13223014005","name":"三ツ木五丁目"},"geometry":{"type":"Polygon","coordinates":[[[139.38085,35.75946],[139.38071,35.7591],[139.38065,35.75876],[139.38066,35.75837],[139.38011,35.75795],[139.37924,35.7585],[139.37909,35.75855],[139.37868,35.75878],[139.3783,35.75893],[139.37747,35.75919],[139.3772,35.75921],[139.37501,35.75905],[139.37465,35.75906],[139.37448,35.7591],[139.37387,35.75931],[139.37424,35.75964],[139.37449,35.75982],[139.3748,35.76027],[139.37491,35.76038],[139.37477,35.76055],[139.37457,35.76091],[139.37482,35.76123],[139.3754,35.76215],[139.37624,35.76283],[139.37631,35.763],[139.37644,35.76315],[139.37683,35.76348],[139.37701,35.76358],[139.37756,35.76373],[139.37776,35.76385],[139.37787,35.76396],[139.37834,35.76469],[139.37842,35.7649],[139.37843,35.76511],[139.37853,35.76543],[139.37862,35.76558],[139.37881,35.76544],[139.37961,35.76501],[139.3802,35.76482],[139.38,35.76442],[139.37988,35.76426],[139.3799,35.76423],[139.37987,35.76412],[139.38009,35.76346],[139.38023,35.76324],[139.38056,35.76287],[139.38084,35.76274],[139.38129,35.76232],[139.38131,35.7619],[139.3814,35.76142],[139.38119,35.76072],[139.38098,35.76039],[139.38108,35.75986],[139.38082,35.75971],[139.38087,35.7596],[139.38085,35.75946]]]}},{"type":"Feature","properties":{"id":"area-13223015001","name":"岸一丁目"},"geometry":{"type":"Polygon","coordinates":[[[139.36478,35.76413],[139.36527,35.76378],[139.36592,35.76316],[139.36628,35.76288],[139.36825,35.76173],[139.36962,35.76088],[139.36819,35.75826],[139.36343,35.76064],[139.36386,35.76089],[139.36336,35.76167],[139.36319,35.76158],[139.36289,35.76186],[139.36247,35.76159],[139.36229,35.76175],[139.36282,35.76211],[139.36231,35.76237],[139.36276,35.76261],[139.36306,35.76283],[139.36309,35.76297],[139.36359,35.76399],[139.36405,35.76382],[139.36418,35.76397],[139.36437,35.76383],[139.36478,35.76413]]]}},{"type":"Feature","properties":{"id":"area-13223015002","name":"岸二丁目"},"geometry":{"type":"Polygon","coordinates":[[[139.36832,35.76805],[139.36823,35.76758],[139.3685,35.76739],[139.36856,35.76688],[139.36868,35.76663],[139.3687,35.76633],[139.36867,35.76557],[139.36882,35.76534],[139.36875,35.76522],[139.36877,35.76519],[139.36856,35.76495],[139.36836,35.76489],[139.3682,35.76476],[139.36805,35.76473],[139.36757,35.76451],[139.36751,35.7644],[139.36728,35.7643],[139.3672,35.76423],[139.36719,35.76328],[139.36732,35.76317],[139.36732,35.76294],[139.36704,35.76275],[139.3669,35.76252],[139.36628,35.76288],[139.36592,35.76316],[139.36527,35.76378],[139.36422,35.76455],[139.36461,35.76507],[139.36514,35.76569],[139.36505,35.76572],[139.36529,35.76615],[139.36536,35.76641],[139.36548,35.76637],[139.36555,35.76653],[139.36548,35.76655],[139.36564,35.76718],[139.36555,35.76777],[139.36562,35.76783],[139.36642,35.76765],[139.36651,35.76791],[139.36697,35.76797],[139.36726,35.76809],[139.3671,35.7686],[139.36709,35.76876],[139.36759,35.76875],[139.36781,35.76844],[139.36808,35.7682],[139.36832,35.76805]]]}},{"type":"Feature","properties":{"id":"area-13223015003","name":"岸三丁目"},"geometry":{"type":"Polygon","coordinates":[[[139.37096,35.76772],[139.37076,35.76717],[139.37072,35.76677],[139.37086,35.76618],[139.37076,35.76578],[139.37064,35.76554],[139.37112,35.7654],[139.37118,35.76554],[139.37161,35.76569],[139.372,35.7657],[139.3723,35.76578],[139.37271,35.76608],[139.37286,35.76615],[139.37313,35.76611],[139.37352,35.76602],[139.37361,35.76595],[139.37395,35.76594],[139.37402,35.76562],[139.37398,35.76552],[139.37418,35.76522],[139.37422,35.76505],[139.3742,35.76491],[139.37325,35.76466],[139.3733,35.76474],[139.37212,35.76447],[139.37201,35.76445],[139.37201,35.76451],[139.37159,35.76444],[139.37126,35.76421],[139.37109,35.76412],[139.37102,35.76397],[139.37087,35.76384],[139.37078,35.76364],[139.37048,35.76324],[139.37041,35.76302],[139.37047,35.76273],[139.37029,35.76269],[139.36993,35.76242],[139.36959,35.76234],[139.36962,35.76221],[139.3696,35.76211],[139.36969,35.76171],[139.36971,35.76087],[139.36962,35.76088],[139.3669,35.76252],[139.36704,35.76275],[139.36732,35.76294],[139.36732,35.76317],[139.36719,35.76328],[139.3672,35.76423],[139.36728,35.7643],[139.36751,35.7644],[139.36757,35.76451],[139.36805,35.76473],[139.3682,35.76476],[139.36836,35.76489],[139.36856,35.76495],[139.36877,35.76519],[139.36875,35.76522],[139.36882,35.76534],[139.36867,35.76557],[139.3687,35.76633],[139.36868,35.76663],[139.36856,35.76691],[139.36896,35.76722],[139.37046,35.76764],[139.37058,35.76763],[139.37092,35.768],[139.37117,35.76808],[139.37118,35.7679],[139.37096,35.76772]]]}},{"type":"Feature","properties":{"id":"area-13223015004","name":"岸四丁目"},"geometry":{"type":"Polygon","coordinates":[[[139.37113,35.7708],[139.37149,35.77015],[139.3715,35.76952],[139.37154,35.76932],[139.37134,35.76851],[139.37117,35.76808],[139.37092,35.768],[139.37058,35.76763],[139.37046,35.76764],[139.36896,35.76722],[139.36856,35.76691],[139.3685,35.76739],[139.36823,35.76758],[139.36832,35.76805],[139.36808,35.7682],[139.36781,35.76844],[139.36759,35.76875],[139.36754,35.76906],[139.36693,35.76909],[139.36694,35.76928],[139.36754,35.76922],[139.36791,35.76985],[139.36811,35.77005],[139.36821,35.77042],[139.36779,35.77054],[139.36783,35.7706],[139.36805,35.77078],[139.36837,35.77066],[139.3685,35.77095],[139.36832,35.7712],[139.3682,35.77149],[139.36799,35.77221],[139.36802,35.77246],[139.36816,35.77266],[139.36776,35.77276],[139.36801,35.77326],[139.3681,35.77327],[139.36813,35.77366],[139.36831,35.7738],[139.36842,35.77417],[139.36879,35.77433],[139.36885,35.77407],[139.36895,35.77396],[139.36915,35.77385],[139.36993,35.77356],[139.37014,35.77324],[139.37017,35.77312],[139.37015,35.77262],[139.37009,35.77206],[139.37097,35.77155],[139.37112,35.77115],[139.37113,35.7708]]]}},{"type":"Feature","properties":{"id":"area-13223015005","name":"岸五丁目"},"geometry":{"type":"Polygon","coordinates":[[[139.37176,35.77157],[139.37246,35.77126],[139.37276,35.77128],[139.37324,35.77149],[139.37337,35.77066],[139.37354,35.7703],[139.37357,35.77012],[139.37353,35.76997],[139.37335,35.76977],[139.3732,35.76954],[139.37316,35.76927],[139.37327,35.76884],[139.37334,35.76873],[139.37384,35.76872],[139.37386,35.76905],[139.37404,35.76919],[139.37417,35.76942],[139.37443,35.76964],[139.37439,35.76974],[139.37452,35.77008],[139.37443,35.77027],[139.37452,35.77031],[139.37462,35.77021],[139.37478,35.77012],[139.37469,35.76943],[139.37433,35.76912],[139.37423,35.76893],[139.37443,35.76798],[139.37438,35.76723],[139.37433,35.76711],[139.37417,35.76692],[139.37477,35.76687],[139.3749,35.76727],[139.37522,35.76791],[139.37533,35.76836],[139.37554,35.76833],[139.37547,35.76754],[139.37528,35.7672],[139.37525,35.76709],[139.37522,35.76672],[139.3753,35.76628],[139.37601,35.76604],[139.37587,35.76596],[139.37508,35.76524],[139.3749,35.76513],[139.37467,35.76504],[139.3742,35.76491],[139.37422,35.76505],[139.37418,35.76522],[139.37398,35.76552],[139.37402,35.76562],[139.37395,35.76594],[139.37361,35.76595],[139.37352,35.76602],[139.37286,35.76615],[139.37271,35.76608],[139.3723,35.76578],[139.372,35.7657],[139.37161,35.76569],[139.37118,35.76554],[139.37112,35.7654],[139.37064,35.76554],[139.37076,35.76578],[139.37086,35.76618],[139.37073,35.76667],[139.37076,35.76717],[139.37096,35.76772],[139.37118,35.7679],[139.37117,35.76808],[139.37134,35.76851],[139.37154,35.76932],[139.3715,35.76952],[139.37149,35.77015],[139.37113,35.7708],[139.37112,35.77115],[139.37097,35.77155],[139.37123,35.77151],[139.37176,35.77157]]]}},{"type":"Feature","properties":{"id":"area-13223016001","name":"中原一丁目"},"geometry":{"type":"Polygon","coordinates":[[[139.36489,35.75244],[139.36217,35.75343],[139.36265,35.75437],[139.36315,35.75488],[139.3635,35.75553],[139.36355,35.75568],[139.36355,35.75596],[139.36408,35.75739],[139.36493,35.75834],[139.36561,35.75956],[139.36818,35.75827],[139.36489,35.75244]]]}},{"type":"Feature","properties":{"id":"area-13223016002","name":"中原二丁目"},"geometry":{"type":"Polygon","coordinates":[[[139.3634,35.76065],[139.36561,35.75956],[139.36493,35.75834],[139.36408,35.75739],[139.36355,35.75596],[139.36355,35.75568],[139.3635,35.75553],[139.36315,35.75488],[139.36265,35.75437],[139.36217,35.75343],[139.35914,35.75453],[139.35913,35.75455],[139.35952,35.75513],[139.36029,35.75674],[139.36066,35.7574],[139.36083,35.75756],[139.36133,35.75818],[139.36234,35.75979],[139.36254,35.75966],[139.36286,35.76018],[139.36283,35.7602],[139.3634,35.76065]]]}},{"type":"Feature","properties":{"id":"area-13223016003","name":"中原三丁目"},"geometry":{"type":"MultiPolygon","coordinates":[[[[139.36171,35.76021],[139.36175,35.76027],[139.36234,35.75979],[139.36133,35.75818],[139.36083,35.75756],[139.36066,35.7574],[139.36029,35.75674],[139.35952,35.75513],[139.35913,35.75455],[139.35622,35.7557],[139.35628,35.75579],[139.3574,35.75533],[139.35781,35.75601],[139.35808,35.75588],[139.35807,35.75579],[139.35842,35.75566],[139.35847,35.7557],[139.35863,35.75587],[139.35875,35.7561],[139.35827,35.75629],[139.35862,35.75697],[139.35871,35.75693],[139.35882,35.75693],[139.35914,35.75716],[139.35914,35.75718],[139.35883,35.75734],[139.35894,35.75747],[139.35872,35.75758],[139.35874,35.75762],[139.35865,35.75767],[139.35891,35.75802],[139.35876,35.75812],[139.35881,35.75828],[139.35878,35.7583],[139.35887,35.75844],[139.35872,35.75856],[139.3591,35.75894],[139.35931,35.75882],[139.35915,35.75863],[139.35924,35.75859],[139.35915,35.75849],[139.35967,35.75819],[139.36002,35.75839],[139.36016,35.75855],[139.36025,35.75892],[139.36028,35.75927],[139.36024,35.75958],[139.35994,35.75964],[139.36013,35.75994],[139.36102,35.76083],[139.36119,35.76076],[139.36103,35.7606],[139.36171,35.76021]]],[[[139.36216,35.76096],[139.36251,35.76077],[139.36291,35.76111],[139.36345,35.76065],[139.3634,35.76065],[139.36283,35.7602],[139.36221,35.76051],[139.36182,35.76063],[139.36197,35.76085],[139.36176,35.76099],[139.36152,35.76068],[139.36124,35.76077],[139.36152,35.76112],[139.36145,35.76121],[139.36169,35.76141],[139.36211,35.76121],[139.36226,35.76107],[139.36216,35.76096]]]]}},{"type":"Feature","properties":{"id":"area-13223016004","name":"中原四丁目"},"geometry":{"type":"Polygon","coordinates":[[[139.35914,35.75453],[139.36412,35.75274],[139.36486,35.75243],[139.36438,35.75145],[139.36431,35.75183],[139.36362,35.75169],[139.36367,35.75144],[139.36304,35.75141],[139.36301,35.75125],[139.36285,35.75132],[139.35807,35.75069],[139.35745,35.75364],[139.35744,35.75373],[139.35749,35.75384],[139.35896,35.75314],[139.3591,35.754],[139.35885,35.75402],[139.35914,35.75453]]]}},{"type":"Feature","properties":{"id":"area-13223016005","name":"中原五丁目"},"geometry":{"type":"Polygon","coordinates":[[[139.36249,35.74781],[139.36245,35.74745],[139.36239,35.74767],[139.36222,35.74778],[139.35787,35.74685],[139.35781,35.7469],[139.35717,35.75004],[139.35795,35.75015],[139.35785,35.75064],[139.36285,35.75132],[139.36301,35.75125],[139.36299,35.75115],[139.36307,35.75046],[139.36294,35.74983],[139.36292,35.74941],[139.36267,35.74865],[139.3625,35.74798],[139.36257,35.74787],[139.36249,35.74781]]]}}]}