{"type":"FeatureCollection","features":[{"type":"Feature","properties":{"id":"area-13221001001","name":"上清戸一丁目"},"geometry":{"type":"Polygon","coordinates":[[[139.52822,35.77311],[139.52727,35.77241],[139.52709,35.77245],[139.52663,35.77214],[139.52627,35.772],[139.52612,35.77228],[139.52481,35.77191],[139.52264,35.77202],[139.52282,35.77233],[139.52289,35.77258],[139.5229,35.77323],[139.52304,35.7733],[139.52294,35.77352],[139.52251,35.77402],[139.52237,35.77412],[139.52106,35.77448],[139.5205,35.77476],[139.52058,35.77502],[139.51986,35.77626],[139.51998,35.77659],[139.52347,35.77809],[139.52399,35.77837],[139.52486,35.77877],[139.52559,35.77767],[139.52568,35.77718],[139.52594,35.77645],[139.52603,35.77629],[139.52618,35.77568],[139.52638,35.77521],[139.52671,35.77459],[139.52671,35.77452],[139.52779,35.77348],[139.52822,35.77311]]]}},{"type":"Feature","properties":{"id":"area-13221001002","name":"上清戸二丁目"},"geometry":{"type":"Polygon","coordinates":[[[139.52445,35.78359],[139.5249,35.78195],[139.52495,35.78171],[139.5249,35.78143],[139.52504,35.78097],[139.52515,35.78076],[139.52566,35.78007],[139.52607,35.77926],[139.52475,35.77872],[139.52347,35.77809],[139.51998,35.77659],[139.51971,35.77658],[139.51906,35.77772],[139.51886,35.77813],[139.51878,35.77848],[139.51858,35.77894],[139.51837,35.7796],[139.51831,35.77965],[139.51807,35.78012],[139.51837,35.78026],[139.51887,35.7804],[139.51922,35.78055],[139.5199,35.78093],[139.51994,35.78098],[139.51989,35.78111],[139.51999,35.78121],[139.52059,35.78158],[139.52151,35.78196],[139.52254,35.78249],[139.5227,35.78247],[139.52305,35.78289],[139.5234,35.78303],[139.52379,35.78326],[139.52445,35.78359]]]}},{"type":"Feature","properties":{"id":"area-13221002001","name":"元町一丁目"},"geometry":{"type":"Polygon","coordinates":[[[139.52263,35.772],[139.522,35.77139],[139.51956,35.77203],[139.51896,35.77221],[139.51801,35.77257],[139.51801,35.7727],[139.51573,35.77332],[139.51443,35.77362],[139.51592,35.77423],[139.51685,35.77466],[139.51768,35.77513],[139.51986,35.77626],[139.52058,35.77502],[139.5205,35.77476],[139.52106,35.77448],[139.52237,35.77412],[139.52251,35.77402],[139.52294,35.77352],[139.52304,35.7733],[139.5229,35.77323],[139.52289,35.77258],[139.52282,35.77233],[139.52263,35.772]]]}},{"type":"Feature","properties":{"id":"area-13221002002","name":"元町二丁目"},"geometry":{"type":"Polygon","coordinates":[[[139.51886,35.77813],[139.51971,35.77658],[139.51998,35.77659],[139.51986,35.77626],[139.51768,35.77513],[139.51685,35.77466],[139.51592,35.77423],[139.51443,35.77362],[139.50935,35.77501],[139.51031,35.7756],[139.51145,35.77611],[139.51302,35.7769],[139.51506,35.77813],[139.51581,35.77842],[139.51609,35.77855],[139.51656,35.77885],[139.51758,35.77929],[139.51831,35.77965],[139.51837,35.7796],[139.51858,35.77894],[139.51878,35.77848],[139.51886,35.77813]]]}},{"type":"Feature","properties":{"id":"area-13221003001","name":"中清戸一丁目"},"geometry":{"type":"Polygon","coordinates":[[[139.53084,35.77343],[139.5302,35.77333],[139.52779,35.77348],[139.52671,35.77452],[139.52671,35.77459],[139.52638,35.77521],[139.52618,35.77568],[139.52603,35.77629],[139.52594,35.77645],[139.52568,35.77718],[139.52559,35.77767],[139.52486,35.77877],[139.52607,35.77926],[139.52782,35.78008],[139.52822,35.77912],[139.52862,35.77791],[139.52886,35.77757],[139.52915,35.77726],[139.52976,35.77676],[139.52964,35.77644],[139.52963,35.77626],[139.53042,35.77519],[139.53089,35.7744],[139.53086,35.77434],[139.53124,35.77389],[139.53153,35.77347],[139.53084,35.77343]]]}},{"type":"Feature","properties":{"id":"area-13221003002","name":"中清戸二丁目"},"geometry":{"type":"Polygon","coordinates":[[[139.52812,35.78397],[139.52964,35.78198],[139.52978,35.78168],[139.53015,35.78113],[139.52607,35.77926],[139.52566,35.78007],[139.52515,35.78076],[139.52504,35.78097],[139.5249,35.78143],[139.52495,35.78171],[139.5249,35.78195],[139.52445,35.78359],[139.52489,35.78394],[139.52656,35.78461],[139.52684,35.78479],[139.52797,35.78413],[139.52812,35.78397]]]}},{"type":"Feature","properties":{"id":"area-13221003003","name":"中清戸三丁目"},"geometry":{"type":"Polygon","coordinates":[[[139.53217,35.77352],[139.53153,35.77347],[139.53124,35.77389],[139.53086,35.77434],[139.53089,35.7744],[139.53042,35.77519],[139.52963,35.77626],[139.52964,35.77644],[139.52976,35.77676],[139.52915,35.77726],[139.52886,35.77757],[139.52862,35.77791],[139.52822,35.77912],[139.52782,35.78008],[139.5305,35.78129],[139.53078,35.78089],[139.53101,35.7804],[139.53136,35.77991],[139.53204,35.77882],[139.53222,35.77848],[139.53333,35.77707],[139.53361,35.77674],[139.53399,35.7764],[139.53439,35.77613],[139.53465,35.77584],[139.53545,35.77511],[139.53475,35.77471],[139.53455,35.77463],[139.53457,35.77455],[139.53324,35.77401],[139.53217,35.77352]]]}},{"type":"Feature","properties":{"id":"area-13221003004","name":"中清戸四丁目"},"geometry":{"type":"Polygon","coordinates":[[[139.52914,35.78765],[139.52947,35.78726],[139.5298,35.78746],[139.53013,35.7871],[139.53012,35.78703],[139.53066,35.78625],[139.53124,35.78645],[139.53141,35.78612],[139.53168,35.78531],[139.53201,35.78528],[139.5326,35.78535],[139.53332,35.78501],[139.53344,35.78503],[139.53362,35.78512],[139.5337,35.7851],[139.53396,35.78444],[139.53465,35.78308],[139.53015,35.78113],[139.52978,35.78168],[139.52964,35.78198],[139.52812,35.78397],[139.52797,35.78413],[139.52715,35.78459],[139.52682,35.78481],[139.52737,35.78517],[139.52725,35.78532],[139.52771,35.78562],[139.52715,35.78608],[139.52704,35.78611],[139.52681,35.78607],[139.52675,35.78616],[139.52776,35.78667],[139.52785,35.78664],[139.52807,35.78675],[139.52789,35.78703],[139.52824,35.78718],[139.52847,35.78734],[139.52856,35.78728],[139.52914,35.78765]]]}},{"type":"Feature","properties":{"id":"area-13221003005","name":"中清戸五丁目"},"geometry":{"type":"Polygon","coordinates":[[[139.53551,35.77893],[139.53592,35.77836],[139.53649,35.77867],[139.53667,35.77811],[139.53684,35.77785],[139.53727,35.77695],[139.53724,35.77693],[139.53754,35.77634],[139.53732,35.77623],[139.53708,35.77658],[139.53696,35.77653],[139.53691,35.77646],[139.53696,35.77635],[139.53619,35.77601],[139.53635,35.77571],[139.5362,35.77558],[139.53622,35.77553],[139.53613,35.77549],[139.53617,35.77541],[139.53574,35.77526],[139.53545,35.77511],[139.53465,35.77584],[139.53439,35.77613],[139.53399,35.7764],[139.53361,35.77674],[139.53333,35.77707],[139.53222,35.77848],[139.53204,35.77882],[139.53136,35.77991],[139.53101,35.7804],[139.53078,35.78089],[139.5305,35.78129],[139.53359,35.78263],[139.53387,35.782],[139.53426,35.78129],[139.53428,35.78107],[139.53464,35.78036],[139.53441,35.78028],[139.5351,35.77939],[139.53534,35.77925],[139.53581,35.77915],[139.53551,35.77893]]]}},{"type":"Feature","properties":{"id":"area-13221004001","name":"下清戸一丁目"},"geometry":{"type":"Polygon","coordinates":[[[139.54095,35.77901],[139.54118,35.77866],[139.54125,35.77862],[139.54024,35.77816],[139.54004,35.77804],[139.54004,35.77797],[139.53971,35.7779],[139.53783,35.77722],[139.53786,35.77713],[139.53727,35.77695],[139.53684,35.77785],[139.53667,35.77811],[139.53649,35.77867],[139.53592,35.77836],[139.53551,35.77893],[139.53581,35.77915],[139.53534,35.77925],[139.5351,35.77939],[139.53441,35.78028],[139.53464,35.78036],[139.53428,35.78107],[139.53426,35.78129],[139.53387,35.782],[139.53359,35.78263],[139.53465,35.78308],[139.53523,35.78318],[139.53569,35.78335],[139.53805,35.7846],[139.53847,35.784],[139.53862,35.78395],[139.53889,35.78358],[139.53899,35.78349],[139.53945,35.78284],[139.53981,35.7825],[139.54027,35.78189],[139.54045,35.7816],[139.54083,35.78005],[139.54095,35.77901]]]}},{"type":"Feature","properties":{"id":"area-13221004002","name":"下清戸二丁目"},"geometry":{"type":"Polygon","coordinates":[[[139.53418,35.78827],[139.53476,35.78737],[139.53531,35.78692],[139.53561,35.78659],[139.53672,35.78507],[139.53655,35.78496],[139.53684,35.7846],[139.53726,35.78418],[139.53569,35.78335],[139.53544,35.78324],[139.53465,35.78308],[139.53396,35.78444],[139.5337,35.7851],[139.53362,35.78512],[139.53344,35.78503],[139.53332,35.78501],[139.5326,35.78535],[139.53201,35.78528],[139.53168,35.78531],[139.53141,35.78612],[139.53124,35.78645],[139.53066,35.78625],[139.53012,35.78703],[139.53013,35.7871],[139.53063,35.78752],[139.53092,35.78772],[139.53177,35.78814],[139.53182,35.78817],[139.5318,35.7882],[139.53189,35.78824],[139.53191,35.78822],[139.53276,35.78873],[139.53365,35.78917],[139.53418,35.78827]]]}},{"type":"Feature","properties":{"id":"area-13221004003","name":"下清戸三丁目"},"geometry":{"type":"Polygon","coordinates":[[[139.54169,35.77891],[139.54125,35.77862],[139.54118,35.77866],[139.54095,35.77901],[139.54083,35.78005],[139.54045,35.7816],[139.54027,35.78189],[139.53981,35.7825],[139.53945,35.78284],[139.53899,35.78349],[139.53889,35.78358],[139.53862,35.78395],[139.53847,35.784],[139.53805,35.7846],[139.54378,35.78785],[139.54386,35.78299],[139.54324,35.78063],[139.5432,35.7798],[139.54301,35.77973],[139.54304,35.77963],[139.54169,35.77891]]]}},{"type":"Feature","properties":{"id":"area-13221004004","name":"下清戸四丁目"},"geometry":{"type":"Polygon","coordinates":[[[139.54009,35.78576],[139.53726,35.78418],[139.53684,35.7846],[139.53655,35.78496],[139.53672,35.78507],[139.53561,35.78659],[139.53531,35.78692],[139.53476,35.78737],[139.53418,35.78827],[139.53365,35.78917],[139.53472,35.78984],[139.5352,35.79009],[139.5354,35.79024],[139.53536,35.79035],[139.53532,35.79036],[139.53632,35.791],[139.53704,35.79151],[139.53715,35.79155],[139.53741,35.79091],[139.53768,35.79038],[139.539,35.78806],[139.53915,35.78774],[139.53921,35.78752],[139.53927,35.78695],[139.53938,35.78661],[139.53966,35.78622],[139.54009,35.78576]]]}},{"type":"Feature","properties":{"id":"area-13221004005","name":"下清戸五丁目"},"geometry":{"type":"Polygon","coordinates":[[[139.53741,35.79091],[139.53963,35.79025],[139.53966,35.79035],[139.54023,35.79018],[139.54071,35.78999],[139.54125,35.78951],[139.54151,35.78949],[139.54189,35.78928],[139.54205,35.78929],[139.54373,35.78842],[139.54379,35.78836],[139.54378,35.78785],[139.54009,35.78576],[139.53966,35.78622],[139.53938,35.78661],[139.53927,35.78695],[139.53921,35.78752],[139.53915,35.78774],[139.539,35.78806],[139.53768,35.79038],[139.53741,35.79091]]]}},{"type":"Feature","properties":{"id":"area-13221005001","name":"下宿一丁目"},"geometry":{"type":"Polygon","coordinates":[[[139.53236,35.7974],[139.5325,35.79726],[139.53286,35.79729],[139.53336,35.79698],[139.53425,35.79673],[139.53446,35.7968],[139.53459,35.79589],[139.53521,35.79505],[139.53577,35.79444],[139.53555,35.79413],[139.53532,35.79359],[139.53491,35.79321],[139.53445,35.79283],[139.53411,35.79265],[139.53375,35.79234],[139.53268,35.79177],[139.53206,35.79137],[139.53178,35.79201],[139.53176,35.79213],[139.53181,35.79254],[139.53177,35.79267],[139.53119,35.79373],[139.53116,35.79397],[139.53082,35.79386],[139.5308,35.79382],[139.53065,35.79386],[139.53,35.79418],[139.52939,35.79395],[139.52932,35.79388],[139.5291,35.79406],[139.52972,35.79461],[139.53003,35.79497],[139.53017,35.79517],[139.5303,35.79558],[139.53038,35.79575],[139.53053,35.79582],[139.53094,35.79596],[139.53102,35.79601],[139.53162,35.79679],[139.53219,35.79724],[139.53236,35.7974]]]}},{"type":"Feature","properties":{"id":"area-13221005002","name":"下宿二丁目"},"geometry":{"type":"Polygon","coordinates":[[[139.53819,35.79755],[139.53767,35.79713],[139.53681,35.79601],[139.53619,35.79496],[139.53577,35.79444],[139.53521,35.79505],[139.53459,35.79589],[139.53446,35.7968],[139.53425,35.79673],[139.53336,35.79698],[139.53286,35.79729],[139.5325,35.79726],[139.53236,35.7974],[139.53283,35.79789],[139.53345,35.79876],[139.53404,35.79983],[139.53489,35.80101],[139.53535,35.80158],[139.53629,35.80254],[139.53785,35.8012],[139.53891,35.80024],[139.5395,35.79961],[139.5399,35.79912],[139.53819,35.79755]]]}},{"type":"Feature","properties":{"id":"area-13221005003","name":"下宿三丁目"},"geometry":{"type":"Polygon","coordinates":[[[139.5437,35.80654],[139.54395,35.80624],[139.5442,35.80632],[139.54432,35.80603],[139.54448,35.80599],[139.54442,35.80583],[139.5448,35.8055],[139.54492,35.80533],[139.54554,35.80463],[139.54454,35.80372],[139.54448,35.8036],[139.54428,35.80292],[139.54384,35.80255],[139.54259,35.80174],[139.54244,35.80161],[139.54139,35.80052],[139.54108,35.80004],[139.54065,35.79965],[139.54042,35.79951],[139.54035,35.79941],[139.53996,35.79906],[139.5395,35.79961],[139.53891,35.80024],[139.53785,35.8012],[139.53628,35.80255],[139.53715,35.80356],[139.53744,35.80408],[139.53793,35.80465],[139.53808,35.80477],[139.53942,35.80531],[139.53973,35.80546],[139.54006,35.80566],[139.54037,35.80594],[139.54056,35.80618],[139.54109,35.80669],[139.54167,35.80714],[139.54201,35.80725],[139.54222,35.80727],[139.54251,35.80719],[139.54288,35.80705],[139.54355,35.80673],[139.5437,35.80664],[139.5437,35.80654]]]}},{"type":"Feature","properties":{"id":"area-13221006001","name":"旭が丘一丁目"},"geometry":{"type":"Polygon","coordinates":[[[139.53422,35.78954],[139.53365,35.78917],[139.53263,35.79048],[139.53206,35.79137],[139.53268,35.79177],[139.53375,35.79234],[139.53411,35.79265],[139.53445,35.79283],[139.53491,35.79321],[139.53532,35.79359],[139.53555,35.79413],[139.53577,35.79444],[139.53645,35.79392],[139.53669,35.79359],[139.53684,35.79329],[139.53708,35.79183],[139.53715,35.79155],[139.53704,35.79151],[139.53632,35.791],[139.53532,35.79036],[139.53536,35.79035],[139.5354,35.79024],[139.5352,35.79009],[139.53422,35.78954]]]}},{"type":"Feature","properties":{"id":"area-13221006002","name":"旭が丘二丁目"},"geometry":{"type":"Polygon","coordinates":[[[139.54245,35.79559],[139.54065,35.79454],[139.54034,35.79434],[139.54011,35.79414],[139.53872,35.79255],[139.53857,35.79224],[139.53807,35.79164],[139.53785,35.79197],[139.53714,35.79161],[139.53695,35.79255],[139.53684,35.79329],[139.53669,35.79359],[139.53645,35.79392],[139.53577,35.79444],[139.5361,35.79482],[139.53632,35.79476],[139.53662,35.79485],[139.53665,35.79491],[139.53684,35.79495],[139.53688,35.79489],[139.53766,35.79504],[139.53812,35.7952],[139.53865,35.79549],[139.53863,35.79569],[139.53832,35.79615],[139.53905,35.79663],[139.53974,35.79702],[139.5399,35.79709],[139.54053,35.79723],[139.54056,35.79729],[139.54082,35.79736],[139.54124,35.79733],[139.5416,35.79686],[139.54245,35.79559]]]}},{"type":"Feature","properties":{"id":"area-13221006003","name":"旭が丘三丁目"},"geometry":{"type":"Polygon","coordinates":[[[139.5399,35.79912],[139.54067,35.79818],[139.54057,35.79769],[139.54053,35.79723],[139.5399,35.79709],[139.53974,35.79702],[139.53905,35.79663],[139.53832,35.79615],[139.53863,35.79569],[139.53865,35.79549],[139.53828,35.79528],[139.53766,35.79504],[139.53688,35.79489],[139.53684,35.79495],[139.53665,35.79491],[139.53662,35.79485],[139.53632,35.79476],[139.5361,35.79482],[139.53681,35.79601],[139.53767,35.79713],[139.53819,35.79755],[139.5399,35.79912]]]}},{"type":"Feature","properties":{"id":"area-13221006004","name":"旭が丘四丁目"},"geometry":{"type":"Polygon","coordinates":[[[139.54279,35.79941],[139.54304,35.79891],[139.54312,35.79861],[139.54309,35.79847],[139.54067,35.79818],[139.53997,35.79907],[139.54035,35.79941],[139.54042,35.79951],[139.54065,35.79965],[139.54108,35.80004],[139.54131,35.80041],[139.54206,35.80006],[139.54279,35.79941]]]}},{"type":"Feature","properties":{"id":"area-13221006005","name":"旭が丘五丁目"},"geometry":{"type":"Polygon","coordinates":[[[139.54491,35.79917],[139.54525,35.79904],[139.54523,35.79869],[139.54495,35.7986],[139.54503,35.7977],[139.54527,35.79759],[139.54483,35.79707],[139.54461,35.79687],[139.54251,35.79559],[139.54245,35.79559],[139.5416,35.79686],[139.54124,35.79733],[139.54087,35.79737],[139.54054,35.79728],[139.54057,35.79769],[139.54067,35.79818],[139.54309,35.79847],[139.54312,35.79861],[139.54304,35.79891],[139.54289,35.79923],[139.54324,35.79915],[139.54333,35.79915],[139.54364,35.79924],[139.54491,35.79917]]]}},{"type":"Feature","properties":{"id":"area-13221006006","name":"旭が丘六丁目"},"geometry":{"type":"Polygon","coordinates":[[[139.54569,35.80452],[139.54595,35.80438],[139.54587,35.80403],[139.54612,35.80394],[139.54616,35.80381],[139.54667,35.80311],[139.54747,35.80229],[139.54765,35.80242],[139.54772,35.80236],[139.54731,35.80127],[139.54676,35.79952],[139.54657,35.79921],[139.54605,35.79859],[139.54527,35.79759],[139.54503,35.7977],[139.54495,35.7986],[139.54523,35.79869],[139.54525,35.79904],[139.54491,35.79917],[139.54364,35.79924],[139.54333,35.79915],[139.54324,35.79915],[139.54289,35.79923],[139.54279,35.79941],[139.54206,35.80006],[139.54131,35.80041],[139.54244,35.80161],[139.54259,35.80174],[139.54384,35.80255],[139.54428,35.80292],[139.54448,35.8036],[139.54454,35.80372],[139.5454,35.8045],[139.54552,35.80442],[139.54569,35.80452]]]}},{"type":"Feature","properties":{"id":"area-13221007001","name":"中里一丁目"},"geometry":{"type":"Polygon","coordinates":[[[139.51118,35.77598],[139.51031,35.7756],[139.51039,35.77609],[139.51037,35.77625],[139.50973,35.77812],[139.50962,35.77899],[139.50948,35.77955],[139.51067,35.78017],[139.51156,35.78078],[139.51306,35.78166],[139.51362,35.7821],[139.51391,35.78236],[139.51541,35.78305],[139.51598,35.78115],[139.51616,35.77925],[139.51624,35.779],[139.51638,35.77874],[139.51581,35.77842],[139.51506,35.77813],[139.51302,35.7769],[139.51118,35.77598]]]}},{"type":"Feature","properties":{"id":"area-13221007002","name":"中里二丁目"},"geometry":{"type":"Polygon","coordinates":[[[139.51273,35.78553],[139.51379,35.78513],[139.51402,35.78499],[139.51475,35.78422],[139.51521,35.7836],[139.51541,35.78305],[139.51391,35.78236],[139.51362,35.7821],[139.51306,35.78166],[139.51156,35.78078],[139.51067,35.78017],[139.50948,35.77955],[139.50943,35.77958],[139.50908,35.77945],[139.5077,35.77939],[139.50728,35.77932],[139.5071,35.77926],[139.5068,35.77911],[139.50668,35.77911],[139.50665,35.77913],[139.50689,35.77933],[139.50697,35.77945],[139.50702,35.77971],[139.50696,35.78003],[139.50698,35.78012],[139.50725,35.78051],[139.50747,35.78099],[139.50768,35.78215],[139.50688,35.78299],[139.50712,35.78325],[139.50765,35.78352],[139.50783,35.78378],[139.50785,35.78398],[139.50781,35.78415],[139.50816,35.78433],[139.50898,35.78463],[139.50902,35.78479],[139.50942,35.78478],[139.50993,35.78489],[139.51061,35.7851],[139.51155,35.78521],[139.51183,35.78531],[139.51201,35.78526],[139.51227,35.78531],[139.51258,35.78542],[139.51273,35.78553]]]}},{"type":"Feature","properties":{"id":"area-13221007003","name":"中里三丁目"},"geometry":{"type":"Polygon","coordinates":[[[139.52421,35.7849],[139.52489,35.78394],[139.52445,35.78359],[139.52379,35.78326],[139.5234,35.78303],[139.52305,35.78289],[139.5227,35.78247],[139.52254,35.78249],[139.52151,35.78196],[139.52059,35.78158],[139.51999,35.78121],[139.51989,35.78111],[139.51994,35.78098],[139.5199,35.78093],[139.51922,35.78055],[139.51887,35.7804],[139.51812,35.78016],[139.51807,35.7801],[139.51831,35.77965],[139.51758,35.77929],[139.51656,35.77885],[139.51638,35.77874],[139.51624,35.779],[139.51616,35.77925],[139.51598,35.78115],[139.5154,35.78307],[139.51547,35.78321],[139.51563,35.78342],[139.51577,35.78353],[139.51611,35.78365],[139.51627,35.78388],[139.51636,35.78393],[139.51634,35.78397],[139.51638,35.78408],[139.5164,35.78407],[139.51641,35.78427],[139.5164,35.78466],[139.51662,35.78471],[139.51691,35.78489],[139.51761,35.78507],[139.51778,35.78516],[139.518,35.7852],[139.51864,35.78523],[139.51917,35.78535],[139.51963,35.7856],[139.5197,35.78568],[139.52014,35.78582],[139.52008,35.78605],[139.52096,35.78649],[139.52114,35.78679],[139.52134,35.78691],[139.52179,35.78703],[139.52279,35.78722],[139.52284,35.78705],[139.52284,35.78688],[139.52295,35.78654],[139.52319,35.78609],[139.52358,35.78554],[139.52421,35.7849]]]}},{"type":"Feature","properties":{"id":"area-13221007004","name":"中里四丁目"},"geometry":{"type":"Polygon","coordinates":[[[139.52296,35.78809],[139.52289,35.78798],[139.5231,35.78735],[139.52279,35.78721],[139.52179,35.78703],[139.52134,35.78691],[139.52114,35.78679],[139.52096,35.78649],[139.52008,35.78605],[139.52014,35.78582],[139.5197,35.78568],[139.51963,35.7856],[139.51917,35.78535],[139.51864,35.78523],[139.518,35.7852],[139.51778,35.78516],[139.51761,35.78507],[139.51691,35.78489],[139.51662,35.78471],[139.5164,35.78466],[139.51641,35.78427],[139.5164,35.78407],[139.51638,35.78408],[139.51634,35.78397],[139.51636,35.78393],[139.51627,35.78388],[139.51611,35.78365],[139.51577,35.78353],[139.51563,35.78342],[139.51547,35.78321],[139.5154,35.78307],[139.51521,35.7836],[139.51506,35.78381],[139.51475,35.78422],[139.51402,35.78499],[139.51379,35.78513],[139.51346,35.78527],[139.51273,35.78553],[139.51287,35.7857],[139.51299,35.78592],[139.5132,35.78643],[139.51325,35.78748],[139.51353,35.78785],[139.51379,35.78832],[139.51417,35.78834],[139.51507,35.78856],[139.51592,35.78869],[139.51673,35.78866],[139.51728,35.78838],[139.51759,35.7883],[139.51856,35.78813],[139.5193,35.78803],[139.51977,35.78825],[139.52099,35.78851],[139.5225,35.78934],[139.52337,35.78854],[139.52329,35.78839],[139.52314,35.78821],[139.52296,35.78809]]]}},{"type":"Feature","properties":{"id":"area-13221007005","name":"中里五丁目"},"geometry":{"type":"Polygon","coordinates":[[[139.53276,35.78873],[139.53191,35.78822],[139.53189,35.78824],[139.5318,35.7882],[139.53182,35.78817],[139.53177,35.78814],[139.53092,35.78772],[139.53063,35.78752],[139.53013,35.7871],[139.5298,35.78746],[139.52947,35.78726],[139.52914,35.78765],[139.52856,35.78728],[139.52847,35.78734],[139.52824,35.78718],[139.52789,35.78703],[139.52807,35.78675],[139.52785,35.78664],[139.52776,35.78667],[139.52675,35.78616],[139.52681,35.78607],[139.52704,35.78611],[139.52715,35.78608],[139.52771,35.78562],[139.52725,35.78532],[139.52737,35.78517],[139.52656,35.78461],[139.52489,35.78394],[139.52421,35.7849],[139.52358,35.78554],[139.52309,35.78627],[139.52295,35.78654],[139.52284,35.78688],[139.52284,35.78705],[139.52279,35.78721],[139.5231,35.78735],[139.52475,35.78795],[139.52518,35.7884],[139.52556,35.78856],[139.5261,35.78872],[139.52829,35.78961],[139.52934,35.79018],[139.53092,35.79091],[139.53204,35.79137],[139.53263,35.79048],[139.53365,35.78917],[139.53276,35.78873]]]}},{"type":"Feature","properties":{"id":"area-13221007006","name":"中里六丁目"},"geometry":{"type":"Polygon","coordinates":[[[139.53057,35.79389],[139.5308,35.79382],[139.53082,35.79386],[139.53116,35.79397],[139.53119,35.79373],[139.53177,35.79267],[139.53181,35.79254],[139.53176,35.79213],[139.53178,35.79201],[139.53204,35.79137],[139.53092,35.79091],[139.52934,35.79018],[139.52829,35.78961],[139.5261,35.78872],[139.52556,35.78856],[139.52518,35.7884],[139.52475,35.78795],[139.5231,35.78735],[139.52289,35.78798],[139.52296,35.78809],[139.52314,35.78821],[139.52329,35.78839],[139.52337,35.78854],[139.52254,35.7893],[139.52268,35.78942],[139.52265,35.78962],[139.52339,35.79012],[139.5236,35.79046],[139.5232,35.79098],[139.52291,35.79124],[139.52282,35.79153],[139.52287,35.7917],[139.52306,35.79178],[139.52351,35.79176],[139.52393,35.79162],[139.52415,35.79151],[139.52481,35.79155],[139.52563,35.79168],[139.52567,35.79177],[139.526,35.79199],[139.5271,35.79297],[139.52785,35.79309],[139.52844,35.79358],[139.5291,35.79406],[139.52932,35.79388],[139.52939,35.79395],[139.53,35.79418],[139.53057,35.79389]]]}},{"type":"Feature","properties":{"id":"area-13221008001","name":"野塩一丁目"},"geometry":{"type":"Polygon","coordinates":[[[139.50571,35.78031],[139.50564,35.78],[139.50566,35.77988],[139.50577,35.77965],[139.50624,35.77954],[139.50664,35.77913],[139.50619,35.77888],[139.50607,35.77873],[139.50603,35.77858],[139.50603,35.77841],[139.50568,35.77802],[139.50557,35.77765],[139.50558,35.77678],[139.50556,35.77663],[139.5055,35.77652],[139.50487,35.77626],[139.49873,35.77795],[139.49873,35.77802],[139.49854,35.77813],[139.49758,35.77842],[139.49704,35.77866],[139.49717,35.77892],[139.49688,35.77892],[139.49685,35.77905],[139.49723,35.77911],[139.49729,35.77925],[139.49737,35.77933],[139.49775,35.78031],[139.49803,35.78035],[139.49824,35.78052],[139.49845,35.78053],[139.49847,35.78062],[139.49851,35.78064],[139.49889,35.78072],[139.49905,35.78063],[139.49963,35.78054],[139.49985,35.78046],[139.50041,35.7804],[139.50063,35.78044],[139.50124,35.78072],[139.50147,35.78073],[139.50174,35.78037],[139.5021,35.78024],[139.50232,35.78019],[139.50263,35.78019],[139.50293,35.78021],[139.50309,35.78028],[139.50323,35.78027],[139.50341,35.78037],[139.50359,35.78042],[139.50377,35.78058],[139.50384,35.78058],[139.50411,35.78079],[139.5043,35.78084],[139.50493,35.7809],[139.50515,35.78088],[139.50555,35.78065],[139.50562,35.78057],[139.50571,35.78031]]]}},{"type":"Feature","properties":{"id":"area-13221008002","name":"野塩二丁目"},"geometry":{"type":"Polygon","coordinates":[[[139.50518,35.78287],[139.50533,35.78287],[139.50602,35.78303],[139.50663,35.78289],[139.50688,35.78299],[139.50768,35.78215],[139.50747,35.78099],[139.50725,35.78051],[139.50698,35.78012],[139.50696,35.78003],[139.50702,35.77971],[139.50697,35.77945],[139.50689,35.77933],[139.50665,35.77913],[139.50624,35.77954],[139.50577,35.77965],[139.50566,35.77988],[139.50564,35.78],[139.50571,35.78031],[139.50562,35.78057],[139.50544,35.78073],[139.50515,35.78088],[139.50468,35.78088],[139.50411,35.78079],[139.50384,35.78058],[139.50377,35.78058],[139.50359,35.78042],[139.50341,35.78037],[139.50323,35.78027],[139.50309,35.78028],[139.50293,35.78021],[139.50232,35.78019],[139.50189,35.7803],[139.50174,35.78037],[139.50147,35.78073],[139.50124,35.78072],[139.50063,35.78044],[139.50041,35.7804],[139.49985,35.78046],[139.49963,35.78054],[139.49905,35.78063],[139.49889,35.78072],[139.49851,35.78064],[139.49847,35.78062],[139.49845,35.78053],[139.49824,35.78052],[139.49803,35.78035],[139.49775,35.78031],[139.49807,35.78098],[139.49815,35.78138],[139.49846,35.78144],[139.49868,35.7816],[139.49876,35.78172],[139.49886,35.78205],[139.499,35.78214],[139.49951,35.78225],[139.50112,35.78236],[139.50177,35.78262],[139.5026,35.78279],[139.50312,35.78282],[139.50356,35.78291],[139.50379,35.78298],[139.50426,35.78326],[139.5045,35.78332],[139.50465,35.78332],[139.50484,35.78325],[139.50509,35.78292],[139.50518,35.78287]]]}},{"type":"Feature","properties":{"id":"area-13221008003","name":"野塩三丁目"},"geometry":{"type":"Polygon","coordinates":[[[139.50948,35.77955],[139.50962,35.77899],[139.50973,35.77812],[139.51037,35.77625],[139.51039,35.77609],[139.51031,35.7756],[139.50938,35.77503],[139.50848,35.7753],[139.50841,35.7753],[139.50487,35.77626],[139.50542,35.77647],[139.5055,35.77652],[139.50556,35.77663],[139.50559,35.77692],[139.50556,35.77743],[139.50563,35.7779],[139.50568,35.77802],[139.50603,35.77841],[139.50603,35.77858],[139.50607,35.77873],[139.50619,35.77888],[139.50664,35.77913],[139.50668,35.77911],[139.5068,35.77911],[139.5071,35.77926],[139.50728,35.77932],[139.50795,35.77941],[139.50908,35.77945],[139.50943,35.77958],[139.50948,35.77955]]]}},{"type":"Feature","properties":{"id":"area-13221008004","name":"野塩四丁目"},"geometry":{"type":"Polygon","coordinates":[[[139.50338,35.77631],[139.50464,35.77619],[139.5047,35.77631],[139.50841,35.7753],[139.50848,35.7753],[139.50935,35.77504],[139.50916,35.77487],[139.50901,35.77479],[139.50807,35.77444],[139.50728,35.7743],[139.50584,35.77416],[139.50521,35.77415],[139.50388,35.77428],[139.50216,35.77451],[139.5012,35.77454],[139.50014,35.77454],[139.49946,35.77435],[139.49951,35.77456],[139.49973,35.77506],[139.50007,35.77553],[139.50019,35.77566],[139.50059,35.77581],[139.50091,35.77601],[139.50163,35.77626],[139.502,35.77629],[139.50253,35.77612],[139.50269,35.77615],[139.50303,35.77629],[139.50338,35.77631]]]}},{"type":"Feature","properties":{"id":"area-13221008005","name":"野塩五丁目"},"geometry":{"type":"Polygon","coordinates":[[[139.49734,35.77851],[139.49854,35.77813],[139.49873,35.77802],[139.49873,35.77795],[139.5047,35.77631],[139.50464,35.77619],[139.50338,35.77631],[139.50303,35.77629],[139.50269,35.77615],[139.50253,35.77612],[139.502,35.77629],[139.50163,35.77626],[139.50139,35.77618],[139.50091,35.77601],[139.50059,35.77581],[139.50019,35.77566],[139.4999,35.77532],[139.49973,35.77506],[139.49951,35.77456],[139.49946,35.77435],[139.49941,35.77431],[139.49799,35.77379],[139.49739,35.77367],[139.4972,35.77416],[139.49715,35.77462],[139.49694,35.77508],[139.49665,35.77551],[139.49651,35.77611],[139.49639,35.77636],[139.49639,35.77705],[139.49648,35.7774],[139.4968,35.77818],[139.49683,35.77818],[139.49697,35.77852],[139.49705,35.7785],[139.49707,35.77855],[139.497,35.77857],[139.49704,35.77866],[139.49734,35.77851]]]}},{"type":"Feature","properties":{"id":"area-13221009001","name":"松山一丁目"},"geometry":{"type":"Polygon","coordinates":[[[139.51629,35.76563],[139.51623,35.7656],[139.51605,35.7672],[139.51611,35.76788],[139.51618,35.76824],[139.51617,35.76831],[139.51659,35.76922],[139.51801,35.77257],[139.51896,35.77221],[139.51956,35.77203],[139.522,35.77139],[139.52101,35.77059],[139.52048,35.77012],[139.51952,35.76912],[139.51907,35.76873],[139.51868,35.76832],[139.51798,35.76768],[139.51722,35.76685],[139.51658,35.76609],[139.51627,35.76593],[139.51629,35.76563]]]}},{"type":"Feature","properties":{"id":"area-13221009002","name":"松山二丁目"},"geometry":{"type":"Polygon","coordinates":[[[139.518,35.77254],[139.51659,35.76922],[139.51628,35.76947],[139.51249,35.77272],[139.5104,35.77442],[139.50994,35.77485],[139.51337,35.7739],[139.51573,35.77332],[139.51803,35.77269],[139.518,35.77254]]]}},{"type":"Feature","properties":{"id":"area-13221009003","name":"松山三丁目"},"geometry":{"type":"Polygon","coordinates":[[[139.51623,35.7656],[139.51519,35.76512],[139.51473,35.76549],[139.51483,35.76557],[139.5145,35.76585],[139.51425,35.76595],[139.51396,35.76596],[139.51387,35.76599],[139.50844,35.77081],[139.50947,35.77125],[139.51249,35.77272],[139.51659,35.76922],[139.51617,35.76831],[139.51618,35.76824],[139.51611,35.76788],[139.51605,35.7672],[139.51623,35.7656]]]}},{"type":"Feature","properties":{"id":"area-13221010001","name":"竹丘一丁目"},"geometry":{"type":"Polygon","coordinates":[[[139.51519,35.76512],[139.51218,35.76375],[139.51214,35.76379],[139.51192,35.76456],[139.51175,35.76485],[139.5113,35.76524],[139.51038,35.76613],[139.50575,35.77014],[139.50755,35.77056],[139.50844,35.77081],[139.51387,35.76599],[139.51396,35.76596],[139.51425,35.76595],[139.5145,35.76585],[139.51483,35.76557],[139.51473,35.76549],[139.51519,35.76512]]]}},{"type":"Feature","properties":{"id":"area-13221010002","name":"竹丘二丁目"},"geometry":{"type":"Polygon","coordinates":[[[139.50769,35.76198],[139.50516,35.76134],[139.50409,35.76396],[139.50463,35.76416],[139.5051,35.76422],[139.50614,35.76468],[139.50709,35.76564],[139.50796,35.76645],[139.50857,35.76709],[139.50885,35.76745],[139.51038,35.76613],[139.5113,35.76524],[139.51175,35.76485],[139.51192,35.76456],[139.51214,35.76379],[139.51218,35.76375],[139.50931,35.76256],[139.50825,35.76215],[139.50769,35.76198]]]}},{"type":"Feature","properties":{"id":"area-13221010003","name":"竹丘三丁目"},"geometry":{"type":"Polygon","coordinates":[[[139.50516,35.76134],[139.50487,35.76126],[139.50363,35.76147],[139.49898,35.76213],[139.49687,35.76247],[139.50094,35.76517],[139.50133,35.76545],[139.50142,35.76558],[139.50119,35.76662],[139.50079,35.76817],[139.50192,35.76867],[139.50202,35.76877],[139.50206,35.76888],[139.5034,35.76949],[139.50575,35.77014],[139.50885,35.76745],[139.50857,35.76709],[139.50796,35.76645],[139.50709,35.76564],[139.50614,35.76468],[139.5051,35.76422],[139.50463,35.76416],[139.50409,35.76396],[139.50516,35.76134]]]}},{"type":"Feature","properties":{"id":"area-13221011001","name":"梅園一丁目"},"geometry":{"type":"Polygon","coordinates":[[[139.50575,35.77014],[139.50346,35.76951],[139.50341,35.76959],[139.50338,35.76973],[139.50347,35.77001],[139.50362,35.77026],[139.50446,35.7711],[139.50555,35.77215],[139.50643,35.77292],[139.50655,35.77362],[139.50642,35.77421],[139.50761,35.77435],[139.50807,35.77444],[139.50901,35.77479],[139.50916,35.77487],[139.50935,35.77504],[139.50938,35.77503],[139.50935,35.77501],[139.50994,35.77485],[139.5104,35.77442],[139.51249,35.77272],[139.50947,35.77125],[139.50844,35.77081],[139.50755,35.77056],[139.50575,35.77014]]]}},{"type":"Feature","properties":{"id":"area-13221011002","name":"梅園二丁目"},"geometry":{"type":"Polygon","coordinates":[[[139.50277,35.77442],[139.50521,35.77415],[139.50642,35.77421],[139.50655,35.77362],[139.50643,35.77292],[139.50555,35.77215],[139.50362,35.77026],[139.50347,35.77001],[139.50338,35.76973],[139.50304,35.77013],[139.50278,35.77066],[139.50307,35.7708],[139.50285,35.77292],[139.50277,35.77442]]]}},{"type":"Feature","properties":{"id":"area-13221011003","name":"梅園三丁目"},"geometry":{"type":"Polygon","coordinates":[[[139.50286,35.77288],[139.50307,35.7708],[139.50278,35.77066],[139.50304,35.77013],[139.50338,35.76973],[139.50341,35.76959],[139.50346,35.76951],[139.50206,35.76888],[139.50202,35.76877],[139.50192,35.76867],[139.50079,35.76817],[139.50055,35.76903],[139.50019,35.77004],[139.49967,35.77104],[139.49923,35.77152],[139.49908,35.77174],[139.49874,35.77229],[139.49884,35.77234],[139.49865,35.77258],[139.49858,35.7725],[139.49853,35.77233],[139.49842,35.77221],[139.4982,35.77211],[139.49806,35.77201],[139.49778,35.77246],[139.49767,35.77271],[139.4976,35.77302],[139.49764,35.77319],[139.49739,35.77367],[139.49799,35.77379],[139.49946,35.77435],[139.50014,35.77454],[139.5012,35.77454],[139.50216,35.77451],[139.50247,35.77447],[139.50277,35.77442],[139.50286,35.77288]]]}}]}