{"type":"FeatureCollection","features":[{"type":"Feature","properties":{"id":"area-13229001001","name":"新町一丁目"},"geometry":{"type":"Polygon","coordinates":[[[139.54467,35.71437],[139.54402,35.71413],[139.54402,35.71436],[139.5438,35.71631],[139.54358,35.71765],[139.54635,35.71872],[139.54706,35.71891],[139.5476,35.71902],[139.54931,35.71909],[139.5493,35.71796],[139.54928,35.71745],[139.54923,35.71721],[139.54924,35.71657],[139.54767,35.71573],[139.54467,35.71437]]]}},{"type":"Feature","properties":{"id":"area-13229001002","name":"新町二丁目"},"geometry":{"type":"Polygon","coordinates":[[[139.5438,35.71631],[139.54402,35.71436],[139.54402,35.71413],[139.54329,35.71384],[139.5417,35.71316],[139.54146,35.71334],[139.54135,35.71482],[139.54174,35.71494],[139.5417,35.71621],[139.54128,35.7162],[139.54127,35.71679],[139.54211,35.71707],[139.54358,35.71765],[139.5438,35.71631]]]}},{"type":"Feature","properties":{"id":"area-13229001003","name":"新町三丁目"},"geometry":{"type":"Polygon","coordinates":[[[139.54127,35.71679],[139.54128,35.7162],[139.5417,35.71621],[139.54174,35.71494],[139.54135,35.71482],[139.54146,35.71334],[139.5417,35.71316],[139.53893,35.71433],[139.53499,35.71606],[139.53403,35.71645],[139.53704,35.71616],[139.53816,35.71595],[139.53881,35.71603],[139.54039,35.71644],[139.54084,35.71666],[139.54127,35.71679]]]}},{"type":"Feature","properties":{"id":"area-13229001004","name":"新町四丁目"},"geometry":{"type":"Polygon","coordinates":[[[139.54029,35.71249],[139.53778,35.71111],[139.53753,35.71105],[139.53679,35.71114],[139.53682,35.71088],[139.53651,35.71098],[139.53676,35.71233],[139.53701,35.71518],[139.5417,35.71316],[139.54029,35.71249]]]}},{"type":"Feature","properties":{"id":"area-13229001005","name":"新町五丁目"},"geometry":{"type":"Polygon","coordinates":[[[139.53676,35.71233],[139.53651,35.71098],[139.53354,35.71181],[139.53219,35.71216],[139.53249,35.71498],[139.53268,35.71657],[139.53403,35.71645],[139.53701,35.71518],[139.53676,35.71233]]]}},{"type":"Feature","properties":{"id":"area-13229001006","name":"新町六丁目"},"geometry":{"type":"Polygon","coordinates":[[[139.53249,35.71498],[139.53219,35.71216],[139.53142,35.71224],[139.52926,35.71235],[139.52983,35.71763],[139.53015,35.71753],[139.53116,35.71673],[139.53268,35.71657],[139.53249,35.71498]]]}},{"type":"Feature","properties":{"id":"area-13229002001","name":"柳沢一丁目"},"geometry":{"type":"Polygon","coordinates":[[[139.55516,35.72891],[139.55565,35.72838],[139.55597,35.7276],[139.55662,35.72625],[139.55684,35.72591],[139.55739,35.72526],[139.55747,35.72506],[139.55757,35.72462],[139.55667,35.72489],[139.5536,35.72555],[139.55271,35.7258],[139.55286,35.72614],[139.55268,35.72677],[139.55291,35.72683],[139.55295,35.72751],[139.55272,35.72868],[139.5529,35.72869],[139.55289,35.72873],[139.55516,35.72891]]]}},{"type":"Feature","properties":{"id":"area-13229002002","name":"柳沢二丁目"},"geometry":{"type":"Polygon","coordinates":[[[139.55756,35.72378],[139.55747,35.72235],[139.55359,35.72253],[139.55262,35.72267],[139.55181,35.72284],[139.55174,35.7239],[139.55175,35.72434],[139.55181,35.72454],[139.55197,35.72543],[139.55216,35.72597],[139.5536,35.72555],[139.55667,35.72489],[139.55754,35.7246],[139.55756,35.72378]]]}},{"type":"Feature","properties":{"id":"area-13229002003","name":"柳沢三丁目"},"geometry":{"type":"Polygon","coordinates":[[[139.5534,35.72255],[139.55747,35.72235],[139.55735,35.72149],[139.55483,35.72061],[139.55242,35.71887],[139.55224,35.71943],[139.55135,35.71948],[139.55132,35.71952],[139.55135,35.72059],[139.55143,35.72144],[139.55141,35.72175],[139.55178,35.72285],[139.55262,35.72267],[139.5534,35.72255]]]}},{"type":"Feature","properties":{"id":"area-13229002004","name":"柳沢四丁目"},"geometry":{"type":"Polygon","coordinates":[[[139.5503,35.71717],[139.54924,35.71657],[139.54923,35.71721],[139.54928,35.71745],[139.5493,35.71796],[139.54933,35.71934],[139.54928,35.72036],[139.54935,35.72165],[139.55141,35.72135],[139.55135,35.72059],[139.55132,35.71952],[139.55135,35.71948],[139.55224,35.71943],[139.55242,35.71887],[139.5516,35.71822],[139.55064,35.71739],[139.5503,35.71717]]]}},{"type":"Feature","properties":{"id":"area-13229002005","name":"柳沢五丁目"},"geometry":{"type":"Polygon","coordinates":[[[139.55174,35.7239],[139.55181,35.72284],[139.55178,35.72285],[139.55144,35.7219],[139.55141,35.72175],[139.55141,35.72135],[139.54935,35.72165],[139.54937,35.7225],[139.5493,35.72426],[139.54932,35.72432],[139.54911,35.72579],[139.5491,35.72616],[139.54928,35.7268],[139.54932,35.72718],[139.55093,35.72638],[139.55132,35.72622],[139.55216,35.72597],[139.55197,35.72543],[139.55181,35.72454],[139.55175,35.72434],[139.55174,35.7239]]]}},{"type":"Feature","properties":{"id":"area-13229002006","name":"柳沢六丁目"},"geometry":{"type":"Polygon","coordinates":[[[139.55286,35.72614],[139.55271,35.7258],[139.55132,35.72622],[139.55026,35.7267],[139.54932,35.72718],[139.54931,35.72722],[139.54921,35.72731],[139.54876,35.72757],[139.54875,35.72773],[139.54839,35.7284],[139.55085,35.72851],[139.55171,35.72864],[139.55272,35.72872],[139.55295,35.72751],[139.55291,35.72683],[139.55268,35.72677],[139.55286,35.72614]]]}},{"type":"Feature","properties":{"id":"area-13229003001","name":"東伏見一丁目"},"geometry":{"type":"Polygon","coordinates":[[[139.55982,35.72919],[139.5604,35.72917],[139.56113,35.72909],[139.55899,35.72739],[139.55858,35.72642],[139.55865,35.72615],[139.55833,35.72608],[139.55796,35.72578],[139.55756,35.72536],[139.55738,35.72526],[139.55684,35.72591],[139.55662,35.72625],[139.55597,35.7276],[139.55565,35.72838],[139.55516,35.72891],[139.55773,35.72917],[139.55982,35.72919]]]}},{"type":"Feature","properties":{"id":"area-13229003002","name":"東伏見二丁目"},"geometry":{"type":"Polygon","coordinates":[[[139.56328,35.72671],[139.5625,35.72572],[139.5621,35.726],[139.56174,35.7264],[139.56158,35.72648],[139.56115,35.7264],[139.56092,35.72656],[139.56061,35.72656],[139.55865,35.72615],[139.55858,35.72642],[139.55899,35.72739],[139.56113,35.72909],[139.5622,35.72898],[139.56404,35.72887],[139.56503,35.72872],[139.56494,35.72854],[139.56471,35.72852],[139.56468,35.72832],[139.56457,35.72821],[139.56449,35.72818],[139.56418,35.72817],[139.56368,35.72744],[139.5635,35.72724],[139.56327,35.72707],[139.56331,35.72687],[139.56328,35.72671]]]}},{"type":"Feature","properties":{"id":"area-13229003003","name":"東伏見三丁目"},"geometry":{"type":"Polygon","coordinates":[[[139.56539,35.72431],[139.56567,35.72312],[139.56507,35.72315],[139.56441,35.72323],[139.56343,35.7234],[139.56274,35.72359],[139.56198,35.72384],[139.56205,35.72434],[139.56215,35.72456],[139.56256,35.7252],[139.56249,35.7254],[139.56246,35.7256],[139.5625,35.72572],[139.56328,35.72671],[139.56331,35.72687],[139.56327,35.72707],[139.5635,35.72724],[139.56368,35.72744],[139.56418,35.72817],[139.56449,35.72818],[139.56457,35.72821],[139.56468,35.72832],[139.56471,35.72852],[139.56494,35.72854],[139.56503,35.72872],[139.56584,35.72863],[139.56687,35.72855],[139.56669,35.7281],[139.56618,35.72736],[139.56609,35.72698],[139.56612,35.72677],[139.56611,35.72626],[139.56595,35.72575],[139.56539,35.72431]]]}},{"type":"Feature","properties":{"id":"area-13229003004","name":"東伏見四丁目"},"geometry":{"type":"Polygon","coordinates":[[[139.56545,35.72155],[139.56538,35.72148],[139.56459,35.7216],[139.56335,35.72173],[139.56037,35.72187],[139.56042,35.72246],[139.5606,35.72304],[139.5609,35.72423],[139.56135,35.72404],[139.56274,35.72359],[139.56343,35.7234],[139.56441,35.72323],[139.5653,35.72313],[139.56567,35.72312],[139.5657,35.72293],[139.5656,35.72181],[139.56551,35.72165],[139.56539,35.72156],[139.56545,35.72155]]]}},{"type":"Feature","properties":{"id":"area-13229003005","name":"東伏見五丁目"},"geometry":{"type":"Polygon","coordinates":[[[139.55824,35.72445],[139.55942,35.72442],[139.56022,35.72445],[139.5609,35.72423],[139.5606,35.72304],[139.56042,35.72246],[139.56037,35.72187],[139.56006,35.72188],[139.55889,35.72175],[139.55735,35.72149],[139.55747,35.72236],[139.55756,35.72378],[139.55754,35.7246],[139.55824,35.72445]]]}},{"type":"Feature","properties":{"id":"area-13229003006","name":"東伏見六丁目"},"geometry":{"type":"Polygon","coordinates":[[[139.5611,35.72642],[139.56124,35.7264],[139.56158,35.72648],[139.56174,35.7264],[139.5621,35.726],[139.5625,35.72572],[139.56246,35.7256],[139.56249,35.7254],[139.56256,35.7252],[139.56215,35.72456],[139.56205,35.72434],[139.56198,35.72384],[139.56135,35.72404],[139.56049,35.72438],[139.56022,35.72445],[139.55965,35.72442],[139.55835,35.72444],[139.55794,35.72451],[139.55757,35.72462],[139.55747,35.72506],[139.55739,35.72526],[139.55756,35.72536],[139.55796,35.72578],[139.55833,35.72608],[139.56061,35.72656],[139.56092,35.72656],[139.5611,35.72642]]]}},{"type":"Feature","properties":{"id":"area-13229004001","name":"保谷町一丁目"},"geometry":{"type":"Polygon","coordinates":[[[139.55635,35.73627],[139.55641,35.73542],[139.55645,35.73542],[139.5565,35.73491],[139.55659,35.73443],[139.55742,35.73446],[139.5575,35.73367],[139.55767,35.73327],[139.55757,35.73323],[139.55736,35.73303],[139.55718,35.73269],[139.55699,35.73203],[139.55466,35.73204],[139.55456,35.73253],[139.55434,35.73404],[139.55422,35.73502],[139.55417,35.73571],[139.554,35.73644],[139.55378,35.7369],[139.55351,35.73736],[139.55347,35.73738],[139.55457,35.73852],[139.55504,35.73779],[139.55517,35.73754],[139.55534,35.73743],[139.55545,35.73727],[139.55602,35.7369],[139.55607,35.73682],[139.55635,35.73627]]]}},{"type":"Feature","properties":{"id":"area-13229004002","name":"保谷町二丁目"},"geometry":{"type":"Polygon","coordinates":[[[139.55699,35.73203],[139.55656,35.73084],[139.55652,35.73049],[139.55631,35.73042],[139.5563,35.72975],[139.55641,35.72953],[139.55642,35.72942],[139.55627,35.72901],[139.55517,35.72892],[139.55475,35.72943],[139.55455,35.72975],[139.55472,35.73165],[139.55466,35.73204],[139.55699,35.73203]]]}},{"type":"Feature","properties":{"id":"area-13229004003","name":"保谷町三丁目"},"geometry":{"type":"Polygon","coordinates":[[[139.55472,35.73165],[139.55455,35.72975],[139.55475,35.72943],[139.55516,35.72891],[139.55289,35.72873],[139.5529,35.72869],[139.55272,35.72868],[139.55272,35.72872],[139.55224,35.72869],[139.55171,35.72864],[139.55085,35.72851],[139.54987,35.72845],[139.55023,35.72884],[139.55056,35.72932],[139.55062,35.72992],[139.55046,35.73026],[139.55047,35.73068],[139.55036,35.73109],[139.55035,35.7313],[139.55049,35.73184],[139.55327,35.73195],[139.55359,35.73199],[139.55466,35.73205],[139.55472,35.73165]]]}},{"type":"Feature","properties":{"id":"area-13229004004","name":"保谷町四丁目"},"geometry":{"type":"Polygon","coordinates":[[[139.55035,35.7313],[139.55036,35.73109],[139.55047,35.73068],[139.55046,35.73026],[139.55062,35.72992],[139.55056,35.72932],[139.55023,35.72884],[139.54987,35.72845],[139.54839,35.7284],[139.548,35.72911],[139.54771,35.72951],[139.54751,35.72969],[139.54758,35.73024],[139.54693,35.73026],[139.54681,35.73035],[139.5468,35.73066],[139.54597,35.73084],[139.54604,35.73124],[139.54653,35.7312],[139.54655,35.73146],[139.54794,35.73163],[139.55049,35.73184],[139.55035,35.7313]]]}},{"type":"Feature","properties":{"id":"area-13229004005","name":"保谷町五丁目"},"geometry":{"type":"Polygon","coordinates":[[[139.55106,35.73694],[139.55098,35.73535],[139.55051,35.7333],[139.55049,35.73307],[139.55055,35.73244],[139.55055,35.73204],[139.55049,35.73184],[139.54794,35.73163],[139.54657,35.73146],[139.54654,35.73231],[139.54667,35.73354],[139.54677,35.73535],[139.54677,35.7358],[139.54816,35.73592],[139.54808,35.73621],[139.54867,35.73629],[139.54952,35.73622],[139.54994,35.73643],[139.55045,35.73661],[139.55077,35.73682],[139.55106,35.73694]]]}},{"type":"Feature","properties":{"id":"area-13229004006","name":"保谷町六丁目"},"geometry":{"type":"Polygon","coordinates":[[[139.55351,35.73736],[139.554,35.73644],[139.55417,35.73571],[139.55422,35.73502],[139.55434,35.73404],[139.55456,35.73253],[139.55466,35.73205],[139.55359,35.73199],[139.55327,35.73195],[139.55049,35.73184],[139.55055,35.73204],[139.55055,35.73244],[139.55049,35.73307],[139.55051,35.7333],[139.55058,35.73369],[139.55082,35.7346],[139.55099,35.73545],[139.55101,35.73629],[139.55106,35.73679],[139.55105,35.73701],[139.551,35.7372],[139.55189,35.73719],[139.5522,35.73723],[139.55292,35.73764],[139.55351,35.73736]]]}},{"type":"Feature","properties":{"id":"area-13229005001","name":"富士町一丁目"},"geometry":{"type":"Polygon","coordinates":[[[139.5573,35.73546],[139.56001,35.73542],[139.5601,35.73541],[139.5603,35.73525],[139.56205,35.73536],[139.56229,35.73534],[139.56239,35.73479],[139.56244,35.73432],[139.5624,35.73393],[139.5626,35.73363],[139.56303,35.7331],[139.56343,35.73249],[139.56307,35.73236],[139.56196,35.73208],[139.56183,35.73202],[139.55942,35.732],[139.55699,35.73203],[139.55718,35.73269],[139.55736,35.73303],[139.55757,35.73323],[139.55767,35.73327],[139.5575,35.73367],[139.55742,35.73446],[139.55659,35.73443],[139.5565,35.73491],[139.55645,35.73542],[139.5573,35.73546]]]}},{"type":"Feature","properties":{"id":"area-13229005002","name":"富士町二丁目"},"geometry":{"type":"Polygon","coordinates":[[[139.56762,35.7358],[139.56823,35.73529],[139.56911,35.73429],[139.56945,35.73403],[139.56767,35.7336],[139.56666,35.73331],[139.56507,35.733],[139.56349,35.73246],[139.56343,35.73249],[139.56303,35.7331],[139.5626,35.73363],[139.5624,35.73393],[139.56244,35.73432],[139.56239,35.73479],[139.56229,35.73534],[139.56327,35.73535],[139.56418,35.73547],[139.5648,35.7355],[139.56591,35.73549],[139.56639,35.7356],[139.56762,35.7358]]]}},{"type":"Feature","properties":{"id":"area-13229005003","name":"富士町三丁目"},"geometry":{"type":"Polygon","coordinates":[[[139.56876,35.7326],[139.56831,35.73154],[139.56183,35.73202],[139.56196,35.73208],[139.56307,35.73236],[139.56343,35.73249],[139.56349,35.73246],[139.56507,35.733],[139.56666,35.73331],[139.56767,35.7336],[139.56945,35.73403],[139.56946,35.73396],[139.56876,35.7326]]]}},{"type":"Feature","properties":{"id":"area-13229005004","name":"富士町四丁目"},"geometry":{"type":"Polygon","coordinates":[[[139.56739,35.72952],[139.56687,35.72855],[139.56584,35.72863],[139.56475,35.72875],[139.56404,35.72887],[139.5625,35.72896],[139.56255,35.72979],[139.56206,35.72982],[139.56209,35.73005],[139.56223,35.73011],[139.56229,35.73079],[139.56205,35.7308],[139.56195,35.73089],[139.56209,35.7314],[139.56195,35.73162],[139.56193,35.73202],[139.56831,35.73154],[139.56791,35.73082],[139.56764,35.73026],[139.56755,35.73006],[139.56739,35.72952]]]}},{"type":"Feature","properties":{"id":"area-13229005005","name":"富士町五丁目"},"geometry":{"type":"Polygon","coordinates":[[[139.55891,35.73202],[139.56193,35.73202],[139.56195,35.73162],[139.56209,35.7314],[139.56195,35.73089],[139.56205,35.7308],[139.56229,35.73079],[139.56223,35.73011],[139.56209,35.73005],[139.56206,35.72982],[139.56255,35.72979],[139.5625,35.72896],[139.5604,35.72917],[139.56041,35.72969],[139.56017,35.73016],[139.55963,35.73097],[139.55924,35.73163],[139.55891,35.73202]]]}},{"type":"Feature","properties":{"id":"area-13229005006","name":"富士町六丁目"},"geometry":{"type":"Polygon","coordinates":[[[139.55699,35.73203],[139.55891,35.73202],[139.55924,35.73163],[139.55963,35.73097],[139.56017,35.73016],[139.56041,35.72969],[139.5604,35.72917],[139.55982,35.72919],[139.55773,35.72917],[139.55627,35.72901],[139.55642,35.72942],[139.55641,35.72953],[139.5563,35.72975],[139.55631,35.73042],[139.55652,35.73049],[139.55656,35.73084],[139.55699,35.73203]]]}},{"type":"Feature","properties":{"id":"area-13229006001","name":"中町一丁目"},"geometry":{"type":"Polygon","coordinates":[[[139.55972,35.7391],[139.55971,35.73873],[139.55893,35.73882],[139.55816,35.73883],[139.55739,35.73892],[139.55672,35.73894],[139.55664,35.7389],[139.55664,35.73886],[139.55633,35.73874],[139.55539,35.73859],[139.55474,35.73829],[139.55457,35.73852],[139.5557,35.73965],[139.55569,35.73967],[139.5586,35.74254],[139.559,35.74234],[139.55898,35.7423],[139.55934,35.74227],[139.5593,35.74196],[139.56024,35.7419],[139.56026,35.74157],[139.56011,35.74117],[139.56013,35.74088],[139.56005,35.74049],[139.55992,35.74028],[139.55968,35.74001],[139.55962,35.73981],[139.55962,35.73966],[139.55972,35.7391]]]}},{"type":"Feature","properties":{"id":"area-13229006002","name":"中町二丁目"},"geometry":{"type":"Polygon","coordinates":[[[139.56228,35.74267],[139.56291,35.74157],[139.56195,35.74135],[139.56134,35.74131],[139.56132,35.7415],[139.56026,35.74157],[139.56024,35.7419],[139.5593,35.74196],[139.55934,35.74227],[139.55898,35.7423],[139.559,35.74234],[139.5586,35.74254],[139.55913,35.74309],[139.55986,35.74376],[139.56063,35.74455],[139.5612,35.74395],[139.56228,35.74267]]]}},{"type":"Feature","properties":{"id":"area-13229006003","name":"中町三丁目"},"geometry":{"type":"Polygon","coordinates":[[[139.56132,35.7415],[139.56134,35.74131],[139.56195,35.74135],[139.56291,35.74157],[139.56359,35.74065],[139.56425,35.73982],[139.56495,35.73896],[139.5655,35.73837],[139.56105,35.73893],[139.56081,35.73894],[139.56057,35.73882],[139.55972,35.7391],[139.55962,35.73966],[139.55962,35.73981],[139.55968,35.74001],[139.55992,35.74028],[139.56005,35.74049],[139.56013,35.74088],[139.56011,35.74117],[139.56026,35.74157],[139.56132,35.7415]]]}},{"type":"Feature","properties":{"id":"area-13229006004","name":"中町四丁目"},"geometry":{"type":"Polygon","coordinates":[[[139.56583,35.738],[139.56635,35.73757],[139.56702,35.73654],[139.56762,35.7358],[139.56639,35.7356],[139.56591,35.73549],[139.5648,35.7355],[139.56418,35.73547],[139.56327,35.73535],[139.56231,35.73535],[139.56221,35.73597],[139.5627,35.73602],[139.56277,35.73641],[139.56291,35.73687],[139.56308,35.73687],[139.563,35.73752],[139.56383,35.73757],[139.56382,35.73788],[139.56368,35.73787],[139.56364,35.73861],[139.5655,35.73837],[139.56583,35.738]]]}},{"type":"Feature","properties":{"id":"area-13229006005","name":"中町五丁目"},"geometry":{"type":"Polygon","coordinates":[[[139.55972,35.7391],[139.56057,35.73882],[139.56081,35.73894],[139.56105,35.73893],[139.56364,35.73861],[139.56368,35.73787],[139.56382,35.73788],[139.56383,35.73757],[139.563,35.73752],[139.56308,35.73687],[139.56291,35.73687],[139.56277,35.73641],[139.5627,35.73602],[139.56221,35.73597],[139.56231,35.73535],[139.56205,35.73536],[139.5603,35.73525],[139.5601,35.73541],[139.55939,35.73541],[139.55931,35.73731],[139.55939,35.73774],[139.55948,35.73801],[139.55964,35.73831],[139.55966,35.73874],[139.55971,35.73873],[139.55972,35.7391]]]}},{"type":"Feature","properties":{"id":"area-13229006006","name":"中町六丁目"},"geometry":{"type":"Polygon","coordinates":[[[139.55784,35.73885],[139.55893,35.73882],[139.55966,35.73874],[139.55964,35.73831],[139.55948,35.73801],[139.55939,35.73774],[139.55931,35.73731],[139.55939,35.73541],[139.55776,35.73546],[139.55641,35.73542],[139.55635,35.73627],[139.55607,35.73682],[139.55602,35.7369],[139.55545,35.73727],[139.55534,35.73743],[139.55517,35.73754],[139.55474,35.73829],[139.55539,35.73859],[139.55633,35.73874],[139.55664,35.73886],[139.55664,35.7389],[139.55672,35.73894],[139.55697,35.73895],[139.55739,35.73892],[139.55784,35.73885]]]}},{"type":"Feature","properties":{"id":"area-13229007001","name":"東町一丁目"},"geometry":{"type":"Polygon","coordinates":[[[139.56444,35.74449],[139.56482,35.744],[139.56504,35.74411],[139.56567,35.74419],[139.56562,35.74393],[139.56562,35.74368],[139.56568,35.74327],[139.56522,35.74294],[139.56495,35.74282],[139.56467,35.74337],[139.56424,35.74315],[139.56407,35.74322],[139.56306,35.74255],[139.56252,35.74226],[139.56228,35.74267],[139.56208,35.74292],[139.56097,35.74421],[139.56063,35.74455],[139.56131,35.74523],[139.56141,35.74529],[139.56351,35.74626],[139.5636,35.74633],[139.56387,35.74547],[139.56386,35.7451],[139.56444,35.74449]]]}},{"type":"Feature","properties":{"id":"area-13229007002","name":"東町二丁目"},"geometry":{"type":"Polygon","coordinates":[[[139.56326,35.74776],[139.56334,35.7475],[139.56349,35.7472],[139.56359,35.7471],[139.56363,35.74654],[139.5636,35.74633],[139.56351,35.74626],[139.56141,35.74529],[139.56131,35.74523],[139.56063,35.74455],[139.55897,35.74648],[139.55884,35.74674],[139.55844,35.74725],[139.55923,35.74735],[139.55937,35.74734],[139.56091,35.74751],[139.56093,35.74753],[139.56161,35.74761],[139.562,35.74762],[139.56326,35.74776]]]}},{"type":"Feature","properties":{"id":"area-13229007003","name":"東町三丁目"},"geometry":{"type":"Polygon","coordinates":[[[139.56873,35.74833],[139.56907,35.74781],[139.56651,35.74758],[139.56628,35.74649],[139.56567,35.74419],[139.56504,35.74411],[139.56482,35.744],[139.56444,35.74449],[139.56386,35.7451],[139.56387,35.74547],[139.5636,35.74633],[139.56363,35.74654],[139.56359,35.7471],[139.56349,35.7472],[139.56334,35.7475],[139.56329,35.74769],[139.56473,35.74785],[139.56529,35.74789],[139.56571,35.74802],[139.56698,35.74816],[139.56873,35.74833]]]}},{"type":"Feature","properties":{"id":"area-13229007004","name":"東町四丁目"},"geometry":{"type":"Polygon","coordinates":[[[139.56681,35.74056],[139.56598,35.74053],[139.56598,35.74106],[139.56575,35.74257],[139.56562,35.74368],[139.56562,35.74393],[139.56628,35.74649],[139.56644,35.74723],[139.56664,35.74724],[139.56672,35.74702],[139.56671,35.74697],[139.56685,35.74695],[139.56678,35.74681],[139.56673,35.74645],[139.56698,35.74639],[139.56724,35.74605],[139.56783,35.74465],[139.56821,35.74292],[139.56825,35.74196],[139.56834,35.74164],[139.56829,35.74068],[139.56834,35.74067],[139.56681,35.74058],[139.56681,35.74056]]]}},{"type":"Feature","properties":{"id":"area-13229007005","name":"東町五丁目"},"geometry":{"type":"Polygon","coordinates":[[[139.56834,35.74067],[139.56825,35.73955],[139.56826,35.73931],[139.56843,35.73861],[139.56846,35.73832],[139.56838,35.73797],[139.56813,35.73802],[139.56799,35.73789],[139.56734,35.73616],[139.56702,35.73654],[139.56635,35.73757],[139.56605,35.73782],[139.56595,35.73839],[139.56582,35.73839],[139.5659,35.74011],[139.56598,35.74053],[139.56625,35.74052],[139.56681,35.74056],[139.56681,35.74058],[139.56834,35.74067]]]}},{"type":"Feature","properties":{"id":"area-13229007006","name":"東町六丁目"},"geometry":{"type":"Polygon","coordinates":[[[139.56467,35.74337],[139.56495,35.74282],[139.56522,35.74294],[139.56568,35.74327],[139.56581,35.74208],[139.56598,35.74106],[139.56598,35.74053],[139.5659,35.74011],[139.56582,35.73839],[139.56595,35.73839],[139.56605,35.73782],[139.56567,35.73817],[139.56495,35.73896],[139.5639,35.74025],[139.56291,35.74157],[139.56252,35.74226],[139.56306,35.74255],[139.56407,35.74322],[139.56424,35.74315],[139.56467,35.74337]]]}},{"type":"Feature","properties":{"id":"area-13229008001","name":"泉町一丁目"},"geometry":{"type":"Polygon","coordinates":[[[139.54993,35.73855],[139.55083,35.73752],[139.551,35.7372],[139.55106,35.73694],[139.55077,35.73682],[139.55045,35.73661],[139.54994,35.73643],[139.54952,35.73622],[139.54867,35.73629],[139.54808,35.73621],[139.54816,35.73592],[139.54677,35.7358],[139.54676,35.73618],[139.54681,35.73631],[139.54685,35.73685],[139.54677,35.73723],[139.54674,35.73767],[139.54666,35.73812],[139.54659,35.7383],[139.54662,35.73851],[139.54638,35.7385],[139.54635,35.73862],[139.54646,35.73864],[139.54638,35.73895],[139.54676,35.73906],[139.54715,35.7391],[139.54853,35.74003],[139.54993,35.73855]]]}},{"type":"Feature","properties":{"id":"area-13229008002","name":"泉町二丁目"},"geometry":{"type":"Polygon","coordinates":[[[139.55139,35.74298],[139.55202,35.74232],[139.55233,35.74174],[139.55243,35.7413],[139.55256,35.73908],[139.55261,35.73869],[139.55284,35.73812],[139.55325,35.73757],[139.55342,35.7374],[139.55292,35.73764],[139.5522,35.73723],[139.55189,35.73719],[139.551,35.7372],[139.55083,35.73752],[139.55042,35.73802],[139.54926,35.73929],[139.54853,35.74003],[139.54916,35.74048],[139.54966,35.74101],[139.54982,35.74121],[139.54998,35.74148],[139.55015,35.74167],[139.55052,35.7423],[139.55067,35.74247],[139.55099,35.74274],[139.551,35.74272],[139.55139,35.74298]]]}},{"type":"Feature","properties":{"id":"area-13229008003","name":"泉町三丁目"},"geometry":{"type":"Polygon","coordinates":[[[139.55834,35.74229],[139.55569,35.73967],[139.5557,35.73965],[139.55473,35.73869],[139.55347,35.73738],[139.55325,35.73757],[139.55284,35.73812],[139.55261,35.73869],[139.55256,35.73908],[139.55247,35.7409],[139.55239,35.74152],[139.55308,35.74157],[139.55347,35.74152],[139.55434,35.74161],[139.55515,35.74164],[139.55546,35.7417],[139.55582,35.74185],[139.55654,35.74203],[139.55824,35.74229],[139.55834,35.74229]]]}},{"type":"Feature","properties":{"id":"area-13229008004","name":"泉町四丁目"},"geometry":{"type":"Polygon","coordinates":[[[139.55437,35.74265],[139.55526,35.74273],[139.55545,35.74171],[139.55515,35.74164],[139.55434,35.74161],[139.55359,35.74153],[139.55308,35.74157],[139.55239,35.74152],[139.55228,35.74187],[139.55202,35.74232],[139.55173,35.74266],[139.55139,35.74298],[139.55179,35.74321],[139.55277,35.74393],[139.55324,35.74417],[139.55351,35.74436],[139.55415,35.74467],[139.55415,35.74469],[139.55421,35.74463],[139.55417,35.74454],[139.55435,35.74387],[139.55432,35.74305],[139.55437,35.74265]]]}},{"type":"Feature","properties":{"id":"area-13229008005","name":"泉町五丁目"},"geometry":{"type":"Polygon","coordinates":[[[139.55646,35.7441],[139.5566,35.74408],[139.55726,35.74412],[139.55778,35.74401],[139.55888,35.74427],[139.56035,35.74428],[139.55986,35.74376],[139.55913,35.74309],[139.55834,35.74229],[139.55824,35.74229],[139.55654,35.74203],[139.55582,35.74185],[139.55546,35.7417],[139.55526,35.74273],[139.55437,35.74264],[139.55432,35.74305],[139.55435,35.74387],[139.55417,35.74454],[139.55421,35.74463],[139.55551,35.7447],[139.55556,35.74466],[139.55581,35.74428],[139.55619,35.7442],[139.55646,35.7441]]]}},{"type":"Feature","properties":{"id":"area-13229008006","name":"泉町六丁目"},"geometry":{"type":"Polygon","coordinates":[[[139.55897,35.74648],[139.56063,35.74455],[139.56035,35.74428],[139.55888,35.74427],[139.55778,35.74401],[139.55726,35.74412],[139.5566,35.74408],[139.55581,35.74428],[139.55556,35.74466],[139.55551,35.7447],[139.55421,35.74463],[139.55414,35.7447],[139.55482,35.74525],[139.5552,35.7455],[139.55549,35.74565],[139.5562,35.7458],[139.55645,35.74589],[139.55694,35.74613],[139.5575,35.74635],[139.55842,35.74697],[139.55859,35.74704],[139.55884,35.74674],[139.55897,35.74648]]]}},{"type":"Feature","properties":{"id":"area-13229009001","name":"住吉町一丁目"},"geometry":{"type":"Polygon","coordinates":[[[139.54974,35.74473],[139.55001,35.74434],[139.55025,35.74407],[139.55139,35.74298],[139.551,35.74272],[139.55099,35.74274],[139.55052,35.7423],[139.55015,35.74167],[139.54998,35.74148],[139.54982,35.74121],[139.54916,35.74048],[139.54803,35.73967],[139.54715,35.7391],[139.54676,35.73906],[139.5463,35.73894],[139.54633,35.73909],[139.54642,35.73928],[139.54682,35.73986],[139.54693,35.74042],[139.54706,35.74055],[139.54714,35.7407],[139.54719,35.74106],[139.54739,35.74138],[139.54748,35.74173],[139.5475,35.74231],[139.54724,35.74321],[139.54713,35.74464],[139.54777,35.74466],[139.54828,35.74463],[139.54944,35.74483],[139.54945,35.74536],[139.54956,35.74508],[139.54974,35.74473]]]}},{"type":"Feature","properties":{"id":"area-13229009002","name":"住吉町二丁目"},"geometry":{"type":"Polygon","coordinates":[[[139.54644,35.74894],[139.54689,35.74889],[139.54691,35.7482],[139.54695,35.74793],[139.5471,35.74789],[139.54762,35.74785],[139.54768,35.74782],[139.54772,35.74766],[139.54823,35.74767],[139.54838,35.74746],[139.54973,35.74726],[139.54941,35.74621],[139.54941,35.74567],[139.54945,35.74536],[139.54944,35.74483],[139.54828,35.74463],[139.54777,35.74466],[139.54713,35.74464],[139.54705,35.7457],[139.54684,35.74606],[139.54664,35.74656],[139.54658,35.74683],[139.54646,35.74699],[139.5464,35.74737],[139.54634,35.74751],[139.54631,35.74776],[139.54619,35.74818],[139.54589,35.74856],[139.54575,35.74883],[139.54644,35.74894]]]}},{"type":"Feature","properties":{"id":"area-13229009003","name":"住吉町三丁目"},"geometry":{"type":"Polygon","coordinates":[[[139.54786,35.75058],[139.54854,35.75033],[139.54928,35.75],[139.55059,35.74948],[139.55045,35.74913],[139.55013,35.74879],[139.54997,35.74849],[139.54991,35.74822],[139.54986,35.74758],[139.54973,35.74726],[139.54838,35.74746],[139.54823,35.74767],[139.54772,35.74766],[139.54768,35.74782],[139.54762,35.74785],[139.5471,35.74789],[139.54695,35.74793],[139.54691,35.7482],[139.54689,35.74889],[139.54644,35.74894],[139.54575,35.74883],[139.54536,35.74968],[139.54509,35.75005],[139.54499,35.75084],[139.5449,35.75119],[139.54441,35.75122],[139.54466,35.75184],[139.54463,35.75186],[139.54469,35.75194],[139.54471,35.75203],[139.5454,35.75182],[139.54652,35.75134],[139.54708,35.75107],[139.54786,35.75058]]]}},{"type":"Feature","properties":{"id":"area-13229009004","name":"住吉町四丁目"},"geometry":{"type":"Polygon","coordinates":[[[139.55245,35.74619],[139.55177,35.74581],[139.55168,35.74618],[139.55158,35.74629],[139.55077,35.74678],[139.55062,35.74696],[139.55033,35.74707],[139.54971,35.74721],[139.54986,35.74758],[139.54991,35.74822],[139.54997,35.74849],[139.55013,35.74879],[139.55045,35.74913],[139.55059,35.74948],[139.55367,35.7482],[139.5541,35.748],[139.55329,35.74728],[139.55322,35.74718],[139.55305,35.74674],[139.55291,35.74658],[139.55245,35.74619]]]}},{"type":"Feature","properties":{"id":"area-13229009005","name":"住吉町五丁目"},"geometry":{"type":"Polygon","coordinates":[[[139.55677,35.74718],[139.5574,35.74717],[139.55842,35.74727],[139.55859,35.74704],[139.55842,35.74697],[139.5575,35.74635],[139.55694,35.74613],[139.55645,35.74589],[139.5562,35.7458],[139.55549,35.74565],[139.5552,35.7455],[139.55482,35.74525],[139.55414,35.7447],[139.55397,35.74488],[139.55393,35.74522],[139.55391,35.74568],[139.55322,35.74569],[139.55242,35.74563],[139.55187,35.7457],[139.55182,35.74573],[139.55177,35.74581],[139.55245,35.74619],[139.55291,35.74658],[139.55305,35.74674],[139.55322,35.74718],[139.55329,35.74728],[139.55413,35.74801],[139.55535,35.74749],[139.55603,35.74729],[139.55677,35.74718]]]}},{"type":"Feature","properties":{"id":"area-13229009006","name":"住吉町六丁目"},"geometry":{"type":"Polygon","coordinates":[[[139.55241,35.74563],[139.55322,35.74569],[139.55391,35.74568],[139.55393,35.74522],[139.55397,35.74488],[139.55415,35.74467],[139.55351,35.74436],[139.55324,35.74417],[139.55277,35.74393],[139.55179,35.74321],[139.55139,35.74298],[139.55001,35.74434],[139.54974,35.74473],[139.54956,35.74508],[139.54945,35.74536],[139.54942,35.74556],[139.54941,35.74621],[139.54971,35.74721],[139.55033,35.74707],[139.55062,35.74696],[139.55077,35.74678],[139.55158,35.74629],[139.55168,35.74618],[139.55174,35.74588],[139.55182,35.74573],[139.55241,35.74563]]]}},{"type":"Feature","properties":{"id":"area-13229010001","name":"ひばりが丘一丁目"},"geometry":{"type":"Polygon","coordinates":[[[139.5434,35.75],[139.54262,35.74907],[139.54151,35.74942],[139.5413,35.74923],[139.54115,35.74924],[139.53914,35.74906],[139.53835,35.74932],[139.54241,35.75286],[139.54363,35.75235],[139.54466,35.75184],[139.54431,35.75104],[139.54382,35.75042],[139.5434,35.75]]]}},{"type":"Feature","properties":{"id":"area-13229010002","name":"ひばりが丘二丁目"},"geometry":{"type":"Polygon","coordinates":[[[139.54151,35.74942],[139.54262,35.74907],[139.54192,35.74827],[139.54129,35.74762],[139.54051,35.74681],[139.54014,35.74651],[139.53985,35.74601],[139.53982,35.74603],[139.5396,35.74561],[139.53769,35.74628],[139.53756,35.74627],[139.53685,35.74651],[139.53701,35.74679],[139.53742,35.74728],[139.53645,35.74765],[139.5365,35.74769],[139.53655,35.74767],[139.5366,35.74775],[139.5371,35.74817],[139.53707,35.7482],[139.53718,35.7483],[139.53805,35.74902],[139.53835,35.74932],[139.53914,35.74906],[139.54115,35.74924],[139.5413,35.74923],[139.54151,35.74942]]]}},{"type":"Feature","properties":{"id":"area-13229010003","name":"ひばりが丘三丁目"},"geometry":{"type":"Polygon","coordinates":[[[139.53685,35.74651],[139.53756,35.74627],[139.53769,35.74628],[139.53904,35.74579],[139.5388,35.74563],[139.53794,35.744],[139.5368,35.74302],[139.53699,35.74253],[139.53663,35.74245],[139.53618,35.74244],[139.53576,35.74217],[139.5352,35.74188],[139.53332,35.74136],[139.53314,35.74176],[139.53317,35.74179],[139.53289,35.74252],[139.53286,35.74271],[139.53292,35.74272],[139.53283,35.74295],[139.53278,35.74331],[139.53304,35.74335],[139.533,35.74347],[139.5329,35.74371],[139.53267,35.74364],[139.53231,35.74458],[139.53317,35.74454],[139.53338,35.74474],[139.53445,35.74595],[139.53645,35.74765],[139.53742,35.74728],[139.53701,35.74679],[139.53685,35.74651]]]}},{"type":"Feature","properties":{"id":"area-13229010004","name":"ひばりが丘四丁目"},"geometry":{"type":"Polygon","coordinates":[[[139.53231,35.74458],[139.53267,35.74364],[139.5329,35.74371],[139.533,35.74347],[139.53304,35.74335],[139.53278,35.74331],[139.53283,35.74295],[139.53292,35.74272],[139.53286,35.74271],[139.53289,35.74252],[139.53317,35.74179],[139.5323,35.74094],[139.53145,35.74017],[139.53063,35.74083],[139.52928,35.742],[139.5293,35.74203],[139.52737,35.74368],[139.52871,35.74483],[139.53231,35.74458]]]}},{"type":"Feature","properties":{"id":"area-13229011001","name":"ひばりが丘北一丁目"},"geometry":{"type":"Polygon","coordinates":[[[139.55147,35.75328],[139.55152,35.75277],[139.55149,35.75259],[139.55111,35.75139],[139.55109,35.75081],[139.55104,35.75057],[139.55062,35.74946],[139.54831,35.75042],[139.54834,35.75092],[139.54854,35.75221],[139.54855,35.7528],[139.54848,35.75303],[139.54927,35.75308],[139.55032,35.75306],[139.55102,35.75324],[139.55147,35.75328]]]}},{"type":"Feature","properties":{"id":"area-13229011002","name":"ひばりが丘北二丁目"},"geometry":{"type":"Polygon","coordinates":[[[139.55323,35.75561],[139.55274,35.75462],[139.5524,35.75407],[139.55249,35.75391],[139.55282,35.75363],[139.55262,35.75353],[139.55242,35.75346],[139.55147,35.75328],[139.55102,35.75324],[139.55032,35.75306],[139.54927,35.75308],[139.54848,35.75303],[139.54825,35.75335],[139.54816,35.75358],[139.54849,35.75376],[139.54858,35.75379],[139.54861,35.75372],[139.54877,35.75377],[139.54882,35.75368],[139.54965,35.75394],[139.54964,35.75398],[139.54968,35.75399],[139.54963,35.75415],[139.55021,35.7543],[139.55007,35.75461],[139.5501,35.75465],[139.54998,35.75517],[139.55064,35.75537],[139.5507,35.75532],[139.55078,35.755],[139.55173,35.75547],[139.55199,35.75555],[139.55211,35.75555],[139.55209,35.75589],[139.55303,35.7561],[139.55337,35.75582],[139.55323,35.75561]]]}},{"type":"Feature","properties":{"id":"area-13229011003","name":"ひばりが丘北三丁目"},"geometry":{"type":"Polygon","coordinates":[[[139.54675,35.75395],[139.54711,35.75355],[139.54751,35.75371],[139.54803,35.75382],[139.54816,35.75358],[139.54825,35.75335],[139.54849,35.75303],[139.54855,35.7528],[139.54854,35.75221],[139.54834,35.75092],[139.54831,35.75042],[139.5481,35.75047],[139.54786,35.75058],[139.54708,35.75107],[139.54652,35.75134],[139.5454,35.75182],[139.54471,35.75203],[139.54467,35.75243],[139.54517,35.75249],[139.54572,35.75263],[139.54603,35.75332],[139.54618,35.75355],[139.54654,35.75384],[139.54675,35.75395]]]}},{"type":"Feature","properties":{"id":"area-13229011004","name":"ひばりが丘北四丁目"},"geometry":{"type":"Polygon","coordinates":[[[139.5474,35.75457],[139.54704,35.75415],[139.54689,35.75402],[139.54654,35.75384],[139.54618,35.75355],[139.54603,35.75332],[139.54572,35.75263],[139.54517,35.75249],[139.54467,35.75243],[139.54471,35.75203],[139.54469,35.75194],[139.54463,35.75186],[139.54363,35.75235],[139.54241,35.75286],[139.5443,35.75451],[139.5445,35.75455],[139.54464,35.75453],[139.54502,35.75463],[139.54557,35.75484],[139.54641,35.75507],[139.54708,35.75528],[139.54731,35.75469],[139.5474,35.75457]]]}},{"type":"Feature","properties":{"id":"area-13229012001","name":"栄町一丁目"},"geometry":{"type":"Polygon","coordinates":[[[139.55727,35.74989],[139.55748,35.74953],[139.55754,35.74934],[139.55762,35.7488],[139.55773,35.74845],[139.55782,35.74825],[139.55842,35.74727],[139.5574,35.74717],[139.55677,35.74718],[139.55639,35.74722],[139.55576,35.74736],[139.55525,35.74753],[139.55413,35.74801],[139.5541,35.748],[139.55367,35.7482],[139.55062,35.74946],[139.55097,35.75037],[139.55107,35.7507],[139.5515,35.75027],[139.55187,35.75001],[139.55218,35.74995],[139.55248,35.74974],[139.5527,35.74971],[139.55319,35.74987],[139.55351,35.74986],[139.55391,35.74994],[139.55484,35.75028],[139.55488,35.75032],[139.55501,35.75071],[139.55536,35.75106],[139.5558,35.75135],[139.55643,35.75166],[139.55654,35.75167],[139.55687,35.75101],[139.55727,35.74989]]]}},{"type":"Feature","properties":{"id":"area-13229012002","name":"栄町二丁目"},"geometry":{"type":"Polygon","coordinates":[[[139.55415,35.75002],[139.55351,35.74986],[139.55319,35.74987],[139.5527,35.74971],[139.55248,35.74974],[139.55218,35.74995],[139.55187,35.75001],[139.55162,35.75017],[139.55107,35.7507],[139.55111,35.75139],[139.55149,35.75259],[139.55152,35.75277],[139.55147,35.75328],[139.55242,35.75346],[139.55282,35.75363],[139.55323,35.75337],[139.55352,35.75333],[139.55366,35.75328],[139.55393,35.75293],[139.55519,35.75175],[139.55534,35.7515],[139.55556,35.7512],[139.55536,35.75106],[139.55501,35.75071],[139.55488,35.75032],[139.55484,35.75028],[139.55415,35.75002]]]}},{"type":"Feature","properties":{"id":"area-13229012003","name":"栄町三丁目"},"geometry":{"type":"Polygon","coordinates":[[[139.55625,35.75157],[139.55556,35.7512],[139.55534,35.7515],[139.55519,35.75175],[139.55393,35.75293],[139.55366,35.75328],[139.55352,35.75333],[139.55323,35.75337],[139.55282,35.75363],[139.55249,35.75391],[139.5524,35.75407],[139.55274,35.75462],[139.55323,35.75561],[139.55337,35.75582],[139.55374,35.75521],[139.55402,35.75494],[139.55424,35.7546],[139.55488,35.75422],[139.55509,35.75402],[139.55549,35.75341],[139.55588,35.75258],[139.5561,35.75205],[139.55625,35.75157]]]}},{"type":"Feature","properties":{"id":"area-13229013001","name":"北町一丁目"},"geometry":{"type":"Polygon","coordinates":[[[139.55915,35.75448],[139.55949,35.7545],[139.55985,35.75377],[139.55977,35.75364],[139.55939,35.75334],[139.55949,35.75296],[139.55869,35.75278],[139.55776,35.75245],[139.55721,35.75216],[139.55652,35.75167],[139.55625,35.75157],[139.5561,35.75205],[139.55588,35.75258],[139.55549,35.75341],[139.55536,35.7536],[139.55656,35.75388],[139.55698,35.7539],[139.55748,35.75419],[139.55755,35.75438],[139.55885,35.75453],[139.55915,35.75448]]]}},{"type":"Feature","properties":{"id":"area-13229013002","name":"北町二丁目"},"geometry":{"type":"Polygon","coordinates":[[[139.55849,35.75979],[139.55832,35.75876],[139.55833,35.75848],[139.55851,35.75768],[139.5588,35.75674],[139.55901,35.75555],[139.55929,35.75506],[139.55949,35.7545],[139.55915,35.75448],[139.55885,35.75453],[139.55755,35.75438],[139.55748,35.75419],[139.55698,35.7539],[139.55656,35.75388],[139.55536,35.7536],[139.55509,35.75402],[139.55488,35.75422],[139.55424,35.7546],[139.55402,35.75494],[139.55374,35.75521],[139.55341,35.75576],[139.55511,35.7559],[139.55538,35.75669],[139.55549,35.75688],[139.5556,35.75721],[139.55566,35.75742],[139.55564,35.75754],[139.55567,35.75764],[139.55608,35.75766],[139.5561,35.75791],[139.55608,35.75807],[139.5564,35.7581],[139.55641,35.75904],[139.55729,35.75905],[139.55739,35.75913],[139.55749,35.75961],[139.55755,35.75967],[139.55779,35.75964],[139.55783,35.75984],[139.55788,35.75991],[139.55812,35.7599],[139.55849,35.75979]]]}},{"type":"Feature","properties":{"id":"area-13229013003","name":"北町三丁目"},"geometry":{"type":"Polygon","coordinates":[[[139.56192,35.75947],[139.56163,35.75886],[139.5613,35.75846],[139.56093,35.75775],[139.56071,35.75754],[139.56018,35.75683],[139.55977,35.75618],[139.55928,35.7555],[139.55921,35.75523],[139.55901,35.75555],[139.5588,35.75674],[139.55851,35.75768],[139.55833,35.75848],[139.55832,35.75876],[139.55849,35.75979],[139.55861,35.75977],[139.55871,35.75969],[139.55872,35.75941],[139.55884,35.75944],[139.55894,35.75934],[139.55922,35.75939],[139.55922,35.75959],[139.55981,35.75943],[139.56004,35.7594],[139.5603,35.75942],[139.56055,35.75947],[139.56209,35.75992],[139.56192,35.75947]]]}},{"type":"Feature","properties":{"id":"area-13229013004","name":"北町四丁目"},"geometry":{"type":"Polygon","coordinates":[[[139.56292,35.76156],[139.56287,35.76152],[139.56371,35.76155],[139.56374,35.76096],[139.5639,35.76012],[139.56401,35.75977],[139.56414,35.75959],[139.56466,35.75909],[139.56477,35.75893],[139.56487,35.75864],[139.56497,35.75851],[139.56506,35.75847],[139.56533,35.75849],[139.56605,35.75735],[139.56616,35.75695],[139.56565,35.75705],[139.56504,35.75726],[139.56471,35.75731],[139.56399,35.75749],[139.56329,35.75749],[139.56305,35.75771],[139.56264,35.75792],[139.5617,35.75796],[139.56162,35.75805],[139.56193,35.75854],[139.56152,35.75872],[139.56163,35.75886],[139.56192,35.75947],[139.56209,35.75992],[139.56218,35.76009],[139.56229,35.76019],[139.56163,35.76025],[139.56163,35.76035],[139.56169,35.76037],[139.56164,35.76117],[139.56292,35.76156]]]}},{"type":"Feature","properties":{"id":"area-13229013005","name":"北町五丁目"},"geometry":{"type":"Polygon","coordinates":[[[139.56329,35.75749],[139.56399,35.75749],[139.56471,35.75731],[139.56513,35.75724],[139.56565,35.75705],[139.56664,35.75684],[139.56663,35.75658],[139.5667,35.75631],[139.56671,35.7556],[139.56675,35.75558],[139.56564,35.75567],[139.56515,35.75554],[139.56447,35.75542],[139.5639,35.75521],[139.5636,35.75492],[139.56323,35.75443],[139.56318,35.75427],[139.56332,35.75392],[139.56303,35.75369],[139.56281,35.75343],[139.56247,35.75335],[139.56223,35.75334],[139.5618,35.75336],[139.56165,35.75341],[139.56148,35.75359],[139.56142,35.75362],[139.56136,35.75373],[139.56129,35.75461],[139.56131,35.75469],[139.56157,35.75482],[139.56142,35.75546],[139.56128,35.75637],[139.56125,35.75646],[139.56104,35.75672],[139.56047,35.75723],[139.56071,35.75754],[139.56093,35.75775],[139.5613,35.75846],[139.56152,35.75872],[139.56193,35.75854],[139.56162,35.75805],[139.5617,35.75796],[139.56264,35.75792],[139.56305,35.75771],[139.56329,35.75749]]]}},{"type":"Feature","properties":{"id":"area-13229013006","name":"北町六丁目"},"geometry":{"type":"Polygon","coordinates":[[[139.56029,35.75314],[139.55949,35.75296],[139.55939,35.75334],[139.55977,35.75364],[139.55985,35.75377],[139.55949,35.7545],[139.55921,35.75523],[139.55928,35.7555],[139.56047,35.75723],[139.56104,35.75672],[139.56125,35.75646],[139.56128,35.75637],[139.56142,35.75546],[139.56157,35.75482],[139.56131,35.75469],[139.56129,35.75461],[139.56136,35.75373],[139.56142,35.75362],[139.56029,35.75314]]]}},{"type":"Feature","properties":{"id":"area-13229014001","name":"下保谷一丁目"},"geometry":{"type":"Polygon","coordinates":[[[139.56161,35.74761],[139.55842,35.74727],[139.55782,35.74825],[139.55773,35.74845],[139.55762,35.7488],[139.55754,35.74934],[139.55748,35.74953],[139.55721,35.75005],[139.55801,35.75033],[139.55862,35.75051],[139.55952,35.75094],[139.55966,35.75111],[139.55983,35.75121],[139.56025,35.75032],[139.56084,35.74941],[139.561,35.74905],[139.56129,35.74823],[139.56147,35.74794],[139.56161,35.74761]]]}},{"type":"Feature","properties":{"id":"area-13229014002","name":"下保谷二丁目"},"geometry":{"type":"Polygon","coordinates":[[[139.5618,35.75336],[139.56247,35.75335],[139.56276,35.75341],[139.56319,35.75295],[139.56331,35.75273],[139.56334,35.75261],[139.56236,35.75242],[139.56144,35.75214],[139.5609,35.75187],[139.56006,35.75133],[139.55984,35.75126],[139.55983,35.75121],[139.55966,35.75111],[139.55952,35.75094],[139.55929,35.75082],[139.55844,35.75043],[139.55801,35.75033],[139.55721,35.75005],[139.55687,35.75101],[139.55667,35.75143],[139.55652,35.75167],[139.55653,35.75169],[139.55721,35.75216],[139.55776,35.75245],[139.55828,35.75266],[139.55869,35.75278],[139.55996,35.75304],[139.56029,35.75314],[139.56142,35.75362],[139.56148,35.75359],[139.56165,35.75341],[139.5618,35.75336]]]}},{"type":"Feature","properties":{"id":"area-13229014003","name":"下保谷三丁目"},"geometry":{"type":"Polygon","coordinates":[[[139.56564,35.75567],[139.56675,35.75558],[139.56717,35.75543],[139.56717,35.75526],[139.56756,35.7552],[139.56779,35.75507],[139.56802,35.75505],[139.56793,35.75404],[139.56794,35.75357],[139.5681,35.75334],[139.5687,35.75267],[139.56889,35.7524],[139.56923,35.75143],[139.56838,35.75128],[139.5678,35.75126],[139.5669,35.75139],[139.5653,35.75182],[139.56444,35.75218],[139.5643,35.75222],[139.5636,35.752],[139.56331,35.75273],[139.56319,35.75295],[139.56276,35.75341],[139.56281,35.75343],[139.56303,35.75369],[139.56332,35.75392],[139.56318,35.75427],[139.56323,35.75443],[139.5636,35.75492],[139.5639,35.75521],[139.56447,35.75542],[139.56515,35.75554],[139.56564,35.75567]]]}},{"type":"Feature","properties":{"id":"area-13229014004","name":"下保谷四丁目"},"geometry":{"type":"Polygon","coordinates":[[[139.5669,35.75139],[139.5678,35.75126],[139.56838,35.75128],[139.56923,35.75143],[139.56931,35.75115],[139.56926,35.75075],[139.56919,35.75058],[139.56933,35.75029],[139.56939,35.74996],[139.56839,35.75013],[139.56792,35.75015],[139.56812,35.74933],[139.56821,35.74912],[139.56873,35.74833],[139.56571,35.74802],[139.56529,35.74789],[139.56531,35.74805],[139.5651,35.74907],[139.56433,35.75018],[139.56415,35.75053],[139.5636,35.752],[139.5643,35.75222],[139.56444,35.75218],[139.5653,35.75182],[139.5669,35.75139]]]}},{"type":"Feature","properties":{"id":"area-13229014005","name":"下保谷五丁目"},"geometry":{"type":"Polygon","coordinates":[[[139.56529,35.74789],[139.56473,35.74785],[139.56329,35.74769],[139.56326,35.74776],[139.562,35.74762],[139.56161,35.74761],[139.56147,35.74794],[139.56129,35.74823],[139.561,35.74905],[139.56084,35.74941],[139.56025,35.75032],[139.55991,35.75101],[139.55983,35.75121],[139.55984,35.75126],[139.56006,35.75133],[139.5609,35.75187],[139.56144,35.75214],[139.56236,35.75242],[139.56334,35.75261],[139.56415,35.75053],[139.56433,35.75018],[139.5651,35.74907],[139.56526,35.7483],[139.5653,35.74793],[139.56529,35.74789]]]}},{"type":"Feature","properties":{"id":"area-13229015001","name":"田無町一丁目"},"geometry":{"type":"Polygon","coordinates":[[[139.54511,35.73135],[139.54599,35.7314],[139.54655,35.73146],[139.54653,35.7312],[139.54604,35.73124],[139.54597,35.73084],[139.5468,35.73066],[139.54681,35.73035],[139.54693,35.73026],[139.54758,35.73024],[139.54751,35.72969],[139.54771,35.72951],[139.548,35.72911],[139.5484,35.72838],[139.54802,35.72838],[139.54752,35.72829],[139.54575,35.72935],[139.54154,35.73176],[139.54283,35.73174],[139.54324,35.7317],[139.54438,35.73146],[139.54511,35.73135]]]}},{"type":"Feature","properties":{"id":"area-13229015002","name":"田無町二丁目"},"geometry":{"type":"Polygon","coordinates":[[[139.54331,35.7288],[139.54351,35.72883],[139.54417,35.72916],[139.54448,35.72926],[139.54586,35.72927],[139.54752,35.72829],[139.54705,35.72821],[139.54638,35.72821],[139.54359,35.72784],[139.54336,35.72786],[139.54206,35.72767],[139.541,35.72758],[139.54101,35.72763],[139.54063,35.7276],[139.54045,35.72764],[139.54021,35.72761],[139.5402,35.72764],[139.53954,35.72757],[139.53984,35.7291],[139.53996,35.72955],[139.54154,35.72915],[139.54331,35.7288]]]}},{"type":"Feature","properties":{"id":"area-13229015003","name":"田無町三丁目"},"geometry":{"type":"Polygon","coordinates":[[[139.54154,35.73176],[139.54586,35.72927],[139.54448,35.72926],[139.54429,35.72921],[139.54351,35.72883],[139.54336,35.72879],[139.54154,35.72915],[139.53996,35.72955],[139.5405,35.73181],[139.54154,35.73176]]]}},{"type":"Feature","properties":{"id":"area-13229015004","name":"田無町四丁目"},"geometry":{"type":"Polygon","coordinates":[[[139.53996,35.72955],[139.53954,35.72757],[139.5402,35.72764],[139.54021,35.72761],[139.54045,35.72764],[139.54063,35.7276],[139.54101,35.72763],[139.54103,35.72731],[139.5396,35.72715],[139.53952,35.7271],[139.53933,35.72708],[139.53932,35.72712],[139.53925,35.72712],[139.53786,35.72695],[139.53669,35.72692],[139.53569,35.72681],[139.53559,35.72699],[139.53369,35.72673],[139.53226,35.72659],[139.53484,35.72879],[139.53501,35.72897],[139.53548,35.72986],[139.53563,35.73008],[139.5358,35.73052],[139.53996,35.72955]]]}},{"type":"Feature","properties":{"id":"area-13229015005","name":"田無町五丁目"},"geometry":{"type":"Polygon","coordinates":[[[139.5405,35.73181],[139.53996,35.72955],[139.53562,35.73057],[139.53601,35.73218],[139.5362,35.73251],[139.53824,35.73203],[139.53893,35.73192],[139.5405,35.73181]]]}},{"type":"Feature","properties":{"id":"area-13229015006","name":"田無町六丁目"},"geometry":{"type":"Polygon","coordinates":[[[139.53484,35.72879],[139.53279,35.72704],[139.53163,35.72764],[139.53066,35.72781],[139.53056,35.72941],[139.53099,35.73022],[139.53378,35.73056],[139.53453,35.73062],[139.53495,35.73063],[139.53562,35.73057],[139.5358,35.73052],[139.53563,35.73008],[139.53548,35.72986],[139.53501,35.72897],[139.53484,35.72879]]]}},{"type":"Feature","properties":{"id":"area-13229015007","name":"田無町七丁目"},"geometry":{"type":"Polygon","coordinates":[[[139.53601,35.73218],[139.53562,35.73057],[139.53495,35.73063],[139.53453,35.73062],[139.53378,35.73056],[139.53178,35.7303],[139.53099,35.73022],[139.53062,35.73023],[139.53065,35.73061],[139.53092,35.73158],[139.52847,35.73239],[139.52957,35.73303],[139.53082,35.73383],[139.5362,35.73251],[139.53601,35.73218]]]}},{"type":"Feature","properties":{"id":"area-13229016001","name":"南町一丁目"},"geometry":{"type":"Polygon","coordinates":[[[139.5484,35.72838],[139.54875,35.72773],[139.54876,35.72757],[139.54931,35.72722],[139.54928,35.7268],[139.5491,35.72616],[139.54911,35.72579],[139.54932,35.72432],[139.5493,35.72426],[139.54835,35.72486],[139.5477,35.72541],[139.54723,35.72557],[139.54611,35.72582],[139.5458,35.72594],[139.54508,35.72633],[139.5441,35.72713],[139.54356,35.72784],[139.54638,35.72821],[139.54705,35.72821],[139.54802,35.72838],[139.5484,35.72838]]]}},{"type":"Feature","properties":{"id":"area-13229016002","name":"南町二丁目"},"geometry":{"type":"Polygon","coordinates":[[[139.54937,35.7225],[139.54936,35.72174],[139.54834,35.72198],[139.54828,35.72179],[139.54733,35.72202],[139.54741,35.72221],[139.54638,35.72245],[139.54592,35.72289],[139.54568,35.72327],[139.54544,35.72385],[139.54516,35.72432],[139.54499,35.72484],[139.54427,35.72655],[139.5441,35.72713],[139.54508,35.72633],[139.5458,35.72594],[139.54611,35.72582],[139.54723,35.72557],[139.5477,35.72541],[139.54835,35.72486],[139.5493,35.72426],[139.54937,35.7225]]]}},{"type":"Feature","properties":{"id":"area-13229016003","name":"南町三丁目"},"geometry":{"type":"Polygon","coordinates":[[[139.54282,35.72221],[139.54237,35.72218],[139.54198,35.72304],[139.54193,35.72329],[139.5419,35.72381],[139.54183,35.72434],[139.5412,35.72652],[139.541,35.72758],[139.54206,35.72767],[139.54336,35.72786],[139.54356,35.72784],[139.5441,35.72713],[139.54427,35.72655],[139.54499,35.72484],[139.54516,35.72432],[139.54536,35.72402],[139.54557,35.7235],[139.54574,35.72318],[139.54515,35.72286],[139.54469,35.72244],[139.54282,35.72221]]]}},{"type":"Feature","properties":{"id":"area-13229016004","name":"南町四丁目"},"geometry":{"type":"Polygon","coordinates":[[[139.54103,35.72731],[139.5412,35.72652],[139.54183,35.72434],[139.5419,35.72381],[139.54193,35.72329],[139.54198,35.72304],[139.5424,35.72216],[139.54071,35.72209],[139.54075,35.72247],[139.53901,35.72252],[139.53892,35.7232],[139.53895,35.72321],[139.53891,35.72332],[139.53872,35.72358],[139.53882,35.72438],[139.53893,35.72487],[139.53945,35.72654],[139.53945,35.72668],[139.53913,35.72666],[139.53925,35.72712],[139.53932,35.72712],[139.53933,35.72708],[139.53952,35.7271],[139.5396,35.72715],[139.54103,35.72731]]]}},{"type":"Feature","properties":{"id":"area-13229016005","name":"南町五丁目"},"geometry":{"type":"Polygon","coordinates":[[[139.53925,35.72712],[139.53913,35.72666],[139.53945,35.72668],[139.53945,35.72654],[139.53893,35.72487],[139.53882,35.72438],[139.53872,35.72358],[139.53891,35.72332],[139.53895,35.72321],[139.53833,35.72281],[139.53818,35.72256],[139.53775,35.72216],[139.53745,35.72206],[139.53716,35.72203],[139.5371,35.72205],[139.53705,35.72214],[139.537,35.72217],[139.53584,35.72244],[139.53413,35.72304],[139.53379,35.72293],[139.53323,35.72308],[139.5348,35.72463],[139.53511,35.72485],[139.53491,35.72499],[139.53551,35.72604],[139.53607,35.72685],[139.53669,35.72692],[139.53786,35.72695],[139.53925,35.72712]]]}},{"type":"Feature","properties":{"id":"area-13229016006","name":"南町六丁目"},"geometry":{"type":"Polygon","coordinates":[[[139.53559,35.72699],[139.53569,35.72681],[139.53607,35.72685],[139.53551,35.72604],[139.53491,35.72499],[139.53511,35.72485],[139.5348,35.72463],[139.53323,35.72308],[139.5329,35.72301],[139.53207,35.72324],[139.53187,35.72319],[139.53147,35.72284],[139.53073,35.72274],[139.5294,35.72237],[139.52884,35.72227],[139.52838,35.72223],[139.52846,35.72252],[139.52936,35.72359],[139.52988,35.72426],[139.53057,35.72506],[139.53074,35.72524],[139.5313,35.72566],[139.53226,35.72659],[139.53369,35.72673],[139.53559,35.72699]]]}},{"type":"Feature","properties":{"id":"area-13229017001","name":"西原町一丁目"},"geometry":{"type":"Polygon","coordinates":[[[139.53754,35.73461],[139.53835,35.73356],[139.53869,35.73324],[139.53939,35.73281],[139.54055,35.73237],[139.54089,35.73219],[139.54124,35.73194],[139.54139,35.73176],[139.53893,35.73192],[139.53824,35.73203],[139.5362,35.73251],[139.53619,35.73253],[139.53634,35.73288],[139.53649,35.73344],[139.53661,35.73423],[139.53665,35.73423],[139.53686,35.73487],[139.53706,35.7353],[139.53754,35.73461]]]}},{"type":"Feature","properties":{"id":"area-13229017002","name":"西原町二丁目"},"geometry":{"type":"Polygon","coordinates":[[[139.53685,35.73482],[139.53665,35.73423],[139.53661,35.73423],[139.53649,35.73344],[139.53634,35.73288],[139.53619,35.73253],[139.5362,35.73251],[139.53091,35.7338],[139.53248,35.73468],[139.53333,35.73543],[139.53364,35.73578],[139.53409,35.73608],[139.53474,35.73639],[139.53569,35.7365],[139.53635,35.73661],[139.53706,35.7353],[139.53685,35.73482]]]}},{"type":"Feature","properties":{"id":"area-13229017003","name":"西原町三丁目"},"geometry":{"type":"Polygon","coordinates":[[[139.53444,35.73747],[139.53633,35.73661],[139.53569,35.7365],[139.53474,35.73639],[139.53409,35.73608],[139.53364,35.73578],[139.53333,35.73543],[139.53248,35.73468],[139.53091,35.7338],[139.52861,35.73437],[139.52917,35.73478],[139.53049,35.73617],[139.53066,35.73637],[139.53155,35.73781],[139.53183,35.7384],[139.53212,35.73862],[139.53251,35.73883],[139.53298,35.73852],[139.53381,35.73784],[139.53444,35.73747]]]}},{"type":"Feature","properties":{"id":"area-13229017004","name":"西原町四丁目"},"geometry":{"type":"Polygon","coordinates":[[[139.53066,35.74003],[139.53251,35.73883],[139.53212,35.73862],[139.53183,35.7384],[139.53155,35.73781],[139.53066,35.73637],[139.53049,35.73617],[139.52917,35.73478],[139.52861,35.73437],[139.52349,35.73565],[139.52472,35.73649],[139.52932,35.73976],[139.52961,35.73984],[139.52964,35.73982],[139.53066,35.74003]]]}},{"type":"Feature","properties":{"id":"area-13229017005","name":"西原町五丁目"},"geometry":{"type":"Polygon","coordinates":[[[139.53384,35.74026],[139.53509,35.73858],[139.5358,35.73777],[139.53602,35.73726],[139.53635,35.73663],[139.53628,35.7366],[139.53444,35.73747],[139.53381,35.73784],[139.53298,35.73852],[139.53066,35.74003],[139.53134,35.74025],[139.53145,35.74017],[139.5323,35.74094],[139.53314,35.74176],[139.53384,35.74026]]]}},{"type":"Feature","properties":{"id":"area-13229018001","name":"緑町一丁目"},"geometry":{"type":"Polygon","coordinates":[[[139.53861,35.74066],[139.53947,35.73988],[139.54224,35.74041],[139.5425,35.73949],[139.54352,35.7397],[139.54353,35.73967],[139.54345,35.73869],[139.54246,35.73866],[139.54244,35.73809],[139.54208,35.7379],[139.54203,35.73781],[139.54206,35.73771],[139.54204,35.73737],[139.54168,35.73644],[139.54164,35.73643],[139.54171,35.73586],[139.54162,35.73569],[139.54157,35.73539],[139.54162,35.73511],[139.54147,35.73472],[139.54141,35.73432],[139.54147,35.73412],[139.54157,35.73398],[139.54164,35.73379],[139.54168,35.73326],[139.54104,35.73324],[139.54098,35.73276],[139.54102,35.73275],[139.54089,35.73219],[139.54055,35.73237],[139.53939,35.73281],[139.53886,35.73312],[139.53851,35.73338],[139.5381,35.73385],[139.53706,35.7353],[139.53641,35.73647],[139.53681,35.7365],[139.53681,35.73709],[139.53671,35.73775],[139.5368,35.73812],[139.53662,35.73847],[139.53604,35.73899],[139.53599,35.73922],[139.53589,35.73943],[139.53693,35.73992],[139.53757,35.73996],[139.53758,35.74013],[139.53749,35.74043],[139.53798,35.74069],[139.5383,35.74077],[139.53861,35.74092],[139.53861,35.74066]]]}},{"type":"Feature","properties":{"id":"area-13229018002","name":"緑町二丁目"},"geometry":{"type":"Polygon","coordinates":[[[139.53681,35.73687],[139.53681,35.7365],[139.53641,35.73647],[139.53632,35.73661],[139.53635,35.73663],[139.53602,35.73726],[139.5358,35.73777],[139.53509,35.73858],[139.53395,35.74009],[139.53384,35.74026],[139.53332,35.74136],[139.5352,35.74188],[139.53576,35.74217],[139.53618,35.74244],[139.53737,35.74165],[139.53788,35.74144],[139.5386,35.74101],[139.53861,35.74092],[139.5383,35.74077],[139.53798,35.74069],[139.53749,35.74043],[139.53758,35.74013],[139.53757,35.73996],[139.53693,35.73992],[139.53589,35.73943],[139.53599,35.73922],[139.53604,35.73899],[139.53662,35.73847],[139.5368,35.73812],[139.53671,35.73775],[139.53676,35.7375],[139.53681,35.73687]]]}},{"type":"Feature","properties":{"id":"area-13229018003","name":"緑町三丁目"},"geometry":{"type":"Polygon","coordinates":[[[139.53988,35.74214],[139.54102,35.74208],[139.5418,35.74217],[139.54323,35.7424],[139.54354,35.7401],[139.54353,35.73967],[139.54352,35.7397],[139.5425,35.73949],[139.54224,35.74041],[139.53947,35.73988],[139.53861,35.74066],[139.5386,35.74101],[139.53788,35.74144],[139.53737,35.74165],[139.53618,35.74244],[139.53663,35.74245],[139.53713,35.74258],[139.53749,35.74247],[139.53854,35.74243],[139.53988,35.74214]]]}},{"type":"Feature","properties":{"id":"area-13229020001","name":"谷戸町一丁目"},"geometry":{"type":"Polygon","coordinates":[[[139.546,35.7423],[139.54691,35.74233],[139.5475,35.74231],[139.5475,35.74187],[139.54743,35.74148],[139.54733,35.74126],[139.54719,35.74106],[139.54714,35.7407],[139.54706,35.74055],[139.54693,35.74042],[139.54682,35.73986],[139.54642,35.73928],[139.54633,35.73909],[139.5463,35.73894],[139.54601,35.73891],[139.5453,35.73871],[139.5451,35.73869],[139.544,35.73868],[139.54376,35.73867],[139.54344,35.73861],[139.54352,35.73946],[139.54354,35.7401],[139.54323,35.7424],[139.54333,35.74241],[139.54316,35.7431],[139.54304,35.74432],[139.54392,35.74428],[139.54414,35.74424],[139.54453,35.74411],[139.54494,35.74386],[139.5454,35.74378],[139.54558,35.74371],[139.54575,35.74271],[139.546,35.7423]]]}},{"type":"Feature","properties":{"id":"area-13229020002","name":"谷戸町二丁目"},"geometry":{"type":"Polygon","coordinates":[[[139.5434,35.75],[139.54342,35.74949],[139.54344,35.7495],[139.54344,35.74946],[139.54316,35.7489],[139.54286,35.74816],[139.54287,35.74743],[139.54299,35.74556],[139.54303,35.74443],[139.54316,35.7431],[139.54333,35.74241],[139.5418,35.74217],[139.54102,35.74208],[139.54069,35.74208],[139.53988,35.74214],[139.53854,35.74243],[139.53749,35.74247],[139.53713,35.74258],[139.53699,35.74253],[139.5368,35.74302],[139.53794,35.744],[139.5388,35.74563],[139.53907,35.74581],[139.5396,35.74561],[139.53982,35.74603],[139.53985,35.74601],[139.54014,35.74651],[139.54051,35.74681],[139.54192,35.74827],[139.5434,35.75]]]}},{"type":"Feature","properties":{"id":"area-13229020003","name":"谷戸町三丁目"},"geometry":{"type":"Polygon","coordinates":[[[139.54536,35.74968],[139.54582,35.74867],[139.54619,35.74818],[139.54631,35.74776],[139.54634,35.74751],[139.5464,35.74737],[139.54646,35.74699],[139.54658,35.74683],[139.54664,35.74656],[139.54684,35.74606],[139.54705,35.7457],[139.54724,35.74321],[139.5475,35.74231],[139.54691,35.74233],[139.546,35.7423],[139.54575,35.74271],[139.54558,35.74371],[139.5454,35.74378],[139.54494,35.74386],[139.54453,35.74411],[139.54414,35.74424],[139.54392,35.74428],[139.54304,35.74432],[139.54287,35.74743],[139.54286,35.74816],[139.54316,35.7489],[139.54344,35.74946],[139.54344,35.7495],[139.54342,35.74949],[139.5434,35.75],[139.54382,35.75042],[139.54431,35.75104],[139.54441,35.75122],[139.5449,35.75119],[139.54499,35.75084],[139.54509,35.75005],[139.54536,35.74968]]]}},{"type":"Feature","properties":{"id":"area-13229021001","name":"北原町一丁目"},"geometry":{"type":"Polygon","coordinates":[[[139.54635,35.73862],[139.54638,35.7385],[139.54662,35.73851],[139.54659,35.7383],[139.54666,35.73812],[139.54674,35.73767],[139.54677,35.73723],[139.54685,35.73685],[139.54681,35.73631],[139.54676,35.73618],[139.54677,35.73535],[139.54667,35.73354],[139.54654,35.73231],[139.54657,35.73146],[139.54599,35.7314],[139.54511,35.73135],[139.54438,35.73146],[139.54324,35.7317],[139.54239,35.73175],[139.54243,35.73194],[139.54262,35.73229],[139.54347,35.73334],[139.54446,35.73437],[139.54507,35.73488],[139.54558,35.73589],[139.54588,35.73676],[139.54592,35.73753],[139.54573,35.73854],[139.54564,35.73882],[139.54601,35.73891],[139.54638,35.73895],[139.54646,35.73864],[139.54635,35.73862]]]}},{"type":"Feature","properties":{"id":"area-13229021002","name":"北原町二丁目"},"geometry":{"type":"Polygon","coordinates":[[[139.54569,35.73868],[139.54592,35.73753],[139.54588,35.73676],[139.54558,35.73589],[139.54502,35.73481],[139.54446,35.73437],[139.54368,35.73358],[139.54317,35.73297],[139.54316,35.73381],[139.54332,35.73487],[139.54326,35.73537],[139.54307,35.73628],[139.54306,35.73649],[139.54321,35.73678],[139.54335,35.73722],[139.54333,35.73759],[139.54344,35.73861],[139.54376,35.73867],[139.544,35.73868],[139.5451,35.73869],[139.5453,35.73871],[139.54564,35.73882],[139.54569,35.73868]]]}},{"type":"Feature","properties":{"id":"area-13229021003","name":"北原町三丁目"},"geometry":{"type":"Polygon","coordinates":[[[139.54316,35.73381],[139.54317,35.73297],[139.54262,35.73229],[139.54243,35.73194],[139.54239,35.73175],[139.54139,35.73176],[139.54124,35.73194],[139.54089,35.73219],[139.54102,35.73275],[139.54098,35.73276],[139.54104,35.73324],[139.54168,35.73326],[139.54164,35.73379],[139.54157,35.73398],[139.54147,35.73412],[139.54141,35.73432],[139.54147,35.73472],[139.54162,35.73511],[139.54157,35.73539],[139.54162,35.73569],[139.54171,35.73586],[139.54164,35.73643],[139.54168,35.73644],[139.54204,35.73737],[139.54206,35.73771],[139.54203,35.73781],[139.54208,35.7379],[139.54244,35.73809],[139.54246,35.73866],[139.54343,35.7387],[139.54342,35.73832],[139.54333,35.73759],[139.54335,35.73722],[139.54321,35.73678],[139.54306,35.73649],[139.54307,35.73628],[139.54326,35.73537],[139.54332,35.73487],[139.54316,35.73381]]]}},{"type":"Feature","properties":{"id":"area-13229022001","name":"向台町一丁目"},"geometry":{"type":"Polygon","coordinates":[[[139.54733,35.72202],[139.54828,35.72179],[139.54834,35.72198],[139.54936,35.72174],[139.54928,35.72036],[139.54932,35.71909],[139.5476,35.71902],[139.54706,35.71891],[139.54635,35.71872],[139.54354,35.71763],[139.54284,35.72092],[139.54276,35.72104],[139.54278,35.72107],[139.54269,35.72136],[139.54235,35.72215],[139.54469,35.72244],[139.54515,35.72286],[139.54574,35.72318],[139.54592,35.72289],[139.54638,35.72245],[139.54741,35.72221],[139.54733,35.72202]]]}},{"type":"Feature","properties":{"id":"area-13229022002","name":"向台町二丁目"},"geometry":{"type":"Polygon","coordinates":[[[139.54075,35.72247],[139.54071,35.72209],[139.54235,35.72215],[139.54269,35.72136],[139.54278,35.72107],[139.54276,35.72104],[139.54284,35.72092],[139.54354,35.71763],[139.54211,35.71707],[139.54084,35.71666],[139.54039,35.71644],[139.53881,35.71603],[139.53887,35.71686],[139.53905,35.71741],[139.53919,35.71862],[139.53925,35.71888],[139.53909,35.72061],[139.53906,35.72184],[139.53897,35.72239],[139.53901,35.72252],[139.54075,35.72247]]]}},{"type":"Feature","properties":{"id":"area-13229022003","name":"向台町三丁目"},"geometry":{"type":"Polygon","coordinates":[[[139.53897,35.72239],[139.53906,35.72184],[139.53909,35.72061],[139.53925,35.71888],[139.53919,35.71862],[139.53905,35.71741],[139.53887,35.71686],[139.53881,35.71603],[139.53816,35.71595],[139.53797,35.71597],[139.53704,35.71616],[139.53361,35.7165],[139.53269,35.7169],[139.53298,35.71883],[139.53378,35.71868],[139.53473,35.71855],[139.53475,35.71874],[139.53626,35.71856],[139.53629,35.71904],[139.5363,35.72066],[139.53635,35.72096],[139.53654,35.72161],[139.5366,35.72225],[139.537,35.72217],[139.53705,35.72214],[139.5371,35.72205],[139.53716,35.72203],[139.53763,35.7221],[139.53785,35.72223],[139.53818,35.72256],[139.53833,35.72281],[139.53892,35.7232],[139.53899,35.72273],[139.53901,35.72252],[139.53897,35.72239]]]}},{"type":"Feature","properties":{"id":"area-13229022004","name":"向台町四丁目"},"geometry":{"type":"Polygon","coordinates":[[[139.53323,35.72308],[139.53379,35.72293],[139.53413,35.72304],[139.53584,35.72244],[139.5366,35.72225],[139.53654,35.72161],[139.53635,35.72096],[139.5363,35.72066],[139.53629,35.71904],[139.53626,35.71856],[139.53475,35.71874],[139.53473,35.71855],[139.53378,35.71868],[139.53298,35.71883],[139.53269,35.7169],[139.53361,35.7165],[139.532,35.71663],[139.53116,35.71673],[139.53043,35.71732],[139.53062,35.71788],[139.53088,35.71918],[139.53094,35.71952],[139.53101,35.7203],[139.53137,35.72122],[139.53155,35.72146],[139.53178,35.72168],[139.53226,35.72204],[139.53313,35.72306],[139.53323,35.72308]]]}},{"type":"Feature","properties":{"id":"area-13229022005","name":"向台町五丁目"},"geometry":{"type":"Polygon","coordinates":[[[139.53207,35.72324],[139.5329,35.72301],[139.53313,35.72306],[139.53226,35.72204],[139.53178,35.72168],[139.53155,35.72146],[139.53137,35.72122],[139.53101,35.7203],[139.53094,35.71952],[139.53088,35.71918],[139.53062,35.71788],[139.53043,35.71732],[139.53015,35.71753],[139.52906,35.71785],[139.52752,35.71843],[139.52807,35.71982],[139.52811,35.72004],[139.52809,35.72064],[139.52817,35.72141],[139.52833,35.7222],[139.52838,35.72224],[139.52854,35.72223],[139.5294,35.72237],[139.53073,35.72274],[139.53147,35.72284],[139.53187,35.72319],[139.53207,35.72324]]]}},{"type":"Feature","properties":{"id":"area-13229022006","name":"向台町六丁目"},"geometry":{"type":"Polygon","coordinates":[[[139.5259,35.72282],[139.52634,35.72274],[139.52651,35.72268],[139.52745,35.72224],[139.52782,35.72218],[139.52833,35.7222],[139.52817,35.72141],[139.52809,35.72064],[139.52811,35.72004],[139.52807,35.71982],[139.52752,35.71843],[139.52684,35.71868],[139.52685,35.7186],[139.52644,35.71745],[139.52293,35.71752],[139.52293,35.7189],[139.52473,35.71928],[139.52474,35.71934],[139.52413,35.72066],[139.52346,35.72199],[139.5237,35.72244],[139.52395,35.72263],[139.52406,35.72266],[139.52498,35.72277],[139.5259,35.72282]]]}},{"type":"Feature","properties":{"id":"area-13229023001","name":"芝久保町一丁目"},"geometry":{"type":"Polygon","coordinates":[[[139.53094,35.7254],[139.53057,35.72506],[139.52988,35.72426],[139.52936,35.72359],[139.52846,35.72252],[139.52838,35.72224],[139.52833,35.7222],[139.52782,35.72218],[139.52745,35.72224],[139.52634,35.72274],[139.5259,35.72282],[139.52552,35.72281],[139.52426,35.72269],[139.52395,35.72263],[139.5237,35.72244],[139.52346,35.72199],[139.52312,35.72271],[139.52299,35.72284],[139.52328,35.72308],[139.52063,35.72519],[139.52372,35.72556],[139.53215,35.72647],[139.5313,35.72566],[139.53094,35.7254]]]}},{"type":"Feature","properties":{"id":"area-13229023002","name":"芝久保町二丁目"},"geometry":{"type":"Polygon","coordinates":[[[139.52272,35.72542],[139.52107,35.72526],[139.52063,35.72519],[139.51949,35.72607],[139.52118,35.72654],[139.52234,35.72692],[139.52373,35.72741],[139.52735,35.72824],[139.5289,35.72876],[139.52961,35.72891],[139.53024,35.7292],[139.53056,35.72939],[139.53066,35.72781],[139.53163,35.72764],[139.53279,35.72704],[139.53215,35.72647],[139.52372,35.72556],[139.52272,35.72542]]]}},{"type":"Feature","properties":{"id":"area-13229023003","name":"芝久保町三丁目"},"geometry":{"type":"Polygon","coordinates":[[[139.52509,35.72969],[139.52623,35.72967],[139.52806,35.72981],[139.52894,35.72983],[139.53094,35.7301],[139.53056,35.72939],[139.53024,35.7292],[139.52961,35.72891],[139.5289,35.72876],[139.52735,35.72824],[139.52373,35.72741],[139.52234,35.72692],[139.52118,35.72654],[139.51949,35.72607],[139.51835,35.72695],[139.51834,35.72707],[139.51819,35.72705],[139.51816,35.72732],[139.51796,35.7273],[139.51792,35.72746],[139.51774,35.72745],[139.51753,35.72841],[139.51706,35.72953],[139.51676,35.73037],[139.52172,35.73028],[139.52285,35.73017],[139.52358,35.73002],[139.52454,35.72978],[139.52509,35.72969]]]}},{"type":"Feature","properties":{"id":"area-13229023004","name":"芝久保町四丁目"},"geometry":{"type":"Polygon","coordinates":[[[139.51981,35.73304],[139.52222,35.73277],[139.52342,35.73256],[139.52458,35.7323],[139.52525,35.73218],[139.52578,35.73186],[139.52643,35.73135],[139.52722,35.73092],[139.52772,35.73074],[139.52821,35.73064],[139.52889,35.7304],[139.52948,35.73036],[139.53023,35.73021],[139.53051,35.73019],[139.53062,35.73024],[139.53099,35.73022],[139.53094,35.7301],[139.52894,35.72983],[139.52806,35.72981],[139.52623,35.72967],[139.52509,35.72969],[139.52454,35.72978],[139.52358,35.73002],[139.52285,35.73017],[139.52172,35.73028],[139.51676,35.73037],[139.51678,35.73047],[139.51981,35.73304]]]}},{"type":"Feature","properties":{"id":"area-13229023005","name":"芝久保町五丁目"},"geometry":{"type":"Polygon","coordinates":[[[139.52957,35.73303],[139.52847,35.73239],[139.53092,35.73158],[139.53065,35.73061],[139.53062,35.73024],[139.53051,35.73019],[139.52993,35.73026],[139.52948,35.73036],[139.52889,35.7304],[139.52821,35.73064],[139.52772,35.73074],[139.52746,35.73083],[139.52722,35.73092],[139.52643,35.73135],[139.52578,35.73186],[139.52525,35.73218],[139.52458,35.7323],[139.52342,35.73256],[139.52222,35.73277],[139.51981,35.73304],[139.52027,35.73344],[139.52028,35.73349],[139.52346,35.73566],[139.53082,35.73383],[139.52957,35.73303]]]}}]}