{"type":"FeatureCollection","features":[{"type":"Feature","properties":{"id":"area-13220001001","name":"多摩湖一丁目"},"geometry":{"type":"Polygon","coordinates":[[[139.44081,35.76698],[139.44055,35.76637],[139.43995,35.76399],[139.44002,35.76389],[139.44,35.76381],[139.44008,35.76367],[139.44064,35.76354],[139.44067,35.76271],[139.44071,35.76263],[139.44002,35.76251],[139.43948,35.76277],[139.43848,35.76276],[139.43805,35.76302],[139.43803,35.7632],[139.43757,35.76345],[139.43759,35.76359],[139.43732,35.76371],[139.43725,35.76404],[139.43642,35.76437],[139.43502,35.76443],[139.43388,35.76453],[139.43239,35.76457],[139.43193,35.76443],[139.43014,35.76462],[139.4299,35.76593],[139.42953,35.76686],[139.42954,35.76703],[139.42959,35.76718],[139.42992,35.76704],[139.43034,35.76694],[139.43088,35.76689],[139.43172,35.76656],[139.432,35.76661],[139.43226,35.7668],[139.43247,35.76706],[139.43278,35.76735],[139.43304,35.76754],[139.43344,35.76766],[139.43382,35.7676],[139.4342,35.76747],[139.4346,35.76738],[139.43626,35.76745],[139.43672,35.76773],[139.43741,35.76783],[139.43769,35.76794],[139.43794,35.76815],[139.43791,35.76846],[139.43797,35.76876],[139.43815,35.76899],[139.43836,35.76915],[139.43861,35.76922],[139.43908,35.769],[139.43933,35.76897],[139.43955,35.76881],[139.43977,35.76841],[139.43986,35.76805],[139.44009,35.7675],[139.44081,35.76698]]]}},{"type":"Feature","properties":{"id":"area-13220001002","name":"多摩湖二丁目"},"geometry":{"type":"Polygon","coordinates":[[[139.42959,35.76718],[139.42954,35.76703],[139.42953,35.76686],[139.4299,35.76593],[139.43014,35.76462],[139.4293,35.7647],[139.42908,35.76448],[139.4287,35.76443],[139.42841,35.76414],[139.42822,35.76375],[139.42745,35.7637],[139.4272,35.76375],[139.42629,35.76373],[139.4247,35.76393],[139.42396,35.76384],[139.42376,35.76372],[139.42213,35.76345],[139.42197,35.76357],[139.4217,35.76358],[139.42154,35.76344],[139.42073,35.76342],[139.42059,35.76329],[139.41978,35.76332],[139.41911,35.76346],[139.41896,35.7634],[139.41855,35.7634],[139.41836,35.76317],[139.41715,35.76327],[139.41634,35.76347],[139.41635,35.76419],[139.41705,35.76492],[139.41683,35.76616],[139.41743,35.7665],[139.41802,35.7666],[139.41864,35.76639],[139.41892,35.76626],[139.41936,35.76618],[139.41972,35.7662],[139.41998,35.76639],[139.42112,35.76745],[139.42151,35.76771],[139.42183,35.76806],[139.42219,35.76821],[139.4225,35.76802],[139.42304,35.76756],[139.42379,35.76725],[139.42414,35.76727],[139.42486,35.76763],[139.42526,35.76758],[139.42556,35.76747],[139.4259,35.76725],[139.42647,35.76703],[139.4271,35.76682],[139.42777,35.76675],[139.42811,35.76699],[139.42883,35.76734],[139.42959,35.76718]]]}},{"type":"Feature","properties":{"id":"area-13220001003","name":"多摩湖三丁目"},"geometry":{"type":"Polygon","coordinates":[[[139.41683,35.76616],[139.41705,35.76492],[139.41635,35.76419],[139.41634,35.76347],[139.41556,35.76362],[139.41461,35.76372],[139.41406,35.76357],[139.41359,35.76354],[139.41339,35.76338],[139.4125,35.76333],[139.41174,35.76369],[139.41098,35.76381],[139.41049,35.76401],[139.41043,35.76421],[139.41033,35.76432],[139.41034,35.76442],[139.41016,35.76465],[139.40981,35.76465],[139.40972,35.76439],[139.40913,35.76442],[139.40911,35.7645],[139.40818,35.76505],[139.40725,35.76589],[139.40598,35.766],[139.40559,35.7661],[139.40436,35.7659],[139.4037,35.76595],[139.4036,35.76591],[139.40285,35.76597],[139.40285,35.76587],[139.40195,35.76566],[139.40188,35.76529],[139.40203,35.76507],[139.4015,35.76471],[139.40127,35.76503],[139.39992,35.76415],[139.39925,35.76378],[139.39879,35.76367],[139.39844,35.76364],[139.39806,35.76369],[139.39754,35.76361],[139.3968,35.7636],[139.39475,35.76349],[139.39475,35.76304],[139.39429,35.7629],[139.39407,35.76279],[139.39361,35.76283],[139.39306,35.76295],[139.39294,35.76315],[139.39285,35.76376],[139.393,35.76372],[139.39323,35.76373],[139.39382,35.76402],[139.39438,35.76408],[139.39473,35.76421],[139.39527,35.76449],[139.39547,35.76448],[139.39593,35.76458],[139.39623,35.76459],[139.39656,35.76457],[139.39707,35.76448],[139.39741,35.7645],[139.39772,35.76456],[139.39821,35.76475],[139.39835,35.76502],[139.39842,35.76556],[139.3984,35.76587],[139.39877,35.76635],[139.39932,35.76677],[139.39977,35.76729],[139.39981,35.76768],[139.39992,35.76793],[139.40034,35.7684],[139.4008,35.76873],[139.40154,35.76892],[139.40199,35.76887],[139.40271,35.76867],[139.40293,35.76865],[139.40316,35.76873],[139.40355,35.76904],[139.40405,35.76926],[139.40463,35.76939],[139.40496,35.76936],[139.40595,35.76897],[139.4071,35.76874],[139.40798,35.76882],[139.40849,35.76895],[139.40934,35.76904],[139.40985,35.76902],[139.41024,35.76886],[139.4108,35.76871],[139.41132,35.76851],[139.41162,35.76837],[139.41173,35.76827],[139.41229,35.7684],[139.41293,35.76841],[139.41325,35.76816],[139.41348,35.7679],[139.41377,35.76748],[139.41394,35.76738],[139.41442,35.76731],[139.41521,35.76737],[139.41563,35.76732],[139.41595,35.76711],[139.41619,35.76679],[139.41623,35.76659],[139.41633,35.76632],[139.41644,35.76618],[139.41683,35.76616]]]}},{"type":"Feature","properties":{"id":"area-13220001004","name":"多摩湖四丁目"},"geometry":{"type":"Polygon","coordinates":[[[139.43014,35.76462],[139.43193,35.76443],[139.43239,35.76457],[139.43388,35.76453],[139.43502,35.76443],[139.43642,35.76437],[139.43725,35.76404],[139.43732,35.76371],[139.43759,35.76359],[139.43757,35.76345],[139.43803,35.7632],[139.43805,35.76302],[139.43848,35.76276],[139.43948,35.76277],[139.44002,35.76251],[139.44071,35.76263],[139.44072,35.76258],[139.44054,35.76179],[139.44043,35.7616],[139.44041,35.76151],[139.44051,35.76122],[139.44049,35.76103],[139.44055,35.76088],[139.44057,35.76062],[139.44071,35.75998],[139.44079,35.75991],[139.44125,35.75928],[139.44196,35.75875],[139.44268,35.7583],[139.44321,35.75761],[139.44333,35.75743],[139.44347,35.75686],[139.44309,35.75666],[139.44319,35.75653],[139.4432,35.75645],[139.44303,35.75636],[139.4433,35.75594],[139.44254,35.75582],[139.44256,35.75601],[139.442,35.75612],[139.44203,35.75625],[139.44197,35.75629],[139.44138,35.75637],[139.44084,35.75666],[139.44071,35.75678],[139.44062,35.7569],[139.44047,35.75692],[139.44034,35.75699],[139.44036,35.75708],[139.43994,35.75731],[139.43967,35.75753],[139.43929,35.75801],[139.43892,35.75809],[139.43875,35.7582],[139.4386,35.75835],[139.43865,35.75851],[139.4382,35.75874],[139.43861,35.75948],[139.4389,35.75982],[139.43907,35.75996],[139.4382,35.76016],[139.43787,35.76037],[139.4377,35.76042],[139.43747,35.76041],[139.43682,35.76027],[139.43618,35.76018],[139.43599,35.7602],[139.43581,35.76029],[139.43532,35.76068],[139.43503,35.76087],[139.4349,35.76091],[139.43465,35.76088],[139.43409,35.76033],[139.43397,35.76027],[139.43264,35.76],[139.43239,35.76],[139.43144,35.76013],[139.43085,35.76039],[139.4304,35.76055],[139.43021,35.76053],[139.43009,35.76038],[139.43,35.7602],[139.42984,35.75978],[139.42965,35.75952],[139.42935,35.75929],[139.42847,35.75933],[139.42829,35.75929],[139.42806,35.75906],[139.4274,35.75796],[139.42735,35.75795],[139.4272,35.75815],[139.42703,35.75822],[139.42676,35.75906],[139.42681,35.75916],[139.42676,35.75927],[139.42702,35.75946],[139.42687,35.75997],[139.42704,35.76052],[139.42738,35.76079],[139.42752,35.76097],[139.4277,35.76086],[139.42818,35.76268],[139.42914,35.76334],[139.42902,35.76371],[139.42967,35.76402],[139.43015,35.76452],[139.43014,35.76462]]]}},{"type":"Feature","properties":{"id":"area-13220001005","name":"多摩湖五丁目"},"geometry":{"type":"Polygon","coordinates":[[[139.43014,35.76462],[139.43015,35.76452],[139.42967,35.76402],[139.42902,35.76371],[139.42914,35.76334],[139.42818,35.76268],[139.4277,35.76086],[139.42752,35.76097],[139.42738,35.76079],[139.42704,35.76052],[139.42687,35.75997],[139.42702,35.75946],[139.42676,35.75927],[139.42681,35.75916],[139.42676,35.75906],[139.42703,35.75822],[139.4272,35.75815],[139.42735,35.75795],[139.42598,35.75758],[139.42577,35.75755],[139.42555,35.75761],[139.42533,35.75771],[139.42522,35.75782],[139.42493,35.75843],[139.42467,35.75866],[139.4242,35.75893],[139.42391,35.75937],[139.42361,35.75955],[139.42306,35.7596],[139.42286,35.75955],[139.4227,35.75948],[139.42257,35.75935],[139.42208,35.75853],[139.42187,35.75829],[139.4214,35.75793],[139.42098,35.75775],[139.42006,35.75758],[139.41964,35.75772],[139.41931,35.7579],[139.41907,35.75809],[139.41891,35.75815],[139.41854,35.75806],[139.41831,35.75792],[139.418,35.7576],[139.41785,35.75753],[139.41757,35.75747],[139.41681,35.75748],[139.41672,35.75752],[139.41658,35.75768],[139.41634,35.75808],[139.41618,35.75822],[139.41533,35.7587],[139.4147,35.75935],[139.41507,35.75982],[139.41515,35.76033],[139.41539,35.7604],[139.41611,35.76048],[139.4169,35.76087],[139.41696,35.76098],[139.41702,35.76158],[139.41732,35.76179],[139.4173,35.76264],[139.4168,35.76278],[139.41667,35.7632],[139.41634,35.7634],[139.41634,35.76347],[139.41715,35.76327],[139.41836,35.76317],[139.41855,35.7634],[139.41896,35.7634],[139.41911,35.76346],[139.41978,35.76332],[139.42059,35.76329],[139.42073,35.76342],[139.42154,35.76344],[139.4217,35.76358],[139.42197,35.76357],[139.42213,35.76345],[139.42376,35.76372],[139.42396,35.76384],[139.4247,35.76393],[139.42629,35.76373],[139.4272,35.76375],[139.42745,35.7637],[139.42822,35.76375],[139.42841,35.76414],[139.4287,35.76443],[139.42908,35.76448],[139.4293,35.7647],[139.43014,35.76462]]]}},{"type":"Feature","properties":{"id":"area-13220001006","name":"多摩湖六丁目"},"geometry":{"type":"Polygon","coordinates":[[[139.41634,35.76347],[139.41634,35.7634],[139.41667,35.7632],[139.4168,35.76278],[139.4173,35.76264],[139.41732,35.76179],[139.41702,35.76158],[139.41696,35.76098],[139.4169,35.76087],[139.41611,35.76048],[139.41539,35.7604],[139.41515,35.76033],[139.41507,35.75982],[139.4147,35.75935],[139.41451,35.75978],[139.41448,35.75993],[139.41439,35.76009],[139.41422,35.76026],[139.41357,35.76062],[139.41298,35.7608],[139.41289,35.76085],[139.41247,35.76127],[139.41152,35.76144],[139.41107,35.76156],[139.41025,35.76147],[139.40972,35.76158],[139.4096,35.76161],[139.40913,35.76193],[139.40884,35.76204],[139.4086,35.762],[139.40839,35.76185],[139.4078,35.76164],[139.40727,35.76118],[139.40705,35.76109],[139.40671,35.76113],[139.40617,35.76131],[139.40579,35.76154],[139.4055,35.76177],[139.40507,35.76218],[139.40486,35.76226],[139.4045,35.76217],[139.40416,35.76214],[139.40405,35.76209],[139.40359,35.76161],[139.40317,35.76132],[139.40273,35.76121],[139.40219,35.76127],[139.40169,35.76143],[139.40091,35.76186],[139.40063,35.76207],[139.40033,35.76218],[139.39985,35.76221],[139.39947,35.76215],[139.39925,35.76218],[139.39828,35.76265],[139.39806,35.76263],[139.39785,35.76251],[139.39749,35.76252],[139.39688,35.76282],[139.39607,35.76304],[139.39596,35.76301],[139.39565,35.76278],[139.39552,35.76274],[139.39528,35.76272],[139.39496,35.76293],[139.3949,35.76303],[139.39475,35.76304],[139.39475,35.76349],[139.3968,35.7636],[139.39754,35.76361],[139.39806,35.76369],[139.39844,35.76364],[139.39879,35.76367],[139.39925,35.76378],[139.39992,35.76415],[139.40127,35.76503],[139.4015,35.76471],[139.40203,35.76507],[139.40188,35.76529],[139.40195,35.76566],[139.40285,35.76587],[139.40285,35.76597],[139.4036,35.76591],[139.4037,35.76595],[139.40436,35.7659],[139.40559,35.7661],[139.40598,35.766],[139.40725,35.76589],[139.40818,35.76505],[139.40911,35.7645],[139.40913,35.76442],[139.40972,35.76439],[139.40981,35.76465],[139.41016,35.76465],[139.41034,35.76442],[139.41033,35.76432],[139.41043,35.76421],[139.41049,35.76401],[139.41098,35.76381],[139.41174,35.76369],[139.4125,35.76333],[139.41339,35.76338],[139.41359,35.76354],[139.41406,35.76357],[139.41461,35.76372],[139.41556,35.76362],[139.41634,35.76347]]]}},{"type":"Feature","properties":{"id":"area-13220002001","name":"芋窪一丁目"},"geometry":{"type":"Polygon","coordinates":[[[139.41625,35.7554],[139.41616,35.75523],[139.41529,35.7553],[139.41372,35.75568],[139.41344,35.75577],[139.41268,35.75609],[139.4118,35.75629],[139.41184,35.75691],[139.41194,35.75712],[139.4123,35.7577],[139.41245,35.75817],[139.41276,35.75897],[139.41283,35.75908],[139.41296,35.75917],[139.41373,35.75936],[139.41406,35.75948],[139.41434,35.75975],[139.41436,35.75984],[139.41428,35.7602],[139.41439,35.76009],[139.41448,35.75993],[139.41464,35.75946],[139.4148,35.75922],[139.41495,35.7591],[139.41533,35.7587],[139.41618,35.75822],[139.41634,35.75808],[139.41658,35.75768],[139.41672,35.75752],[139.4169,35.75747],[139.41679,35.75737],[139.41678,35.75729],[139.41684,35.75694],[139.41677,35.75634],[139.41667,35.7562],[139.41638,35.75599],[139.41625,35.7554]]]}},{"type":"Feature","properties":{"id":"area-13220002002","name":"芋窪二丁目"},"geometry":{"type":"Polygon","coordinates":[[[139.4096,35.76161],[139.41025,35.76147],[139.41107,35.76156],[139.41152,35.76144],[139.41247,35.76127],[139.41289,35.76085],[139.41298,35.7608],[139.41357,35.76062],[139.41395,35.76043],[139.41428,35.7602],[139.41436,35.75984],[139.41434,35.75975],[139.41406,35.75948],[139.41373,35.75936],[139.41296,35.75917],[139.41283,35.75908],[139.41276,35.75897],[139.41245,35.75817],[139.4123,35.7577],[139.41194,35.75712],[139.41184,35.75691],[139.4118,35.75629],[139.41028,35.75663],[139.40957,35.7567],[139.40969,35.75716],[139.40958,35.75732],[139.40947,35.75767],[139.40935,35.7579],[139.40932,35.75834],[139.40904,35.75882],[139.40909,35.75901],[139.40864,35.75902],[139.40868,35.75917],[139.40846,35.7597],[139.40821,35.76021],[139.4076,35.76086],[139.40741,35.76096],[139.40705,35.76109],[139.40727,35.76118],[139.4078,35.76164],[139.40839,35.76185],[139.4086,35.762],[139.40872,35.76204],[139.40901,35.76199],[139.4096,35.76161]]]}},{"type":"Feature","properties":{"id":"area-13220002003","name":"芋窪三丁目"},"geometry":{"type":"Polygon","coordinates":[[[139.41606,35.7531],[139.41592,35.75263],[139.41574,35.75265],[139.41569,35.75219],[139.41563,35.75203],[139.41564,35.7519],[139.4159,35.75187],[139.41593,35.75172],[139.41638,35.7516],[139.41704,35.75155],[139.41703,35.75148],[139.41742,35.75151],[139.41747,35.75113],[139.41595,35.75125],[139.41569,35.75123],[139.41467,35.75138],[139.41437,35.75139],[139.41377,35.75131],[139.4135,35.75137],[139.41293,35.7514],[139.41298,35.75176],[139.41298,35.752],[139.41291,35.75226],[139.41293,35.75271],[139.41304,35.7531],[139.41306,35.75328],[139.41296,35.75362],[139.41284,35.75422],[139.41261,35.75495],[139.41248,35.75523],[139.41248,35.75535],[139.41288,35.75601],[139.41344,35.75577],[139.41372,35.75568],[139.41529,35.7553],[139.41557,35.75527],[139.41549,35.75505],[139.41569,35.75499],[139.41563,35.75487],[139.41572,35.75476],[139.41571,35.7543],[139.41576,35.75427],[139.41574,35.75423],[139.41648,35.7536],[139.41636,35.75314],[139.41606,35.7531]]]}},{"type":"Feature","properties":{"id":"area-13220002004","name":"芋窪四丁目"},"geometry":{"type":"Polygon","coordinates":[[[139.41293,35.75271],[139.41291,35.75226],[139.41298,35.752],[139.41296,35.75155],[139.41292,35.75134],[139.41281,35.75134],[139.41242,35.75142],[139.41104,35.75182],[139.41074,35.75197],[139.41028,35.7521],[139.41,35.75211],[139.40848,35.75242],[139.40721,35.75263],[139.40723,35.75284],[139.40733,35.75313],[139.40768,35.75375],[139.40783,35.7541],[139.40799,35.75429],[139.40828,35.75445],[139.40866,35.75483],[139.40886,35.75494],[139.40908,35.75532],[139.40916,35.75558],[139.40906,35.75564],[139.40896,35.75585],[139.40898,35.75594],[139.40919,35.75622],[139.40936,35.75627],[139.40943,35.75636],[139.40957,35.7567],[139.41043,35.75661],[139.41236,35.75617],[139.41289,35.75601],[139.41248,35.75535],[139.41248,35.75523],[139.41261,35.75495],[139.41284,35.75422],[139.41296,35.75362],[139.41306,35.75328],[139.41304,35.7531],[139.41293,35.75271]]]}},{"type":"Feature","properties":{"id":"area-13220002005","name":"芋窪五丁目"},"geometry":{"type":"Polygon","coordinates":[[[139.4135,35.75137],[139.41377,35.75131],[139.41437,35.75139],[139.41467,35.75138],[139.41569,35.75123],[139.41595,35.75125],[139.41729,35.75114],[139.41728,35.75099],[139.41721,35.75075],[139.41706,35.7505],[139.41686,35.7503],[139.41724,35.7502],[139.41721,35.75015],[139.41592,35.74991],[139.41591,35.74977],[139.41569,35.74912],[139.41704,35.74889],[139.41724,35.74877],[139.4175,35.74851],[139.41755,35.7484],[139.41719,35.74743],[139.41709,35.74687],[139.41585,35.74707],[139.41411,35.74741],[139.41328,35.74824],[139.41271,35.74888],[139.41266,35.74912],[139.41278,35.74981],[139.41274,35.74997],[139.41275,35.75023],[139.41293,35.7514],[139.4135,35.75137]]]}},{"type":"Feature","properties":{"id":"area-13220002006","name":"芋窪六丁目"},"geometry":{"type":"Polygon","coordinates":[[[139.40887,35.75234],[139.41,35.75211],[139.41028,35.7521],[139.41074,35.75197],[139.41104,35.75182],[139.41242,35.75142],[139.41281,35.75134],[139.41292,35.75134],[139.41275,35.75023],[139.41274,35.74997],[139.41278,35.74981],[139.41266,35.74912],[139.41271,35.74888],[139.41328,35.74824],[139.41413,35.74739],[139.41426,35.74721],[139.41345,35.74753],[139.40858,35.74836],[139.4081,35.74843],[139.40712,35.74851],[139.40729,35.74934],[139.40727,35.75019],[139.40718,35.75036],[139.40715,35.75079],[139.40706,35.75113],[139.40708,35.75129],[139.40723,35.75169],[139.40725,35.75235],[139.40721,35.75263],[139.40887,35.75234]]]}},{"type":"Feature","properties":{"id":"area-13220003001","name":"蔵敷一丁目"},"geometry":{"type":"Polygon","coordinates":[[[139.41964,35.75772],[139.42006,35.75758],[139.42067,35.75767],[139.42107,35.75779],[139.42101,35.75761],[139.42108,35.75742],[139.4217,35.75712],[139.42164,35.75638],[139.4217,35.7561],[139.4217,35.75576],[139.42177,35.75544],[139.42175,35.7553],[139.42181,35.75501],[139.42194,35.75482],[139.42194,35.75471],[139.42206,35.75449],[139.42206,35.75384],[139.422,35.75345],[139.42155,35.75373],[139.42066,35.75404],[139.42034,35.75411],[139.41954,35.75413],[139.41899,35.75425],[139.41802,35.75454],[139.41733,35.75488],[139.41678,35.75503],[139.41638,35.7552],[139.41616,35.75523],[139.41625,35.7554],[139.41638,35.75599],[139.41667,35.7562],[139.41677,35.75634],[139.41684,35.75694],[139.41678,35.75729],[139.41679,35.75737],[139.4169,35.75747],[139.41757,35.75747],[139.41785,35.75753],[139.418,35.7576],[139.41831,35.75792],[139.41854,35.75806],[139.41891,35.75815],[139.41907,35.75809],[139.41931,35.7579],[139.41964,35.75772]]]}},{"type":"Feature","properties":{"id":"area-13220003002","name":"蔵敷二丁目"},"geometry":{"type":"Polygon","coordinates":[[[139.42195,35.75315],[139.42245,35.75245],[139.42249,35.75221],[139.42214,35.75207],[139.42211,35.75186],[139.42175,35.75186],[139.42164,35.75173],[139.42165,35.7515],[139.42161,35.75131],[139.42187,35.75116],[139.4228,35.75001],[139.42288,35.74962],[139.42247,35.74977],[139.42205,35.74981],[139.42123,35.75005],[139.42074,35.75023],[139.41999,35.75064],[139.41876,35.75106],[139.41777,35.75108],[139.41747,35.75113],[139.41742,35.75151],[139.41703,35.75148],[139.41704,35.75155],[139.41638,35.7516],[139.41593,35.75172],[139.4159,35.75187],[139.41564,35.7519],[139.41563,35.75203],[139.41569,35.75219],[139.41574,35.75265],[139.41592,35.75263],[139.41606,35.7531],[139.41636,35.75314],[139.41648,35.7536],[139.41574,35.75423],[139.41576,35.75427],[139.41571,35.7543],[139.41572,35.75476],[139.41563,35.75487],[139.41569,35.75499],[139.41549,35.75505],[139.41557,35.75527],[139.41638,35.7552],[139.41678,35.75503],[139.41733,35.75488],[139.41802,35.75454],[139.41899,35.75425],[139.41954,35.75413],[139.42034,35.75411],[139.42066,35.75404],[139.42155,35.75373],[139.42182,35.75358],[139.422,35.75345],[139.42195,35.75343],[139.42188,35.75319],[139.42195,35.75315]]]}},{"type":"Feature","properties":{"id":"area-13220003003","name":"蔵敷三丁目"},"geometry":{"type":"Polygon","coordinates":[[[139.41765,35.75109],[139.41876,35.75106],[139.41999,35.75064],[139.42074,35.75023],[139.42123,35.75005],[139.42205,35.74981],[139.42247,35.74977],[139.42288,35.74962],[139.42351,35.7467],[139.42284,35.74655],[139.42213,35.74645],[139.42096,35.74635],[139.42002,35.7464],[139.41944,35.74647],[139.41709,35.74687],[139.41719,35.74743],[139.41755,35.7484],[139.4175,35.74851],[139.41724,35.74877],[139.41704,35.74889],[139.41569,35.74912],[139.41591,35.74977],[139.41592,35.74991],[139.41721,35.75015],[139.41724,35.7502],[139.41686,35.7503],[139.41706,35.7505],[139.41721,35.75075],[139.41728,35.75099],[139.41729,35.75114],[139.41765,35.75109]]]}},{"type":"Feature","properties":{"id":"area-13220004001","name":"奈良橋一丁目"},"geometry":{"type":"Polygon","coordinates":[[[139.42413,35.75744],[139.42451,35.7569],[139.42473,35.75698],[139.42489,35.75695],[139.4249,35.75646],[139.42516,35.7565],[139.42526,35.75618],[139.42593,35.75634],[139.42605,35.7559],[139.42602,35.75569],[139.42589,35.75554],[139.4258,35.75531],[139.42572,35.75496],[139.42585,35.75441],[139.42583,35.75435],[139.42573,35.7543],[139.42563,35.75403],[139.42542,35.75371],[139.4249,35.75382],[139.4246,35.754],[139.42441,35.75406],[139.4241,35.75406],[139.42387,35.75402],[139.42323,35.75315],[139.4226,35.7532],[139.42215,35.75332],[139.42199,35.75341],[139.42206,35.75384],[139.42206,35.75451],[139.42194,35.75471],[139.42194,35.75482],[139.42181,35.75501],[139.42175,35.7553],[139.42177,35.75544],[139.4217,35.75576],[139.4217,35.7561],[139.42164,35.75638],[139.4217,35.75712],[139.42108,35.75742],[139.42101,35.75761],[139.42107,35.75779],[139.4214,35.75793],[139.42187,35.75829],[139.42208,35.75853],[139.42257,35.75935],[139.4227,35.75948],[139.42286,35.75955],[139.42306,35.7596],[139.42332,35.75959],[139.4237,35.75952],[139.42391,35.75937],[139.42384,35.75921],[139.42366,35.75783],[139.42384,35.75757],[139.42413,35.75744]]]}},{"type":"Feature","properties":{"id":"area-13220004002","name":"奈良橋二丁目"},"geometry":{"type":"Polygon","coordinates":[[[139.42718,35.75496],[139.42811,35.75485],[139.42838,35.75477],[139.42861,35.75466],[139.42893,35.7543],[139.4298,35.75413],[139.43026,35.75398],[139.43042,35.75389],[139.43041,35.75337],[139.43022,35.75283],[139.42939,35.75292],[139.42856,35.75288],[139.42807,35.75276],[139.42761,35.75254],[139.42655,35.75268],[139.42482,35.75269],[139.42323,35.75315],[139.42387,35.75402],[139.4241,35.75406],[139.42441,35.75406],[139.4246,35.754],[139.4249,35.75382],[139.42542,35.75371],[139.42563,35.75403],[139.42573,35.7543],[139.42583,35.75435],[139.42585,35.75441],[139.42572,35.75496],[139.4258,35.75531],[139.42589,35.75554],[139.42599,35.75563],[139.4265,35.75574],[139.4267,35.75538],[139.42688,35.75514],[139.42718,35.75496]]]}},{"type":"Feature","properties":{"id":"area-13220004003","name":"奈良橋三丁目"},"geometry":{"type":"Polygon","coordinates":[[[139.42939,35.75292],[139.43022,35.75283],[139.43023,35.75286],[139.43027,35.75286],[139.43015,35.75264],[139.43091,35.75248],[139.43112,35.75231],[139.43126,35.75226],[139.43218,35.75217],[139.43277,35.75196],[139.43285,35.75172],[139.43323,35.75145],[139.43303,35.75078],[139.4329,35.75079],[139.43288,35.75069],[139.43267,35.75068],[139.43259,35.75021],[139.43094,35.75059],[139.42992,35.75095],[139.42975,35.75099],[139.42942,35.751],[139.42907,35.75096],[139.42871,35.75061],[139.42859,35.75038],[139.42852,35.75033],[139.42821,35.75025],[139.42799,35.75021],[139.42643,35.75036],[139.42705,35.7526],[139.42761,35.75254],[139.42807,35.75276],[139.42856,35.75288],[139.42939,35.75292]]]}},{"type":"Feature","properties":{"id":"area-13220004004","name":"奈良橋四丁目"},"geometry":{"type":"Polygon","coordinates":[[[139.42482,35.75269],[139.42655,35.75268],[139.42705,35.7526],[139.42655,35.75072],[139.42642,35.75032],[139.42281,35.75073],[139.42273,35.75083],[139.42251,35.75091],[139.42199,35.75102],[139.42187,35.75116],[139.42161,35.75131],[139.42165,35.7515],[139.42164,35.75173],[139.42175,35.75186],[139.42211,35.75186],[139.42214,35.75207],[139.42249,35.75221],[139.42245,35.75245],[139.42194,35.75317],[139.42188,35.75319],[139.42195,35.75343],[139.422,35.75345],[139.42199,35.75341],[139.4223,35.75326],[139.4226,35.7532],[139.42304,35.75317],[139.42343,35.7531],[139.42482,35.75269]]]}},{"type":"Feature","properties":{"id":"area-13220004005","name":"奈良橋五丁目"},"geometry":{"type":"Polygon","coordinates":[[[139.43094,35.75059],[139.43259,35.75021],[139.43248,35.75003],[139.43203,35.75012],[139.43195,35.75003],[139.43191,35.75005],[139.43187,35.75],[139.4317,35.75001],[139.43169,35.74981],[139.43154,35.74981],[139.43154,35.74961],[139.43138,35.7494],[139.43112,35.74929],[139.43101,35.74915],[139.43093,35.7489],[139.43104,35.74887],[139.43112,35.74873],[139.43087,35.74799],[139.43079,35.74785],[139.43041,35.74786],[139.43039,35.74747],[139.43051,35.74726],[139.42737,35.74724],[139.42665,35.74911],[139.42645,35.74973],[139.42641,35.75007],[139.42643,35.75036],[139.42799,35.75021],[139.42852,35.75033],[139.42859,35.75038],[139.42871,35.75061],[139.42907,35.75096],[139.42942,35.751],[139.42975,35.75099],[139.42992,35.75095],[139.43094,35.75059]]]}},{"type":"Feature","properties":{"id":"area-13220004006","name":"奈良橋六丁目"},"geometry":{"type":"Polygon","coordinates":[[[139.42682,35.7472],[139.42352,35.74665],[139.4228,35.75001],[139.42199,35.75102],[139.42251,35.75091],[139.42273,35.75083],[139.42281,35.75073],[139.42642,35.75032],[139.42641,35.75007],[139.42645,35.74973],[139.42665,35.74911],[139.42737,35.74724],[139.42682,35.7472]]]}},{"type":"Feature","properties":{"id":"area-13220005001","name":"湖畔一丁目"},"geometry":{"type":"Polygon","coordinates":[[[139.43483,35.76092],[139.43509,35.76083],[139.43481,35.76084],[139.43471,35.76075],[139.43471,35.7602],[139.43498,35.76021],[139.43509,35.76018],[139.4353,35.75927],[139.43542,35.75903],[139.43383,35.75875],[139.43345,35.7588],[139.43276,35.75878],[139.43209,35.75863],[139.4317,35.75858],[139.43145,35.75851],[139.43055,35.75793],[139.42989,35.75837],[139.42991,35.7584],[139.42982,35.75847],[139.43008,35.7587],[139.43035,35.7589],[139.43027,35.75905],[139.43033,35.75913],[139.4313,35.75945],[139.4315,35.76012],[139.43239,35.76],[139.43264,35.76],[139.43397,35.76027],[139.43409,35.76033],[139.43465,35.76088],[139.43483,35.76092]]]}},{"type":"Feature","properties":{"id":"area-13220005002","name":"湖畔二丁目"},"geometry":{"type":"Polygon","coordinates":[[[139.4313,35.75945],[139.43033,35.75913],[139.43027,35.75905],[139.43035,35.7589],[139.43008,35.7587],[139.42982,35.75847],[139.42991,35.7584],[139.42989,35.75837],[139.43055,35.75793],[139.43027,35.75776],[139.4301,35.75759],[139.42996,35.75733],[139.42973,35.75676],[139.42956,35.75654],[139.42926,35.7563],[139.4281,35.75599],[139.42771,35.75585],[139.42744,35.75551],[139.42742,35.75544],[139.42739,35.75523],[139.42746,35.75493],[139.42718,35.75496],[139.42688,35.75514],[139.4267,35.75538],[139.4265,35.75574],[139.42599,35.75563],[139.42605,35.7559],[139.42593,35.75634],[139.42526,35.75618],[139.42516,35.7565],[139.4249,35.75646],[139.42489,35.75695],[139.42473,35.75698],[139.42451,35.7569],[139.42413,35.75744],[139.42384,35.75757],[139.42366,35.75783],[139.42384,35.75921],[139.42391,35.75937],[139.4242,35.75893],[139.42467,35.75866],[139.42493,35.75843],[139.42522,35.75782],[139.42533,35.75771],[139.42577,35.75755],[139.4274,35.75796],[139.42806,35.75906],[139.4282,35.75921],[139.42829,35.75929],[139.42847,35.75933],[139.42935,35.75929],[139.42943,35.75934],[139.42965,35.75952],[139.42984,35.75978],[139.43,35.7602],[139.43009,35.76038],[139.43021,35.76053],[139.4304,35.76055],[139.4315,35.76012],[139.4313,35.75945]]]}},{"type":"Feature","properties":{"id":"area-13220005003","name":"湖畔三丁目"},"geometry":{"type":"Polygon","coordinates":[[[139.43566,35.75897],[139.43614,35.75865],[139.43606,35.75857],[139.43596,35.75839],[139.43604,35.75824],[139.43648,35.75814],[139.43636,35.75772],[139.43553,35.75782],[139.43549,35.75698],[139.43486,35.7571],[139.43401,35.75749],[139.43405,35.75731],[139.43356,35.7568],[139.43293,35.75656],[139.43317,35.75626],[139.43291,35.75613],[139.43275,35.75596],[139.43258,35.75543],[139.43245,35.75521],[139.43246,35.75491],[139.43215,35.75456],[139.43212,35.75417],[139.43194,35.75372],[139.43174,35.75384],[139.43151,35.7539],[139.43138,35.7539],[139.43089,35.75376],[139.43077,35.75377],[139.43054,35.75383],[139.43026,35.75398],[139.4298,35.75413],[139.42893,35.7543],[139.42861,35.75466],[139.42838,35.75477],[139.42811,35.75485],[139.42746,35.75493],[139.42739,35.75523],[139.42742,35.75544],[139.42744,35.75551],[139.42771,35.75585],[139.4281,35.75599],[139.42926,35.7563],[139.42956,35.75654],[139.42973,35.75676],[139.42996,35.75733],[139.43017,35.75768],[139.43113,35.75833],[139.43145,35.75851],[139.43276,35.75878],[139.43345,35.7588],[139.43383,35.75875],[139.43542,35.75903],[139.43566,35.75897]]]}},{"type":"Feature","properties":{"id":"area-13220006001","name":"高木一丁目"},"geometry":{"type":"Polygon","coordinates":[[[139.43461,35.75466],[139.43498,35.75467],[139.4355,35.75482],[139.43659,35.75474],[139.43765,35.75455],[139.43764,35.75451],[139.43809,35.75434],[139.43907,35.75385],[139.43901,35.75372],[139.43906,35.7537],[139.43899,35.75363],[139.43899,35.75344],[139.43895,35.75336],[139.43889,35.7534],[139.43884,35.75334],[139.43866,35.75329],[139.43847,35.75328],[139.43622,35.75349],[139.43572,35.75334],[139.43401,35.75309],[139.43336,35.75272],[139.43248,35.75267],[139.43162,35.75267],[139.43024,35.75288],[139.43041,35.75337],[139.43042,35.75389],[139.43077,35.75377],[139.43089,35.75376],[139.43138,35.7539],[139.43151,35.7539],[139.43174,35.75384],[139.43194,35.75372],[139.43212,35.75417],[139.43215,35.75456],[139.43246,35.75491],[139.43278,35.75506],[139.43292,35.75506],[139.43434,35.75469],[139.43461,35.75466]]]}},{"type":"Feature","properties":{"id":"area-13220006002","name":"高木二丁目"},"geometry":{"type":"Polygon","coordinates":[[[139.43622,35.75349],[139.43847,35.75328],[139.43866,35.75329],[139.43884,35.75334],[139.43885,35.75327],[139.43877,35.75323],[139.43866,35.75299],[139.4387,35.75301],[139.43856,35.75263],[139.43855,35.75244],[139.43862,35.75177],[139.43856,35.75149],[139.43842,35.75133],[139.43818,35.75123],[139.43805,35.75107],[139.43787,35.75069],[139.43757,35.75067],[139.43737,35.75054],[139.43673,35.75057],[139.43582,35.7508],[139.43539,35.7508],[139.43483,35.75099],[139.43458,35.75103],[139.43398,35.75126],[139.43323,35.75145],[139.43285,35.75172],[139.43277,35.75196],[139.43267,35.75201],[139.43218,35.75217],[139.43126,35.75226],[139.43112,35.75231],[139.43091,35.75248],[139.43015,35.75264],[139.43027,35.75286],[139.43024,35.75288],[139.43162,35.75267],[139.43248,35.75267],[139.43336,35.75272],[139.43401,35.75309],[139.43572,35.75334],[139.43622,35.75349]]]}},{"type":"Feature","properties":{"id":"area-13220006003","name":"高木三丁目"},"geometry":{"type":"Polygon","coordinates":[[[139.43539,35.7508],[139.43582,35.7508],[139.43688,35.75055],[139.43737,35.75054],[139.43757,35.75067],[139.43788,35.75071],[139.43832,35.75057],[139.43785,35.74909],[139.43778,35.74894],[139.43765,35.74885],[139.43739,35.74827],[139.4378,35.74813],[139.43829,35.74801],[139.43823,35.74787],[139.43809,35.74775],[139.43799,35.74755],[139.43796,35.74741],[139.43807,35.74707],[139.43804,35.74687],[139.43545,35.74701],[139.43543,35.74705],[139.43146,35.74726],[139.43051,35.74726],[139.43039,35.74747],[139.43041,35.74786],[139.43079,35.74785],[139.43087,35.74799],[139.43112,35.74873],[139.43104,35.74887],[139.43093,35.7489],[139.43101,35.74915],[139.43112,35.74929],[139.43138,35.7494],[139.43154,35.74961],[139.43154,35.74981],[139.43169,35.74981],[139.4317,35.75001],[139.43187,35.75],[139.43191,35.75005],[139.43195,35.75003],[139.43203,35.75012],[139.43248,35.75003],[139.43259,35.7502],[139.43267,35.75068],[139.43288,35.75069],[139.4329,35.75079],[139.43303,35.75078],[139.43323,35.75145],[139.43398,35.75126],[139.43458,35.75103],[139.43483,35.75099],[139.43539,35.7508]]]}},{"type":"Feature","properties":{"id":"area-13220007001","name":"狭山一丁目"},"geometry":{"type":"Polygon","coordinates":[[[139.43581,35.76029],[139.43599,35.7602],[139.43618,35.76018],[139.43682,35.76027],[139.43747,35.76041],[139.4377,35.76042],[139.43787,35.76037],[139.4382,35.76016],[139.43907,35.75996],[139.4389,35.75982],[139.43861,35.75948],[139.4382,35.75874],[139.43865,35.75851],[139.4386,35.75835],[139.43875,35.7582],[139.43892,35.75809],[139.43922,35.75801],[139.43899,35.75778],[139.43782,35.7583],[139.43731,35.75843],[139.43657,35.75847],[139.43631,35.75855],[139.43566,35.75897],[139.43542,35.75903],[139.4353,35.75927],[139.43509,35.76018],[139.43498,35.76021],[139.43471,35.7602],[139.43471,35.76075],[139.43481,35.76084],[139.43509,35.76083],[139.43581,35.76029]]]}},{"type":"Feature","properties":{"id":"area-13220007002","name":"狭山二丁目"},"geometry":{"type":"Polygon","coordinates":[[[139.43657,35.75847],[139.437,35.75847],[139.4375,35.7584],[139.43782,35.7583],[139.43899,35.75778],[139.43922,35.75801],[139.43929,35.75801],[139.43967,35.75753],[139.43994,35.75731],[139.44036,35.75708],[139.44034,35.75699],[139.44029,35.75701],[139.43986,35.75648],[139.44003,35.75609],[139.44002,35.75606],[139.43938,35.75554],[139.43961,35.75537],[139.4401,35.75514],[139.4403,35.75509],[139.44073,35.75507],[139.44007,35.75472],[139.43995,35.75464],[139.43992,35.75459],[139.43988,35.75458],[139.43963,35.75497],[139.43876,35.75564],[139.43831,35.75575],[139.43782,35.75602],[139.43758,35.75611],[139.4374,35.75615],[139.43712,35.75611],[139.43649,35.75627],[139.4364,35.75632],[139.43638,35.75639],[139.43645,35.75658],[139.43628,35.75669],[139.43589,35.75686],[139.43549,35.75698],[139.43553,35.75782],[139.43636,35.75772],[139.43648,35.75814],[139.43604,35.75824],[139.43596,35.75839],[139.43606,35.75857],[139.43614,35.75865],[139.43631,35.75855],[139.43657,35.75847]]]}},{"type":"Feature","properties":{"id":"area-13220007003","name":"狭山三丁目"},"geometry":{"type":"Polygon","coordinates":[[[139.43649,35.75627],[139.43712,35.75611],[139.4374,35.75615],[139.43758,35.75611],[139.43782,35.75602],[139.43831,35.75575],[139.43876,35.75564],[139.43963,35.75497],[139.43988,35.75458],[139.43992,35.75459],[139.43976,35.75444],[139.43962,35.75425],[139.43907,35.75385],[139.43809,35.75434],[139.43764,35.75451],[139.43765,35.75455],[139.43659,35.75474],[139.4355,35.75482],[139.43481,35.75465],[139.43434,35.75469],[139.43292,35.75506],[139.43278,35.75506],[139.43246,35.75491],[139.43245,35.75521],[139.43258,35.75543],[139.43275,35.75596],[139.43291,35.75613],[139.43317,35.75626],[139.43293,35.75656],[139.43356,35.7568],[139.43405,35.75731],[139.43401,35.75749],[139.43486,35.7571],[139.43549,35.75698],[139.43589,35.75686],[139.43628,35.75669],[139.43645,35.75658],[139.43638,35.75639],[139.4364,35.75632],[139.43649,35.75627]]]}},{"type":"Feature","properties":{"id":"area-13220007004","name":"狭山四丁目"},"geometry":{"type":"Polygon","coordinates":[[[139.44164,35.75341],[139.4416,35.75334],[139.44162,35.75252],[139.442,35.75051],[139.44206,35.75052],[139.4418,35.75031],[139.44141,35.75016],[139.44123,35.75013],[139.44055,35.75012],[139.44027,35.75017],[139.43991,35.75018],[139.43902,35.75038],[139.43871,35.75037],[139.43846,35.75052],[139.43788,35.75071],[139.43805,35.75107],[139.43818,35.75123],[139.43842,35.75133],[139.43856,35.75149],[139.43862,35.75177],[139.43855,35.75244],[139.43859,35.75276],[139.43877,35.75323],[139.43885,35.75327],[139.43884,35.75334],[139.43889,35.7534],[139.43895,35.75336],[139.43899,35.75344],[139.43897,35.75356],[139.43899,35.75363],[139.43906,35.7537],[139.43901,35.75372],[139.43907,35.75385],[139.43962,35.75425],[139.43995,35.75464],[139.44073,35.75507],[139.44069,35.75507],[139.44081,35.75514],[139.44089,35.75486],[139.44114,35.75454],[139.44162,35.75371],[139.44164,35.75341]]]}},{"type":"Feature","properties":{"id":"area-13220007005","name":"狭山五丁目"},"geometry":{"type":"Polygon","coordinates":[[[139.43832,35.75057],[139.43871,35.75037],[139.43902,35.75038],[139.43991,35.75018],[139.4401,35.75019],[139.44055,35.75012],[139.44086,35.75011],[139.44141,35.75016],[139.4418,35.75031],[139.44208,35.75052],[139.44204,35.75028],[139.44193,35.75005],[139.44202,35.74909],[139.44211,35.74879],[139.44229,35.74841],[139.44238,35.74802],[139.44239,35.74747],[139.44253,35.74681],[139.44257,35.74682],[139.44253,35.74606],[139.44129,35.74626],[139.4406,35.74642],[139.43934,35.74675],[139.43922,35.74683],[139.43806,35.74692],[139.43807,35.74707],[139.43796,35.74741],[139.43799,35.74755],[139.43809,35.74775],[139.43823,35.74787],[139.43829,35.74801],[139.4378,35.74813],[139.43739,35.74827],[139.43765,35.74885],[139.43778,35.74894],[139.43785,35.74909],[139.43832,35.75057]]]}},{"type":"Feature","properties":{"id":"area-13220008001","name":"清水一丁目"},"geometry":{"type":"Polygon","coordinates":[[[139.44256,35.75601],[139.44254,35.75582],[139.4433,35.75594],[139.44303,35.75636],[139.4432,35.75645],[139.44319,35.75653],[139.44309,35.75666],[139.44347,35.75686],[139.44347,35.75692],[139.44364,35.75669],[139.44385,35.75649],[139.44411,35.75605],[139.44441,35.75578],[139.44403,35.75569],[139.44374,35.75558],[139.44359,35.75545],[139.44335,35.75514],[139.44319,35.75507],[139.44301,35.75506],[139.44233,35.75513],[139.44119,35.75517],[139.44095,35.75517],[139.44081,35.75514],[139.44069,35.75507],[139.4403,35.75509],[139.4401,35.75514],[139.43961,35.75537],[139.43938,35.75554],[139.44002,35.75606],[139.44003,35.75609],[139.43986,35.75648],[139.44029,35.75701],[139.44047,35.75692],[139.44062,35.7569],[139.44071,35.75678],[139.44084,35.75666],[139.44138,35.75637],[139.44197,35.75629],[139.44203,35.75625],[139.442,35.75612],[139.44256,35.75601]]]}},{"type":"Feature","properties":{"id":"area-13220008002","name":"清水二丁目"},"geometry":{"type":"Polygon","coordinates":[[[139.44465,35.75595],[139.44489,35.75539],[139.44496,35.75545],[139.44523,35.75555],[139.44531,35.75556],[139.44535,35.7555],[139.44556,35.7555],[139.44634,35.75557],[139.44641,35.75523],[139.44659,35.75463],[139.44679,35.75417],[139.44684,35.75411],[139.44698,35.75376],[139.44695,35.75374],[139.44738,35.75265],[139.44636,35.75234],[139.44433,35.75186],[139.44432,35.75278],[139.44427,35.75307],[139.4441,35.75379],[139.4436,35.75526],[139.44353,35.75537],[139.44359,35.75545],[139.44374,35.75558],[139.44403,35.75569],[139.44441,35.75578],[139.44433,35.75583],[139.44465,35.75595]]]}},{"type":"Feature","properties":{"id":"area-13220008003","name":"清水三丁目"},"geometry":{"type":"Polygon","coordinates":[[[139.4436,35.75526],[139.4441,35.75379],[139.44427,35.75307],[139.44432,35.75278],[139.44433,35.75186],[139.44381,35.75151],[139.44307,35.75112],[139.44226,35.75075],[139.44214,35.75068],[139.44206,35.75052],[139.442,35.75051],[139.44162,35.75252],[139.4416,35.75334],[139.44165,35.75344],[139.44162,35.75371],[139.44114,35.75454],[139.44089,35.75486],[139.44081,35.75514],[139.44119,35.75517],[139.44233,35.75513],[139.44301,35.75506],[139.44319,35.75507],[139.44335,35.75514],[139.44353,35.75537],[139.4436,35.75526]]]}},{"type":"Feature","properties":{"id":"area-13220008004","name":"清水四丁目"},"geometry":{"type":"Polygon","coordinates":[[[139.44713,35.75078],[139.44731,35.75021],[139.44759,35.75018],[139.44762,35.74984],[139.44728,35.74979],[139.44738,35.74924],[139.4482,35.74934],[139.44888,35.74939],[139.44888,35.74974],[139.44914,35.74966],[139.4491,35.74931],[139.449,35.74928],[139.44901,35.74907],[139.44821,35.74905],[139.44823,35.74866],[139.44559,35.74771],[139.44531,35.7482],[139.44519,35.74857],[139.44476,35.74955],[139.44451,35.75041],[139.44436,35.75067],[139.44436,35.75159],[139.44433,35.75186],[139.44636,35.75234],[139.44738,35.75265],[139.44742,35.75257],[139.44702,35.75231],[139.44693,35.75185],[139.44704,35.75148],[139.44713,35.75078]]]}},{"type":"Feature","properties":{"id":"area-13220008005","name":"清水五丁目"},"geometry":{"type":"Polygon","coordinates":[[[139.44436,35.75067],[139.44451,35.75041],[139.44476,35.74955],[139.44519,35.74857],[139.44531,35.7482],[139.44559,35.74771],[139.44342,35.74698],[139.44253,35.74681],[139.44239,35.74747],[139.44238,35.74802],[139.44232,35.74834],[139.44211,35.74879],[139.44202,35.74909],[139.44193,35.75005],[139.44204,35.75028],[139.44208,35.75052],[139.44206,35.75052],[139.44214,35.75068],[139.44226,35.75075],[139.44307,35.75112],[139.44381,35.75151],[139.44433,35.75186],[139.44436,35.75159],[139.44436,35.75067]]]}},{"type":"Feature","properties":{"id":"area-13220008006","name":"清水六丁目"},"geometry":{"type":"Polygon","coordinates":[[[139.44831,35.74844],[139.44838,35.74771],[139.44938,35.74777],[139.44941,35.74759],[139.45002,35.74763],[139.4501,35.74758],[139.45024,35.74655],[139.4513,35.74661],[139.45142,35.74655],[139.45159,35.7456],[139.45117,35.74555],[139.45119,35.74518],[139.44985,35.74528],[139.44914,35.74522],[139.4439,35.74596],[139.44253,35.74606],[139.44257,35.74682],[139.44342,35.74698],[139.44387,35.74712],[139.44823,35.74866],[139.44825,35.74845],[139.44831,35.74844]]]}},{"type":"Feature","properties":{"id":"area-13220009001","name":"上北台一丁目"},"geometry":{"type":"Polygon","coordinates":[[[139.41345,35.74753],[139.41426,35.74721],[139.41411,35.74741],[139.41585,35.74707],[139.41584,35.74469],[139.41044,35.74476],[139.41044,35.74576],[139.41053,35.74717],[139.41044,35.74769],[139.41033,35.74808],[139.41345,35.74753]]]}},{"type":"Feature","properties":{"id":"area-13220009002","name":"上北台二丁目"},"geometry":{"type":"Polygon","coordinates":[[[139.41044,35.74476],[139.41584,35.74469],[139.41583,35.7437],[139.41598,35.74267],[139.41051,35.74274],[139.41044,35.74476]]]}},{"type":"Feature","properties":{"id":"area-13220009003","name":"上北台三丁目"},"geometry":{"type":"Polygon","coordinates":[[[139.41598,35.74267],[139.41671,35.73855],[139.41471,35.73907],[139.41166,35.73978],[139.41167,35.73983],[139.41134,35.73992],[139.4113,35.74031],[139.4113,35.74084],[139.41103,35.7408],[139.41095,35.74118],[139.41062,35.74116],[139.41051,35.74274],[139.41598,35.74267]]]}},{"type":"Feature","properties":{"id":"area-13220010001","name":"桜が丘一丁目"},"geometry":{"type":"Polygon","coordinates":[[[139.43119,35.73469],[139.43128,35.73465],[139.43132,35.73471],[139.43139,35.73462],[139.43158,35.73457],[139.4317,35.73459],[139.43212,35.73447],[139.43299,35.73413],[139.43355,35.73398],[139.43395,35.734],[139.43461,35.7341],[139.43498,35.7342],[139.43504,35.73424],[139.43544,35.73348],[139.43546,35.73337],[139.43559,35.7332],[139.42886,35.73005],[139.42901,35.73327],[139.42913,35.73345],[139.42932,35.73443],[139.42938,35.73507],[139.43052,35.73488],[139.43117,35.73474],[139.43119,35.73469]]]}},{"type":"Feature","properties":{"id":"area-13220010002","name":"桜が丘二丁目"},"geometry":{"type":"Polygon","coordinates":[[[139.42938,35.73507],[139.42932,35.73443],[139.42913,35.73345],[139.42901,35.73327],[139.42331,35.73354],[139.42309,35.73473],[139.42066,35.73479],[139.42063,35.73472],[139.41991,35.73471],[139.4194,35.73473],[139.41885,35.7348],[139.41745,35.73481],[139.4174,35.73501],[139.41735,35.73501],[139.41715,35.73565],[139.41705,35.7357],[139.41682,35.73625],[139.41655,35.73725],[139.41652,35.73759],[139.41674,35.73847],[139.41672,35.73852],[139.41675,35.73855],[139.41875,35.73798],[139.42015,35.7377],[139.42501,35.73642],[139.42938,35.73507]]]}},{"type":"Feature","properties":{"id":"area-13220010003","name":"桜が丘三丁目"},"geometry":{"type":"Polygon","coordinates":[[[139.4194,35.73473],[139.42063,35.73472],[139.42066,35.73479],[139.42309,35.73473],[139.42331,35.73354],[139.42901,35.73327],[139.42886,35.73005],[139.42856,35.7299],[139.42655,35.7301],[139.42679,35.73149],[139.42591,35.73124],[139.42474,35.7314],[139.42393,35.73137],[139.42235,35.73143],[139.42167,35.73151],[139.42164,35.73143],[139.42125,35.73148],[139.42049,35.73167],[139.42044,35.73174],[139.41954,35.73195],[139.41954,35.73192],[139.41891,35.73203],[139.41782,35.73205],[139.41735,35.73501],[139.4174,35.73501],[139.41745,35.73481],[139.41885,35.7348],[139.4194,35.73473]]]}},{"type":"Feature","properties":{"id":"area-13220010004","name":"桜が丘四丁目"},"geometry":{"type":"Polygon","coordinates":[[[139.41674,35.73847],[139.41653,35.73766],[139.41655,35.73725],[139.41682,35.73625],[139.41705,35.7357],[139.41715,35.73565],[139.41735,35.73501],[139.41781,35.73208],[139.41672,35.73213],[139.41637,35.7322],[139.41486,35.73297],[139.4148,35.73305],[139.41411,35.73525],[139.41451,35.73535],[139.41431,35.73574],[139.41403,35.7365],[139.41366,35.73641],[139.41366,35.73639],[139.41275,35.73608],[139.41263,35.73628],[139.41261,35.73645],[139.41281,35.73692],[139.41306,35.73692],[139.41308,35.737],[139.41297,35.73703],[139.413,35.73715],[139.41254,35.7373],[139.41235,35.73703],[139.41204,35.73713],[139.41197,35.73704],[139.41136,35.73734],[139.41138,35.73742],[139.41121,35.73747],[139.41122,35.73758],[139.41132,35.73792],[139.41175,35.73779],[139.41193,35.73819],[139.41206,35.73817],[139.41216,35.73839],[139.41221,35.73861],[139.41191,35.73869],[139.41202,35.73925],[139.41156,35.73931],[139.41166,35.73978],[139.41471,35.73907],[139.41671,35.73855],[139.41674,35.73847]]]}},{"type":"Feature","properties":{"id":"area-13220011001","name":"立野一丁目"},"geometry":{"type":"Polygon","coordinates":[[[139.42351,35.7467],[139.42437,35.74256],[139.4198,35.7426],[139.41978,35.74295],[139.41969,35.74324],[139.41954,35.74353],[139.41951,35.74377],[139.41944,35.74389],[139.41933,35.74396],[139.41925,35.74408],[139.41927,35.74426],[139.41934,35.74426],[139.41934,35.74469],[139.41923,35.74651],[139.42002,35.7464],[139.42121,35.74636],[139.42213,35.74645],[139.42284,35.74655],[139.42351,35.7467]]]}},{"type":"Feature","properties":{"id":"area-13220011002","name":"立野二丁目"},"geometry":{"type":"Polygon","coordinates":[[[139.41934,35.74469],[139.41934,35.74426],[139.41927,35.74426],[139.41925,35.74408],[139.41933,35.74396],[139.41944,35.74389],[139.41951,35.74377],[139.41954,35.74353],[139.41969,35.74324],[139.41978,35.74295],[139.4198,35.7426],[139.41598,35.74265],[139.41583,35.7437],[139.41585,35.74707],[139.41923,35.74651],[139.41934,35.74469]]]}},{"type":"Feature","properties":{"id":"area-13220011003","name":"立野三丁目"},"geometry":{"type":"Polygon","coordinates":[[[139.42521,35.73719],[139.42491,35.73644],[139.42289,35.73697],[139.42259,35.73788],[139.42233,35.73847],[139.42188,35.73913],[139.42127,35.73982],[139.42108,35.74011],[139.42099,35.74021],[139.42081,35.74031],[139.42049,35.74064],[139.42033,35.74111],[139.42023,35.74132],[139.4199,35.7418],[139.41989,35.74185],[139.41995,35.74193],[139.41967,35.74236],[139.41968,35.74248],[139.41977,35.7426],[139.42437,35.74256],[139.42526,35.73826],[139.4253,35.73782],[139.4253,35.73754],[139.42521,35.73719]]]}},{"type":"Feature","properties":{"id":"area-13220011004","name":"立野四丁目"},"geometry":{"type":"Polygon","coordinates":[[[139.42188,35.73913],[139.42233,35.73847],[139.42245,35.73822],[139.42289,35.73697],[139.42015,35.7377],[139.41875,35.73798],[139.41675,35.73855],[139.41672,35.73852],[139.41598,35.74265],[139.41977,35.7426],[139.41968,35.74248],[139.41967,35.74236],[139.41995,35.74193],[139.41989,35.74185],[139.4199,35.7418],[139.42023,35.74132],[139.42033,35.74111],[139.42049,35.74064],[139.42081,35.74031],[139.42099,35.74021],[139.42108,35.74011],[139.42127,35.73982],[139.42188,35.73913]]]}},{"type":"Feature","properties":{"id":"area-13220012001","name":"中央一丁目"},"geometry":{"type":"Polygon","coordinates":[[[139.43545,35.74701],[139.43455,35.74329],[139.43459,35.7432],[139.43453,35.74301],[139.43454,35.74249],[139.43212,35.74248],[139.43198,35.74287],[139.4314,35.74396],[139.43174,35.74398],[139.43175,35.74434],[139.43171,35.74462],[139.43184,35.74565],[139.43184,35.74596],[139.43177,35.74651],[139.43191,35.74679],[139.43191,35.74723],[139.43543,35.74705],[139.43545,35.74701]]]}},{"type":"Feature","properties":{"id":"area-13220012002","name":"中央二丁目"},"geometry":{"type":"Polygon","coordinates":[[[139.42737,35.74724],[139.43146,35.74726],[139.43191,35.74723],[139.43191,35.74679],[139.43177,35.74651],[139.43184,35.74596],[139.43184,35.74565],[139.43171,35.74462],[139.43175,35.74434],[139.43174,35.74398],[139.4314,35.74396],[139.43198,35.74287],[139.43212,35.74248],[139.43036,35.74248],[139.42872,35.74537],[139.42839,35.74589],[139.42737,35.74724]]]}},{"type":"Feature","properties":{"id":"area-13220012003","name":"中央三丁目"},"geometry":{"type":"Polygon","coordinates":[[[139.42562,35.74422],[139.42407,35.74402],[139.42352,35.74665],[139.42682,35.7472],[139.42737,35.74724],[139.42839,35.74589],[139.42872,35.74537],[139.42909,35.74469],[139.42801,35.74449],[139.42615,35.74434],[139.42562,35.74422]]]}},{"type":"Feature","properties":{"id":"area-13220012004","name":"中央四丁目"},"geometry":{"type":"Polygon","coordinates":[[[139.42909,35.74469],[139.43036,35.74248],[139.42437,35.74254],[139.42407,35.74402],[139.4254,35.74418],[139.42615,35.74434],[139.42801,35.74449],[139.42909,35.74469]]]}},{"type":"Feature","properties":{"id":"area-13220013001","name":"南街一丁目"},"geometry":{"type":"Polygon","coordinates":[[[139.43044,35.74248],[139.43454,35.74249],[139.43454,35.7421],[139.43468,35.74199],[139.43491,35.74113],[139.43502,35.74113],[139.43496,35.74088],[139.43501,35.74066],[139.43463,35.74056],[139.43439,35.74112],[139.4336,35.74099],[139.43375,35.74012],[139.43435,35.73915],[139.43354,35.739],[139.43265,35.73863],[139.43044,35.74248]]]}},{"type":"Feature","properties":{"id":"area-13220013002","name":"南街二丁目"},"geometry":{"type":"Polygon","coordinates":[[[139.43044,35.74248],[139.43266,35.73862],[139.43006,35.73773],[139.42894,35.73985],[139.42821,35.73957],[139.42804,35.73987],[139.42789,35.74023],[139.42752,35.74178],[139.42722,35.74251],[139.43044,35.74248]]]}},{"type":"Feature","properties":{"id":"area-13220013003","name":"南街三丁目"},"geometry":{"type":"Polygon","coordinates":[[[139.42804,35.73987],[139.42821,35.73957],[139.42894,35.73985],[139.43006,35.73773],[139.42925,35.73745],[139.42915,35.73745],[139.42557,35.73623],[139.42491,35.73644],[139.42521,35.73719],[139.4253,35.73754],[139.4253,35.73782],[139.42526,35.73826],[139.42518,35.73869],[139.42437,35.74254],[139.42722,35.74251],[139.42752,35.74178],[139.42789,35.74023],[139.42804,35.73987]]]}},{"type":"Feature","properties":{"id":"area-13220013004","name":"南街四丁目"},"geometry":{"type":"Polygon","coordinates":[[[139.43338,35.73839],[139.43356,35.73788],[139.43433,35.73789],[139.43434,35.73776],[139.43477,35.73778],[139.43476,35.7383],[139.43522,35.73827],[139.43524,35.73806],[139.43523,35.73764],[139.43512,35.73742],[139.43457,35.73744],[139.43455,35.73711],[139.43446,35.7371],[139.43452,35.73682],[139.43431,35.73678],[139.43443,35.73656],[139.43502,35.73674],[139.43514,35.73625],[139.43519,35.73551],[139.43554,35.73457],[139.43496,35.73441],[139.43415,35.73602],[139.43265,35.73863],[139.43354,35.739],[139.43375,35.73859],[139.43345,35.73856],[139.43338,35.73839]]]}},{"type":"Feature","properties":{"id":"area-13220013005","name":"南街五丁目"},"geometry":{"type":"Polygon","coordinates":[[[139.43415,35.73602],[139.43504,35.73424],[139.43498,35.7342],[139.43461,35.7341],[139.43423,35.73403],[139.43355,35.73398],[139.43335,35.73402],[139.43299,35.73413],[139.43212,35.73447],[139.4317,35.73459],[139.43158,35.73457],[139.43139,35.73462],[139.43132,35.73471],[139.43128,35.73465],[139.43119,35.73469],[139.43117,35.73474],[139.431,35.73476],[139.43073,35.7363],[139.43062,35.73661],[139.43006,35.73773],[139.43266,35.73862],[139.43415,35.73602]]]}},{"type":"Feature","properties":{"id":"area-13220013006","name":"南街六丁目"},"geometry":{"type":"Polygon","coordinates":[[[139.43006,35.73773],[139.43062,35.73661],[139.43073,35.7363],[139.431,35.73476],[139.43052,35.73488],[139.42938,35.73507],[139.42557,35.73623],[139.42915,35.73745],[139.42925,35.73745],[139.43006,35.73773]]]}},{"type":"Feature","properties":{"id":"area-13220014001","name":"仲原一丁目"},"geometry":{"type":"Polygon","coordinates":[[[139.44445,35.74589],[139.44447,35.74538],[139.44414,35.74544],[139.44413,35.74477],[139.44414,35.74447],[139.44429,35.7441],[139.44454,35.74409],[139.44462,35.74271],[139.44267,35.74266],[139.44256,35.74373],[139.4425,35.74555],[139.44253,35.74606],[139.4439,35.74596],[139.44445,35.74589]]]}},{"type":"Feature","properties":{"id":"area-13220014002","name":"仲原二丁目"},"geometry":{"type":"Polygon","coordinates":[[[139.44129,35.74626],[139.44253,35.74606],[139.4425,35.74555],[139.44256,35.74373],[139.44267,35.74266],[139.43972,35.74261],[139.43969,35.74386],[139.4401,35.74388],[139.44003,35.74556],[139.44021,35.74556],[139.44021,35.74608],[139.44034,35.74648],[139.44129,35.74626]]]}},{"type":"Feature","properties":{"id":"area-13220014003","name":"仲原三丁目"},"geometry":{"type":"Polygon","coordinates":[[[139.43972,35.74261],[139.43682,35.74253],[139.4368,35.74343],[139.43687,35.74425],[139.43785,35.74426],[139.43807,35.74692],[139.43922,35.74683],[139.43934,35.74675],[139.44034,35.74648],[139.44021,35.74608],[139.44021,35.74556],[139.44003,35.74556],[139.4401,35.74388],[139.43969,35.74386],[139.43972,35.74261]]]}},{"type":"Feature","properties":{"id":"area-13220014004","name":"仲原四丁目"},"geometry":{"type":"Polygon","coordinates":[[[139.43545,35.74701],[139.43804,35.74687],[139.43807,35.74692],[139.43785,35.74426],[139.43687,35.74425],[139.4368,35.74343],[139.43681,35.74252],[139.43454,35.74249],[139.43453,35.74301],[139.43459,35.7432],[139.43455,35.74329],[139.43545,35.74701]]]}},{"type":"Feature","properties":{"id":"area-13220015001","name":"向原一丁目"},"geometry":{"type":"Polygon","coordinates":[[[139.44235,35.73935],[139.44021,35.73921],[139.43979,35.74168],[139.43969,35.74261],[139.44462,35.74271],[139.44473,35.74017],[139.44289,35.74013],[139.4429,35.74004],[139.44235,35.73935]]]}},{"type":"Feature","properties":{"id":"area-13220015002","name":"向原二丁目"},"geometry":{"type":"Polygon","coordinates":[[[139.44021,35.73921],[139.43828,35.73907],[139.43831,35.7393],[139.43824,35.73974],[139.43806,35.74016],[139.43801,35.74035],[139.43797,35.74256],[139.43969,35.74261],[139.43979,35.74168],[139.44021,35.73921]]]}},{"type":"Feature","properties":{"id":"area-13220015003","name":"向原三丁目"},"geometry":{"type":"Polygon","coordinates":[[[139.43797,35.74256],[139.43801,35.74035],[139.43806,35.74016],[139.43824,35.73974],[139.43831,35.7393],[139.43827,35.7391],[139.43517,35.73886],[139.43513,35.73916],[139.43479,35.73918],[139.43435,35.73915],[139.43375,35.74012],[139.4336,35.74099],[139.43439,35.74112],[139.43463,35.74056],[139.43501,35.74066],[139.43496,35.74088],[139.43502,35.74113],[139.43491,35.74113],[139.43468,35.74199],[139.43454,35.7421],[139.43454,35.74249],[139.43797,35.74256]]]}},{"type":"Feature","properties":{"id":"area-13220015004","name":"向原四丁目"},"geometry":{"type":"Polygon","coordinates":[[[139.44491,35.73678],[139.4449,35.73616],[139.44475,35.73518],[139.44392,35.73548],[139.44214,35.73637],[139.44127,35.73596],[139.44099,35.73661],[139.44077,35.73652],[139.44039,35.73809],[139.44031,35.73832],[139.44021,35.73921],[139.44235,35.73935],[139.4429,35.74004],[139.44289,35.74013],[139.44473,35.74017],[139.44491,35.73678]]]}},{"type":"Feature","properties":{"id":"area-13220015005","name":"向原五丁目"},"geometry":{"type":"Polygon","coordinates":[[[139.44021,35.73921],[139.44031,35.73832],[139.44039,35.73809],[139.44077,35.73652],[139.44099,35.73661],[139.44127,35.73596],[139.43956,35.73519],[139.43908,35.73585],[139.43867,35.73661],[139.43841,35.73699],[139.43821,35.73878],[139.43827,35.7391],[139.43828,35.73907],[139.44021,35.73921]]]}},{"type":"Feature","properties":{"id":"area-13220015006","name":"向原六丁目"},"geometry":{"type":"Polygon","coordinates":[[[139.43513,35.73916],[139.43517,35.73886],[139.43827,35.7391],[139.43821,35.73878],[139.43841,35.73699],[139.43867,35.73661],[139.43908,35.73585],[139.43956,35.73519],[139.43766,35.73424],[139.43663,35.73369],[139.43562,35.73325],[139.43559,35.7332],[139.43546,35.73337],[139.43544,35.73348],[139.43496,35.73441],[139.43554,35.73457],[139.43519,35.73551],[139.43514,35.73625],[139.43502,35.73674],[139.43443,35.73656],[139.43431,35.73678],[139.43452,35.73682],[139.43446,35.7371],[139.43455,35.73711],[139.43457,35.73744],[139.43512,35.73742],[139.43523,35.73764],[139.43524,35.73806],[139.43522,35.73827],[139.43476,35.7383],[139.43477,35.73778],[139.43434,35.73776],[139.43433,35.73789],[139.43356,35.73788],[139.43338,35.73839],[139.43345,35.73856],[139.43375,35.73859],[139.43354,35.739],[139.43435,35.73915],[139.43479,35.73918],[139.43513,35.73916]]]}},{"type":"Feature","properties":{"id":"area-13220016001","name":"清原一丁目"},"geometry":{"type":"Polygon","coordinates":[[[139.44682,35.74554],[139.44914,35.74522],[139.44985,35.74528],[139.45105,35.74519],[139.45094,35.74441],[139.45123,35.74436],[139.45103,35.74338],[139.45092,35.74264],[139.44738,35.74261],[139.44712,35.74315],[139.44702,35.74373],[139.44677,35.74456],[139.44675,35.74497],[139.44682,35.74554]]]}},{"type":"Feature","properties":{"id":"area-13220016002","name":"清原二丁目"},"geometry":{"type":"Polygon","coordinates":[[[139.44682,35.74554],[139.44675,35.74497],[139.44677,35.74456],[139.44702,35.74373],[139.44712,35.74315],[139.44738,35.74261],[139.44641,35.74263],[139.44537,35.74272],[139.44462,35.74271],[139.44454,35.74409],[139.44429,35.7441],[139.44414,35.74447],[139.44413,35.74477],[139.44414,35.74544],[139.44447,35.74538],[139.44445,35.74589],[139.44682,35.74554]]]}},{"type":"Feature","properties":{"id":"area-13220016003","name":"清原三丁目"},"geometry":{"type":"Polygon","coordinates":[[[139.45092,35.74264],[139.45086,35.74202],[139.45077,35.74154],[139.45041,35.74121],[139.44995,35.74088],[139.44898,35.74039],[139.4488,35.74028],[139.44864,35.74011],[139.44806,35.73981],[139.44776,35.74066],[139.4477,35.74097],[139.44763,35.74192],[139.44754,35.74227],[139.44738,35.74261],[139.45092,35.74264]]]}},{"type":"Feature","properties":{"id":"area-13220016004","name":"清原四丁目"},"geometry":{"type":"Polygon","coordinates":[[[139.44648,35.73911],[139.44483,35.73834],[139.44462,35.74271],[139.44537,35.74272],[139.44641,35.74263],[139.44738,35.74261],[139.44754,35.74227],[139.44763,35.74192],[139.4477,35.74097],[139.44776,35.74066],[139.44806,35.73981],[139.44768,35.73961],[139.44648,35.73911]]]}},{"type":"Feature","properties":{"id":"area-13220017001","name":"新堀一丁目"},"geometry":{"type":"Polygon","coordinates":[[[139.45106,35.74186],[139.45131,35.74143],[139.45158,35.74147],[139.45165,35.74116],[139.45184,35.74115],[139.45188,35.74055],[139.45137,35.74048],[139.45135,35.7399],[139.45138,35.73962],[139.45153,35.73964],[139.45156,35.73951],[139.4513,35.73946],[139.45131,35.73936],[139.45149,35.73894],[139.45111,35.73886],[139.45103,35.73904],[139.45054,35.73901],[139.45055,35.73882],[139.45006,35.73877],[139.45012,35.73841],[139.45062,35.7384],[139.45062,35.73818],[139.45003,35.738],[139.45049,35.73703],[139.45086,35.73717],[139.45098,35.73696],[139.45111,35.73701],[139.45115,35.73696],[139.45141,35.73698],[139.44983,35.73627],[139.44957,35.73693],[139.44936,35.73787],[139.44911,35.73858],[139.4489,35.73854],[139.44871,35.73906],[139.44837,35.73958],[139.44825,35.73991],[139.44864,35.74011],[139.4488,35.74028],[139.44898,35.74039],[139.44995,35.74088],[139.45041,35.74121],[139.45077,35.74154],[139.45086,35.74202],[139.45106,35.74201],[139.45106,35.74186]]]}},{"type":"Feature","properties":{"id":"area-13220017002","name":"新堀二丁目"},"geometry":{"type":"Polygon","coordinates":[[[139.44871,35.73906],[139.4489,35.73854],[139.44911,35.73858],[139.44936,35.73787],[139.44957,35.73693],[139.44983,35.73627],[139.44832,35.73559],[139.44798,35.73645],[139.44771,35.73639],[139.44768,35.73642],[139.44745,35.73699],[139.44748,35.73727],[139.44736,35.7375],[139.44715,35.7383],[139.44711,35.73835],[139.44693,35.7384],[139.44678,35.73869],[139.44662,35.73883],[139.44648,35.73911],[139.44768,35.73961],[139.44825,35.73991],[139.44837,35.73958],[139.44871,35.73906]]]}},{"type":"Feature","properties":{"id":"area-13220017003","name":"新堀三丁目"},"geometry":{"type":"Polygon","coordinates":[[[139.44745,35.73699],[139.44771,35.73639],[139.44798,35.73645],[139.44832,35.73559],[139.44699,35.73498],[139.44657,35.73489],[139.44584,35.73488],[139.44522,35.73501],[139.44475,35.73518],[139.44492,35.73639],[139.44483,35.73834],[139.44648,35.73911],[139.44662,35.73883],[139.44678,35.73869],[139.44693,35.7384],[139.44711,35.73835],[139.44715,35.7383],[139.44736,35.7375],[139.44748,35.73727],[139.44745,35.73699]]]}}]}