{"type":"FeatureCollection","features":[{"type":"Feature","properties":{"id":"area-13225001001","name":"矢野口"},"geometry":{"type":"Polygon","coordinates":[[[139.51204,35.64506],[139.5135,35.6445],[139.51389,35.64428],[139.5143,35.6442],[139.51487,35.64419],[139.51505,35.64423],[139.5159,35.64413],[139.51732,35.64379],[139.51785,35.64362],[139.51789,35.64363],[139.51793,35.64369],[139.51901,35.64362],[139.51938,35.64366],[139.52003,35.64379],[139.52274,35.64444],[139.52298,35.64422],[139.52412,35.64339],[139.52494,35.6429],[139.52529,35.64278],[139.52524,35.64256],[139.5245,35.64167],[139.52437,35.64145],[139.52413,35.64115],[139.52437,35.64103],[139.52433,35.64032],[139.52411,35.63998],[139.52402,35.63962],[139.52359,35.63887],[139.52345,35.63867],[139.52329,35.63855],[139.52293,35.6389],[139.52222,35.63925],[139.52152,35.63978],[139.52088,35.64017],[139.51993,35.6407],[139.51964,35.64077],[139.5177,35.64185],[139.51766,35.64181],[139.51759,35.64181],[139.51677,35.64196],[139.51141,35.64226],[139.51114,35.64244],[139.51156,35.6429],[139.51174,35.64324],[139.5117,35.64326],[139.51186,35.64345],[139.51125,35.64375],[139.51145,35.64387],[139.51158,35.64379],[139.51159,35.64374],[139.51185,35.64362],[139.5119,35.64372],[139.51182,35.64398],[139.51188,35.64415],[139.51167,35.64426],[139.51143,35.64446],[139.51127,35.64453],[139.51151,35.64497],[139.51192,35.64482],[139.51204,35.64506]]]}},{"type":"Feature","properties":{"id":"area-13225001002","name":"矢野口"},"geometry":{"type":"Polygon","coordinates":[[[139.51616,35.63793],[139.51606,35.63809],[139.51581,35.63828],[139.51568,35.63845],[139.51571,35.63865],[139.51589,35.63872],[139.51614,35.63871],[139.51617,35.63911],[139.51593,35.63906],[139.51359,35.63916],[139.51352,35.63874],[139.51308,35.63876],[139.51305,35.63839],[139.51223,35.63842],[139.51221,35.63805],[139.51257,35.63803],[139.51257,35.63752],[139.5102,35.63761],[139.51035,35.6382],[139.51058,35.63874],[139.51077,35.63889],[139.51098,35.63915],[139.51102,35.63928],[139.5115,35.64003],[139.5117,35.63995],[139.51177,35.63996],[139.51239,35.64039],[139.51227,35.64054],[139.51266,35.64077],[139.51247,35.64092],[139.51253,35.64114],[139.5127,35.64141],[139.51141,35.64226],[139.51677,35.64196],[139.51759,35.64181],[139.51766,35.64181],[139.5177,35.64185],[139.51964,35.64077],[139.51913,35.64052],[139.51849,35.64038],[139.51857,35.64009],[139.51884,35.63972],[139.51913,35.63946],[139.5192,35.63925],[139.51932,35.6391],[139.51967,35.63891],[139.51982,35.63916],[139.52022,35.63967],[139.52046,35.63992],[139.52088,35.64017],[139.52152,35.63978],[139.52222,35.63925],[139.52293,35.6389],[139.52329,35.63855],[139.52272,35.63804],[139.52248,35.6379],[139.52247,35.63782],[139.52237,35.63761],[139.52243,35.63748],[139.52224,35.63748],[139.52165,35.63763],[139.52144,35.6376],[139.52104,35.63763],[139.52107,35.63753],[139.52092,35.6374],[139.52093,35.63708],[139.52126,35.63674],[139.52187,35.6363],[139.52181,35.63609],[139.52202,35.63593],[139.52211,35.63527],[139.52219,35.63515],[139.5223,35.63507],[139.52218,35.63497],[139.52208,35.63474],[139.52219,35.63439],[139.52287,35.63382],[139.52282,35.63373],[139.52321,35.6334],[139.52225,35.63336],[139.52118,35.63327],[139.52087,35.63366],[139.52064,35.63382],[139.52036,35.63386],[139.51857,35.63391],[139.51806,35.63398],[139.51773,35.6342],[139.5175,35.63471],[139.51736,35.63493],[139.51674,35.63564],[139.51641,35.63592],[139.51628,35.63597],[139.51629,35.6361],[139.51595,35.63628],[139.51568,35.63637],[139.5153,35.63638],[139.51326,35.63685],[139.5129,35.63688],[139.51269,35.63684],[139.51273,35.63699],[139.5134,35.63704],[139.51346,35.63749],[139.51445,35.63752],[139.51479,35.63757],[139.51489,35.63713],[139.51523,35.6372],[139.51524,35.63702],[139.51566,35.63702],[139.51562,35.63734],[139.51547,35.63769],[139.51616,35.63793]],[[139.51616,35.63793],[139.51666,35.63698],[139.51672,35.63698],[139.5171,35.63769],[139.51721,35.63783],[139.51752,35.63863],[139.5172,35.63842],[139.51646,35.63804],[139.51616,35.63793]]]}},{"type":"Feature","properties":{"id":"area-13225001003","name":"矢野口"},"geometry":{"type":"MultiPolygon","coordinates":[[[[139.51833,35.62926],[139.51754,35.62959],[139.51741,35.62943],[139.51732,35.62938],[139.51713,35.62938],[139.51702,35.6295],[139.51713,35.62981],[139.51749,35.62993],[139.51833,35.62962],[139.51833,35.62926]]],[[[139.50824,35.63622],[139.51164,35.63622],[139.5119,35.63627],[139.51213,35.63641],[139.51246,35.63667],[139.51251,35.63681],[139.5129,35.63688],[139.51346,35.63681],[139.5153,35.63638],[139.51568,35.63637],[139.51595,35.63628],[139.51629,35.6361],[139.51628,35.63597],[139.51641,35.63592],[139.51674,35.63564],[139.51736,35.63493],[139.5175,35.63471],[139.51773,35.6342],[139.51806,35.63398],[139.51857,35.63391],[139.52036,35.63386],[139.52064,35.63382],[139.52087,35.63366],[139.52118,35.63327],[139.52225,35.63336],[139.52321,35.6334],[139.52363,35.63306],[139.5237,35.63285],[139.52372,35.63262],[139.52365,35.63238],[139.52347,35.63226],[139.52321,35.63215],[139.52186,35.63184],[139.52148,35.63166],[139.52099,35.63135],[139.52074,35.63112],[139.52036,35.63091],[139.52016,35.63116],[139.5199,35.63121],[139.51968,35.63133],[139.5195,35.63136],[139.51921,35.63135],[139.51908,35.6313],[139.51897,35.6312],[139.51882,35.63092],[139.51878,35.63059],[139.51868,35.63047],[139.51842,35.63035],[139.51825,35.63031],[139.51813,35.63031],[139.51762,35.63049],[139.51755,35.63048],[139.51713,35.62999],[139.51702,35.62978],[139.51697,35.62956],[139.51703,35.62943],[139.51703,35.62929],[139.5171,35.62909],[139.51715,35.62859],[139.5171,35.62833],[139.51696,35.6281],[139.51674,35.62704],[139.51635,35.62618],[139.51588,35.62558],[139.51563,35.62535],[139.51515,35.62516],[139.51449,35.6248],[139.5142,35.62469],[139.51321,35.62473],[139.51278,35.62466],[139.51228,35.62453],[139.51164,35.62431],[139.5115,35.62424],[139.51129,35.62406],[139.51113,35.62387],[139.51103,35.62358],[139.51064,35.62333],[139.51047,35.62335],[139.51035,35.62345],[139.5101,35.62373],[139.50993,35.62404],[139.50971,35.62418],[139.50947,35.62417],[139.50916,35.62402],[139.50882,35.62397],[139.50852,35.62383],[139.5082,35.62377],[139.50793,35.62378],[139.50778,35.62374],[139.50631,35.62321],[139.50624,35.62312],[139.50612,35.62268],[139.50586,35.62268],[139.50551,35.62295],[139.50518,35.62309],[139.50492,35.62311],[139.50435,35.623],[139.50358,35.62299],[139.5037,35.62369],[139.50419,35.6239],[139.50437,35.62404],[139.50444,35.62416],[139.505,35.62439],[139.50527,35.62488],[139.50518,35.62505],[139.50497,35.62534],[139.50466,35.6257],[139.50559,35.62703],[139.5055,35.62728],[139.50549,35.62743],[139.50537,35.62763],[139.50547,35.62771],[139.50539,35.6278],[139.50478,35.62788],[139.50463,35.62838],[139.50479,35.62868],[139.50496,35.62871],[139.5052,35.62893],[139.50549,35.62909],[139.50583,35.62938],[139.50608,35.62972],[139.50647,35.62976],[139.50666,35.62932],[139.50725,35.62906],[139.50763,35.6293],[139.50848,35.63018],[139.50859,35.63053],[139.50887,35.63092],[139.50926,35.63088],[139.50972,35.63095],[139.51005,35.63092],[139.51026,35.63088],[139.51072,35.63094],[139.51091,35.63092],[139.511,35.63088],[139.51132,35.63062],[139.51186,35.63039],[139.51207,35.63036],[139.51207,35.63038],[139.51191,35.63049],[139.51185,35.63062],[139.51184,35.63087],[139.51193,35.63119],[139.51203,35.63141],[139.51226,35.63144],[139.51245,35.63174],[139.51267,35.63194],[139.51255,35.63265],[139.5118,35.63248],[139.51147,35.63245],[139.51026,35.63247],[139.50963,35.63255],[139.50952,35.63231],[139.50917,35.63237],[139.50915,35.63262],[139.50803,35.63287],[139.50741,35.63315],[139.5069,35.63375],[139.50652,35.63411],[139.50621,35.6343],[139.50585,35.63467],[139.50532,35.63509],[139.50562,35.63534],[139.50596,35.63574],[139.50619,35.63589],[139.50646,35.63648],[139.50658,35.63711],[139.50705,35.63704],[139.50797,35.63696],[139.50798,35.63643],[139.5081,35.63628],[139.50824,35.63622]]]]}},{"type":"Feature","properties":{"id":"area-13225001004","name":"矢野口"},"geometry":{"type":"MultiPolygon","coordinates":[[[[139.51616,35.63793],[139.51547,35.63769],[139.51562,35.63734],[139.51566,35.63702],[139.51524,35.63702],[139.51523,35.6372],[139.51489,35.63713],[139.51479,35.63757],[139.51445,35.63752],[139.51346,35.63749],[139.5134,35.63704],[139.51273,35.63699],[139.51269,35.63684],[139.51251,35.63681],[139.51246,35.63667],[139.51213,35.63641],[139.5119,35.63627],[139.51164,35.63622],[139.50999,35.63623],[139.5102,35.63761],[139.51257,35.63752],[139.51257,35.63803],[139.51221,35.63805],[139.51223,35.63842],[139.51305,35.63839],[139.51308,35.63876],[139.51352,35.63874],[139.51359,35.63916],[139.51593,35.63906],[139.51617,35.63911],[139.51614,35.63871],[139.51589,35.63872],[139.51571,35.63865],[139.51568,35.63845],[139.51581,35.63828],[139.51606,35.63809],[139.51616,35.63793]]],[[[139.51616,35.63793],[139.51646,35.63804],[139.5172,35.63842],[139.51752,35.63863],[139.51721,35.63783],[139.5171,35.63769],[139.51672,35.63698],[139.51666,35.63698],[139.51644,35.63745],[139.51616,35.63793]]],[[[139.51932,35.6391],[139.5192,35.63925],[139.51913,35.63946],[139.51884,35.63972],[139.51857,35.64009],[139.51849,35.64038],[139.51913,35.64052],[139.51964,35.64077],[139.51993,35.6407],[139.52088,35.64017],[139.52046,35.63992],[139.52022,35.63967],[139.51982,35.63916],[139.51967,35.63891],[139.51932,35.6391]]]]}},{"type":"Feature","properties":{"id":"area-13225002001","name":"東長沼"},"geometry":{"type":"Polygon","coordinates":[[[139.50163,35.64978],[139.50242,35.6495],[139.50272,35.64978],[139.5034,35.65009],[139.5038,35.65007],[139.50545,35.65014],[139.50558,35.64925],[139.50559,35.64899],[139.50553,35.64869],[139.50562,35.64826],[139.50604,35.64793],[139.50664,35.64779],[139.50689,35.6477],[139.50727,35.64748],[139.50749,35.64682],[139.50772,35.64669],[139.50783,35.64648],[139.50801,35.64634],[139.50836,35.64628],[139.50847,35.64619],[139.50862,35.64615],[139.50876,35.64605],[139.50903,35.64575],[139.5097,35.6459],[139.50987,35.6459],[139.51013,35.64581],[139.51061,35.64556],[139.51098,35.64551],[139.51169,35.64526],[139.51204,35.64506],[139.51192,35.64482],[139.51151,35.64497],[139.51127,35.64453],[139.51143,35.64446],[139.51167,35.64426],[139.51188,35.64415],[139.51182,35.64398],[139.5119,35.64372],[139.51185,35.64362],[139.51159,35.64374],[139.51158,35.64379],[139.51145,35.64387],[139.51125,35.64375],[139.51186,35.64345],[139.5117,35.64326],[139.51174,35.64324],[139.51156,35.6429],[139.51114,35.64244],[139.51141,35.64226],[139.50558,35.64256],[139.50413,35.64268],[139.503,35.64295],[139.50101,35.6438],[139.50148,35.64476],[139.50173,35.64494],[139.5021,35.64511],[139.50201,35.64521],[139.50206,35.64523],[139.50189,35.64544],[139.50171,35.64531],[139.50146,35.64548],[139.50145,35.6455],[139.50161,35.64564],[139.50145,35.64575],[139.50152,35.64581],[139.50121,35.64605],[139.50116,35.64601],[139.50106,35.64607],[139.50084,35.64612],[139.50075,35.64624],[139.50015,35.64672],[139.50029,35.6468],[139.50053,35.64707],[139.50102,35.64748],[139.50055,35.64833],[139.50035,35.64908],[139.50022,35.64981],[139.50005,35.6512],[139.50012,35.65121],[139.50114,35.65067],[139.50164,35.65032],[139.50163,35.64978]]]}},{"type":"Feature","properties":{"id":"area-13225002002","name":"東長沼"},"geometry":{"type":"Polygon","coordinates":[[[139.50113,35.64375],[139.503,35.64295],[139.50413,35.64268],[139.50558,35.64256],[139.51141,35.64226],[139.5127,35.64141],[139.51253,35.64114],[139.51247,35.64092],[139.51266,35.64077],[139.51227,35.64054],[139.51239,35.64039],[139.51177,35.63996],[139.5117,35.63995],[139.5115,35.64003],[139.51102,35.63928],[139.51098,35.63915],[139.51077,35.63889],[139.51058,35.63874],[139.51035,35.6382],[139.51016,35.63748],[139.50999,35.63623],[139.50824,35.63622],[139.5081,35.63628],[139.50798,35.63643],[139.50797,35.63696],[139.50705,35.63704],[139.50658,35.63711],[139.50656,35.63723],[139.50074,35.63846],[139.50044,35.63848],[139.50002,35.63845],[139.49937,35.63827],[139.49909,35.63814],[139.49851,35.63775],[139.4984,35.63788],[139.49867,35.63805],[139.49978,35.63894],[139.5001,35.63923],[139.50051,35.64001],[139.50049,35.64021],[139.50036,35.64043],[139.50033,35.64063],[139.50033,35.64112],[139.50044,35.64197],[139.50071,35.64251],[139.5008,35.64262],[139.50085,35.64274],[139.50079,35.64334],[139.50094,35.64332],[139.50113,35.64375]],[[139.50233,35.64007],[139.5029,35.63955],[139.50338,35.64047],[139.50319,35.64058],[139.50276,35.64092],[139.50255,35.64077],[139.50249,35.64067],[139.50238,35.64062],[139.50213,35.64018],[139.50233,35.64007]]]}},{"type":"Feature","properties":{"id":"area-13225002003","name":"東長沼"},"geometry":{"type":"MultiPolygon","coordinates":[[[[139.50127,35.62553],[139.50215,35.62612],[139.50223,35.62625],[139.50226,35.62647],[139.50215,35.62672],[139.50232,35.62691],[139.50237,35.62703],[139.50271,35.6272],[139.50315,35.62727],[139.50339,35.62742],[139.50371,35.62769],[139.50386,35.62772],[139.50411,35.62766],[139.50426,35.62779],[139.50501,35.62766],[139.50517,35.6277],[139.50537,35.62763],[139.50549,35.62743],[139.5055,35.62728],[139.50559,35.62703],[139.50466,35.6257],[139.50497,35.62534],[139.50518,35.62505],[139.50527,35.62488],[139.505,35.62439],[139.50444,35.62416],[139.50437,35.62404],[139.50419,35.6239],[139.5037,35.62369],[139.50358,35.62299],[139.50318,35.62288],[139.50311,35.62277],[139.50309,35.62245],[139.50298,35.62233],[139.5028,35.62232],[139.50246,35.62213],[139.50234,35.62199],[139.50216,35.62192],[139.502,35.62191],[139.50175,35.62196],[139.50101,35.62179],[139.50049,35.62135],[139.50005,35.62141],[139.49955,35.62171],[139.49937,35.62191],[139.49898,35.62201],[139.49871,35.62229],[139.49886,35.62229],[139.49841,35.62263],[139.49824,35.62289],[139.49795,35.62315],[139.49811,35.62338],[139.4981,35.6235],[139.49721,35.62391],[139.49691,35.6239],[139.49649,35.62395],[139.49652,35.62396],[139.49625,35.62404],[139.49596,35.62419],[139.49583,35.62438],[139.49582,35.62447],[139.49573,35.62473],[139.49566,35.62529],[139.49572,35.62545],[139.49594,35.62561],[139.49648,35.62588],[139.49674,35.62612],[139.4971,35.62697],[139.49738,35.6274],[139.4981,35.62811],[139.49827,35.62789],[139.49853,35.62771],[139.49888,35.6274],[139.49897,35.62715],[139.50022,35.62638],[139.50074,35.6258],[139.50127,35.62553]]],[[[139.50619,35.63589],[139.50596,35.63574],[139.50562,35.63534],[139.50545,35.63522],[139.50547,35.63521],[139.50527,35.63506],[139.50499,35.63494],[139.505,35.6347],[139.5046,35.6347],[139.50461,35.63437],[139.5043,35.6344],[139.50404,35.63456],[139.50381,35.63439],[139.50399,35.6342],[139.5042,35.63409],[139.50403,35.63377],[139.50374,35.63392],[139.50352,35.63414],[139.50147,35.63596],[139.50068,35.63546],[139.49999,35.63617],[139.49968,35.63642],[139.49851,35.63775],[139.49909,35.63814],[139.49937,35.63827],[139.49976,35.6384],[139.50044,35.63848],[139.50094,35.63843],[139.50178,35.63822],[139.50656,35.63723],[139.50658,35.63711],[139.50646,35.63648],[139.50619,35.63589]]]]}},{"type":"Feature","properties":{"id":"area-13225002090","name":"東長沼"},"geometry":{"type":"Polygon","coordinates":[[[139.50322,35.64056],[139.50338,35.64047],[139.5029,35.63955],[139.50233,35.64007],[139.50213,35.64018],[139.50238,35.64062],[139.50249,35.64067],[139.50255,35.64077],[139.50276,35.64092],[139.50322,35.64056]]]}},{"type":"Feature","properties":{"id":"area-13225002091","name":"東長沼"},"geometry":{"type":"Polygon","coordinates":[[[139.48268,35.63948],[139.48272,35.63863],[139.48302,35.63781],[139.4839,35.63651],[139.48407,35.63609],[139.48425,35.63585],[139.48438,35.63574],[139.48471,35.63558],[139.48461,35.63512],[139.48476,35.63435],[139.48407,35.63402],[139.4838,35.63409],[139.48299,35.6341],[139.48181,35.6342],[139.48114,35.63411],[139.4809,35.63412],[139.48083,35.63416],[139.48075,35.63429],[139.48063,35.63462],[139.48033,35.63503],[139.47952,35.63489],[139.47908,35.63575],[139.47843,35.6361],[139.47886,35.63712],[139.47891,35.63789],[139.47904,35.63843],[139.47915,35.63866],[139.47944,35.63879],[139.47977,35.63871],[139.48004,35.63854],[139.48065,35.63845],[139.48081,35.63851],[139.48099,35.6391],[139.48106,35.63963],[139.48122,35.63988],[139.48135,35.63996],[139.48158,35.63993],[139.48195,35.63981],[139.48236,35.63954],[139.48268,35.63948]]]}},{"type":"Feature","properties":{"id":"area-13225003001","name":"大丸"},"geometry":{"type":"Polygon","coordinates":[[[139.48689,35.65266],[139.48862,35.65174],[139.48884,35.65179],[139.4902,35.65187],[139.49049,35.65198],[139.49222,35.65234],[139.49897,35.65153],[139.49964,35.65139],[139.50004,35.65127],[139.50012,35.65121],[139.50005,35.6512],[139.50022,35.64981],[139.50035,35.64908],[139.50055,35.64833],[139.50102,35.64748],[139.50053,35.64707],[139.50029,35.6468],[139.50015,35.64672],[139.50075,35.64624],[139.50084,35.64612],[139.50106,35.64607],[139.50116,35.64601],[139.50121,35.64605],[139.50152,35.64581],[139.50145,35.64575],[139.50161,35.64564],[139.50145,35.6455],[139.50146,35.64548],[139.50171,35.64531],[139.50189,35.64544],[139.50206,35.64523],[139.50201,35.64521],[139.5021,35.64511],[139.50173,35.64494],[139.50148,35.64476],[139.50101,35.6438],[139.50113,35.64375],[139.50094,35.64332],[139.50079,35.64334],[139.50085,35.64274],[139.5008,35.64262],[139.50071,35.64251],[139.50041,35.64187],[139.50031,35.64091],[139.50036,35.64043],[139.49929,35.64057],[139.49891,35.64067],[139.49884,35.64074],[139.49878,35.64076],[139.49847,35.64066],[139.49802,35.64074],[139.49799,35.64071],[139.49766,35.64099],[139.49771,35.64103],[139.49748,35.64115],[139.49712,35.64105],[139.49709,35.64112],[139.49638,35.64087],[139.49637,35.64095],[139.4962,35.64107],[139.49623,35.64113],[139.49633,35.64107],[139.49756,35.64148],[139.49755,35.64153],[139.49759,35.64155],[139.49747,35.6426],[139.49706,35.64268],[139.49699,35.64262],[139.49679,35.64269],[139.49672,35.64265],[139.4965,35.64267],[139.49631,35.64265],[139.49615,35.64256],[139.49617,35.6426],[139.49601,35.64254],[139.49588,35.64284],[139.49534,35.64349],[139.49518,35.64363],[139.49495,35.64379],[139.49455,35.64402],[139.4946,35.64404],[139.49446,35.64413],[139.49439,35.64412],[139.49427,35.64402],[139.49421,35.64402],[139.49409,35.64416],[139.49385,35.64425],[139.49378,35.64446],[139.49364,35.64455],[139.49355,35.64471],[139.49346,35.64477],[139.49271,35.645],[139.49263,35.64466],[139.49223,35.64464],[139.49198,35.64468],[139.49179,35.64474],[139.49144,35.64497],[139.49093,35.64479],[139.49072,35.64464],[139.49064,35.64486],[139.49042,35.64504],[139.4904,35.64509],[139.49044,35.64525],[139.49057,35.64549],[139.49052,35.6456],[139.4905,35.64576],[139.49057,35.64591],[139.49057,35.646],[139.49054,35.64606],[139.49043,35.64612],[139.49034,35.64626],[139.49014,35.64612],[139.4901,35.64597],[139.48993,35.64585],[139.48971,35.64596],[139.48912,35.64606],[139.48904,35.64642],[139.48846,35.64638],[139.48831,35.64703],[139.48804,35.64705],[139.48796,35.64685],[139.48799,35.64672],[139.48777,35.64616],[139.48749,35.64597],[139.4874,35.64583],[139.48738,35.64555],[139.48728,35.64511],[139.48695,35.64455],[139.48688,35.64426],[139.48669,35.64392],[139.48671,35.64359],[139.48663,35.64346],[139.48654,35.64348],[139.48625,35.64342],[139.48608,35.6432],[139.48598,35.64318],[139.48578,35.64302],[139.48588,35.643],[139.48574,35.64287],[139.48529,35.64206],[139.48507,35.6421],[139.48461,35.64195],[139.48447,35.64197],[139.48434,35.64183],[139.48426,35.64178],[139.4842,35.64158],[139.4842,35.64148],[139.48409,35.64118],[139.48408,35.64098],[139.48411,35.64078],[139.48419,35.64052],[139.48413,35.64042],[139.48407,35.64041],[139.48389,35.64017],[139.48341,35.63981],[139.48304,35.63979],[139.48289,35.63984],[139.48266,35.63983],[139.48268,35.63948],[139.48236,35.63954],[139.48195,35.63981],[139.48158,35.63993],[139.48135,35.63996],[139.48122,35.63988],[139.48106,35.63963],[139.48099,35.6391],[139.48081,35.63851],[139.48065,35.63845],[139.48004,35.63854],[139.47977,35.63871],[139.47944,35.63879],[139.47915,35.63866],[139.47904,35.63843],[139.47891,35.63789],[139.47886,35.63712],[139.47843,35.6361],[139.47834,35.63615],[139.47824,35.63646],[139.47787,35.63673],[139.47727,35.63697],[139.47689,35.63696],[139.4765,35.63729],[139.47627,35.63735],[139.4761,35.63758],[139.47569,35.63786],[139.47638,35.63689],[139.47644,35.6367],[139.47641,35.63622],[139.4762,35.63626],[139.47545,35.63679],[139.47488,35.63668],[139.47416,35.63737],[139.47438,35.63753],[139.47479,35.6372],[139.47503,35.63735],[139.47454,35.6379],[139.47398,35.63834],[139.47256,35.63903],[139.47243,35.63902],[139.4723,35.63859],[139.47183,35.63842],[139.47143,35.63847],[139.47092,35.63873],[139.47048,35.63927],[139.47031,35.63986],[139.47038,35.64044],[139.46931,35.64144],[139.46925,35.6429],[139.46903,35.64355],[139.46885,35.64428],[139.46888,35.64472],[139.46925,35.64465],[139.47013,35.64526],[139.47075,35.64551],[139.47142,35.64598],[139.47233,35.64636],[139.47326,35.6469],[139.4739,35.6471],[139.47403,35.6472],[139.474,35.64756],[139.47395,35.64771],[139.47384,35.64775],[139.4736,35.64797],[139.47375,35.6483],[139.47382,35.64864],[139.47384,35.64886],[139.4739,35.64903],[139.47404,35.64919],[139.47405,35.64935],[139.47401,35.64952],[139.47398,35.65],[139.47402,35.65058],[139.47535,35.6509],[139.48327,35.65244],[139.48384,35.65244],[139.48394,35.65247],[139.48689,35.65266]],[[139.49372,35.64712],[139.4936,35.64705],[139.49348,35.64648],[139.49384,35.64621],[139.49407,35.64631],[139.49451,35.64583],[139.49485,35.64565],[139.49539,35.64524],[139.49577,35.64485],[139.49588,35.64479],[139.49661,35.64466],[139.49687,35.64471],[139.49704,35.64557],[139.49647,35.64583],[139.49652,35.64586],[139.49615,35.64604],[139.49552,35.64645],[139.49547,35.64644],[139.49532,35.64653],[139.49385,35.64751],[139.4934,35.64732],[139.49355,35.64718],[139.49372,35.64712]],[[139.49868,35.64486],[139.49967,35.6444],[139.49985,35.64466],[139.50001,35.64459],[139.50044,35.64519],[139.49932,35.64567],[139.49868,35.64486]]]}},{"type":"Feature","properties":{"id":"area-13225003002","name":"大丸"},"geometry":{"type":"Polygon","coordinates":[[[139.49385,35.64751],[139.49547,35.64644],[139.49552,35.64645],[139.49615,35.64604],[139.49652,35.64586],[139.49647,35.64583],[139.49704,35.64557],[139.49687,35.64471],[139.49661,35.64466],[139.49588,35.64479],[139.49577,35.64485],[139.49539,35.64524],[139.49485,35.64565],[139.49451,35.64583],[139.49407,35.64631],[139.49384,35.64621],[139.49348,35.64648],[139.4936,35.64705],[139.49372,35.64712],[139.49355,35.64718],[139.4934,35.64732],[139.49385,35.64751]]]}},{"type":"Feature","properties":{"id":"area-13225003003","name":"大丸"},"geometry":{"type":"Polygon","coordinates":[[[139.50044,35.64519],[139.50001,35.64459],[139.49985,35.64466],[139.49967,35.6444],[139.49868,35.64486],[139.49932,35.64567],[139.50044,35.64519]]]}},{"type":"Feature","properties":{"id":"area-13225004000","name":"百村"},"geometry":{"type":"Polygon","coordinates":[[[139.49576,35.64138],[139.49637,35.64095],[139.49638,35.64087],[139.49709,35.64112],[139.49712,35.64105],[139.49748,35.64115],[139.49771,35.64103],[139.49766,35.64099],[139.49799,35.64071],[139.49802,35.64074],[139.49847,35.64066],[139.49878,35.64076],[139.49884,35.64074],[139.49891,35.64067],[139.49929,35.64057],[139.50036,35.64043],[139.50049,35.64021],[139.50053,35.64006],[139.5001,35.63923],[139.49978,35.63894],[139.49867,35.63805],[139.4984,35.63788],[139.49968,35.63642],[139.49999,35.63617],[139.50068,35.63546],[139.50147,35.63596],[139.50352,35.63414],[139.50335,35.63368],[139.50334,35.63343],[139.50323,35.63312],[139.50328,35.63272],[139.50293,35.63264],[139.50292,35.63246],[139.50287,35.6324],[139.50281,35.63253],[139.50257,35.63271],[139.50248,35.6327],[139.50234,35.63257],[139.50248,35.63232],[139.50243,35.63224],[139.50228,35.63212],[139.50229,35.63199],[139.5024,35.63187],[139.50279,35.63177],[139.50289,35.63165],[139.50287,35.63148],[139.50269,35.63091],[139.50266,35.63041],[139.50236,35.63006],[139.50238,35.63],[139.50268,35.62978],[139.50228,35.62904],[139.502,35.62828],[139.50192,35.62813],[139.50172,35.62803],[139.50159,35.62803],[139.50163,35.62786],[139.50186,35.62756],[139.50221,35.62717],[139.50237,35.62703],[139.50232,35.62691],[139.50215,35.62672],[139.50226,35.62647],[139.50223,35.62625],[139.50215,35.62612],[139.50127,35.62553],[139.50074,35.6258],[139.50022,35.62638],[139.49897,35.62715],[139.49888,35.6274],[139.49853,35.62771],[139.49827,35.62789],[139.4981,35.62811],[139.49852,35.62829],[139.49868,35.62845],[139.49876,35.62867],[139.49882,35.62954],[139.49742,35.63031],[139.49671,35.63081],[139.49667,35.63077],[139.49557,35.63173],[139.49529,35.63174],[139.49493,35.63197],[139.49407,35.63271],[139.49399,35.63317],[139.4939,35.63335],[139.49359,35.6334],[139.49377,35.63392],[139.49322,35.63422],[139.49322,35.63425],[139.49234,35.6347],[139.49162,35.63435],[139.49121,35.63421],[139.4912,35.63392],[139.49113,35.63379],[139.49097,35.63366],[139.49072,35.63353],[139.49058,35.63349],[139.4905,35.63355],[139.49097,35.63428],[139.49096,35.63451],[139.49113,35.63458],[139.49135,35.63475],[139.4914,35.63497],[139.49158,35.63519],[139.49179,35.63555],[139.49183,35.63586],[139.49197,35.63607],[139.4923,35.63636],[139.49246,35.63646],[139.49263,35.6365],[139.49272,35.63663],[139.49216,35.63683],[139.4923,35.63715],[139.49228,35.63743],[139.49218,35.63762],[139.49166,35.63819],[139.49344,35.63905],[139.49403,35.63931],[139.49399,35.63935],[139.49496,35.63964],[139.49574,35.63973],[139.49623,35.63974],[139.49607,35.64021],[139.49587,35.64026],[139.49584,35.64044],[139.49524,35.64087],[139.49521,35.64105],[139.49545,35.64109],[139.49556,35.64105],[139.49556,35.64111],[139.49545,35.64118],[139.49562,35.64141],[139.49576,35.64138]]]}},{"type":"Feature","properties":{"id":"area-13225004001","name":"百村"},"geometry":{"type":"Polygon","coordinates":[[[139.49097,35.63428],[139.4905,35.63355],[139.49032,35.63367],[139.48999,35.63351],[139.4896,35.63352],[139.48858,35.63388],[139.48807,35.63395],[139.48736,35.634],[139.48674,35.63412],[139.48653,35.63419],[139.48639,35.63427],[139.48576,35.63505],[139.48729,35.63585],[139.48735,35.63593],[139.48747,35.63599],[139.48764,35.63602],[139.49166,35.63819],[139.49218,35.63762],[139.49228,35.63743],[139.4923,35.63715],[139.49216,35.63683],[139.49272,35.63663],[139.49263,35.6365],[139.49246,35.63646],[139.4923,35.63636],[139.49197,35.63607],[139.49183,35.63586],[139.49179,35.63555],[139.49158,35.63519],[139.4914,35.63497],[139.49135,35.63475],[139.49113,35.63458],[139.49096,35.63451],[139.49097,35.63428]]]}},{"type":"Feature","properties":{"id":"area-132250050","name":"坂浜"},"geometry":{"type":"MultiPolygon","coordinates":[[[[139.49373,35.63336],[139.4938,35.63338],[139.4939,35.63335],[139.49399,35.63317],[139.49407,35.63271],[139.49493,35.63197],[139.49529,35.63174],[139.49557,35.63173],[139.49667,35.63077],[139.49671,35.63081],[139.49742,35.63031],[139.49882,35.62954],[139.49876,35.62867],[139.49868,35.62845],[139.49852,35.62829],[139.4981,35.62811],[139.49738,35.6274],[139.4971,35.62697],[139.49674,35.62612],[139.49648,35.62588],[139.49594,35.62561],[139.49572,35.62545],[139.49566,35.62529],[139.49573,35.62473],[139.49582,35.62447],[139.49583,35.62438],[139.49596,35.62419],[139.49625,35.62404],[139.49652,35.62396],[139.49649,35.62395],[139.49691,35.6239],[139.49721,35.62391],[139.4981,35.6235],[139.49811,35.62338],[139.49795,35.62315],[139.49824,35.62289],[139.49841,35.62263],[139.49886,35.62229],[139.49871,35.62229],[139.49898,35.62201],[139.49937,35.62191],[139.49955,35.62171],[139.50005,35.62141],[139.50049,35.62135],[139.49989,35.62074],[139.49928,35.62043],[139.49898,35.62017],[139.49885,35.61992],[139.49867,35.61971],[139.49857,35.61939],[139.49827,35.61905],[139.49815,35.61887],[139.49805,35.6186],[139.49786,35.61838],[139.49757,35.61822],[139.49702,35.6181],[139.49683,35.61797],[139.49652,35.61765],[139.49608,35.61733],[139.49547,35.61718],[139.49516,35.61692],[139.49481,35.61654],[139.49467,35.61615],[139.49463,35.61588],[139.49405,35.61587],[139.49381,35.61582],[139.49284,35.61547],[139.4924,35.6157],[139.49027,35.61574],[139.49004,35.61569],[139.4894,35.61541],[139.48912,35.61539],[139.48853,35.61557],[139.48782,35.61561],[139.48721,35.61577],[139.48568,35.6158],[139.48504,35.61592],[139.48453,35.61597],[139.4841,35.61619],[139.4839,35.61625],[139.48279,35.61606],[139.48227,35.61591],[139.48102,35.61575],[139.48,35.61591],[139.47984,35.6158],[139.47973,35.61557],[139.47937,35.61518],[139.47931,35.61477],[139.47924,35.6146],[139.47913,35.61449],[139.47877,35.61427],[139.47855,35.61389],[139.47837,35.61373],[139.47799,35.61364],[139.47731,35.6138],[139.47711,35.61387],[139.47694,35.61399],[139.47688,35.61406],[139.47688,35.61515],[139.4768,35.61545],[139.47683,35.6157],[139.47625,35.61723],[139.47621,35.61778],[139.47609,35.61805],[139.47624,35.61848],[139.4762,35.61875],[139.47605,35.61907],[139.47587,35.61929],[139.47567,35.6194],[139.47561,35.61957],[139.47545,35.61985],[139.47527,35.61994],[139.47545,35.62019],[139.47572,35.62049],[139.47622,35.62073],[139.47689,35.62094],[139.47874,35.62116],[139.4791,35.62125],[139.47892,35.62154],[139.47878,35.62225],[139.47897,35.62291],[139.47916,35.62312],[139.47986,35.62438],[139.47979,35.62464],[139.47979,35.62474],[139.48037,35.62581],[139.48054,35.62606],[139.48089,35.6261],[139.48119,35.62627],[139.48135,35.62644],[139.48172,35.62691],[139.48184,35.6273],[139.4818,35.6274],[139.48189,35.62762],[139.48203,35.62779],[139.48228,35.62802],[139.4833,35.62877],[139.48363,35.62894],[139.48567,35.62943],[139.48643,35.62968],[139.48734,35.6297],[139.4879,35.62992],[139.48793,35.63002],[139.48817,35.63016],[139.48878,35.63038],[139.48874,35.63076],[139.48885,35.63082],[139.48894,35.63083],[139.48918,35.63044],[139.48936,35.63049],[139.48944,35.63063],[139.48982,35.63094],[139.49005,35.63097],[139.49008,35.63114],[139.48996,35.63128],[139.48996,35.63137],[139.49008,35.63155],[139.49035,35.63164],[139.49049,35.63177],[139.49053,35.63205],[139.49057,35.63214],[139.49073,35.6323],[139.49096,35.63244],[139.49078,35.63248],[139.49057,35.63321],[139.49058,35.63349],[139.49072,35.63353],[139.49097,35.63366],[139.49113,35.63379],[139.4912,35.63392],[139.49121,35.63421],[139.49162,35.63435],[139.49234,35.6347],[139.49322,35.63425],[139.49322,35.63422],[139.49377,35.63392],[139.49359,35.6334],[139.49373,35.63336]]],[[[139.47183,35.63842],[139.4723,35.63859],[139.47243,35.63902],[139.47256,35.63903],[139.47348,35.63859],[139.47398,35.63834],[139.47421,35.63816],[139.47454,35.6379],[139.47503,35.63735],[139.47479,35.6372],[139.47438,35.63753],[139.47416,35.63737],[139.47488,35.63668],[139.47545,35.63679],[139.4762,35.63626],[139.47641,35.63622],[139.47644,35.6367],[139.47638,35.63689],[139.47569,35.63786],[139.4761,35.63758],[139.47627,35.63735],[139.4765,35.63729],[139.47689,35.63696],[139.47727,35.63697],[139.47736,35.63694],[139.47787,35.63673],[139.47824,35.63646],[139.47834,35.63615],[139.47908,35.63575],[139.47952,35.63489],[139.48033,35.63503],[139.48063,35.63462],[139.48075,35.63429],[139.48083,35.63416],[139.4809,35.63412],[139.48114,35.63411],[139.48181,35.6342],[139.48321,35.63409],[139.48242,35.63374],[139.48183,35.63392],[139.48201,35.63347],[139.48189,35.63336],[139.48169,35.63327],[139.48154,35.63326],[139.48082,35.63301],[139.48045,35.63284],[139.48058,35.63267],[139.48001,35.63244],[139.47975,35.6322],[139.47951,35.63217],[139.47922,35.6323],[139.47884,35.63226],[139.47813,35.63224],[139.47619,35.63249],[139.47526,35.63256],[139.475,35.63255],[139.47475,35.63245],[139.47446,35.63229],[139.47413,35.63201],[139.47403,35.63182],[139.47399,35.63159],[139.47402,35.63116],[139.47419,35.63126],[139.47424,35.63134],[139.47412,35.63161],[139.47409,35.63178],[139.47419,35.63198],[139.47451,35.63218],[139.47474,35.63222],[139.47577,35.63222],[139.47545,35.63185],[139.47544,35.63159],[139.47529,35.63081],[139.47553,35.63101],[139.47559,35.63102],[139.47595,35.63089],[139.47622,35.63074],[139.47617,35.63048],[139.47651,35.62962],[139.47647,35.62922],[139.47628,35.62899],[139.47595,35.62883],[139.4758,35.62881],[139.47553,35.62896],[139.47545,35.62883],[139.47504,35.62856],[139.47476,35.62855],[139.47459,35.6286],[139.47441,35.62868],[139.47402,35.62873],[139.47372,35.62885],[139.47355,35.62877],[139.47323,35.62877],[139.47226,35.62808],[139.47215,35.62823],[139.47204,35.62815],[139.47151,35.62823],[139.47126,35.62843],[139.47118,35.62872],[139.4708,35.62881],[139.47064,35.62897],[139.47043,35.6291],[139.47008,35.62942],[139.46981,35.62979],[139.4697,35.63005],[139.46969,35.63014],[139.46943,35.6305],[139.46915,35.63083],[139.46906,35.63124],[139.46915,35.63138],[139.46903,35.63153],[139.4689,35.63157],[139.46874,35.632],[139.46873,35.63245],[139.46889,35.63298],[139.46897,35.63309],[139.46917,35.63312],[139.4694,35.63291],[139.46959,35.63263],[139.46974,35.63261],[139.47001,35.63268],[139.47049,35.63294],[139.47059,35.63307],[139.47067,35.63333],[139.47082,35.63345],[139.47098,35.63347],[139.47117,35.63346],[139.4713,35.63339],[139.47142,35.63346],[139.47106,35.63424],[139.47069,35.63518],[139.47095,35.63556],[139.47082,35.63621],[139.47052,35.63648],[139.47043,35.6366],[139.47042,35.63675],[139.47048,35.63695],[139.47043,35.63723],[139.47042,35.63776],[139.46993,35.63831],[139.4696,35.63904],[139.46952,35.63946],[139.46912,35.64],[139.46925,35.6405],[139.46933,35.64107],[139.46931,35.64144],[139.47038,35.64044],[139.47031,35.63986],[139.47048,35.63927],[139.47092,35.63873],[139.47143,35.63847],[139.47183,35.63842]]]]}},{"type":"Feature","properties":{"id":"area-13225006001","name":"平尾一丁目"},"geometry":{"type":"Polygon","coordinates":[[[139.49465,35.61568],[139.49474,35.61541],[139.49505,35.61485],[139.49503,35.61383],[139.49515,35.6134],[139.49519,35.61301],[139.49517,35.61274],[139.49535,35.61251],[139.49564,35.61235],[139.49583,35.61228],[139.49612,35.61238],[139.49629,35.61232],[139.49636,35.61222],[139.49639,35.61193],[139.49651,35.61186],[139.49642,35.61151],[139.49644,35.61143],[139.49649,35.61133],[139.49685,35.61116],[139.49693,35.6111],[139.49697,35.611],[139.49695,35.61059],[139.49698,35.61054],[139.49742,35.61024],[139.49871,35.60895],[139.49878,35.60878],[139.49873,35.60842],[139.49874,35.60828],[139.49885,35.60809],[139.49869,35.608],[139.49816,35.60841],[139.49596,35.60994],[139.49596,35.60997],[139.49535,35.61041],[139.49484,35.61064],[139.49445,35.61074],[139.4935,35.61085],[139.49319,35.61086],[139.49311,35.61089],[139.49312,35.61092],[139.49197,35.6111],[139.49155,35.61124],[139.49116,35.61147],[139.49087,35.61159],[139.49048,35.61169],[139.48999,35.6117],[139.48971,35.61163],[139.48877,35.61152],[139.4881,35.61162],[139.48743,35.61184],[139.48745,35.61187],[139.48723,35.61199],[139.48684,35.61228],[139.48637,35.61268],[139.4863,35.61277],[139.48632,35.61296],[139.48652,35.61329],[139.48689,35.61378],[139.48738,35.614],[139.48766,35.61417],[139.48827,35.61471],[139.48902,35.61525],[139.48912,35.61541],[139.4894,35.61541],[139.49004,35.61569],[139.49027,35.61574],[139.4924,35.6157],[139.49284,35.61547],[139.49381,35.61582],[139.49405,35.61587],[139.49463,35.61588],[139.49465,35.61568]]]}},{"type":"Feature","properties":{"id":"area-13225006002","name":"平尾二丁目"},"geometry":{"type":"Polygon","coordinates":[[[139.49308,35.6109],[139.49445,35.61074],[139.49484,35.61064],[139.49535,35.61041],[139.49596,35.60997],[139.49596,35.60994],[139.49816,35.60841],[139.49869,35.608],[139.49885,35.60809],[139.49984,35.60739],[139.50022,35.60649],[139.50011,35.60632],[139.50003,35.60611],[139.49995,35.60523],[139.49951,35.60538],[139.49922,35.60542],[139.49872,35.60536],[139.49833,35.60513],[139.49808,35.60504],[139.49782,35.60481],[139.49739,35.6051],[139.49712,35.6051],[139.49688,35.605],[139.49677,35.60508],[139.49684,35.60515],[139.49682,35.6053],[139.49629,35.6054],[139.49624,35.60545],[139.49632,35.60558],[139.49628,35.60562],[139.49574,35.60567],[139.49513,35.60562],[139.49456,35.60549],[139.49422,35.60538],[139.49413,35.60545],[139.49384,35.60562],[139.49298,35.60561],[139.49238,35.60548],[139.49227,35.60528],[139.49219,35.60522],[139.49199,35.60523],[139.49154,35.6054],[139.49138,35.6054],[139.49094,35.60524],[139.49077,35.60524],[139.49077,35.60497],[139.49071,35.60494],[139.49028,35.60482],[139.48961,35.60447],[139.48954,35.60446],[139.48933,35.6046],[139.48907,35.60541],[139.48883,35.60579],[139.48878,35.60612],[139.48863,35.60642],[139.48958,35.60669],[139.49041,35.60702],[139.49097,35.60751],[139.49238,35.60887],[139.49264,35.60916],[139.49279,35.60952],[139.49303,35.61078],[139.49308,35.6109]]]}},{"type":"Feature","properties":{"id":"area-13225006003","name":"平尾三丁目"},"geometry":{"type":"Polygon","coordinates":[[[139.4881,35.61162],[139.48877,35.61152],[139.48971,35.61163],[139.48999,35.6117],[139.49048,35.61169],[139.49087,35.61159],[139.49116,35.61147],[139.49155,35.61124],[139.49197,35.6111],[139.49312,35.61092],[139.49311,35.61089],[139.49308,35.6109],[139.49303,35.61078],[139.49279,35.60952],[139.49264,35.60916],[139.49238,35.60887],[139.49097,35.60751],[139.49041,35.60702],[139.48958,35.60669],[139.48863,35.60642],[139.48849,35.60665],[139.4884,35.60695],[139.48799,35.60767],[139.48791,35.60775],[139.48687,35.60837],[139.48639,35.60852],[139.48487,35.60873],[139.48475,35.60873],[139.48426,35.60855],[139.48414,35.60853],[139.48394,35.60856],[139.4833,35.60855],[139.4832,35.60861],[139.48248,35.60956],[139.48224,35.60976],[139.48197,35.60988],[139.48169,35.60986],[139.48163,35.60989],[139.48175,35.61002],[139.48186,35.61025],[139.48297,35.61123],[139.48362,35.61092],[139.48401,35.6108],[139.4842,35.61078],[139.48474,35.61086],[139.48578,35.6111],[139.48614,35.61124],[139.48676,35.61158],[139.48719,35.61182],[139.4873,35.61194],[139.48745,35.61187],[139.48743,35.61184],[139.48752,35.6118],[139.4881,35.61162]]]}},{"type":"Feature","properties":{"id":"area-13225006004","name":"平尾四丁目"},"geometry":{"type":"Polygon","coordinates":[[[139.48597,35.61579],[139.48721,35.61577],[139.48782,35.61561],[139.48853,35.61557],[139.48912,35.61539],[139.48902,35.61525],[139.48827,35.61471],[139.48766,35.61417],[139.48738,35.614],[139.48694,35.61381],[139.48685,35.61373],[139.48632,35.61296],[139.4863,35.61277],[139.48649,35.61257],[139.4873,35.61194],[139.48719,35.61182],[139.4863,35.61132],[139.48568,35.61106],[139.48474,35.61086],[139.48413,35.61078],[139.48351,35.61096],[139.48297,35.61123],[139.48186,35.61025],[139.48175,35.61002],[139.48163,35.60989],[139.48153,35.60988],[139.48129,35.61003],[139.48083,35.61065],[139.48074,35.6109],[139.48069,35.61117],[139.48052,35.61132],[139.48023,35.61202],[139.48023,35.61222],[139.4801,35.61257],[139.47992,35.61289],[139.47964,35.61319],[139.4794,35.61325],[139.47896,35.61324],[139.47896,35.61333],[139.4787,35.61351],[139.47856,35.61358],[139.47828,35.61354],[139.47812,35.61362],[139.4779,35.61349],[139.47751,35.61305],[139.47733,35.61297],[139.47626,35.61297],[139.47665,35.61344],[139.47688,35.61406],[139.47711,35.61387],[139.47749,35.61374],[139.47799,35.61364],[139.47837,35.61373],[139.47855,35.61389],[139.47877,35.61427],[139.47913,35.61449],[139.47924,35.6146],[139.47931,35.61477],[139.47937,35.61518],[139.47973,35.61557],[139.47984,35.6158],[139.47997,35.6159],[139.48014,35.61591],[139.48102,35.61575],[139.48227,35.61591],[139.48279,35.61606],[139.4839,35.61625],[139.4841,35.61619],[139.48453,35.61597],[139.48504,35.61592],[139.48545,35.61582],[139.48597,35.61579]]]}},{"type":"Feature","properties":{"id":"area-132250070","name":"押立"},"geometry":{"type":"Polygon","coordinates":[[[139.52094,35.64643],[139.52175,35.64564],[139.52202,35.64526],[139.52209,35.64506],[139.52274,35.64444],[139.52003,35.64379],[139.51901,35.64362],[139.51793,35.64369],[139.51789,35.64363],[139.51785,35.64362],[139.51732,35.64379],[139.5159,35.64413],[139.51505,35.64423],[139.51487,35.64419],[139.5143,35.6442],[139.51389,35.64428],[139.5135,35.6445],[139.51204,35.64506],[139.51169,35.64526],[139.51098,35.64551],[139.51061,35.64556],[139.51013,35.64581],[139.50987,35.6459],[139.5097,35.6459],[139.50903,35.64575],[139.50876,35.64605],[139.50862,35.64615],[139.50847,35.64619],[139.50836,35.64628],[139.50801,35.64634],[139.50783,35.64648],[139.50772,35.64669],[139.50749,35.64682],[139.50727,35.64748],[139.50689,35.6477],[139.50664,35.64779],[139.50604,35.64793],[139.50562,35.64826],[139.50553,35.64869],[139.50559,35.64899],[139.50558,35.64925],[139.50545,35.65014],[139.5068,35.65086],[139.50776,35.65119],[139.50843,35.65133],[139.50948,35.65143],[139.50994,35.65144],[139.51223,35.65121],[139.51403,35.65076],[139.51555,35.65011],[139.51729,35.6491],[139.51966,35.64749],[139.52084,35.64661],[139.52094,35.64643]]]}},{"type":"Feature","properties":{"id":"area-13225008001","name":"向陽台一丁目"},"geometry":{"type":"Polygon","coordinates":[[[139.49679,35.64269],[139.49699,35.64262],[139.49706,35.64268],[139.49747,35.6426],[139.49759,35.64155],[139.49755,35.64153],[139.49756,35.64148],[139.49633,35.64107],[139.49623,35.64113],[139.49621,35.64109],[139.49576,35.64138],[139.49562,35.64141],[139.49545,35.64118],[139.49556,35.64111],[139.49556,35.64105],[139.49545,35.64109],[139.49521,35.64105],[139.49524,35.64087],[139.49584,35.64044],[139.49587,35.64026],[139.49607,35.64021],[139.49623,35.63974],[139.49574,35.63973],[139.49496,35.63964],[139.49399,35.63935],[139.49295,35.64039],[139.49511,35.64184],[139.496,35.64248],[139.49601,35.64254],[139.49617,35.6426],[139.49615,35.64256],[139.49631,35.64265],[139.4965,35.64267],[139.49672,35.64265],[139.49679,35.64269]]]}},{"type":"Feature","properties":{"id":"area-13225008002","name":"向陽台二丁目"},"geometry":{"type":"Polygon","coordinates":[[[139.49344,35.63905],[139.49154,35.63813],[139.49046,35.63926],[139.49011,35.63973],[139.48993,35.64012],[139.48984,35.64083],[139.49215,35.64092],[139.49238,35.64087],[139.49246,35.64083],[139.49295,35.64039],[139.49403,35.63931],[139.49344,35.63905]]]}},{"type":"Feature","properties":{"id":"area-13225008003","name":"向陽台三丁目"},"geometry":{"type":"Polygon","coordinates":[[[139.48982,35.641],[139.48993,35.64012],[139.49011,35.63973],[139.49046,35.63926],[139.49154,35.63813],[139.48764,35.63602],[139.48747,35.63599],[139.48735,35.63593],[139.48647,35.637],[139.48632,35.63722],[139.48621,35.63756],[139.48622,35.63766],[139.48656,35.63854],[139.48734,35.64046],[139.48759,35.64073],[139.48804,35.64089],[139.48821,35.64092],[139.48982,35.641]]]}},{"type":"Feature","properties":{"id":"area-13225008004","name":"向陽台四丁目"},"geometry":{"type":"Polygon","coordinates":[[[139.48804,35.64705],[139.48831,35.64703],[139.48846,35.64638],[139.48884,35.64642],[139.48896,35.64576],[139.48898,35.64544],[139.4889,35.64503],[139.48872,35.64463],[139.48846,35.64389],[139.48843,35.6436],[139.48848,35.64334],[139.48868,35.64295],[139.48884,35.64275],[139.48945,35.64226],[139.48972,35.64194],[139.48983,35.64159],[139.48982,35.641],[139.48821,35.64092],[139.48759,35.64073],[139.48742,35.64089],[139.48736,35.64106],[139.48739,35.64129],[139.48728,35.64147],[139.48712,35.64156],[139.48692,35.64156],[139.48647,35.64149],[139.48592,35.64125],[139.48553,35.64101],[139.48527,35.64078],[139.48515,35.64049],[139.48513,35.63999],[139.48506,35.63966],[139.4849,35.6395],[139.48468,35.63937],[139.48449,35.63913],[139.48444,35.63893],[139.48445,35.63862],[139.48448,35.63842],[139.48458,35.63816],[139.48482,35.63779],[139.485,35.63763],[139.48532,35.63749],[139.48547,35.63749],[139.48565,35.63754],[139.48595,35.63776],[139.48611,35.63779],[139.48625,35.63774],[139.48621,35.63756],[139.48632,35.63722],[139.48654,35.63692],[139.48735,35.63593],[139.48729,35.63585],[139.48576,35.63505],[139.48586,35.63493],[139.48476,35.63435],[139.48461,35.63512],[139.48471,35.63558],[139.48438,35.63574],[139.48425,35.63585],[139.48407,35.63609],[139.4839,35.63651],[139.48302,35.63781],[139.48291,35.63806],[139.48272,35.63863],[139.48266,35.63983],[139.48289,35.63984],[139.48304,35.63979],[139.48341,35.63981],[139.48389,35.64017],[139.48407,35.64041],[139.48413,35.64042],[139.48419,35.64052],[139.48413,35.64068],[139.48408,35.64098],[139.48409,35.64118],[139.4842,35.64148],[139.4842,35.64158],[139.48426,35.64178],[139.48434,35.64183],[139.48447,35.64197],[139.48461,35.64195],[139.48507,35.6421],[139.48529,35.64206],[139.48574,35.64287],[139.48588,35.643],[139.48578,35.64302],[139.48598,35.64318],[139.48608,35.6432],[139.48625,35.64342],[139.48654,35.64348],[139.48663,35.64346],[139.48671,35.64359],[139.48669,35.64392],[139.48688,35.64426],[139.48695,35.64455],[139.48728,35.64511],[139.48738,35.64555],[139.4874,35.64583],[139.48749,35.64597],[139.48777,35.64616],[139.48799,35.64672],[139.48796,35.64685],[139.48804,35.64705]]]}},{"type":"Feature","properties":{"id":"area-13225008005","name":"向陽台五丁目"},"geometry":{"type":"Polygon","coordinates":[[[139.48734,35.64046],[139.48625,35.63774],[139.48611,35.63779],[139.48595,35.63776],[139.48565,35.63754],[139.48547,35.63749],[139.48532,35.63749],[139.48517,35.63753],[139.485,35.63763],[139.48482,35.63779],[139.48458,35.63816],[139.48446,35.63851],[139.48444,35.63893],[139.48452,35.63919],[139.48468,35.63937],[139.4849,35.6395],[139.48506,35.63966],[139.48513,35.63999],[139.48515,35.64049],[139.48527,35.64078],[139.48566,35.64111],[139.48623,35.6414],[139.48647,35.64149],[139.48669,35.64153],[139.48712,35.64156],[139.48728,35.64147],[139.48739,35.64129],[139.48736,35.64106],[139.48742,35.64089],[139.48759,35.64073],[139.48734,35.64046]]]}},{"type":"Feature","properties":{"id":"area-13225008006","name":"向陽台六丁目"},"geometry":{"type":"Polygon","coordinates":[[[139.48971,35.64596],[139.48993,35.64585],[139.48997,35.64586],[139.4901,35.64597],[139.49014,35.64612],[139.49033,35.64625],[139.49043,35.64612],[139.49054,35.64606],[139.49057,35.64591],[139.4905,35.64576],[139.49052,35.6456],[139.49057,35.64549],[139.49044,35.64525],[139.4904,35.64509],[139.49042,35.64504],[139.49064,35.64486],[139.49072,35.64464],[139.49093,35.64479],[139.49144,35.64497],[139.49179,35.64474],[139.49223,35.64464],[139.49263,35.64466],[139.49271,35.645],[139.49346,35.64477],[139.49355,35.64471],[139.49364,35.64455],[139.49378,35.64446],[139.49385,35.64425],[139.49409,35.64416],[139.49421,35.64402],[139.49427,35.64402],[139.49439,35.64412],[139.49446,35.64413],[139.4946,35.64404],[139.49455,35.64402],[139.49495,35.64379],[139.49534,35.64349],[139.49588,35.64284],[139.49601,35.64254],[139.496,35.64248],[139.49511,35.64184],[139.49295,35.64039],[139.49246,35.64083],[139.49215,35.64092],[139.48984,35.64083],[139.48983,35.64159],[139.48972,35.64194],[139.48945,35.64226],[139.48884,35.64275],[139.48868,35.64295],[139.48848,35.64334],[139.48843,35.6436],[139.4885,35.64406],[139.4889,35.64503],[139.48897,35.64532],[139.48896,35.64576],[139.48884,35.64642],[139.48904,35.64642],[139.48912,35.64606],[139.48971,35.64596]]]}},{"type":"Feature","properties":{"id":"area-13225009001","name":"長峰一丁目"},"geometry":{"type":"Polygon","coordinates":[[[139.4896,35.63352],[139.48999,35.63351],[139.49032,35.63367],[139.49058,35.63349],[139.49057,35.63321],[139.49078,35.63248],[139.49096,35.63244],[139.49073,35.6323],[139.49057,35.63214],[139.49053,35.63205],[139.49049,35.63177],[139.49035,35.63164],[139.49008,35.63155],[139.48996,35.63137],[139.48996,35.63128],[139.49008,35.63114],[139.49005,35.63097],[139.48982,35.63094],[139.48944,35.63063],[139.48936,35.63049],[139.48918,35.63044],[139.48894,35.63083],[139.48885,35.63082],[139.48874,35.63076],[139.48878,35.63038],[139.48817,35.63016],[139.48793,35.63002],[139.4879,35.62992],[139.48734,35.6297],[139.48643,35.62968],[139.48567,35.62943],[139.48456,35.62917],[139.4844,35.62936],[139.48415,35.62957],[139.48473,35.63001],[139.48502,35.63038],[139.4852,35.63079],[139.48524,35.63106],[139.48534,35.63259],[139.48531,35.63292],[139.48521,35.63321],[139.48506,35.63344],[139.48452,35.63422],[139.48586,35.63493],[139.48639,35.63427],[139.48653,35.63419],[139.48674,35.63412],[139.48736,35.634],[139.48807,35.63395],[139.48858,35.63388],[139.4896,35.63352]]]}},{"type":"Feature","properties":{"id":"area-13225009002","name":"長峰二丁目"},"geometry":{"type":"Polygon","coordinates":[[[139.4833,35.62877],[139.48228,35.62802],[139.48203,35.62779],[139.48189,35.62762],[139.4818,35.6274],[139.48184,35.6273],[139.48127,35.62716],[139.48096,35.62714],[139.48106,35.62744],[139.48105,35.62757],[139.4809,35.62757],[139.48082,35.62763],[139.48071,35.62745],[139.4799,35.62767],[139.47987,35.62764],[139.47905,35.62779],[139.47903,35.62793],[139.47884,35.62794],[139.47841,35.62808],[139.47819,35.62806],[139.47787,35.62819],[139.47765,35.62823],[139.47742,35.62824],[139.47736,35.62812],[139.47712,35.6282],[139.47707,35.6281],[139.47681,35.62815],[139.47648,35.62878],[139.47632,35.62873],[139.47632,35.62878],[139.47656,35.62886],[139.47691,35.62903],[139.47736,35.6294],[139.47828,35.62873],[139.47856,35.62857],[139.47887,35.62847],[139.47899,35.62884],[139.47914,35.62913],[139.47928,35.62928],[139.47967,35.62957],[139.48231,35.63058],[139.48297,35.63098],[139.48413,35.63196],[139.48448,35.63209],[139.48475,35.63213],[139.48531,35.6321],[139.48524,35.63106],[139.4852,35.63079],[139.48511,35.63054],[139.48502,35.63038],[139.48473,35.63001],[139.48415,35.62957],[139.4844,35.62936],[139.48456,35.62917],[139.48363,35.62894],[139.4833,35.62877]]]}},{"type":"Feature","properties":{"id":"area-13225009003","name":"長峰三丁目"},"geometry":{"type":"Polygon","coordinates":[[[139.48452,35.63422],[139.48506,35.63344],[139.48523,35.63315],[139.48534,35.63279],[139.48531,35.6321],[139.48475,35.63213],[139.48448,35.63209],[139.48413,35.63196],[139.48297,35.63098],[139.48231,35.63058],[139.47967,35.62957],[139.47928,35.62928],[139.47914,35.62913],[139.47899,35.62884],[139.47887,35.62847],[139.47856,35.62857],[139.47828,35.62873],[139.47736,35.6294],[139.47691,35.62903],[139.47656,35.62886],[139.47632,35.62878],[139.47628,35.62887],[139.47631,35.62888],[139.47628,35.62899],[139.47647,35.62922],[139.47651,35.62962],[139.47617,35.63048],[139.47622,35.63074],[139.47595,35.63089],[139.47559,35.63102],[139.47553,35.63101],[139.47529,35.63081],[139.47544,35.63159],[139.47545,35.63185],[139.47577,35.63222],[139.47474,35.63222],[139.47451,35.63218],[139.47419,35.63198],[139.47409,35.63178],[139.47412,35.63161],[139.47424,35.63134],[139.47419,35.63126],[139.47402,35.63116],[139.47399,35.63159],[139.47403,35.63182],[139.47413,35.63201],[139.47446,35.63229],[139.47475,35.63245],[139.475,35.63255],[139.47526,35.63256],[139.47619,35.63249],[139.47813,35.63224],[139.47884,35.63226],[139.47922,35.6323],[139.47951,35.63217],[139.47975,35.6322],[139.48001,35.63244],[139.48058,35.63267],[139.48045,35.63284],[139.48082,35.63301],[139.48154,35.63326],[139.48169,35.63327],[139.48189,35.63336],[139.48201,35.63347],[139.48183,35.63392],[139.48242,35.63374],[139.48321,35.63409],[139.4838,35.63409],[139.48407,35.63402],[139.48452,35.63422]]]}},{"type":"Feature","properties":{"id":"area-13225010001","name":"若葉台一丁目"},"geometry":{"type":"Polygon","coordinates":[[[139.47628,35.62887],[139.47632,35.62873],[139.47648,35.62878],[139.47681,35.62815],[139.47707,35.6281],[139.47712,35.6282],[139.47736,35.62812],[139.47742,35.62824],[139.47765,35.62823],[139.47787,35.62819],[139.47819,35.62806],[139.47841,35.62808],[139.47884,35.62794],[139.47903,35.62793],[139.47905,35.62779],[139.47987,35.62764],[139.4799,35.62767],[139.48071,35.62745],[139.48082,35.62763],[139.4809,35.62757],[139.48105,35.62757],[139.48106,35.62744],[139.48096,35.62714],[139.48127,35.62716],[139.48184,35.6273],[139.48172,35.62691],[139.48119,35.62627],[139.48089,35.6261],[139.48054,35.62606],[139.48037,35.62581],[139.47979,35.62474],[139.47979,35.62464],[139.47986,35.62438],[139.47916,35.62312],[139.47897,35.62291],[139.47878,35.62225],[139.47892,35.62154],[139.4791,35.62125],[139.47884,35.62118],[139.47885,35.62128],[139.47835,35.62219],[139.47799,35.62255],[139.47753,35.62282],[139.47736,35.62288],[139.47725,35.62284],[139.47702,35.62289],[139.47698,35.62296],[139.47506,35.62349],[139.4741,35.62378],[139.47289,35.62407],[139.47121,35.62456],[139.47109,35.62454],[139.47089,35.62458],[139.47085,35.62466],[139.46932,35.62508],[139.46925,35.62505],[139.46896,35.62512],[139.46891,35.62521],[139.46897,35.62536],[139.46909,35.62542],[139.46962,35.62668],[139.46973,35.62685],[139.46991,35.62702],[139.47109,35.62784],[139.4711,35.62799],[139.47124,35.62806],[139.47151,35.62781],[139.47215,35.62823],[139.47226,35.62808],[139.47323,35.62877],[139.47355,35.62877],[139.47372,35.62885],[139.47402,35.62873],[139.47441,35.62868],[139.47459,35.6286],[139.4749,35.62854],[139.47504,35.62856],[139.47545,35.62883],[139.47553,35.62896],[139.4758,35.62881],[139.47599,35.62884],[139.47615,35.62895],[139.47628,35.62899],[139.47631,35.62888],[139.47628,35.62887]]]}},{"type":"Feature","properties":{"id":"area-13225010002","name":"若葉台二丁目"},"geometry":{"type":"Polygon","coordinates":[[[139.47089,35.62458],[139.47109,35.62454],[139.47121,35.62456],[139.47289,35.62407],[139.4741,35.62378],[139.47506,35.62349],[139.47698,35.62296],[139.47702,35.62289],[139.47725,35.62284],[139.47736,35.62288],[139.47753,35.62282],[139.47799,35.62255],[139.47835,35.62219],[139.47885,35.62128],[139.47884,35.62118],[139.47689,35.62094],[139.47622,35.62073],[139.47572,35.62049],[139.47545,35.62019],[139.47527,35.61994],[139.4741,35.61966],[139.47393,35.61965],[139.47366,35.61972],[139.47344,35.61975],[139.47242,35.61975],[139.47169,35.61969],[139.47146,35.61981],[139.4708,35.61991],[139.47042,35.61988],[139.46967,35.62066],[139.46959,35.62084],[139.4696,35.62104],[139.4699,35.62131],[139.47017,35.62141],[139.47069,35.62176],[139.47081,35.62189],[139.47088,35.62206],[139.47101,35.62284],[139.47093,35.62322],[139.47075,35.62374],[139.47071,35.62397],[139.47075,35.62426],[139.47089,35.62458]]]}},{"type":"Feature","properties":{"id":"area-13225010003","name":"若葉台三丁目"},"geometry":{"type":"Polygon","coordinates":[[[139.46655,35.62566],[139.46679,35.6256],[139.46683,35.62563],[139.46729,35.62555],[139.46891,35.62521],[139.46896,35.62512],[139.46925,35.62505],[139.46932,35.62508],[139.47085,35.62466],[139.47089,35.62458],[139.47075,35.62426],[139.47071,35.62397],[139.47075,35.62374],[139.47093,35.62322],[139.47101,35.62284],[139.47088,35.62206],[139.47081,35.62189],[139.47069,35.62176],[139.47017,35.62141],[139.4699,35.62131],[139.4696,35.62104],[139.46959,35.62084],[139.46967,35.62066],[139.47042,35.61988],[139.46916,35.61986],[139.46861,35.61992],[139.46836,35.62002],[139.46784,35.62048],[139.46727,35.62083],[139.46653,35.621],[139.46612,35.62169],[139.46595,35.62183],[139.46581,35.62205],[139.46577,35.62292],[139.46584,35.62327],[139.4658,35.62357],[139.46568,35.62375],[139.46542,35.62393],[139.46509,35.624],[139.46478,35.62412],[139.46424,35.62417],[139.46421,35.62433],[139.46397,35.62442],[139.46436,35.62517],[139.4644,35.62532],[139.46441,35.62543],[139.46428,35.62581],[139.46655,35.62566]]]}},{"type":"Feature","properties":{"id":"area-13225010004","name":"若葉台四丁目"},"geometry":{"type":"Polygon","coordinates":[[[139.46812,35.63163],[139.46841,35.63154],[139.4689,35.63157],[139.46903,35.63153],[139.46909,35.63148],[139.46915,35.63138],[139.46906,35.63124],[139.46915,35.63083],[139.46958,35.63031],[139.46969,35.63014],[139.4697,35.63005],[139.46981,35.62979],[139.47008,35.62942],[139.4708,35.62881],[139.47118,35.62872],[139.47126,35.62843],[139.47151,35.62823],[139.47204,35.62815],[139.47151,35.62781],[139.47124,35.62806],[139.4711,35.62799],[139.47109,35.62784],[139.46988,35.62699],[139.46973,35.62685],[139.46962,35.62668],[139.46909,35.62542],[139.46897,35.62536],[139.46891,35.62521],[139.46771,35.62548],[139.46683,35.62563],[139.46679,35.6256],[139.46661,35.62562],[139.46655,35.62566],[139.46428,35.62581],[139.46425,35.6259],[139.46427,35.62622],[139.46472,35.62698],[139.46483,35.62725],[139.46501,35.62803],[139.46514,35.62823],[139.46526,35.62848],[139.46533,35.62855],[139.4654,35.62873],[139.46537,35.62883],[139.46523,35.62908],[139.46501,35.6294],[139.46496,35.62969],[139.46481,35.6302],[139.46483,35.63027],[139.46513,35.63058],[139.46529,35.63069],[139.46545,35.63075],[139.46594,35.63087],[139.46712,35.63087],[139.4674,35.63091],[139.46759,35.63103],[139.46769,35.63118],[139.46775,35.63128],[139.46782,35.63154],[139.4679,35.63162],[139.46812,35.63163]]]}},{"type":"Feature","properties":{"id":"area-132250110","name":"百村"},"geometry":{"type":"Polygon","coordinates":[[[139.50585,35.63467],[139.50621,35.6343],[139.50652,35.63411],[139.5069,35.63375],[139.50741,35.63315],[139.50803,35.63287],[139.50915,35.63262],[139.50917,35.63237],[139.50952,35.63231],[139.50963,35.63255],[139.51026,35.63247],[139.51147,35.63245],[139.5118,35.63248],[139.51255,35.63265],[139.51267,35.63194],[139.51245,35.63174],[139.51226,35.63144],[139.51209,35.63144],[139.51202,35.6314],[139.51186,35.63096],[139.51183,35.63075],[139.51187,35.63055],[139.51193,35.63046],[139.51208,35.63037],[139.51186,35.63039],[139.51135,35.6306],[139.51098,35.63089],[139.51086,35.63092],[139.51068,35.63093],[139.51031,35.63088],[139.50976,35.63094],[139.50926,35.63088],[139.50887,35.63092],[139.50859,35.63053],[139.50848,35.63018],[139.50763,35.6293],[139.50725,35.62906],[139.50666,35.62932],[139.50647,35.62976],[139.50608,35.62972],[139.50583,35.62938],[139.50549,35.62909],[139.5052,35.62893],[139.50496,35.62871],[139.50479,35.62868],[139.50463,35.62838],[139.50478,35.62788],[139.50539,35.6278],[139.50547,35.62771],[139.50537,35.62763],[139.50517,35.6277],[139.50501,35.62766],[139.50426,35.62779],[139.50411,35.62766],[139.50386,35.62772],[139.50371,35.62769],[139.50339,35.62742],[139.50315,35.62727],[139.50271,35.6272],[139.50237,35.62703],[139.50221,35.62717],[139.50186,35.62756],[139.50163,35.62786],[139.50159,35.62799],[139.50159,35.62803],[139.50181,35.62806],[139.50194,35.62817],[139.50228,35.62904],[139.50268,35.62978],[139.50238,35.63],[139.50236,35.63006],[139.50266,35.63041],[139.50269,35.63091],[139.50287,35.63148],[139.50289,35.63165],[139.50279,35.63177],[139.5024,35.63187],[139.50229,35.63199],[139.50228,35.63212],[139.50243,35.63224],[139.50248,35.63232],[139.50234,35.63257],[139.50248,35.6327],[139.50257,35.63271],[139.50281,35.63253],[139.50287,35.6324],[139.50292,35.63246],[139.50293,35.63264],[139.50328,35.63272],[139.50323,35.63312],[139.50334,35.63343],[139.50335,35.63368],[139.50352,35.63412],[139.50374,35.63392],[139.50403,35.63377],[139.5042,35.63409],[139.50399,35.6342],[139.50381,35.63439],[139.50404,35.63456],[139.5043,35.6344],[139.50461,35.63437],[139.5046,35.6347],[139.505,35.6347],[139.50499,35.63494],[139.50532,35.63509],[139.50585,35.63467]]]}}]}