{"type":"FeatureCollection","features":[{"type":"Feature","properties":{"id":"area-13222001001","name":"上の原一丁目"},"geometry":{"type":"Polygon","coordinates":[[[139.54326,35.76998],[139.54283,35.76998],[139.54286,35.76894],[139.5428,35.76891],[139.54279,35.76886],[139.54075,35.76774],[139.54048,35.76763],[139.54094,35.77202],[139.54233,35.77257],[139.54383,35.7731],[139.54385,35.77144],[139.5438,35.77127],[139.54383,35.77034],[139.54369,35.77016],[139.54345,35.77003],[139.54326,35.76998]]]}},{"type":"Feature","properties":{"id":"area-13222001002","name":"上の原二丁目"},"geometry":{"type":"Polygon","coordinates":[[[139.54791,35.77303],[139.5479,35.77192],[139.54763,35.77197],[139.54764,35.77173],[139.54758,35.77147],[139.54712,35.77052],[139.54286,35.76894],[139.54283,35.76998],[139.54326,35.76998],[139.54345,35.77003],[139.54369,35.77016],[139.54383,35.77034],[139.5438,35.77127],[139.54385,35.77144],[139.54383,35.7731],[139.54671,35.77412],[139.54733,35.77415],[139.54743,35.77424],[139.54763,35.77428],[139.54791,35.77303]]]}},{"type":"Feature","properties":{"id":"area-13222002001","name":"神宝町一丁目"},"geometry":{"type":"Polygon","coordinates":[[[139.54458,35.7681],[139.54519,35.76798],[139.54545,35.76801],[139.54546,35.76798],[139.54553,35.76737],[139.54551,35.76718],[139.54541,35.76701],[139.54512,35.7667],[139.54499,35.7663],[139.54499,35.76574],[139.54509,35.76535],[139.54526,35.76502],[139.54551,35.76468],[139.54583,35.76467],[139.54637,35.76456],[139.54658,35.76448],[139.54693,35.76425],[139.5469,35.76388],[139.54696,35.76365],[139.54723,35.76328],[139.54719,35.76306],[139.54709,35.76289],[139.54717,35.76286],[139.54714,35.76278],[139.54699,35.76274],[139.54681,35.76275],[139.54622,35.76301],[139.54559,35.76274],[139.54556,35.76275],[139.54554,35.76288],[139.54549,35.76294],[139.54481,35.76304],[139.54462,35.76301],[139.54456,35.76315],[139.5442,35.76341],[139.54379,35.76353],[139.54348,35.76374],[139.54309,35.76389],[139.54279,35.76404],[139.54272,35.76405],[139.5429,35.76468],[139.54278,35.76516],[139.54265,35.7655],[139.54261,35.76604],[139.5427,35.76641],[139.54285,35.76669],[139.5429,35.76687],[139.5429,35.76721],[139.54334,35.76786],[139.5436,35.7679],[139.54415,35.76809],[139.54458,35.7681]]]}},{"type":"Feature","properties":{"id":"area-13222002002","name":"神宝町二丁目"},"geometry":{"type":"Polygon","coordinates":[[[139.54693,35.76815],[139.54716,35.76732],[139.54742,35.76664],[139.54748,35.76615],[139.54745,35.76573],[139.5474,35.76558],[139.5471,35.76501],[139.54693,35.76425],[139.54658,35.76448],[139.54637,35.76456],[139.54583,35.76467],[139.54551,35.76468],[139.54526,35.76502],[139.54509,35.76535],[139.54499,35.76574],[139.54499,35.7663],[139.54512,35.7667],[139.54541,35.76701],[139.54551,35.76718],[139.54553,35.76737],[139.54545,35.76801],[139.54519,35.76798],[139.54458,35.7681],[139.54415,35.76809],[139.5436,35.7679],[139.54334,35.76786],[139.54327,35.76797],[139.5429,35.76833],[139.54283,35.76847],[139.5428,35.76891],[139.54712,35.77052],[139.54702,35.77028],[139.54691,35.76977],[139.54694,35.76909],[139.5469,35.7684],[139.54693,35.76815]]]}},{"type":"Feature","properties":{"id":"area-13222003001","name":"金山町一丁目"},"geometry":{"type":"Polygon","coordinates":[[[139.5389,35.76973],[139.53881,35.76934],[139.53881,35.76916],[139.53919,35.76792],[139.53929,35.7677],[139.5395,35.76619],[139.53906,35.76616],[139.53895,35.76611],[139.53853,35.76614],[139.53813,35.76608],[139.53795,35.76633],[139.53778,35.7663],[139.53695,35.76603],[139.53666,35.76588],[139.5364,35.76574],[139.53568,35.76525],[139.5355,35.76511],[139.53549,35.76506],[139.53519,35.7657],[139.53501,35.76644],[139.53486,35.7667],[139.53508,35.76722],[139.53527,35.76754],[139.5359,35.76826],[139.53623,35.76923],[139.53652,35.76978],[139.53691,35.77041],[139.53695,35.77055],[139.53726,35.77065],[139.53842,35.77109],[139.53856,35.77048],[139.53873,35.7701],[139.53888,35.76989],[139.5389,35.76973]]]}},{"type":"Feature","properties":{"id":"area-13222003002","name":"金山町二丁目"},"geometry":{"type":"Polygon","coordinates":[[[139.54094,35.77202],[139.54048,35.76763],[139.54075,35.76774],[139.54279,35.76886],[139.54283,35.76847],[139.5429,35.76833],[139.54327,35.76797],[139.54334,35.76786],[139.5429,35.76721],[139.5429,35.76687],[139.54285,35.76669],[139.5427,35.76641],[139.54261,35.76604],[139.54265,35.7655],[139.54278,35.76516],[139.5429,35.76468],[139.54277,35.76427],[139.54275,35.76412],[139.54268,35.76403],[139.54247,35.76416],[139.54238,35.76432],[139.54218,35.76437],[139.54209,35.76446],[139.54197,35.76468],[139.54174,35.76489],[139.54144,35.76504],[139.54109,35.76562],[139.54072,35.76584],[139.54049,35.7661],[139.54002,35.76627],[139.5399,35.76628],[139.5395,35.7662],[139.53929,35.7677],[139.53919,35.76792],[139.53881,35.76916],[139.53881,35.76934],[139.5389,35.76973],[139.53888,35.76989],[139.53873,35.7701],[139.53856,35.77048],[139.53842,35.77109],[139.53936,35.7714],[139.54094,35.77202]]]}},{"type":"Feature","properties":{"id":"area-13222004001","name":"氷川台一丁目"},"geometry":{"type":"Polygon","coordinates":[[[139.53501,35.76644],[139.53519,35.7657],[139.53549,35.76506],[139.53554,35.7648],[139.53537,35.76465],[139.53543,35.764],[139.53501,35.76403],[139.53498,35.764],[139.53475,35.76403],[139.53466,35.76399],[139.53441,35.76396],[139.53427,35.76387],[139.53407,35.76387],[139.53386,35.76391],[139.53324,35.76411],[139.53301,35.76412],[139.53281,35.76407],[139.53192,35.7641],[139.53141,35.76402],[139.53077,35.76374],[139.53064,35.76373],[139.52981,35.76452],[139.52861,35.76577],[139.5293,35.76595],[139.52938,35.76594],[139.52948,35.76597],[139.52958,35.76617],[139.52965,35.7662],[139.53203,35.76702],[139.53254,35.7674],[139.53446,35.76781],[139.5346,35.76704],[139.5349,35.76664],[139.53501,35.76644]]]}},{"type":"Feature","properties":{"id":"area-13222004002","name":"氷川台二丁目"},"geometry":{"type":"Polygon","coordinates":[[[139.5359,35.76826],[139.53527,35.76754],[139.53508,35.76722],[139.53486,35.7667],[139.5346,35.76704],[139.53446,35.76781],[139.53254,35.7674],[139.53203,35.76702],[139.52965,35.7662],[139.52958,35.76617],[139.52948,35.76597],[139.52938,35.76594],[139.5293,35.76595],[139.52861,35.76577],[139.52597,35.76843],[139.52699,35.76858],[139.52706,35.76801],[139.52708,35.76797],[139.52726,35.768],[139.5274,35.76769],[139.52832,35.76789],[139.52859,35.76797],[139.52877,35.76808],[139.52982,35.76822],[139.53032,35.76832],[139.53167,35.76897],[139.53452,35.76985],[139.53583,35.77019],[139.53695,35.77055],[139.53691,35.77041],[139.53652,35.76978],[139.53623,35.76923],[139.5359,35.76826]]]}},{"type":"Feature","properties":{"id":"area-13222005001","name":"大門町一丁目"},"geometry":{"type":"Polygon","coordinates":[[[139.53965,35.76361],[139.53981,35.7625],[139.53902,35.76247],[139.53847,35.76256],[139.53847,35.76253],[139.53669,35.76301],[139.53596,35.76312],[139.53574,35.76312],[139.53571,35.76356],[139.53567,35.76361],[139.5356,35.76432],[139.5366,35.76455],[139.53786,35.76476],[139.53887,35.76484],[139.53911,35.76481],[139.5393,35.76469],[139.53938,35.76458],[139.53965,35.76361]]]}},{"type":"Feature","properties":{"id":"area-13222005002","name":"大門町二丁目"},"geometry":{"type":"Polygon","coordinates":[[[139.53795,35.76633],[139.53813,35.76608],[139.53853,35.76614],[139.53895,35.76611],[139.53906,35.76616],[139.5395,35.76619],[139.5399,35.76628],[139.54002,35.76627],[139.54049,35.7661],[139.54072,35.76584],[139.54109,35.76562],[139.54144,35.76504],[139.54174,35.76489],[139.54197,35.76468],[139.54209,35.76446],[139.54218,35.76437],[139.54238,35.76432],[139.54247,35.76416],[139.54268,35.76403],[139.54279,35.76404],[139.54309,35.76389],[139.54348,35.76374],[139.54379,35.76353],[139.5442,35.76341],[139.54456,35.76315],[139.54462,35.76301],[139.54481,35.76304],[139.54549,35.76294],[139.54554,35.76288],[139.54556,35.76275],[139.54559,35.76274],[139.54593,35.76288],[139.5459,35.76276],[139.54575,35.76259],[139.5458,35.7624],[139.54575,35.7623],[139.54544,35.7622],[139.54554,35.76208],[139.54539,35.76196],[139.54517,35.76182],[139.54504,35.76177],[139.54491,35.76176],[139.54473,35.76163],[139.5445,35.76173],[139.54421,35.76177],[139.54408,35.76193],[139.54356,35.76183],[139.54345,35.76192],[139.54311,35.76183],[139.54222,35.7621],[139.54226,35.76216],[139.54064,35.76243],[139.53999,35.76251],[139.53981,35.7625],[139.53969,35.76343],[139.53938,35.76458],[139.5393,35.76469],[139.53911,35.76481],[139.53887,35.76484],[139.53786,35.76476],[139.5366,35.76455],[139.5356,35.76432],[139.5355,35.76511],[139.5364,35.76574],[139.53695,35.76603],[139.53778,35.7663],[139.53795,35.76633]]]}},{"type":"Feature","properties":{"id":"area-132220060","name":"東本町"},"geometry":{"type":"Polygon","coordinates":[[[139.53554,35.7648],[139.53567,35.76361],[139.53571,35.76356],[139.53574,35.76312],[139.53596,35.76312],[139.53669,35.76301],[139.53707,35.7629],[139.537,35.76261],[139.53691,35.76252],[139.53678,35.76252],[139.53666,35.76243],[139.53635,35.76249],[139.53604,35.76241],[139.53586,35.76216],[139.53563,35.76201],[139.53547,35.76185],[139.53533,35.76182],[139.53528,35.76184],[139.53506,35.76159],[139.53488,35.76171],[139.53474,35.76146],[139.53482,35.7612],[139.5348,35.76108],[139.53464,35.76087],[139.53467,35.76063],[139.53464,35.76026],[139.53445,35.76015],[139.53461,35.75994],[139.53425,35.75987],[139.53362,35.76048],[139.5328,35.76135],[139.53297,35.76147],[139.53207,35.76229],[139.53064,35.76373],[139.53077,35.76374],[139.53141,35.76402],[139.53192,35.7641],[139.53281,35.76407],[139.53301,35.76412],[139.53324,35.76411],[139.53407,35.76387],[139.53427,35.76387],[139.53441,35.76396],[139.53466,35.76399],[139.53475,35.76403],[139.53498,35.764],[139.53501,35.76403],[139.53543,35.764],[139.53537,35.76465],[139.53554,35.7648]]]}},{"type":"Feature","properties":{"id":"area-13222007001","name":"新川町一丁目"},"geometry":{"type":"Polygon","coordinates":[[[139.53847,35.76253],[139.53843,35.76226],[139.53828,35.76229],[139.53829,35.76167],[139.53847,35.76098],[139.53852,35.76065],[139.53873,35.76047],[139.53884,35.76029],[139.53891,35.76028],[139.53956,35.76041],[139.54023,35.76047],[139.54031,35.76027],[139.54037,35.75977],[139.53981,35.75932],[139.53923,35.75891],[139.53924,35.75894],[139.53871,35.75853],[139.53825,35.75826],[139.537,35.75771],[139.53686,35.7576],[139.53624,35.75818],[139.53612,35.75813],[139.5343,35.75988],[139.53461,35.75994],[139.53445,35.76015],[139.53464,35.76026],[139.53467,35.76063],[139.53464,35.76087],[139.5348,35.76108],[139.53482,35.7612],[139.53474,35.76146],[139.53488,35.76171],[139.53506,35.76159],[139.53528,35.76184],[139.53533,35.76182],[139.53547,35.76185],[139.53563,35.76201],[139.53586,35.76216],[139.53604,35.76241],[139.53635,35.76249],[139.53666,35.76243],[139.53678,35.76252],[139.53691,35.76252],[139.537,35.76261],[139.53707,35.7629],[139.53847,35.76253]]]}},{"type":"Feature","properties":{"id":"area-13222007002","name":"新川町二丁目"},"geometry":{"type":"Polygon","coordinates":[[[139.53847,35.76256],[139.53902,35.76247],[139.53999,35.76251],[139.54064,35.76243],[139.54226,35.76216],[139.54222,35.7621],[139.54311,35.76183],[139.54345,35.76192],[139.54356,35.76183],[139.54408,35.76193],[139.54421,35.76177],[139.5445,35.76173],[139.54473,35.76163],[139.54483,35.76155],[139.54446,35.76122],[139.54403,35.76094],[139.54345,35.76069],[139.5428,35.76048],[139.54134,35.76022],[139.54079,35.76001],[139.54037,35.75977],[139.54031,35.76027],[139.54023,35.76047],[139.53956,35.76041],[139.53891,35.76028],[139.53884,35.76029],[139.53873,35.76047],[139.53852,35.76065],[139.53847,35.76098],[139.53829,35.76167],[139.53828,35.76229],[139.53843,35.76226],[139.53847,35.76256]]]}},{"type":"Feature","properties":{"id":"area-13222008001","name":"浅間町一丁目"},"geometry":{"type":"Polygon","coordinates":[[[139.5396,35.75917],[139.5406,35.75839],[139.54111,35.75809],[139.54113,35.75806],[139.54102,35.75785],[139.54089,35.75767],[139.54116,35.7572],[139.54113,35.75713],[139.54083,35.75699],[139.5404,35.75662],[139.54077,35.75605],[139.54089,35.75572],[139.54037,35.75552],[139.54004,35.75529],[139.54001,35.75522],[139.53999,35.75497],[139.5399,35.75494],[139.53966,35.755],[139.53957,35.75489],[139.53891,35.75548],[139.53835,35.75612],[139.53793,35.7565],[139.5378,35.75657],[139.53741,35.75698],[139.53742,35.75702],[139.53685,35.75758],[139.537,35.75771],[139.53825,35.75826],[139.53871,35.75853],[139.53924,35.75894],[139.53923,35.75891],[139.5394,35.75906],[139.5396,35.75917]]]}},{"type":"Feature","properties":{"id":"area-13222008002","name":"浅間町二丁目"},"geometry":{"type":"Polygon","coordinates":[[[139.54663,35.76124],[139.54659,35.76053],[139.54543,35.76054],[139.54553,35.76036],[139.54558,35.76],[139.54545,35.75954],[139.54529,35.75927],[139.54506,35.75869],[139.54491,35.75847],[139.54454,35.75807],[139.54437,35.75792],[139.54381,35.7577],[139.54292,35.75705],[139.54272,35.75695],[139.54237,35.75651],[139.54223,35.75638],[139.54196,35.75621],[139.54163,35.75586],[139.5414,35.75578],[139.54114,35.75574],[139.54094,35.75576],[139.54089,35.75572],[139.54077,35.75605],[139.5404,35.75662],[139.54083,35.75699],[139.54113,35.75713],[139.54116,35.7572],[139.54089,35.75767],[139.54113,35.75806],[139.5406,35.75839],[139.5396,35.75917],[139.54037,35.75977],[139.54095,35.76008],[139.54134,35.76022],[139.5428,35.76048],[139.54345,35.76069],[139.54403,35.76094],[139.54446,35.76122],[139.54483,35.76155],[139.54473,35.76163],[139.54491,35.76176],[139.54504,35.76177],[139.54517,35.76182],[139.54554,35.76208],[139.54544,35.7622],[139.54575,35.7623],[139.5458,35.7624],[139.54575,35.76259],[139.5459,35.76276],[139.54593,35.76288],[139.54622,35.76301],[139.54681,35.76275],[139.54672,35.76149],[139.54663,35.76124]]]}},{"type":"Feature","properties":{"id":"area-13222008003","name":"浅間町三丁目"},"geometry":{"type":"Polygon","coordinates":[[[139.54466,35.75576],[139.54458,35.75563],[139.54456,35.75493],[139.54461,35.75456],[139.5443,35.75451],[139.54248,35.75292],[139.54163,35.75329],[139.54078,35.75377],[139.54031,35.75412],[139.53957,35.75489],[139.53966,35.755],[139.5399,35.75494],[139.53999,35.75497],[139.54001,35.75522],[139.54004,35.75529],[139.54037,35.75552],[139.54094,35.75576],[139.54114,35.75574],[139.5414,35.75578],[139.54163,35.75586],[139.54196,35.75621],[139.54223,35.75638],[139.54237,35.75651],[139.54272,35.75695],[139.54292,35.75705],[139.54381,35.7577],[139.54437,35.75792],[139.54454,35.75807],[139.54491,35.75847],[139.54506,35.75869],[139.54529,35.75927],[139.54545,35.75954],[139.54558,35.76],[139.54553,35.76036],[139.54543,35.76054],[139.54659,35.76053],[139.54649,35.75987],[139.54647,35.75951],[139.54631,35.75906],[139.54616,35.75875],[139.54504,35.75699],[139.54491,35.75664],[139.54466,35.75576]]]}},{"type":"Feature","properties":{"id":"area-13222009001","name":"学園町一丁目"},"geometry":{"type":"Polygon","coordinates":[[[139.54248,35.75292],[139.5394,35.75023],[139.53931,35.75022],[139.53891,35.75035],[139.53737,35.75153],[139.53725,35.75158],[139.53668,35.75149],[139.53524,35.7511],[139.53533,35.75164],[139.5355,35.75326],[139.53555,35.75328],[139.53568,35.75427],[139.53586,35.75472],[139.53649,35.75558],[139.53661,35.75579],[139.53666,35.75599],[139.53668,35.75634],[139.53651,35.7568],[139.53616,35.75691],[139.5363,35.75711],[139.53639,35.75716],[139.53667,35.75746],[139.53685,35.75758],[139.53742,35.75702],[139.53741,35.75698],[139.5378,35.75657],[139.53793,35.7565],[139.53835,35.75612],[139.53891,35.75548],[139.53957,35.75489],[139.53996,35.75446],[139.54049,35.75397],[139.54095,35.75366],[139.54163,35.75329],[139.54248,35.75292]]]}},{"type":"Feature","properties":{"id":"area-13222009002","name":"学園町二丁目"},"geometry":{"type":"Polygon","coordinates":[[[139.53916,35.75025],[139.5394,35.75023],[139.53805,35.74902],[139.53718,35.7483],[139.53707,35.7482],[139.5371,35.74817],[139.5366,35.74775],[139.53655,35.74767],[139.5365,35.74769],[139.53645,35.74765],[139.53609,35.74773],[139.53507,35.74807],[139.53422,35.74849],[139.53367,35.74888],[139.53336,35.74903],[139.53325,35.74914],[139.53478,35.75048],[139.53508,35.75081],[139.53524,35.7511],[139.53668,35.75149],[139.53725,35.75158],[139.53737,35.75153],[139.53873,35.75047],[139.53891,35.75035],[139.53916,35.75025]]]}},{"type":"Feature","properties":{"id":"area-132220100","name":"ひばりが丘団地"},"geometry":{"type":"Polygon","coordinates":[[[139.53445,35.74595],[139.53317,35.74454],[139.53231,35.74458],[139.53155,35.74658],[139.53129,35.74773],[139.53195,35.74785],[139.53336,35.74903],[139.53367,35.74888],[139.53422,35.74849],[139.53507,35.74807],[139.53609,35.74773],[139.53645,35.74765],[139.53445,35.74595]]]}},{"type":"Feature","properties":{"id":"area-13222011001","name":"本町一丁目"},"geometry":{"type":"Polygon","coordinates":[[[139.5328,35.76135],[139.53425,35.75987],[139.5343,35.75988],[139.53612,35.75813],[139.53624,35.75818],[139.53686,35.7576],[139.5363,35.75711],[139.53611,35.75684],[139.53574,35.75679],[139.53558,35.75681],[139.53512,35.75674],[139.53501,35.7569],[139.53466,35.75716],[139.53432,35.75707],[139.53384,35.75704],[139.5336,35.75666],[139.53373,35.75653],[139.53374,35.75641],[139.53365,35.75616],[139.53353,35.75611],[139.53338,35.75599],[139.53322,35.75591],[139.53296,35.75617],[139.53282,35.75608],[139.53238,35.75676],[139.53234,35.75693],[139.53245,35.75729],[139.53246,35.75752],[139.53241,35.75781],[139.53229,35.75803],[139.53228,35.75828],[139.53142,35.7594],[139.53158,35.75948],[139.53143,35.7597],[139.53118,35.76074],[139.53103,35.7609],[139.53069,35.76107],[139.52994,35.76114],[139.53031,35.76145],[139.53083,35.7618],[139.53131,35.76202],[139.53207,35.76229],[139.53297,35.76147],[139.5328,35.76135]]]}},{"type":"Feature","properties":{"id":"area-13222011002","name":"本町二丁目"},"geometry":{"type":"Polygon","coordinates":[[[139.52791,35.75976],[139.52729,35.75947],[139.52722,35.75949],[139.52726,35.75973],[139.52723,35.7599],[139.52697,35.76044],[139.52679,35.76098],[139.52717,35.76116],[139.52724,35.76135],[139.52733,35.76149],[139.52754,35.76156],[139.52774,35.76176],[139.52794,35.76187],[139.52816,35.76221],[139.52847,35.76258],[139.52862,35.76261],[139.52914,35.76294],[139.52925,35.76303],[139.52941,35.76324],[139.52952,35.7633],[139.52986,35.76339],[139.53014,35.76358],[139.53033,35.76367],[139.53049,35.76367],[139.5306,35.76376],[139.53207,35.76229],[139.53131,35.76202],[139.53083,35.7618],[139.53031,35.76145],[139.52946,35.76072],[139.52893,35.76036],[139.52791,35.75976]]]}},{"type":"Feature","properties":{"id":"area-13222011003","name":"本町三丁目"},"geometry":{"type":"Polygon","coordinates":[[[139.53139,35.75794],[139.53094,35.75787],[139.53048,35.75773],[139.52888,35.75743],[139.52853,35.75763],[139.52838,35.75757],[139.52823,35.7578],[139.52801,35.7579],[139.5277,35.75789],[139.52771,35.75807],[139.52765,35.75841],[139.52729,35.75947],[139.52791,35.75976],[139.52893,35.76036],[139.52946,35.76072],[139.52994,35.76114],[139.53069,35.76107],[139.5308,35.76103],[139.53103,35.7609],[139.53118,35.76074],[139.53143,35.7597],[139.53158,35.75948],[139.53142,35.7594],[139.53228,35.75828],[139.5323,35.75803],[139.53139,35.75794]]]}},{"type":"Feature","properties":{"id":"area-13222011004","name":"本町四丁目"},"geometry":{"type":"Polygon","coordinates":[[[139.53246,35.75752],[139.53245,35.75729],[139.53234,35.75693],[139.53238,35.75676],[139.53282,35.75608],[139.53296,35.75617],[139.53322,35.75591],[139.53275,35.75573],[139.53189,35.75573],[139.53154,35.75554],[139.53123,35.75531],[139.531,35.75509],[139.5309,35.75493],[139.53074,35.75477],[139.53047,35.75461],[139.52993,35.75434],[139.52941,35.75413],[139.52899,35.75419],[139.52898,35.7543],[139.52881,35.75461],[139.52834,35.75509],[139.52825,35.75526],[139.52796,35.75613],[139.5278,35.75683],[139.52771,35.75754],[139.5277,35.75789],[139.52801,35.7579],[139.52823,35.7578],[139.52838,35.75757],[139.52853,35.75763],[139.52888,35.75743],[139.53048,35.75773],[139.53094,35.75787],[139.53139,35.75794],[139.53229,35.75803],[139.53241,35.75781],[139.53246,35.75752]]]}},{"type":"Feature","properties":{"id":"area-13222012001","name":"小山一丁目"},"geometry":{"type":"Polygon","coordinates":[[[139.52682,35.76757],[139.52981,35.76452],[139.5306,35.76376],[139.53049,35.76367],[139.53033,35.76367],[139.53014,35.76358],[139.52986,35.76339],[139.52952,35.7633],[139.52941,35.76324],[139.52925,35.76303],[139.52914,35.76294],[139.52862,35.76261],[139.52847,35.76258],[139.52816,35.76221],[139.5276,35.76226],[139.52781,35.76274],[139.52798,35.76339],[139.52766,35.7635],[139.52743,35.76348],[139.52739,35.76374],[139.52743,35.76384],[139.52739,35.76417],[139.52742,35.76474],[139.5274,35.7649],[139.52735,35.76496],[139.52713,35.76492],[139.52713,35.76513],[139.52669,35.76593],[139.52616,35.76743],[139.52682,35.76757]]]}},{"type":"Feature","properties":{"id":"area-13222012002","name":"小山二丁目"},"geometry":{"type":"Polygon","coordinates":[[[139.52551,35.76465],[139.52624,35.76477],[139.52639,35.76476],[139.52735,35.76496],[139.5274,35.7649],[139.52742,35.76474],[139.52739,35.76417],[139.52743,35.76384],[139.52739,35.76374],[139.52743,35.76348],[139.52766,35.7635],[139.52798,35.76339],[139.52781,35.76274],[139.5276,35.76226],[139.52816,35.76221],[139.52794,35.76187],[139.52774,35.76176],[139.52754,35.76156],[139.52733,35.76149],[139.52724,35.76135],[139.52717,35.76116],[139.52668,35.76093],[139.5264,35.76093],[139.52616,35.76101],[139.52572,35.76137],[139.52555,35.76143],[139.5255,35.76154],[139.52554,35.76165],[139.52553,35.76172],[139.52533,35.76193],[139.52527,35.76198],[139.52491,35.76211],[139.5247,35.7623],[139.52437,35.76242],[139.52357,35.76262],[139.52354,35.76303],[139.52346,35.7633],[139.52291,35.76409],[139.52285,35.76424],[139.52336,35.76433],[139.52376,35.76444],[139.52483,35.76484],[139.5248,35.765],[139.52532,35.76512],[139.52551,35.76465]]]}},{"type":"Feature","properties":{"id":"area-13222012003","name":"小山三丁目"},"geometry":{"type":"Polygon","coordinates":[[[139.52713,35.76513],[139.52713,35.76492],[139.52639,35.76476],[139.52624,35.76477],[139.52554,35.76464],[139.52551,35.76465],[139.52532,35.76512],[139.5248,35.765],[139.52483,35.76484],[139.52376,35.76444],[139.52336,35.76433],[139.52285,35.76424],[139.52275,35.76454],[139.52264,35.76524],[139.52252,35.76567],[139.5223,35.76612],[139.52207,35.76644],[139.52198,35.76663],[139.52183,35.76786],[139.52381,35.76814],[139.52445,35.76818],[139.52597,35.76843],[139.5266,35.76777],[139.52683,35.76757],[139.52616,35.76743],[139.52669,35.76593],[139.52713,35.76513]]]}},{"type":"Feature","properties":{"id":"area-13222012004","name":"小山四丁目"},"geometry":{"type":"Polygon","coordinates":[[[139.52354,35.76303],[139.52355,35.76258],[139.52323,35.76266],[139.52291,35.76269],[139.5221,35.76256],[139.52205,35.7626],[139.52178,35.76256],[139.52145,35.76261],[139.52106,35.76279],[139.52027,35.7629],[139.5202,35.76335],[139.52008,35.76373],[139.52011,35.76392],[139.52034,35.76474],[139.52035,35.76508],[139.52069,35.76626],[139.52115,35.7664],[139.5213,35.76661],[139.52146,35.76696],[139.52153,35.76706],[139.5216,35.76712],[139.5219,35.76717],[139.52198,35.76663],[139.52207,35.76644],[139.5223,35.76612],[139.52252,35.76567],[139.52264,35.76524],[139.52275,35.76454],[139.52285,35.76424],[139.52291,35.76409],[139.52346,35.7633],[139.52354,35.76303]]]}},{"type":"Feature","properties":{"id":"area-13222012005","name":"小山五丁目"},"geometry":{"type":"Polygon","coordinates":[[[139.52027,35.7629],[139.51996,35.76285],[139.51971,35.76289],[139.51925,35.76283],[139.5189,35.76269],[139.51863,35.76276],[139.51792,35.7627],[139.51781,35.76273],[139.51768,35.7628],[139.51759,35.76281],[139.51733,35.76264],[139.51717,35.76258],[139.5166,35.76254],[139.51659,35.76329],[139.51623,35.7656],[139.51629,35.76563],[139.51629,35.76566],[139.51801,35.76635],[139.52068,35.76753],[139.52121,35.76774],[139.52183,35.76786],[139.5219,35.76717],[139.5216,35.76712],[139.52153,35.76706],[139.5213,35.76661],[139.52115,35.7664],[139.52069,35.76626],[139.52035,35.76508],[139.52034,35.76474],[139.52011,35.76392],[139.52008,35.76373],[139.5202,35.76335],[139.52027,35.7629]]]}},{"type":"Feature","properties":{"id":"area-13222013001","name":"幸町一丁目"},"geometry":{"type":"Polygon","coordinates":[[[139.5264,35.76093],[139.52668,35.76093],[139.52681,35.76097],[139.52697,35.76044],[139.52723,35.7599],[139.52726,35.75973],[139.52722,35.75949],[139.52712,35.75942],[139.52691,35.75934],[139.52465,35.75855],[139.52435,35.75939],[139.52424,35.75956],[139.52415,35.75962],[139.52354,35.75974],[139.52342,35.75988],[139.52288,35.76033],[139.52279,35.76045],[139.52268,35.76074],[139.52271,35.76084],[139.5231,35.76125],[139.52312,35.76195],[139.52331,35.76225],[139.52352,35.76247],[139.52356,35.76262],[139.5246,35.76235],[139.52491,35.76211],[139.52527,35.76198],[139.52553,35.76172],[139.52554,35.76165],[139.5255,35.76154],[139.52555,35.76143],[139.52572,35.76137],[139.52616,35.76101],[139.5264,35.76093]]]}},{"type":"Feature","properties":{"id":"area-13222013002","name":"幸町二丁目"},"geometry":{"type":"Polygon","coordinates":[[[139.52145,35.76261],[139.52178,35.76256],[139.52205,35.7626],[139.5221,35.76256],[139.52291,35.76269],[139.52323,35.76266],[139.52355,35.76258],[139.52352,35.76247],[139.52331,35.76225],[139.52312,35.76195],[139.5231,35.76125],[139.52271,35.76084],[139.52268,35.76074],[139.52279,35.76045],[139.52302,35.76021],[139.52245,35.76004],[139.52235,35.75942],[139.52229,35.75922],[139.52217,35.7592],[139.52182,35.75925],[139.52175,35.75912],[139.52166,35.75911],[139.52133,35.75924],[139.52125,35.75924],[139.52076,35.75903],[139.52024,35.75892],[139.52001,35.75892],[139.51989,35.75896],[139.51959,35.75915],[139.5193,35.75929],[139.51863,35.75939],[139.51876,35.75973],[139.51922,35.76022],[139.51969,35.76077],[139.51984,35.76099],[139.52019,35.7621],[139.52026,35.76251],[139.52027,35.7629],[139.52106,35.76279],[139.52145,35.76261]]]}},{"type":"Feature","properties":{"id":"area-13222013003","name":"幸町三丁目"},"geometry":{"type":"Polygon","coordinates":[[[139.52435,35.75939],[139.52465,35.75855],[139.5239,35.75818],[139.52249,35.75713],[139.52224,35.75699],[139.52182,35.75683],[139.52084,35.75658],[139.51955,35.75633],[139.51846,35.75591],[139.51786,35.75576],[139.51785,35.75654],[139.51788,35.75695],[139.518,35.75735],[139.51831,35.75794],[139.51837,35.75814],[139.51839,35.75846],[139.51848,35.75891],[139.51863,35.75939],[139.5193,35.75929],[139.51959,35.75915],[139.51989,35.75896],[139.52001,35.75892],[139.52024,35.75892],[139.52076,35.75903],[139.52125,35.75924],[139.52133,35.75924],[139.52166,35.75911],[139.52175,35.75912],[139.52182,35.75925],[139.52217,35.7592],[139.52229,35.75922],[139.52235,35.75942],[139.52245,35.76004],[139.52302,35.76021],[139.52342,35.75988],[139.52354,35.75974],[139.52415,35.75962],[139.52424,35.75956],[139.52435,35.75939]]]}},{"type":"Feature","properties":{"id":"area-13222013004","name":"幸町四丁目"},"geometry":{"type":"Polygon","coordinates":[[[139.5187,35.75961],[139.51848,35.75891],[139.51839,35.75846],[139.51837,35.75814],[139.51831,35.75794],[139.518,35.75735],[139.51788,35.75695],[139.51785,35.75654],[139.51786,35.75576],[139.51532,35.75521],[139.51513,35.75611],[139.5151,35.7565],[139.51513,35.75679],[139.5152,35.7573],[139.51539,35.75805],[139.51561,35.75876],[139.5162,35.75883],[139.51816,35.7596],[139.51827,35.75958],[139.51841,35.75963],[139.5187,35.75961]]]}},{"type":"Feature","properties":{"id":"area-13222013005","name":"幸町五丁目"},"geometry":{"type":"Polygon","coordinates":[[[139.52027,35.7629],[139.52026,35.76251],[139.52019,35.7621],[139.51984,35.76099],[139.51969,35.76077],[139.51922,35.76022],[139.51876,35.75973],[139.5187,35.75961],[139.51841,35.75963],[139.51827,35.75958],[139.51816,35.7596],[139.5162,35.75883],[139.51561,35.75876],[139.51564,35.75897],[139.51572,35.75917],[139.51571,35.75922],[139.5158,35.75934],[139.51588,35.75977],[139.51592,35.75979],[139.51589,35.75981],[139.51598,35.75998],[139.5164,35.76151],[139.51655,35.76213],[139.5166,35.76254],[139.51717,35.76258],[139.51733,35.76264],[139.51759,35.76281],[139.51768,35.7628],[139.51781,35.76273],[139.51792,35.7627],[139.51863,35.76276],[139.5189,35.76269],[139.51925,35.76283],[139.51971,35.76289],[139.51996,35.76285],[139.52027,35.7629]]]}},{"type":"Feature","properties":{"id":"area-13222014001","name":"中央町一丁目"},"geometry":{"type":"Polygon","coordinates":[[[139.52858,35.75484],[139.52833,35.75479],[139.52816,35.75481],[139.52803,35.75479],[139.52785,35.75468],[139.52783,35.75465],[139.52791,35.7544],[139.52776,35.75439],[139.52758,35.75427],[139.52722,35.75393],[139.52695,35.75381],[139.52676,35.75375],[139.52661,35.75375],[139.52659,35.75352],[139.52638,35.75358],[139.52599,35.75377],[139.52535,35.75373],[139.52488,35.75365],[139.5246,35.75401],[139.52452,35.75467],[139.52384,35.75476],[139.52309,35.75475],[139.52354,35.75529],[139.52404,35.75561],[139.52412,35.75628],[139.52374,35.75737],[139.52366,35.75753],[139.52346,35.75784],[139.5239,35.75818],[139.52451,35.75849],[139.52691,35.75934],[139.52712,35.75942],[139.52722,35.75949],[139.52729,35.75947],[139.52769,35.75823],[139.52771,35.75754],[139.52777,35.75701],[139.52796,35.75613],[139.52825,35.75526],[139.52834,35.75509],[139.52858,35.75484]]]}},{"type":"Feature","properties":{"id":"area-13222014002","name":"中央町二丁目"},"geometry":{"type":"Polygon","coordinates":[[[139.52309,35.75475],[139.52384,35.75476],[139.52452,35.75467],[139.5246,35.75401],[139.52488,35.75365],[139.5247,35.7536],[139.52441,35.7536],[139.52383,35.75378],[139.52362,35.75388],[139.52319,35.75396],[139.52261,35.75381],[139.52224,35.75366],[139.52182,35.75364],[139.5217,35.75358],[139.52147,35.75333],[139.52134,35.75325],[139.52082,35.75319],[139.5203,35.75305],[139.52003,35.75292],[139.51989,35.75278],[139.51969,35.75265],[139.51945,35.75258],[139.51961,35.75336],[139.51966,35.75481],[139.51959,35.75506],[139.51957,35.75526],[139.5196,35.75541],[139.51993,35.75568],[139.52024,35.75647],[139.52084,35.75658],[139.52182,35.75683],[139.52224,35.75699],[139.52249,35.75713],[139.5235,35.7579],[139.52346,35.75784],[139.52366,35.75753],[139.52374,35.75737],[139.52412,35.75628],[139.52404,35.75561],[139.52354,35.75529],[139.52309,35.75475]]]}},{"type":"Feature","properties":{"id":"area-13222014003","name":"中央町三丁目"},"geometry":{"type":"Polygon","coordinates":[[[139.52409,35.75369],[139.52431,35.75364],[139.52433,35.75334],[139.52458,35.75324],[139.52458,35.75297],[139.52489,35.75294],[139.52473,35.75274],[139.52464,35.75227],[139.52442,35.75169],[139.52442,35.75155],[139.52451,35.75139],[139.52484,35.7511],[139.52498,35.75079],[139.52533,35.75035],[139.52544,35.75014],[139.52558,35.74935],[139.52512,35.74927],[139.52472,35.74913],[139.52359,35.74888],[139.52342,35.74886],[139.52336,35.74895],[139.52315,35.74893],[139.52203,35.7485],[139.52147,35.74818],[139.52036,35.74899],[139.52004,35.74927],[139.52002,35.75],[139.51999,35.75007],[139.52,35.75058],[139.51943,35.75217],[139.5194,35.75232],[139.51945,35.75258],[139.51969,35.75265],[139.51989,35.75278],[139.52003,35.75292],[139.5203,35.75305],[139.52082,35.75319],[139.52134,35.75325],[139.52147,35.75333],[139.5217,35.75358],[139.52182,35.75364],[139.52224,35.75366],[139.52261,35.75381],[139.52319,35.75396],[139.52362,35.75388],[139.52409,35.75369]]]}},{"type":"Feature","properties":{"id":"area-13222014004","name":"中央町四丁目"},"geometry":{"type":"Polygon","coordinates":[[[139.52564,35.74887],[139.52548,35.74879],[139.52537,35.74865],[139.52479,35.74766],[139.5246,35.74768],[139.52402,35.74691],[139.52277,35.74555],[139.5222,35.74603],[139.52177,35.74667],[139.5215,35.74688],[139.52132,35.74696],[139.52006,35.74739],[139.51973,35.74755],[139.51963,35.74794],[139.52001,35.74824],[139.52027,35.74855],[139.52035,35.74881],[139.52036,35.74899],[139.52147,35.74818],[139.52203,35.7485],[139.52315,35.74893],[139.52336,35.74895],[139.52342,35.74886],[139.52359,35.74888],[139.52472,35.74913],[139.52512,35.74927],[139.52558,35.74935],[139.52566,35.74916],[139.52564,35.74887]]]}},{"type":"Feature","properties":{"id":"area-13222014005","name":"中央町五丁目"},"geometry":{"type":"Polygon","coordinates":[[[139.51614,35.75298],[139.51642,35.75295],[139.51667,35.75296],[139.51677,35.75293],[139.51696,35.75291],[139.51714,35.75282],[139.51731,35.75277],[139.51746,35.75278],[139.5181,35.75289],[139.51837,35.7528],[139.51865,35.75264],[139.51916,35.75256],[139.51945,35.75258],[139.5194,35.75232],[139.51943,35.75217],[139.52,35.75058],[139.51999,35.75007],[139.52002,35.75],[139.52004,35.74927],[139.52036,35.74899],[139.52035,35.74881],[139.52027,35.74855],[139.52001,35.74824],[139.51963,35.74794],[139.51973,35.74755],[139.51923,35.74773],[139.51814,35.74793],[139.51548,35.74855],[139.51463,35.74882],[139.51482,35.74958],[139.51489,35.74961],[139.51518,35.75142],[139.5156,35.75318],[139.51584,35.75313],[139.51614,35.75298]]]}},{"type":"Feature","properties":{"id":"area-13222014006","name":"中央町六丁目"},"geometry":{"type":"Polygon","coordinates":[[[139.51961,35.75336],[139.51945,35.75258],[139.51927,35.75255],[139.51865,35.75264],[139.51837,35.7528],[139.5181,35.75289],[139.51746,35.75278],[139.51731,35.75277],[139.51714,35.75282],[139.51696,35.75291],[139.51677,35.75293],[139.51667,35.75296],[139.51642,35.75295],[139.51614,35.75298],[139.51584,35.75313],[139.5156,35.75318],[139.51567,35.75356],[139.51567,35.75375],[139.51532,35.75521],[139.51723,35.7556],[139.5183,35.75587],[139.51955,35.75633],[139.52024,35.75647],[139.51993,35.75568],[139.5196,35.75541],[139.51957,35.75526],[139.51959,35.75506],[139.51966,35.75481],[139.51961,35.75336]]]}},{"type":"Feature","properties":{"id":"area-13222015001","name":"南沢一丁目"},"geometry":{"type":"Polygon","coordinates":[[[139.53501,35.7569],[139.53512,35.75674],[139.53558,35.75681],[139.53574,35.75679],[139.53611,35.75684],[139.53616,35.75691],[139.53651,35.7568],[139.53666,35.75645],[139.53669,35.7562],[139.53661,35.75579],[139.53586,35.75472],[139.53574,35.75446],[139.53562,35.75391],[139.53555,35.75328],[139.53497,35.75301],[139.53483,35.75291],[139.53464,35.7527],[139.53424,35.75268],[139.53286,35.7522],[139.53248,35.75224],[139.53207,35.75204],[139.53187,35.75201],[139.53153,35.75208],[139.53141,35.75206],[139.53125,35.75196],[139.53084,35.75205],[139.53063,35.75204],[139.53055,35.75224],[139.53047,35.75231],[139.53019,35.75237],[139.53001,35.75244],[139.52955,35.75277],[139.52898,35.75365],[139.52896,35.75391],[139.52899,35.75419],[139.52941,35.75413],[139.52993,35.75434],[139.53047,35.75461],[139.53074,35.75477],[139.5309,35.75493],[139.531,35.75509],[139.53123,35.75531],[139.53154,35.75554],[139.53189,35.75573],[139.53275,35.75573],[139.53322,35.75591],[139.53338,35.75599],[139.53353,35.75611],[139.53365,35.75616],[139.53374,35.75641],[139.53373,35.75653],[139.5336,35.75666],[139.53384,35.75704],[139.53432,35.75707],[139.53466,35.75716],[139.53501,35.7569]]]}},{"type":"Feature","properties":{"id":"area-13222015002","name":"南沢二丁目"},"geometry":{"type":"Polygon","coordinates":[[[139.5355,35.75326],[139.53529,35.75133],[139.53524,35.7511],[139.53508,35.75081],[139.53478,35.75048],[139.53325,35.74914],[139.53336,35.74903],[139.53195,35.74785],[139.53129,35.74773],[139.53116,35.74842],[139.53106,35.74867],[139.53089,35.74927],[139.53074,35.7496],[139.5307,35.74981],[139.53069,35.75001],[139.53077,35.75044],[139.53079,35.75086],[139.53089,35.75113],[139.53079,35.75159],[139.53063,35.75204],[139.53084,35.75205],[139.53125,35.75196],[139.53141,35.75206],[139.53153,35.75208],[139.53187,35.75201],[139.53207,35.75204],[139.53248,35.75224],[139.53286,35.7522],[139.53424,35.75268],[139.53464,35.7527],[139.53483,35.75291],[139.53497,35.75301],[139.5355,35.75326]]]}},{"type":"Feature","properties":{"id":"area-13222015003","name":"南沢三丁目"},"geometry":{"type":"Polygon","coordinates":[[[139.52858,35.75484],[139.52881,35.75461],[139.52898,35.7543],[139.52896,35.75391],[139.52898,35.75365],[139.52955,35.75277],[139.53001,35.75244],[139.53019,35.75237],[139.53047,35.75231],[139.53055,35.75224],[139.53079,35.75159],[139.53089,35.75113],[139.53079,35.75086],[139.53077,35.75044],[139.53069,35.75001],[139.53043,35.74993],[139.52994,35.74969],[139.52927,35.74952],[139.52874,35.74948],[139.52712,35.74943],[139.52693,35.74935],[139.5271,35.74915],[139.52726,35.74887],[139.52674,35.74865],[139.52611,35.74844],[139.52571,35.74845],[139.52565,35.74866],[139.52566,35.74916],[139.52553,35.74952],[139.52544,35.75014],[139.52533,35.75035],[139.52498,35.75079],[139.52484,35.7511],[139.52451,35.75139],[139.52442,35.75155],[139.52442,35.75169],[139.52464,35.75227],[139.52473,35.75274],[139.52489,35.75294],[139.52458,35.75297],[139.52458,35.75324],[139.52433,35.75334],[139.52431,35.75364],[139.52441,35.7536],[139.5247,35.7536],[139.52495,35.75367],[139.52535,35.75373],[139.52599,35.75377],[139.52638,35.75358],[139.52659,35.75352],[139.52661,35.75375],[139.52676,35.75375],[139.52695,35.75381],[139.52722,35.75393],[139.52758,35.75427],[139.52776,35.75439],[139.52791,35.7544],[139.52783,35.75465],[139.52785,35.75468],[139.52803,35.75479],[139.52816,35.75481],[139.52833,35.75479],[139.52858,35.75484]]]}},{"type":"Feature","properties":{"id":"area-13222015004","name":"南沢四丁目"},"geometry":{"type":"Polygon","coordinates":[[[139.53069,35.75001],[139.53074,35.7496],[139.53089,35.74927],[139.53106,35.74867],[139.53116,35.74842],[139.53123,35.74794],[139.53155,35.74658],[139.52799,35.74623],[139.52553,35.74593],[139.52536,35.74585],[139.52376,35.74665],[139.52402,35.74691],[139.5246,35.74768],[139.52481,35.74768],[139.52527,35.7485],[139.52548,35.74879],[139.52564,35.74887],[139.52565,35.74866],[139.52571,35.74845],[139.52611,35.74844],[139.52674,35.74865],[139.52726,35.74887],[139.5271,35.74915],[139.52693,35.74935],[139.52712,35.74943],[139.52874,35.74948],[139.52927,35.74952],[139.52994,35.74969],[139.53043,35.74993],[139.53069,35.75001]]]}},{"type":"Feature","properties":{"id":"area-13222015005","name":"南沢五丁目"},"geometry":{"type":"Polygon","coordinates":[[[139.52376,35.74665],[139.52536,35.74585],[139.52553,35.74593],[139.52799,35.74623],[139.53155,35.74658],[139.53231,35.74458],[139.52871,35.74483],[139.52737,35.74369],[139.5263,35.74268],[139.52349,35.74465],[139.52351,35.74466],[139.52277,35.74555],[139.52376,35.74665]]]}},{"type":"Feature","properties":{"id":"area-13222016001","name":"前沢一丁目"},"geometry":{"type":"Polygon","coordinates":[[[139.52045,35.74557],[139.52028,35.74502],[139.5201,35.74471],[139.51894,35.74465],[139.51725,35.74468],[139.51425,35.74564],[139.51422,35.74579],[139.51449,35.74813],[139.51454,35.74849],[139.51463,35.74882],[139.51548,35.74855],[139.51814,35.74793],[139.51923,35.74773],[139.51973,35.74755],[139.52006,35.74739],[139.52008,35.74697],[139.52012,35.74683],[139.52036,35.74637],[139.52041,35.74618],[139.52039,35.74611],[139.52046,35.74569],[139.52045,35.74557]]]}},{"type":"Feature","properties":{"id":"area-13222016002","name":"前沢二丁目"},"geometry":{"type":"Polygon","coordinates":[[[139.51425,35.74564],[139.51725,35.74468],[139.51894,35.74465],[139.5201,35.74471],[139.51981,35.74273],[139.51622,35.74305],[139.51364,35.74332],[139.51358,35.74337],[139.51369,35.7438],[139.51397,35.7446],[139.51425,35.74564]]]}},{"type":"Feature","properties":{"id":"area-13222016003","name":"前沢三丁目"},"geometry":{"type":"Polygon","coordinates":[[[139.51968,35.74175],[139.51926,35.73902],[139.51876,35.73903],[139.51876,35.73905],[139.5181,35.73911],[139.51804,35.73908],[139.51594,35.73927],[139.51592,35.73915],[139.51575,35.73916],[139.51498,35.73905],[139.515,35.73963],[139.51517,35.74137],[139.51437,35.74149],[139.51431,35.74139],[139.51437,35.74137],[139.5141,35.73867],[139.51318,35.73872],[139.51332,35.73974],[139.5135,35.74155],[139.51358,35.74337],[139.51364,35.74332],[139.51494,35.7432],[139.51496,35.74317],[139.5198,35.74272],[139.51968,35.74175]]]}},{"type":"Feature","properties":{"id":"area-13222016004","name":"前沢四丁目"},"geometry":{"type":"Polygon","coordinates":[[[139.51358,35.74337],[139.51351,35.7418],[139.51114,35.7427],[139.50961,35.74335],[139.51242,35.74788],[139.51435,35.74682],[139.51422,35.74579],[139.51425,35.74564],[139.51358,35.74337]]]}},{"type":"Feature","properties":{"id":"area-13222016005","name":"前沢五丁目"},"geometry":{"type":"Polygon","coordinates":[[[139.51351,35.7418],[139.5135,35.74155],[139.51347,35.74158],[139.51291,35.74163],[139.51289,35.74132],[139.51257,35.74133],[139.51255,35.74103],[139.51286,35.74101],[139.51284,35.74075],[139.51277,35.74076],[139.51277,35.74068],[139.51283,35.74067],[139.51279,35.74063],[139.51275,35.74012],[139.51279,35.74011],[139.51278,35.73996],[139.51273,35.73996],[139.51272,35.73979],[139.51274,35.73978],[139.51265,35.73876],[139.51252,35.73877],[139.51248,35.73838],[139.51237,35.73841],[139.5123,35.73792],[139.51165,35.738],[139.50799,35.73831],[139.50804,35.7395],[139.50732,35.73968],[139.50961,35.74335],[139.51114,35.7427],[139.51351,35.7418]]]}},{"type":"Feature","properties":{"id":"area-13222017001","name":"南町一丁目"},"geometry":{"type":"Polygon","coordinates":[[[139.52737,35.74368],[139.5293,35.74203],[139.52928,35.742],[139.53063,35.74083],[139.53134,35.74025],[139.53074,35.74004],[139.52964,35.73982],[139.52961,35.73984],[139.52932,35.73976],[139.52777,35.73868],[139.52607,35.73744],[139.52572,35.7377],[139.52393,35.73856],[139.52368,35.73865],[139.52491,35.74085],[139.52534,35.74083],[139.52548,35.74212],[139.52512,35.74213],[139.52515,35.74263],[139.52537,35.74263],[139.52596,35.74231],[139.52625,35.74274],[139.5263,35.74268],[139.52737,35.74368]]]}},{"type":"Feature","properties":{"id":"area-13222017002","name":"南町二丁目"},"geometry":{"type":"Polygon","coordinates":[[[139.52393,35.73856],[139.52572,35.7377],[139.52607,35.73744],[139.52472,35.73649],[139.52028,35.73349],[139.5211,35.73822],[139.52179,35.73787],[139.52213,35.73852],[139.52233,35.73908],[139.52393,35.73856]]]}},{"type":"Feature","properties":{"id":"area-13222017003","name":"南町三丁目"},"geometry":{"type":"Polygon","coordinates":[[[139.52082,35.74264],[139.52515,35.74263],[139.52512,35.74213],[139.52548,35.74212],[139.52534,35.74083],[139.52491,35.74085],[139.52368,35.73865],[139.52233,35.73908],[139.52213,35.73852],[139.52179,35.73787],[139.5211,35.73822],[139.5212,35.73885],[139.5207,35.7389],[139.52068,35.73875],[139.52046,35.73877],[139.52048,35.7389],[139.52023,35.73893],[139.52023,35.73889],[139.51975,35.73898],[139.51926,35.73902],[139.51957,35.74092],[139.5198,35.74272],[139.52082,35.74264]]]}},{"type":"Feature","properties":{"id":"area-13222017004","name":"南町四丁目"},"geometry":{"type":"Polygon","coordinates":[[[139.52625,35.74274],[139.52596,35.74231],[139.52537,35.74263],[139.52071,35.74264],[139.5198,35.74272],[139.5201,35.74471],[139.52028,35.74502],[139.52037,35.74529],[139.52046,35.74569],[139.52039,35.74611],[139.52041,35.74618],[139.52036,35.74637],[139.52012,35.74683],[139.52008,35.74697],[139.52006,35.74739],[139.52132,35.74696],[139.5215,35.74688],[139.52177,35.74667],[139.5222,35.74603],[139.52279,35.74553],[139.52351,35.74466],[139.52349,35.74465],[139.52625,35.74274]]]}},{"type":"Feature","properties":{"id":"area-13222018001","name":"滝山一丁目"},"geometry":{"type":"Polygon","coordinates":[[[139.51242,35.74788],[139.51151,35.74644],[139.5084,35.74773],[139.50951,35.74952],[139.51242,35.74788]]]}},{"type":"Feature","properties":{"id":"area-13222018002","name":"滝山二丁目"},"geometry":{"type":"Polygon","coordinates":[[[139.50837,35.74772],[139.51152,35.74643],[139.50961,35.74335],[139.50657,35.74481],[139.50837,35.74772]]]}},{"type":"Feature","properties":{"id":"area-13222018003","name":"滝山三丁目"},"geometry":{"type":"Polygon","coordinates":[[[139.50961,35.74335],[139.50828,35.7412],[139.50676,35.74185],[139.50567,35.74012],[139.50415,35.74046],[139.50657,35.74481],[139.50961,35.74335]]]}},{"type":"Feature","properties":{"id":"area-13222018004","name":"滝山四丁目"},"geometry":{"type":"Polygon","coordinates":[[[139.50468,35.74572],[139.50529,35.74544],[139.50539,35.74545],[139.50658,35.74485],[139.50445,35.74098],[139.50316,35.74134],[139.50381,35.74303],[139.50285,35.74342],[139.50267,35.74352],[139.50387,35.74612],[139.50446,35.74584],[139.50467,35.74577],[139.50468,35.74572]]]}},{"type":"Feature","properties":{"id":"area-13222018005","name":"滝山五丁目"},"geometry":{"type":"Polygon","coordinates":[[[139.50021,35.74787],[139.50031,35.74785],[139.50055,35.74771],[139.5024,35.74683],[139.50286,35.74663],[139.50286,35.7466],[139.50387,35.74612],[139.50267,35.74352],[139.50155,35.74408],[139.49996,35.74494],[139.49789,35.74617],[139.49799,35.74645],[139.4984,35.74732],[139.49896,35.74823],[139.49894,35.74887],[139.49924,35.74862],[139.4991,35.7484],[139.50021,35.74787]]]}},{"type":"Feature","properties":{"id":"area-13222018006","name":"滝山六丁目"},"geometry":{"type":"Polygon","coordinates":[[[139.50051,35.75044],[139.50813,35.74733],[139.50658,35.74485],[139.50539,35.74545],[139.50529,35.74544],[139.50468,35.74572],[139.50467,35.74577],[139.50446,35.74584],[139.50286,35.7466],[139.50286,35.74663],[139.5024,35.74683],[139.50055,35.74771],[139.50031,35.74785],[139.50021,35.74787],[139.4991,35.7484],[139.49924,35.74862],[139.49919,35.74865],[139.50008,35.75005],[139.50022,35.75025],[139.50038,35.75038],[139.50051,35.75044]]]}},{"type":"Feature","properties":{"id":"area-13222018007","name":"滝山七丁目"},"geometry":{"type":"Polygon","coordinates":[[[139.50951,35.74952],[139.50813,35.74733],[139.50051,35.75044],[139.50291,35.75148],[139.50319,35.75173],[139.50389,35.75262],[139.50543,35.75185],[139.50951,35.74952]]]}},{"type":"Feature","properties":{"id":"area-13222019001","name":"下里一丁目"},"geometry":{"type":"Polygon","coordinates":[[[139.51049,35.76035],[139.51065,35.75994],[139.51066,35.75964],[139.5107,35.75941],[139.51081,35.75923],[139.51135,35.75887],[139.51138,35.75882],[139.51081,35.75863],[139.5103,35.75837],[139.50899,35.75784],[139.50885,35.75778],[139.5088,35.75772],[139.50882,35.75764],[139.50915,35.7575],[139.50942,35.7573],[139.51014,35.75664],[139.51054,35.75651],[139.5111,35.75639],[139.5119,35.75611],[139.51211,35.75597],[139.51224,35.75581],[139.5116,35.75526],[139.51107,35.75475],[139.51099,35.75456],[139.51068,35.75347],[139.51042,35.75306],[139.51,35.75273],[139.50968,35.75261],[139.50948,35.75256],[139.50886,35.75251],[139.50884,35.753],[139.50878,35.75325],[139.5087,35.75347],[139.5084,35.75389],[139.50761,35.75457],[139.50685,35.75494],[139.5061,35.75587],[139.50581,35.75636],[139.50606,35.75651],[139.50616,35.75661],[139.50623,35.75682],[139.50622,35.75693],[139.50616,35.75701],[139.50615,35.75712],[139.50622,35.7572],[139.50647,35.75733],[139.50676,35.75754],[139.5068,35.75762],[139.5068,35.75772],[139.50702,35.7579],[139.507,35.75813],[139.5071,35.75841],[139.50714,35.75875],[139.50742,35.75922],[139.50758,35.75929],[139.50823,35.75945],[139.50853,35.7596],[139.509,35.75988],[139.50913,35.76013],[139.50935,35.7602],[139.50978,35.76011],[139.51026,35.76023],[139.51049,35.76035]]]}},{"type":"Feature","properties":{"id":"area-13222019002","name":"下里二丁目"},"geometry":{"type":"Polygon","coordinates":[[[139.5061,35.75587],[139.50685,35.75494],[139.50761,35.75457],[139.5084,35.75389],[139.5087,35.75347],[139.50878,35.75325],[139.50884,35.753],[139.50886,35.75242],[139.50889,35.7522],[139.50899,35.75197],[139.50946,35.75146],[139.50975,35.75128],[139.50925,35.75096],[139.50892,35.75042],[139.50859,35.75005],[139.50543,35.75185],[139.5006,35.75432],[139.50118,35.75454],[139.50139,35.75466],[139.50164,35.75514],[139.50196,35.75532],[139.50197,35.75535],[139.50212,35.75538],[139.50234,35.75548],[139.50252,35.7556],[139.5026,35.75576],[139.50268,35.75583],[139.50297,35.75602],[139.5031,35.75618],[139.50317,35.75618],[139.50346,35.75599],[139.50354,35.75588],[139.50359,35.7556],[139.50371,35.7555],[139.50403,35.75556],[139.50431,35.75569],[139.50491,35.75577],[139.50546,35.75616],[139.50582,35.75634],[139.5061,35.75587]]]}},{"type":"Feature","properties":{"id":"area-13222019003","name":"下里三丁目"},"geometry":{"type":"Polygon","coordinates":[[[139.50022,35.75025],[139.49919,35.74865],[139.49894,35.74887],[139.49775,35.75],[139.49722,35.75042],[139.49668,35.7507],[139.49669,35.75077],[139.49763,35.75199],[139.49818,35.75247],[139.50099,35.7541],[139.50389,35.75262],[139.50319,35.75173],[139.50291,35.75148],[139.50048,35.75042],[139.50022,35.75025]]]}},{"type":"Feature","properties":{"id":"area-13222019004","name":"下里四丁目"},"geometry":{"type":"Polygon","coordinates":[[[139.50099,35.7541],[139.49818,35.75247],[139.49763,35.75199],[139.49669,35.75077],[139.49661,35.7506],[139.49631,35.75026],[139.49626,35.75013],[139.49609,35.74993],[139.49602,35.74993],[139.49511,35.75038],[139.49513,35.75065],[139.49509,35.75076],[139.49419,35.75186],[139.49434,35.75212],[139.49407,35.75221],[139.49339,35.75256],[139.49291,35.75287],[139.49251,35.75302],[139.49282,35.75318],[139.49293,35.75307],[139.49389,35.75338],[139.49352,35.75432],[139.49368,35.75441],[139.49378,35.75455],[139.49396,35.75467],[139.49382,35.75483],[139.49395,35.75495],[139.49395,35.7552],[139.49445,35.75552],[139.49465,35.75561],[139.49427,35.75597],[139.49442,35.75607],[139.4943,35.75626],[139.49517,35.75664],[139.49488,35.75709],[139.49543,35.75735],[139.49509,35.75767],[139.49518,35.7577],[139.4952,35.75765],[139.49598,35.75691],[139.49662,35.75645],[139.50061,35.75433],[139.50099,35.7541]]]}},{"type":"Feature","properties":{"id":"area-13222019005","name":"下里五丁目"},"geometry":{"type":"Polygon","coordinates":[[[139.50421,35.75783],[139.50496,35.7574],[139.50535,35.75702],[139.50582,35.75634],[139.50546,35.75616],[139.50491,35.75577],[139.50431,35.75569],[139.50403,35.75556],[139.50371,35.7555],[139.50359,35.7556],[139.50354,35.75588],[139.50346,35.75599],[139.50317,35.75618],[139.5031,35.75618],[139.50297,35.75602],[139.50268,35.75583],[139.5026,35.75576],[139.50252,35.7556],[139.50234,35.75548],[139.50212,35.75538],[139.50197,35.75535],[139.50196,35.75532],[139.50164,35.75514],[139.50139,35.75466],[139.50098,35.75445],[139.50061,35.75433],[139.49702,35.75624],[139.49705,35.7565],[139.49764,35.75713],[139.49794,35.75738],[139.49812,35.75748],[139.49885,35.75779],[139.49909,35.75773],[139.49952,35.7578],[139.50015,35.75806],[139.50123,35.7584],[139.5017,35.75851],[139.50188,35.7586],[139.50242,35.75835],[139.50364,35.75808],[139.50421,35.75783]]]}},{"type":"Feature","properties":{"id":"area-13222019006","name":"下里六丁目"},"geometry":{"type":"Polygon","coordinates":[[[139.50111,35.75892],[139.50167,35.75865],[139.50172,35.75867],[139.50188,35.7586],[139.5017,35.75851],[139.50123,35.7584],[139.50015,35.75806],[139.49952,35.7578],[139.49909,35.75773],[139.49885,35.75779],[139.49812,35.75748],[139.49794,35.75738],[139.49764,35.75713],[139.49705,35.7565],[139.49702,35.75624],[139.49639,35.7566],[139.49598,35.75691],[139.4952,35.75765],[139.49518,35.7577],[139.49555,35.75788],[139.49538,35.75814],[139.49545,35.75817],[139.49518,35.75856],[139.49709,35.75932],[139.4973,35.75937],[139.498,35.75947],[139.49995,35.76003],[139.50003,35.76004],[139.50041,35.75953],[139.50083,35.75909],[139.50102,35.75903],[139.50111,35.75892]]]}},{"type":"Feature","properties":{"id":"area-13222019007","name":"下里七丁目"},"geometry":{"type":"Polygon","coordinates":[[[139.50504,35.76044],[139.50521,35.75999],[139.50623,35.76018],[139.50644,35.76017],[139.50669,35.7601],[139.50686,35.76001],[139.50737,35.75957],[139.50758,35.75929],[139.50742,35.75922],[139.50714,35.75875],[139.5071,35.75841],[139.507,35.75813],[139.50702,35.7579],[139.5068,35.75772],[139.5068,35.75762],[139.50676,35.75754],[139.50647,35.75733],[139.50622,35.7572],[139.50615,35.75712],[139.50616,35.75701],[139.50622,35.75693],[139.50623,35.75682],[139.50616,35.75661],[139.50606,35.75651],[139.50581,35.75636],[139.50535,35.75702],[139.50496,35.7574],[139.50421,35.75783],[139.50364,35.75808],[139.50242,35.75835],[139.50172,35.75867],[139.50167,35.75865],[139.50111,35.75892],[139.50102,35.75903],[139.50083,35.75909],[139.50072,35.75919],[139.50074,35.7592],[139.50041,35.75953],[139.50003,35.76004],[139.50319,35.76081],[139.50487,35.76126],[139.50508,35.76057],[139.50504,35.76044]]]}},{"type":"Feature","properties":{"id":"area-13222020001","name":"柳窪一丁目"},"geometry":{"type":"Polygon","coordinates":[[[139.49775,35.75],[139.49894,35.74887],[139.49896,35.74823],[139.49846,35.74741],[139.49796,35.74746],[139.49719,35.74768],[139.49706,35.74769],[139.49626,35.74769],[139.49459,35.74747],[139.49396,35.74749],[139.49369,35.74756],[139.4924,35.74765],[139.49256,35.74811],[139.49294,35.74844],[139.4931,35.74882],[139.49322,35.74927],[139.49329,35.74936],[139.49513,35.7506],[139.49511,35.75038],[139.49602,35.74993],[139.49609,35.74993],[139.49626,35.75013],[139.49631,35.75026],[139.49668,35.7507],[139.49722,35.75042],[139.49775,35.75]]]}},{"type":"Feature","properties":{"id":"area-13222020002","name":"柳窪二丁目"},"geometry":{"type":"Polygon","coordinates":[[[139.4924,35.74765],[139.49369,35.74756],[139.49396,35.74749],[139.49459,35.74747],[139.49626,35.74769],[139.49706,35.74769],[139.49719,35.74768],[139.49796,35.74746],[139.49846,35.74741],[139.49799,35.74645],[139.49789,35.74617],[139.49792,35.74444],[139.49523,35.74331],[139.49436,35.74364],[139.49037,35.74496],[139.49117,35.74627],[139.49121,35.74629],[139.49136,35.74607],[139.49201,35.74772],[139.4924,35.74765]]]}},{"type":"Feature","properties":{"id":"area-13222020003","name":"柳窪三丁目"},"geometry":{"type":"Polygon","coordinates":[[[139.48714,35.74602],[139.49436,35.74364],[139.49523,35.74331],[139.49256,35.74214],[139.49143,35.74168],[139.4914,35.74168],[139.49096,35.74451],[139.49085,35.74474],[139.48777,35.74404],[139.48773,35.74507],[139.48619,35.74418],[139.48547,35.74387],[139.48478,35.74431],[139.48495,35.7446],[139.48502,35.74509],[139.48512,35.74526],[139.4854,35.74554],[139.48565,35.74566],[139.48571,35.74565],[139.48591,35.74553],[139.486,35.74554],[139.48669,35.74574],[139.4869,35.74583],[139.48714,35.74602]]]}},{"type":"Feature","properties":{"id":"area-13222020004","name":"柳窪四丁目"},"geometry":{"type":"Polygon","coordinates":[[[139.48896,35.75097],[139.48967,35.75067],[139.49001,35.75079],[139.49009,35.75065],[139.49019,35.75011],[139.49025,35.74994],[139.49035,35.74977],[139.49065,35.7494],[139.49069,35.74926],[139.49069,35.74896],[139.49036,35.74871],[139.49054,35.74849],[139.4911,35.74797],[139.49201,35.74772],[139.49136,35.74607],[139.49121,35.74629],[139.49117,35.74627],[139.49037,35.74496],[139.48714,35.74602],[139.48722,35.74607],[139.48753,35.74676],[139.48754,35.74718],[139.4874,35.7476],[139.48669,35.74839],[139.48661,35.74872],[139.48727,35.7489],[139.48799,35.74925],[139.48769,35.74953],[139.48826,35.75007],[139.48807,35.75016],[139.48807,35.75026],[139.48888,35.75095],[139.48896,35.75097]]]}},{"type":"Feature","properties":{"id":"area-13222020005","name":"柳窪五丁目"},"geometry":{"type":"Polygon","coordinates":[[[139.49076,35.75225],[139.49177,35.75185],[139.49236,35.75193],[139.49324,35.75166],[139.4936,35.7517],[139.49407,35.75221],[139.49428,35.75214],[139.49434,35.75212],[139.49419,35.75186],[139.49498,35.75092],[139.49513,35.75068],[139.49513,35.7506],[139.495,35.75049],[139.49329,35.74936],[139.49322,35.74927],[139.4931,35.74882],[139.49294,35.74844],[139.49256,35.74811],[139.4924,35.74765],[139.49201,35.74772],[139.4911,35.74797],[139.49054,35.74849],[139.49036,35.74871],[139.49069,35.74896],[139.49069,35.74926],[139.49065,35.7494],[139.49035,35.74977],[139.49025,35.74994],[139.49019,35.75011],[139.49009,35.75065],[139.49001,35.75079],[139.48967,35.75067],[139.48944,35.75075],[139.48995,35.7515],[139.49002,35.75151],[139.49017,35.75146],[139.49063,35.75214],[139.49076,35.75225]]]}},{"type":"Feature","properties":{"id":"area-13222021001","name":"野火止一丁目"},"geometry":{"type":"Polygon","coordinates":[[[139.51655,35.76213],[139.5164,35.76151],[139.51591,35.75982],[139.51589,35.75984],[139.5151,35.75968],[139.51138,35.75882],[139.51135,35.75887],[139.51081,35.75923],[139.5107,35.75941],[139.51066,35.75964],[139.51065,35.75994],[139.51049,35.76035],[139.51056,35.76042],[139.51115,35.76078],[139.51146,35.76084],[139.51171,35.76096],[139.51185,35.76097],[139.51216,35.76091],[139.51225,35.7611],[139.51248,35.76122],[139.51264,35.76128],[139.51304,35.76133],[139.51345,35.76148],[139.51373,35.76145],[139.51453,35.76169],[139.51476,35.76179],[139.51509,35.76178],[139.51554,35.76182],[139.51594,35.76193],[139.51649,35.76251],[139.5166,35.76251],[139.51655,35.76213]]]}},{"type":"Feature","properties":{"id":"area-13222021002","name":"野火止二丁目"},"geometry":{"type":"Polygon","coordinates":[[[139.51554,35.76182],[139.51509,35.76178],[139.51476,35.76179],[139.51383,35.76147],[139.51373,35.76145],[139.51345,35.76148],[139.51304,35.76133],[139.51264,35.76128],[139.51225,35.7611],[139.51216,35.76091],[139.51185,35.76097],[139.51171,35.76096],[139.51146,35.76084],[139.51115,35.76078],[139.51056,35.76042],[139.51048,35.76034],[139.51032,35.76077],[139.51018,35.76175],[139.51,35.76214],[139.50971,35.7626],[139.50967,35.76271],[139.51218,35.76375],[139.51623,35.7656],[139.51659,35.76329],[139.5166,35.76251],[139.51649,35.76251],[139.51594,35.76193],[139.51554,35.76182]]]}},{"type":"Feature","properties":{"id":"area-13222021003","name":"野火止三丁目"},"geometry":{"type":"Polygon","coordinates":[[[139.51026,35.76023],[139.50978,35.76011],[139.50935,35.7602],[139.50913,35.76013],[139.509,35.75988],[139.50853,35.7596],[139.50823,35.75945],[139.50758,35.75929],[139.50737,35.75957],[139.50686,35.76001],[139.50669,35.7601],[139.50644,35.76017],[139.50623,35.76018],[139.50521,35.75999],[139.50504,35.76044],[139.50508,35.76057],[139.50487,35.76126],[139.50769,35.76198],[139.50825,35.76215],[139.50967,35.76271],[139.50971,35.7626],[139.51,35.76214],[139.51018,35.76175],[139.51032,35.76077],[139.51048,35.76034],[139.51026,35.76023]]]}},{"type":"Feature","properties":{"id":"area-13222022001","name":"八幡町一丁目"},"geometry":{"type":"Polygon","coordinates":[[[139.51303,35.75639],[139.51224,35.75581],[139.51211,35.75597],[139.5119,35.75611],[139.5111,35.75639],[139.51054,35.75651],[139.51014,35.75664],[139.50942,35.7573],[139.50915,35.7575],[139.50882,35.75764],[139.5088,35.75772],[139.50885,35.75778],[139.50899,35.75784],[139.5103,35.75837],[139.51113,35.75875],[139.51589,35.75984],[139.51592,35.75979],[139.51588,35.75977],[139.5158,35.75934],[139.51571,35.75922],[139.51572,35.75917],[139.51564,35.75897],[139.51561,35.75876],[139.51539,35.75805],[139.5152,35.7573],[139.51485,35.75724],[139.51461,35.75712],[139.51408,35.75672],[139.51388,35.75663],[139.51303,35.75639]]]}},{"type":"Feature","properties":{"id":"area-13222022002","name":"八幡町二丁目"},"geometry":{"type":"Polygon","coordinates":[[[139.51453,35.7526],[139.51429,35.75248],[139.51414,35.75255],[139.51396,35.75255],[139.51343,35.75238],[139.51291,35.75214],[139.51266,35.75211],[139.51242,35.75201],[139.512,35.75188],[139.51141,35.75185],[139.51136,35.75173],[139.51033,35.752],[139.50975,35.75128],[139.50946,35.75146],[139.50899,35.75197],[139.50889,35.7522],[139.50886,35.75242],[139.50886,35.75251],[139.50948,35.75256],[139.51,35.75273],[139.51042,35.75306],[139.51068,35.75347],[139.51099,35.75456],[139.51107,35.75475],[139.51208,35.7557],[139.51258,35.75608],[139.51303,35.75639],[139.51388,35.75663],[139.51408,35.75672],[139.51461,35.75712],[139.51485,35.75724],[139.5152,35.7573],[139.5151,35.7565],[139.51513,35.75611],[139.51522,35.75565],[139.5156,35.75409],[139.51567,35.75375],[139.51564,35.75337],[139.5156,35.75319],[139.51523,35.75303],[139.51477,35.75277],[139.51453,35.7526]]]}},{"type":"Feature","properties":{"id":"area-13222022003","name":"八幡町三丁目"},"geometry":{"type":"Polygon","coordinates":[[[139.5156,35.75319],[139.51518,35.75142],[139.51489,35.74961],[139.51482,35.74958],[139.51454,35.74849],[139.51435,35.74682],[139.51097,35.74868],[139.50858,35.75004],[139.50892,35.75042],[139.50925,35.75096],[139.50975,35.75128],[139.51033,35.752],[139.51136,35.75173],[139.51141,35.75185],[139.512,35.75188],[139.51242,35.75201],[139.51266,35.75211],[139.51291,35.75214],[139.51343,35.75238],[139.51396,35.75255],[139.51414,35.75255],[139.51429,35.75248],[139.51453,35.7526],[139.51477,35.75277],[139.51523,35.75303],[139.5156,35.75319]]]}},{"type":"Feature","properties":{"id":"area-13222023001","name":"弥生一丁目"},"geometry":{"type":"Polygon","coordinates":[[[139.50687,35.73983],[139.50656,35.736],[139.50474,35.73631],[139.5048,35.73676],[139.50372,35.73678],[139.50458,35.74039],[139.50687,35.73983]]]}},{"type":"Feature","properties":{"id":"area-13222023002","name":"弥生二丁目"},"geometry":{"type":"Polygon","coordinates":[[[139.50569,35.73616],[139.50539,35.7322],[139.50443,35.73223],[139.50452,35.7335],[139.50459,35.7335],[139.50465,35.73413],[139.50461,35.73414],[139.50462,35.73432],[139.50455,35.73432],[139.50456,35.73441],[139.50468,35.73441],[139.50473,35.73496],[139.50462,35.73497],[139.50474,35.73631],[139.50569,35.73616]]]}}]}