{"type":"FeatureCollection","features":[{"type":"Feature","properties":{"id":"area-13305001001","name":"大字平井谷の入"},"geometry":{"type":"Polygon","coordinates":[[[139.27711,35.74601],[139.27709,35.74588],[139.28088,35.7458],[139.28075,35.74531],[139.28057,35.74484],[139.28059,35.74449],[139.28045,35.7442],[139.28031,35.74407],[139.28025,35.74396],[139.28024,35.74359],[139.28017,35.74335],[139.2793,35.74352],[139.27918,35.74332],[139.27915,35.74259],[139.27913,35.74239],[139.27909,35.74235],[139.27818,35.74286],[139.27775,35.74303],[139.27713,35.7432],[139.27574,35.74352],[139.2751,35.74314],[139.27462,35.74278],[139.2743,35.74269],[139.2742,35.7429],[139.2738,35.74341],[139.27368,35.74364],[139.27355,35.74377],[139.27354,35.74432],[139.27362,35.74499],[139.27361,35.74511],[139.27329,35.74551],[139.27315,35.74561],[139.27298,35.74586],[139.27487,35.74598],[139.2765,35.74589],[139.27697,35.74617],[139.27703,35.74605],[139.27711,35.74601]]]}},{"type":"Feature","properties":{"id":"area-13305001002","name":"大字平井宮本・足下田"},"geometry":{"type":"Polygon","coordinates":[[[139.26631,35.75052],[139.26641,35.75026],[139.26684,35.75035],[139.26793,35.74654],[139.26938,35.74649],[139.26906,35.74611],[139.26908,35.74588],[139.26928,35.74594],[139.26939,35.74586],[139.27298,35.74586],[139.27315,35.74561],[139.27329,35.74551],[139.27361,35.74511],[139.27362,35.74499],[139.27354,35.74432],[139.27355,35.74377],[139.27368,35.74364],[139.2738,35.74341],[139.2742,35.7429],[139.27428,35.74272],[139.27269,35.7426],[139.27131,35.74255],[139.27059,35.74248],[139.26908,35.74243],[139.26701,35.7423],[139.26591,35.74218],[139.26562,35.74212],[139.26557,35.74223],[139.26541,35.74226],[139.26542,35.74238],[139.26528,35.74249],[139.26524,35.74278],[139.26501,35.74309],[139.26511,35.74354],[139.265,35.74367],[139.26487,35.74373],[139.26474,35.74386],[139.26461,35.74404],[139.26458,35.74427],[139.26465,35.74462],[139.26429,35.74492],[139.26416,35.74508],[139.26415,35.74524],[139.2642,35.74538],[139.2643,35.74551],[139.26425,35.7458],[139.26434,35.74613],[139.26436,35.74635],[139.26397,35.74694],[139.2638,35.74735],[139.2636,35.74744],[139.26334,35.7475],[139.26296,35.74767],[139.26255,35.74791],[139.26229,35.74815],[139.26202,35.74821],[139.26184,35.74889],[139.26195,35.7493],[139.2608,35.74906],[139.26077,35.74924],[139.26457,35.75016],[139.26631,35.75052]]]}},{"type":"Feature","properties":{"id":"area-13305001003","name":"大字平井谷戸"},"geometry":{"type":"Polygon","coordinates":[[[139.26034,35.75168],[139.2608,35.74906],[139.26195,35.7493],[139.26184,35.74889],[139.26202,35.74821],[139.26229,35.74815],[139.26255,35.74791],[139.26296,35.74767],[139.26334,35.7475],[139.2636,35.74744],[139.2638,35.74735],[139.26397,35.74694],[139.26436,35.74635],[139.26434,35.74613],[139.26425,35.7458],[139.2643,35.74551],[139.2642,35.74538],[139.26415,35.74524],[139.26416,35.74508],[139.26429,35.74492],[139.26465,35.74462],[139.26458,35.74427],[139.26461,35.74404],[139.26474,35.74386],[139.26487,35.74373],[139.265,35.74367],[139.26511,35.74354],[139.26501,35.74309],[139.26524,35.74278],[139.26528,35.74249],[139.26542,35.74238],[139.26541,35.74226],[139.26557,35.74223],[139.26562,35.74212],[139.26509,35.74198],[139.26509,35.74183],[139.26515,35.74172],[139.26515,35.74156],[139.26499,35.74132],[139.2646,35.74106],[139.2642,35.74085],[139.26398,35.74092],[139.2633,35.74101],[139.26294,35.74101],[139.26178,35.74066],[139.26168,35.74059],[139.26155,35.74041],[139.25858,35.7411],[139.25901,35.74232],[139.25822,35.74252],[139.2583,35.74271],[139.25845,35.7429],[139.25873,35.74309],[139.25886,35.74331],[139.25874,35.7434],[139.25827,35.74355],[139.25813,35.74368],[139.25707,35.74611],[139.25704,35.74651],[139.25597,35.74651],[139.25582,35.74664],[139.25547,35.74674],[139.25536,35.74703],[139.25536,35.74719],[139.2552,35.74764],[139.25657,35.75166],[139.26034,35.75168]]]}},{"type":"Feature","properties":{"id":"area-13305001004","name":"大字平井塩田・狩宿・中野"},"geometry":{"type":"Polygon","coordinates":[[[139.25707,35.74611],[139.25813,35.74368],[139.25827,35.74355],[139.25874,35.7434],[139.25886,35.74331],[139.25873,35.74309],[139.25845,35.7429],[139.2583,35.74271],[139.25822,35.74252],[139.25901,35.74232],[139.25858,35.7411],[139.26155,35.74041],[139.26097,35.73968],[139.26055,35.73921],[139.2594,35.7393],[139.25861,35.73963],[139.25762,35.74024],[139.2574,35.74041],[139.25677,35.73998],[139.25696,35.73963],[139.257,35.73934],[139.25609,35.73928],[139.25602,35.73968],[139.25597,35.73981],[139.2559,35.73988],[139.25579,35.73992],[139.25535,35.73999],[139.2554,35.73989],[139.25537,35.73984],[139.25524,35.73976],[139.2551,35.7396],[139.25474,35.73951],[139.25468,35.7394],[139.25442,35.73925],[139.25431,35.73884],[139.25437,35.73863],[139.25434,35.73818],[139.25417,35.73814],[139.25375,35.73818],[139.2537,35.73822],[139.25334,35.73827],[139.25273,35.73803],[139.25269,35.73796],[139.25253,35.73714],[139.25141,35.73728],[139.25148,35.7377],[139.25128,35.73782],[139.25111,35.73796],[139.25088,35.73826],[139.25088,35.73838],[139.25045,35.73861],[139.25027,35.73882],[139.24967,35.73904],[139.24937,35.73937],[139.24958,35.74033],[139.24987,35.74029],[139.24998,35.74024],[139.25046,35.73985],[139.25113,35.7397],[139.25128,35.73969],[139.25177,35.73988],[139.25198,35.7399],[139.25194,35.74019],[139.252,35.74058],[139.25197,35.74093],[139.25201,35.74105],[139.25241,35.74173],[139.2524,35.7418],[139.25249,35.74194],[139.2527,35.74213],[139.25319,35.74222],[139.25326,35.74205],[139.25371,35.74217],[139.25382,35.74239],[139.25363,35.74243],[139.25384,35.74267],[139.25401,35.74297],[139.25405,35.74318],[139.25397,35.74349],[139.25375,35.74345],[139.25348,35.74349],[139.25313,35.74371],[139.25281,35.74407],[139.2532,35.74453],[139.25349,35.74446],[139.2539,35.74432],[139.25401,35.74424],[139.25418,35.74442],[139.25445,35.74453],[139.2546,35.74447],[139.25471,35.74464],[139.25482,35.7446],[139.25486,35.74467],[139.25466,35.74475],[139.25468,35.74481],[139.25465,35.74485],[139.25458,35.74486],[139.25449,35.74482],[139.25413,35.74503],[139.25404,35.74511],[139.25401,35.74522],[139.25397,35.74524],[139.25386,35.74524],[139.2538,35.74521],[139.25378,35.74515],[139.25368,35.7451],[139.25359,35.74526],[139.25331,35.74557],[139.25325,35.74633],[139.25304,35.74671],[139.25335,35.7469],[139.25388,35.74707],[139.25406,35.74731],[139.25419,35.74771],[139.25432,35.74781],[139.25455,35.74782],[139.25502,35.74774],[139.2552,35.74764],[139.25536,35.74719],[139.25536,35.74703],[139.25547,35.74674],[139.25582,35.74664],[139.25597,35.74651],[139.25704,35.74651],[139.25707,35.74611]]]}},{"type":"Feature","properties":{"id":"area-13305001005","name":"大字平井本宿"},"geometry":{"type":"Polygon","coordinates":[[[139.25893,35.7395],[139.25881,35.73862],[139.25906,35.73856],[139.25938,35.73825],[139.25981,35.73809],[139.25991,35.73796],[139.26004,35.7376],[139.26021,35.73746],[139.26036,35.73737],[139.261,35.73717],[139.261,35.73674],[139.26081,35.73673],[139.26074,35.73668],[139.26072,35.7366],[139.26074,35.73634],[139.26072,35.73565],[139.26041,35.73525],[139.26039,35.73492],[139.26027,35.73438],[139.25995,35.73396],[139.25924,35.73412],[139.25852,35.73422],[139.25843,35.73426],[139.25839,35.73527],[139.25798,35.73553],[139.25781,35.73557],[139.25737,35.73552],[139.25702,35.73567],[139.25617,35.73578],[139.25566,35.73588],[139.25451,35.73615],[139.25335,35.73656],[139.2532,35.73659],[139.25294,35.73655],[139.2525,35.7363],[139.25263,35.73655],[139.25282,35.73671],[139.25359,35.73675],[139.25397,35.73698],[139.25468,35.73687],[139.25482,35.737],[139.25481,35.73708],[139.25472,35.73719],[139.25472,35.73726],[139.25464,35.73732],[139.25477,35.73754],[139.25504,35.7376],[139.25502,35.7378],[139.25461,35.73768],[139.25458,35.73762],[139.25404,35.73743],[139.25417,35.73814],[139.25434,35.73818],[139.25437,35.73863],[139.25431,35.73884],[139.25442,35.73925],[139.25468,35.7394],[139.25474,35.73951],[139.2551,35.7396],[139.25524,35.73976],[139.25537,35.73984],[139.2554,35.73989],[139.25535,35.73999],[139.25579,35.73992],[139.2559,35.73988],[139.25597,35.73981],[139.25602,35.73968],[139.25609,35.73928],[139.257,35.73934],[139.25696,35.73963],[139.25677,35.73998],[139.2574,35.74041],[139.25762,35.74024],[139.25861,35.73963],[139.25893,35.7395]]]}},{"type":"Feature","properties":{"id":"area-13305001006","name":"大字平井道場"},"geometry":{"type":"Polygon","coordinates":[[[139.2644,35.7408],[139.26442,35.7406],[139.26446,35.74063],[139.26451,35.74055],[139.26456,35.74029],[139.26463,35.74018],[139.26484,35.7396],[139.26483,35.7393],[139.26516,35.73875],[139.26547,35.73792],[139.26552,35.73719],[139.26493,35.73714],[139.26498,35.7371],[139.26512,35.73658],[139.26538,35.73456],[139.26547,35.73438],[139.26611,35.73385],[139.26672,35.73259],[139.26672,35.73248],[139.26614,35.73244],[139.26521,35.73233],[139.2642,35.73227],[139.26374,35.73216],[139.26335,35.73221],[139.26283,35.7322],[139.26236,35.73314],[139.26172,35.73372],[139.26153,35.7336],[139.25995,35.73396],[139.26027,35.73438],[139.26039,35.73492],[139.26041,35.73525],[139.26072,35.73565],[139.26074,35.73634],[139.26072,35.7366],[139.26074,35.73668],[139.26081,35.73673],[139.261,35.73674],[139.261,35.73717],[139.26036,35.73737],[139.26021,35.73746],[139.26004,35.7376],[139.25991,35.73796],[139.25981,35.73809],[139.25938,35.73825],[139.25906,35.73856],[139.25881,35.73862],[139.25893,35.7395],[139.2594,35.7393],[139.26055,35.73921],[139.26097,35.73968],[139.26168,35.74059],[139.26178,35.74066],[139.26294,35.74101],[139.2633,35.74101],[139.26398,35.74092],[139.2644,35.7408]]]}},{"type":"Feature","properties":{"id":"area-13305001007","name":"大字平井三吉野一"},"geometry":{"type":"Polygon","coordinates":[[[139.26838,35.74167],[139.26821,35.7405],[139.27033,35.74012],[139.27046,35.73698],[139.27096,35.73481],[139.27103,35.73417],[139.27109,35.73315],[139.27046,35.73302],[139.26901,35.73283],[139.26785,35.73262],[139.26672,35.73248],[139.26672,35.73259],[139.26611,35.73385],[139.26547,35.73438],[139.26538,35.73456],[139.26512,35.73658],[139.26498,35.7371],[139.26493,35.73714],[139.26552,35.73719],[139.26547,35.73792],[139.26516,35.73875],[139.26483,35.7393],[139.26484,35.7396],[139.26463,35.74018],[139.26456,35.74029],[139.26451,35.74055],[139.26446,35.74063],[139.26442,35.7406],[139.2644,35.7408],[139.2642,35.74085],[139.2646,35.74106],[139.26499,35.74132],[139.26515,35.74156],[139.26515,35.74172],[139.26509,35.74183],[139.26509,35.74198],[139.26522,35.74203],[139.26591,35.74218],[139.26701,35.7423],[139.26813,35.74237],[139.26819,35.74181],[139.26838,35.74167]]]}},{"type":"Feature","properties":{"id":"area-13305001008","name":"大字平井三吉野二"},"geometry":{"type":"Polygon","coordinates":[[[139.27337,35.73796],[139.27389,35.73753],[139.27494,35.73768],[139.27678,35.73776],[139.27727,35.73784],[139.27772,35.73785],[139.27781,35.7371],[139.27806,35.73578],[139.27821,35.73522],[139.27829,35.73436],[139.27836,35.73413],[139.27847,35.73389],[139.27819,35.73381],[139.27768,35.73373],[139.27734,35.73356],[139.27689,35.7334],[139.27522,35.73335],[139.27486,35.73328],[139.27274,35.73325],[139.27109,35.73315],[139.27103,35.73417],[139.27096,35.73481],[139.27046,35.73698],[139.27033,35.74012],[139.26821,35.7405],[139.26838,35.74167],[139.26819,35.74181],[139.26813,35.74237],[139.2701,35.74246],[139.27007,35.74214],[139.27017,35.74187],[139.27013,35.74174],[139.27016,35.74172],[139.27013,35.74165],[139.27039,35.74155],[139.27067,35.74141],[139.27086,35.74137],[139.27173,35.74134],[139.27173,35.74105],[139.2714,35.73991],[139.27215,35.73975],[139.27215,35.73935],[139.27305,35.73829],[139.27337,35.73796]]]}},{"type":"Feature","properties":{"id":"area-13305001009","name":"大字平井三吉野三"},"geometry":{"type":"Polygon","coordinates":[[[139.27713,35.74209],[139.27795,35.74215],[139.27798,35.74219],[139.27817,35.74213],[139.27837,35.74201],[139.2787,35.74172],[139.27904,35.74225],[139.27972,35.7419],[139.27852,35.74137],[139.27875,35.74074],[139.27899,35.74052],[139.27887,35.74043],[139.27861,35.74058],[139.27852,35.74057],[139.27851,35.74033],[139.27828,35.74009],[139.27816,35.73977],[139.27811,35.73947],[139.27847,35.73946],[139.27855,35.73881],[139.27867,35.73863],[139.27872,35.73777],[139.27789,35.73785],[139.27727,35.73784],[139.27678,35.73776],[139.27494,35.73768],[139.27389,35.73753],[139.27337,35.73796],[139.27305,35.73829],[139.27215,35.73935],[139.27215,35.73975],[139.2714,35.73991],[139.27172,35.74102],[139.27206,35.7411],[139.27234,35.74122],[139.27397,35.74201],[139.27463,35.74258],[139.27511,35.74288],[139.27578,35.74275],[139.27605,35.74261],[139.27651,35.74224],[139.27682,35.74211],[139.27713,35.74209]]]}},{"type":"Feature","properties":{"id":"area-13305001010","name":"大字平井三吉野四"},"geometry":{"type":"Polygon","coordinates":[[[139.28164,35.7409],[139.28321,35.74032],[139.28354,35.74026],[139.28386,35.74029],[139.28458,35.74053],[139.2846,35.7404],[139.28462,35.74017],[139.28456,35.73988],[139.2845,35.73977],[139.28452,35.73913],[139.28441,35.73874],[139.28419,35.7382],[139.28417,35.73782],[139.28386,35.73786],[139.28347,35.73784],[139.2837,35.73638],[139.28377,35.73607],[139.28387,35.73577],[139.28394,35.73515],[139.28431,35.73327],[139.28436,35.73277],[139.28433,35.73222],[139.28414,35.7319],[139.28382,35.73146],[139.28211,35.732],[139.28178,35.73214],[139.28151,35.73221],[139.28029,35.73274],[139.28034,35.73277],[139.27931,35.73315],[139.27819,35.73381],[139.27847,35.73389],[139.27836,35.73413],[139.27829,35.73436],[139.27821,35.73522],[139.27806,35.73578],[139.27781,35.7371],[139.27772,35.73785],[139.27872,35.73777],[139.27867,35.73863],[139.27855,35.73881],[139.27847,35.73946],[139.27811,35.73947],[139.27816,35.73977],[139.27828,35.74009],[139.27851,35.74033],[139.27852,35.74057],[139.27861,35.74058],[139.27887,35.74043],[139.27899,35.74052],[139.27875,35.74074],[139.27852,35.74137],[139.27972,35.7419],[139.28002,35.74169],[139.28093,35.74124],[139.28164,35.7409]]]}},{"type":"Feature","properties":{"id":"area-13305001011","name":"大字平井中野三"},"geometry":{"type":"Polygon","coordinates":[[[139.25148,35.7377],[139.25141,35.73728],[139.25253,35.73714],[139.25269,35.73796],[139.25273,35.73803],[139.25334,35.73827],[139.2537,35.73822],[139.25375,35.73818],[139.25417,35.73814],[139.25404,35.73743],[139.25458,35.73762],[139.25461,35.73768],[139.25502,35.7378],[139.25505,35.73767],[139.25504,35.7376],[139.25477,35.73754],[139.25464,35.73732],[139.25472,35.73726],[139.25472,35.73719],[139.25481,35.73708],[139.25482,35.737],[139.25468,35.73687],[139.25397,35.73698],[139.25359,35.73675],[139.25282,35.73671],[139.25263,35.73655],[139.2525,35.7363],[139.2514,35.73579],[139.2511,35.73619],[139.25094,35.73627],[139.25,35.73644],[139.25023,35.7374],[139.25042,35.7374],[139.25055,35.73805],[139.25088,35.73826],[139.25111,35.73796],[139.25128,35.73782],[139.25148,35.7377]]]}},{"type":"Feature","properties":{"id":"area-13305001012","name":"大字平井中野二"},"geometry":{"type":"Polygon","coordinates":[[[139.25055,35.73805],[139.25042,35.7374],[139.25023,35.7374],[139.25,35.73644],[139.2498,35.73645],[139.24924,35.73659],[139.24943,35.73752],[139.24836,35.73763],[139.24838,35.73791],[139.24681,35.74002],[139.24689,35.74006],[139.24733,35.74009],[139.2475,35.74015],[139.24814,35.74056],[139.24824,35.74056],[139.2485,35.74048],[139.24913,35.74035],[139.24958,35.74033],[139.24937,35.73937],[139.24967,35.73904],[139.25027,35.73882],[139.25045,35.73861],[139.25088,35.73838],[139.25088,35.73826],[139.25055,35.73805]]]}},{"type":"Feature","properties":{"id":"area-13305001013","name":"大字平井中野一"},"geometry":{"type":"Polygon","coordinates":[[[139.24681,35.74002],[139.24838,35.73791],[139.24836,35.73763],[139.24943,35.73752],[139.24924,35.73659],[139.2486,35.73669],[139.24808,35.73672],[139.24722,35.73688],[139.24666,35.73678],[139.24581,35.73673],[139.2455,35.73672],[139.24529,35.73676],[139.24519,35.73683],[139.24495,35.73721],[139.24483,35.73727],[139.24464,35.73749],[139.24422,35.7381],[139.24378,35.73864],[139.2435,35.73877],[139.24423,35.7388],[139.24483,35.73874],[139.24501,35.73876],[139.24534,35.73896],[139.24586,35.7394],[139.24626,35.73987],[139.24655,35.73991],[139.24681,35.74002]]]}},{"type":"Feature","properties":{"id":"area-13305001014","name":"大字平井三吉野五"},"geometry":{"type":"Polygon","coordinates":[[[139.27806,35.74292],[139.27909,35.74235],[139.2791,35.74237],[139.2787,35.74172],[139.27837,35.74201],[139.27817,35.74213],[139.27798,35.74219],[139.27795,35.74215],[139.27758,35.74214],[139.27719,35.74209],[139.27682,35.74211],[139.27651,35.74224],[139.27605,35.74261],[139.27578,35.74275],[139.27511,35.74288],[139.2749,35.74277],[139.27475,35.74288],[139.2751,35.74314],[139.27574,35.74352],[139.27713,35.7432],[139.27767,35.74306],[139.27806,35.74292]]]}},{"type":"Feature","properties":{"id":"area-13305001015","name":"大字平井三吉野六"},"geometry":{"type":"Polygon","coordinates":[[[139.2749,35.74277],[139.27463,35.74258],[139.27397,35.74201],[139.27234,35.74122],[139.27206,35.7411],[139.27172,35.74102],[139.27173,35.74134],[139.27086,35.74137],[139.27067,35.74141],[139.27039,35.74155],[139.27013,35.74165],[139.27016,35.74172],[139.27013,35.74174],[139.27017,35.74187],[139.27007,35.74214],[139.2701,35.74246],[139.27269,35.7426],[139.27428,35.74272],[139.2743,35.74269],[139.27462,35.74278],[139.27475,35.74288],[139.2749,35.74277]]]}},{"type":"Feature","properties":{"id":"area-13305001016","name":"大字平井肝要・松尾・三ツ沢"},"geometry":{"type":"Polygon","coordinates":[[[139.2729,35.7538],[139.27314,35.75395],[139.27331,35.75397],[139.27373,35.75395],[139.27445,35.7539],[139.27527,35.75375],[139.27548,35.75366],[139.27598,35.75333],[139.27638,35.75293],[139.27674,35.75285],[139.27728,35.75264],[139.27743,35.75226],[139.27742,35.75172],[139.27757,35.75136],[139.27791,35.75108],[139.27815,35.75059],[139.27836,35.74997],[139.27864,35.74977],[139.27898,35.74963],[139.27914,35.74952],[139.27982,35.74894],[139.28009,35.74825],[139.28053,35.74752],[139.28061,35.7471],[139.28071,35.74581],[139.27709,35.74588],[139.27711,35.74601],[139.27703,35.74605],[139.27697,35.74617],[139.2765,35.74589],[139.27487,35.74598],[139.27298,35.74586],[139.26939,35.74586],[139.26928,35.74594],[139.26908,35.74588],[139.26906,35.74611],[139.26938,35.74649],[139.26793,35.74654],[139.26684,35.75035],[139.26641,35.75026],[139.26631,35.75052],[139.26457,35.75016],[139.26077,35.74924],[139.26034,35.75168],[139.25657,35.75166],[139.25578,35.74935],[139.25566,35.74992],[139.25582,35.75019],[139.25554,35.75034],[139.25542,35.75085],[139.25475,35.75149],[139.254,35.75171],[139.25386,35.75207],[139.25402,35.75235],[139.25395,35.75249],[139.25353,35.75266],[139.25304,35.75335],[139.25327,35.75379],[139.25329,35.75403],[139.2534,35.75447],[139.25391,35.75489],[139.25386,35.75517],[139.25347,35.7554],[139.25346,35.75557],[139.25358,35.75568],[139.25386,35.75568],[139.25374,35.75608],[139.25339,35.7564],[139.25351,35.75686],[139.25346,35.75762],[139.25354,35.7581],[139.25407,35.75873],[139.25453,35.75894],[139.25485,35.75955],[139.25557,35.76012],[139.25609,35.76035],[139.25601,35.76024],[139.256,35.76018],[139.25583,35.76002],[139.25587,35.75955],[139.25627,35.7592],[139.25782,35.75831],[139.2594,35.75736],[139.26036,35.75664],[139.26118,35.75619],[139.26155,35.7559],[139.26178,35.75559],[139.26243,35.75557],[139.263,35.75546],[139.26332,35.75548],[139.26405,35.75537],[139.26468,35.75552],[139.26532,35.75531],[139.26585,35.75519],[139.26618,35.75517],[139.26648,35.75511],[139.26685,35.75499],[139.26726,35.755],[139.26771,35.75492],[139.26835,35.75457],[139.26884,35.75402],[139.26922,35.75347],[139.27142,35.75349],[139.27233,35.75356],[139.2729,35.7538]]]}},{"type":"Feature","properties":{"id":"area-13305002001","name":"大字大久野落合"},"geometry":{"type":"Polygon","coordinates":[[[139.2493,35.74478],[139.24945,35.74467],[139.24959,35.74478],[139.24992,35.74449],[139.25059,35.74444],[139.25099,35.74431],[139.25132,35.74446],[139.25196,35.74462],[139.25241,35.74444],[139.25281,35.74407],[139.25313,35.74371],[139.25348,35.74349],[139.25375,35.74345],[139.25397,35.74349],[139.25405,35.74318],[139.25401,35.74297],[139.25384,35.74267],[139.25363,35.74243],[139.25382,35.74239],[139.25371,35.74217],[139.25326,35.74205],[139.25319,35.74222],[139.2527,35.74213],[139.25249,35.74194],[139.2524,35.7418],[139.25241,35.74173],[139.25201,35.74105],[139.25197,35.74093],[139.252,35.74058],[139.25194,35.74019],[139.25198,35.7399],[139.25177,35.73988],[139.25128,35.73969],[139.25113,35.7397],[139.25046,35.73985],[139.24998,35.74024],[139.24987,35.74029],[139.24958,35.74033],[139.24913,35.74035],[139.2485,35.74048],[139.24824,35.74056],[139.24814,35.74056],[139.2475,35.74015],[139.24733,35.74009],[139.24689,35.74006],[139.24668,35.73995],[139.24626,35.73987],[139.24586,35.7394],[139.24534,35.73896],[139.24501,35.73876],[139.24483,35.73874],[139.24423,35.7388],[139.2435,35.73877],[139.24319,35.73903],[139.2426,35.739],[139.24234,35.73904],[139.24211,35.73929],[139.24167,35.73929],[139.24155,35.7397],[139.24144,35.74043],[139.24156,35.7408],[139.24174,35.74111],[139.24151,35.74129],[139.24139,35.7415],[139.24127,35.74177],[139.24104,35.74257],[139.24173,35.74277],[139.24207,35.74294],[139.24253,35.74311],[139.24268,35.74319],[139.243,35.74356],[139.24317,35.74366],[139.2435,35.74373],[139.24368,35.74381],[139.24389,35.74377],[139.24396,35.74381],[139.24417,35.74407],[139.24496,35.74451],[139.24574,35.74474],[139.24627,35.74481],[139.24624,35.74492],[139.24611,35.74496],[139.24601,35.74509],[139.24603,35.74518],[139.2459,35.74528],[139.24593,35.74547],[139.24582,35.74548],[139.2458,35.74596],[139.24632,35.74664],[139.24634,35.74671],[139.24627,35.74707],[139.24654,35.74742],[139.24696,35.74832],[139.24715,35.74854],[139.24741,35.74836],[139.24796,35.74809],[139.24797,35.74788],[139.24791,35.74761],[139.24791,35.74741],[139.24806,35.74673],[139.24829,35.74636],[139.24868,35.74556],[139.24896,35.74519],[139.24926,35.74497],[139.2493,35.74478]]]}},{"type":"Feature","properties":{"id":"area-13305002002","name":"大字大久野萱窪"},"geometry":{"type":"Polygon","coordinates":[[[139.23741,35.74783],[139.23809,35.74788],[139.23892,35.74774],[139.24041,35.74706],[139.24043,35.747],[139.24054,35.74696],[139.24077,35.74693],[139.24069,35.74675],[139.24057,35.74662],[139.24034,35.74645],[139.23958,35.74599],[139.23962,35.7457],[139.24017,35.7458],[139.24063,35.74582],[139.24069,35.74514],[139.24125,35.74515],[139.24116,35.74531],[139.24112,35.74583],[139.24285,35.74563],[139.24304,35.74558],[139.24349,35.74531],[139.2437,35.74536],[139.24369,35.74548],[139.24373,35.74546],[139.24393,35.74547],[139.24393,35.74541],[139.24406,35.74549],[139.24417,35.74549],[139.24456,35.74524],[139.24492,35.74516],[139.24519,35.74514],[139.24571,35.74519],[139.24602,35.74514],[139.24601,35.74509],[139.24611,35.74496],[139.24624,35.74492],[139.24627,35.74481],[139.24574,35.74474],[139.24496,35.74451],[139.24417,35.74407],[139.24396,35.74381],[139.24389,35.74377],[139.24368,35.74381],[139.2435,35.74373],[139.24317,35.74366],[139.243,35.74356],[139.24268,35.74319],[139.24253,35.74311],[139.24207,35.74294],[139.24173,35.74277],[139.24113,35.74261],[139.24094,35.74264],[139.24075,35.7426],[139.24056,35.74266],[139.24046,35.74274],[139.24022,35.74285],[139.24011,35.74294],[139.23988,35.74302],[139.2399,35.74306],[139.23949,35.74315],[139.23909,35.74331],[139.23864,35.74372],[139.238,35.7442],[139.23762,35.74446],[139.23739,35.74456],[139.2367,35.74467],[139.23605,35.74466],[139.23495,35.74429],[139.23461,35.74421],[139.2344,35.74423],[139.23414,35.7444],[139.23398,35.74464],[139.23485,35.7447],[139.23623,35.74488],[139.23622,35.74611],[139.23507,35.74611],[139.23503,35.74712],[139.23508,35.74722],[139.23521,35.74732],[139.23514,35.74777],[139.23614,35.74794],[139.23643,35.74764],[139.23672,35.74774],[139.23667,35.74788],[139.23658,35.74797],[139.23694,35.74811],[139.23708,35.74797],[139.23723,35.74788],[139.23741,35.74783]]]}},{"type":"Feature","properties":{"id":"area-13305002003","name":"大字大久野羽生"},"geometry":{"type":"Polygon","coordinates":[[[139.23762,35.74446],[139.23864,35.74372],[139.23909,35.74331],[139.23949,35.74315],[139.2399,35.74306],[139.23988,35.74302],[139.24011,35.74294],[139.24022,35.74285],[139.24046,35.74274],[139.24056,35.74266],[139.24075,35.7426],[139.24094,35.74264],[139.24113,35.74261],[139.24104,35.74257],[139.24127,35.74177],[139.24151,35.74129],[139.24174,35.74111],[139.24156,35.7408],[139.24144,35.74043],[139.24155,35.7397],[139.24167,35.73929],[139.2413,35.73912],[139.24065,35.73923],[139.24042,35.73923],[139.24022,35.73917],[139.24007,35.73917],[139.23998,35.73921],[139.2399,35.73933],[139.23975,35.73964],[139.23961,35.73977],[139.23947,35.73985],[139.23877,35.73939],[139.23847,35.73943],[139.2381,35.73958],[139.23786,35.73963],[139.23758,35.73964],[139.23729,35.73936],[139.23698,35.73941],[139.23666,35.73933],[139.23609,35.73931],[139.23584,35.73924],[139.23527,35.73933],[139.23514,35.73925],[139.23498,35.73899],[139.23474,35.73876],[139.23466,35.73873],[139.23402,35.73887],[139.23339,35.73892],[139.23276,35.73895],[139.23228,35.73893],[139.2319,35.73897],[139.23184,35.73872],[139.23187,35.73847],[139.2316,35.73821],[139.23074,35.73842],[139.23044,35.73838],[139.23031,35.73866],[139.2298,35.73895],[139.22919,35.73903],[139.22938,35.73938],[139.22943,35.73959],[139.22957,35.73959],[139.22956,35.73982],[139.22935,35.7407],[139.22909,35.74131],[139.22908,35.7414],[139.22911,35.74156],[139.22941,35.74199],[139.23026,35.74296],[139.23082,35.74335],[139.23221,35.74409],[139.23308,35.74444],[139.23367,35.74461],[139.23398,35.74464],[139.23414,35.7444],[139.23428,35.7443],[139.2344,35.74423],[139.23461,35.74421],[139.23495,35.74429],[139.23585,35.74461],[139.23628,35.74468],[139.23704,35.74464],[139.23739,35.74456],[139.23762,35.74446]]]}},{"type":"Feature","properties":{"id":"area-13305002004","name":"大字大久野幸神"},"geometry":{"type":"Polygon","coordinates":[[[139.22469,35.74683],[139.22481,35.74658],[139.22462,35.74661],[139.22466,35.74644],[139.22465,35.74621],[139.22493,35.7455],[139.22504,35.74535],[139.2251,35.74518],[139.22521,35.74504],[139.22548,35.74491],[139.22594,35.74486],[139.22609,35.74477],[139.22617,35.74457],[139.22741,35.74415],[139.22762,35.74417],[139.2277,35.7442],[139.22784,35.74439],[139.22809,35.74453],[139.22833,35.7446],[139.22856,35.74459],[139.22926,35.74424],[139.22956,35.74421],[139.22984,35.74425],[139.23001,35.74431],[139.23035,35.74473],[139.23045,35.7448],[139.2306,35.74518],[139.23076,35.74537],[139.23117,35.74573],[139.23132,35.74583],[139.23162,35.74592],[139.23242,35.74609],[139.23267,35.74608],[139.23291,35.74603],[139.2331,35.74594],[139.2333,35.74576],[139.23335,35.7456],[139.23356,35.74534],[139.23372,35.74481],[139.23383,35.74463],[139.23337,35.74454],[139.23271,35.74431],[139.23163,35.74381],[139.23082,35.74335],[139.23026,35.74296],[139.22941,35.74199],[139.22911,35.74156],[139.22908,35.7414],[139.2292,35.74102],[139.22935,35.7407],[139.22946,35.7403],[139.22956,35.73982],[139.22957,35.73959],[139.22943,35.73959],[139.22943,35.73956],[139.22904,35.73956],[139.22886,35.73992],[139.22867,35.74007],[139.22823,35.74008],[139.22789,35.74018],[139.22734,35.73985],[139.22674,35.74001],[139.22625,35.74003],[139.22571,35.74051],[139.22559,35.74069],[139.22554,35.74082],[139.22548,35.74089],[139.22397,35.74119],[139.22334,35.74157],[139.22307,35.74181],[139.22283,35.74196],[139.22261,35.74237],[139.22231,35.74262],[139.22206,35.74317],[139.22199,35.74322],[139.22157,35.74326],[139.22126,35.74323],[139.22101,35.74325],[139.22066,35.7431],[139.22056,35.74324],[139.22038,35.74341],[139.21961,35.74373],[139.21936,35.74401],[139.21915,35.74434],[139.22108,35.74545],[139.22403,35.74701],[139.22432,35.74701],[139.22455,35.74693],[139.22469,35.74683]]]}},{"type":"Feature","properties":{"id":"area-13305002005","name":"大字大久野新井"},"geometry":{"type":"Polygon","coordinates":[[[139.23256,35.75075],[139.23271,35.75044],[139.23328,35.74996],[139.23372,35.74951],[139.23451,35.74969],[139.23489,35.74984],[139.23547,35.74985],[139.23584,35.74963],[139.23658,35.7494],[139.23671,35.74926],[139.23675,35.74912],[139.23678,35.7487],[139.23691,35.74814],[139.23694,35.74811],[139.23658,35.74797],[139.23667,35.74788],[139.23672,35.74774],[139.23643,35.74764],[139.23614,35.74794],[139.23514,35.74777],[139.23521,35.74732],[139.23508,35.74722],[139.23503,35.74712],[139.23507,35.74611],[139.23622,35.74611],[139.23623,35.74488],[139.23485,35.7447],[139.23383,35.74463],[139.23372,35.74481],[139.23356,35.74534],[139.23335,35.7456],[139.2333,35.74576],[139.2331,35.74594],[139.23291,35.74603],[139.23267,35.74608],[139.23242,35.74609],[139.23162,35.74592],[139.23132,35.74583],[139.23117,35.74573],[139.23076,35.74537],[139.2306,35.74518],[139.23045,35.7448],[139.23035,35.74473],[139.2301,35.74439],[139.23001,35.74431],[139.22984,35.74425],[139.22956,35.74421],[139.22926,35.74424],[139.22856,35.74459],[139.22833,35.7446],[139.22809,35.74453],[139.22784,35.74439],[139.2277,35.7442],[139.22762,35.74417],[139.22741,35.74415],[139.22617,35.74457],[139.22609,35.74477],[139.22594,35.74486],[139.22548,35.74491],[139.22521,35.74504],[139.2251,35.74518],[139.22504,35.74535],[139.22493,35.7455],[139.22465,35.74621],[139.22466,35.74644],[139.22462,35.74661],[139.22481,35.74658],[139.2249,35.74683],[139.22516,35.74698],[139.22565,35.74714],[139.22576,35.74713],[139.22588,35.7469],[139.22689,35.7471],[139.22758,35.74885],[139.22726,35.74981],[139.22794,35.75008],[139.22852,35.75007],[139.22875,35.75017],[139.22903,35.75041],[139.22925,35.75049],[139.22946,35.7505],[139.23001,35.75044],[139.23212,35.75183],[139.23233,35.75187],[139.23256,35.75158],[139.23265,35.75113],[139.23255,35.75094],[139.23256,35.75075]]]}},{"type":"Feature","properties":{"id":"area-13305002006","name":"大字大久野岩井"},"geometry":{"type":"Polygon","coordinates":[[[139.22488,35.75698],[139.22572,35.7563],[139.22953,35.75301],[139.23001,35.75044],[139.22946,35.7505],[139.22925,35.75049],[139.22903,35.75041],[139.22875,35.75017],[139.22852,35.75007],[139.22794,35.75008],[139.22726,35.74981],[139.22758,35.74885],[139.22689,35.7471],[139.22588,35.7469],[139.22576,35.74713],[139.22565,35.74714],[139.22516,35.74698],[139.2249,35.74683],[139.22481,35.74661],[139.22469,35.74683],[139.22455,35.74693],[139.22432,35.74701],[139.22403,35.74701],[139.22335,35.75188],[139.22047,35.75468],[139.22066,35.75558],[139.22148,35.75585],[139.22171,35.75546],[139.22179,35.7554],[139.22201,35.75533],[139.22276,35.75519],[139.22329,35.75522],[139.22353,35.75515],[139.22358,35.7551],[139.22377,35.75535],[139.2238,35.75582],[139.22379,35.7559],[139.22368,35.7561],[139.22367,35.75625],[139.2239,35.75665],[139.22392,35.75676],[139.22413,35.75687],[139.2244,35.75695],[139.22463,35.75698],[139.22488,35.75698]]]}},{"type":"Feature","properties":{"id":"area-13305002007","name":"大字大久野細尾"},"geometry":{"type":"Polygon","coordinates":[[[139.21179,35.76676],[139.21803,35.76216],[139.22042,35.76033],[139.22491,35.757],[139.2244,35.75695],[139.22413,35.75687],[139.22392,35.75676],[139.2239,35.75665],[139.22367,35.75625],[139.22368,35.7561],[139.22379,35.7559],[139.2238,35.75582],[139.22377,35.75535],[139.22358,35.7551],[139.22353,35.75515],[139.22329,35.75522],[139.22276,35.75519],[139.22201,35.75533],[139.22179,35.7554],[139.22171,35.75546],[139.22148,35.75585],[139.22066,35.75558],[139.22047,35.75468],[139.22057,35.75457],[139.21523,35.75638],[139.21509,35.75652],[139.21479,35.75663],[139.2095,35.76203],[139.20829,35.76323],[139.20875,35.76336],[139.20894,35.76347],[139.20902,35.76358],[139.20916,35.76355],[139.20933,35.76358],[139.20951,35.76368],[139.20966,35.76385],[139.2099,35.764],[139.21019,35.76428],[139.21049,35.76444],[139.21084,35.76447],[139.21097,35.76467],[139.21111,35.7651],[139.21125,35.76533],[139.21148,35.76547],[139.2117,35.76585],[139.21179,35.76676]]]}},{"type":"Feature","properties":{"id":"area-13305002008","name":"大字大久野肝要・松尾・三ツ沢"},"geometry":{"type":"Polygon","coordinates":[[[139.19278,35.78896],[139.19316,35.7885],[139.19321,35.78803],[139.19412,35.78749],[139.19418,35.7873],[139.19452,35.7873],[139.1952,35.78687],[139.19568,35.78676],[139.19593,35.78661],[139.19614,35.78639],[139.19631,35.78647],[139.19641,35.78658],[139.19665,35.78655],[139.19733,35.78671],[139.19752,35.78652],[139.19764,35.78634],[139.19813,35.78633],[139.19851,35.78621],[139.19859,35.78598],[139.1986,35.78572],[139.1985,35.78524],[139.19859,35.78498],[139.19891,35.78448],[139.19923,35.78433],[139.19958,35.78432],[139.19987,35.78425],[139.2005,35.784],[139.20076,35.7835],[139.2008,35.78332],[139.20122,35.78328],[139.20144,35.78318],[139.20156,35.78276],[139.20173,35.78265],[139.20212,35.78255],[139.20228,35.78237],[139.20251,35.7818],[139.20271,35.78168],[139.20299,35.78162],[139.20311,35.78148],[139.20337,35.78071],[139.20342,35.78038],[139.20432,35.78007],[139.20472,35.77984],[139.20502,35.77961],[139.20501,35.7793],[139.20495,35.77906],[139.20573,35.77839],[139.20591,35.77833],[139.20622,35.77839],[139.20638,35.77849],[139.20667,35.77831],[139.20695,35.77787],[139.20706,35.77757],[139.20744,35.77716],[139.20792,35.77685],[139.20825,35.77638],[139.20871,35.77641],[139.20893,35.77638],[139.20932,35.77597],[139.20932,35.77565],[139.20918,35.77494],[139.20968,35.77425],[139.2098,35.77416],[139.21006,35.77414],[139.2102,35.77405],[139.21035,35.77351],[139.21055,35.77324],[139.2115,35.77363],[139.21188,35.77364],[139.21223,35.77373],[139.2132,35.77408],[139.21354,35.77406],[139.21394,35.774],[139.21433,35.77412],[139.21448,35.77408],[139.21496,35.77346],[139.2153,35.7732],[139.21567,35.77315],[139.21598,35.77316],[139.21624,35.77311],[139.21664,35.77281],[139.21702,35.77279],[139.21763,35.77302],[139.21809,35.77298],[139.21837,35.77319],[139.21984,35.77347],[139.21995,35.77343],[139.22073,35.77408],[139.22096,35.7741],[139.22103,35.77403],[139.22101,35.77376],[139.22118,35.77347],[139.22145,35.77329],[139.22156,35.77301],[139.22207,35.77287],[139.22235,35.77264],[139.22287,35.77231],[139.22314,35.77235],[139.22392,35.77279],[139.22418,35.77285],[139.22431,35.7728],[139.22445,35.77244],[139.22493,35.77234],[139.22545,35.77215],[139.22563,35.77191],[139.2265,35.77183],[139.22718,35.77194],[139.22732,35.77201],[139.22744,35.77189],[139.22733,35.77166],[139.22745,35.77155],[139.22787,35.77126],[139.22826,35.77073],[139.22846,35.77063],[139.22911,35.77059],[139.2293,35.77054],[139.22945,35.77043],[139.22996,35.76995],[139.23063,35.76998],[139.23102,35.76971],[139.23146,35.76907],[139.2323,35.76864],[139.23261,35.76882],[139.2328,35.7688],[139.23337,35.76856],[139.23372,35.76858],[139.23392,35.76874],[139.23445,35.76904],[139.23479,35.76909],[139.23494,35.76921],[139.23531,35.76932],[139.23543,35.76929],[139.236,35.76912],[139.23623,35.76897],[139.23652,35.76884],[139.23665,35.76884],[139.237,35.76873],[139.23736,35.76845],[139.23745,35.76846],[139.23787,35.76837],[139.23813,35.76835],[139.23831,35.76819],[139.2381,35.76725],[139.2381,35.76707],[139.23825,35.76685],[139.23854,35.76703],[139.23876,35.76707],[139.23919,35.76693],[139.24009,35.76705],[139.2403,35.76714],[139.24049,35.76712],[139.24072,35.767],[139.24118,35.76686],[139.24159,35.76685],[139.24171,35.76688],[139.24212,35.76683],[139.24251,35.76668],[139.2427,35.76669],[139.24287,35.76678],[139.24309,35.76682],[139.24353,35.76682],[139.24396,35.76688],[139.24429,35.76707],[139.2447,35.76725],[139.2454,35.76739],[139.24575,35.7674],[139.24599,35.76724],[139.24616,35.76722],[139.24636,35.76713],[139.24691,35.7668],[139.24696,35.76668],[139.24742,35.76674],[139.24834,35.76673],[139.24853,35.76653],[139.24873,35.76646],[139.2488,35.76648],[139.24906,35.76646],[139.24926,35.76655],[139.24948,35.76655],[139.24969,35.76648],[139.24992,35.76622],[139.25029,35.7662],[139.25055,35.76609],[139.25113,35.76529],[139.251,35.76507],[139.25105,35.76495],[139.2512,35.76479],[139.25187,35.76448],[139.25203,35.76452],[139.25222,35.7645],[139.25237,35.76418],[139.25251,35.764],[139.25281,35.764],[139.25354,35.76412],[139.25385,35.76409],[139.25397,35.76403],[139.2541,35.76362],[139.25419,35.76347],[139.25446,35.76333],[139.25468,35.76311],[139.25497,35.76248],[139.25507,35.76197],[139.25521,35.76176],[139.25538,35.76173],[139.25578,35.76185],[139.25601,35.76183],[139.25626,35.76168],[139.25643,35.76148],[139.25667,35.76097],[139.25661,35.7607],[139.25609,35.76035],[139.25557,35.76012],[139.25485,35.75955],[139.25453,35.75894],[139.25407,35.75873],[139.25354,35.7581],[139.25346,35.75762],[139.25351,35.75686],[139.25339,35.7564],[139.25374,35.75608],[139.25386,35.75568],[139.25358,35.75568],[139.25346,35.75557],[139.25347,35.7554],[139.25386,35.75517],[139.25391,35.75489],[139.2534,35.75447],[139.25329,35.75403],[139.25327,35.75379],[139.25304,35.75335],[139.25353,35.75266],[139.25395,35.75249],[139.25402,35.75235],[139.25386,35.75207],[139.254,35.75171],[139.25475,35.75149],[139.25542,35.75085],[139.25554,35.75034],[139.25582,35.75019],[139.25566,35.74992],[139.25578,35.74935],[139.2552,35.74764],[139.25502,35.74774],[139.25455,35.74782],[139.25432,35.74781],[139.25419,35.74771],[139.25406,35.74731],[139.25388,35.74707],[139.25335,35.7469],[139.25304,35.74671],[139.25127,35.75882],[139.25013,35.75908],[139.24508,35.76052],[139.23961,35.76088],[139.23828,35.76442],[139.23799,35.76526],[139.23498,35.7672],[139.23166,35.76534],[139.22537,35.77015],[139.22287,35.77216],[139.22279,35.77213],[139.22246,35.77238],[139.21934,35.77096],[139.21958,35.77022],[139.22181,35.76442],[139.22624,35.76064],[139.23486,35.75309],[139.23467,35.75296],[139.2344,35.75292],[139.23403,35.75294],[139.23378,35.75291],[139.23364,35.75278],[139.23294,35.75238],[139.23231,35.75233],[139.23211,35.75198],[139.23225,35.75186],[139.23212,35.75183],[139.23001,35.75044],[139.22953,35.75301],[139.22572,35.7563],[139.22488,35.75698],[139.22491,35.757],[139.22042,35.76033],[139.21803,35.76216],[139.21179,35.76676],[139.2117,35.76585],[139.21148,35.76547],[139.21125,35.76533],[139.21111,35.7651],[139.21097,35.76467],[139.21084,35.76447],[139.21049,35.76444],[139.21019,35.76428],[139.2099,35.764],[139.20966,35.76385],[139.20951,35.76368],[139.20933,35.76358],[139.20916,35.76355],[139.20902,35.76358],[139.20894,35.76347],[139.20875,35.76336],[139.20829,35.76323],[139.2095,35.76203],[139.21479,35.75663],[139.21509,35.75652],[139.21523,35.75638],[139.22057,35.75457],[139.22335,35.75188],[139.22403,35.74701],[139.22108,35.74545],[139.21915,35.74434],[139.21909,35.74444],[139.21853,35.74459],[139.21817,35.74465],[139.2179,35.74464],[139.21702,35.74477],[139.21682,35.74471],[139.21639,35.74442],[139.21623,35.7444],[139.21602,35.7444],[139.21593,35.74442],[139.21565,35.74458],[139.21547,35.74465],[139.21494,35.74461],[139.21477,35.74479],[139.21473,35.74519],[139.21464,35.74544],[139.21463,35.74567],[139.21483,35.74583],[139.21483,35.74606],[139.21477,35.7463],[139.21463,35.74656],[139.21419,35.74704],[139.21388,35.74729],[139.21363,35.74742],[139.21334,35.74752],[139.21312,35.7477],[139.21305,35.74785],[139.21286,35.74799],[139.21261,35.74803],[139.2124,35.74811],[139.21232,35.74821],[139.2123,35.74868],[139.21249,35.74936],[139.21266,35.74974],[139.21266,35.74997],[139.21261,35.75033],[139.21268,35.75061],[139.21241,35.75116],[139.21249,35.7514],[139.21271,35.75156],[139.21276,35.75166],[139.21272,35.7518],[139.21263,35.75197],[139.21245,35.75207],[139.21162,35.75225],[139.21139,35.75213],[139.21106,35.75186],[139.21094,35.7519],[139.21039,35.75188],[139.20963,35.752],[139.20924,35.75203],[139.20872,35.75215],[139.2078,35.75253],[139.20755,35.75266],[139.20742,35.75287],[139.20711,35.7531],[139.20663,35.75326],[139.20632,35.75352],[139.20593,35.75374],[139.20558,35.75377],[139.20517,35.75368],[139.2049,35.75378],[139.20483,35.75399],[139.2045,35.7547],[139.20444,35.75504],[139.20434,35.75538],[139.20419,35.7556],[139.20386,35.75579],[139.20307,35.75615],[139.2025,35.75662],[139.20212,35.75672],[139.20169,35.75675],[139.20155,35.75689],[139.20152,35.75716],[139.20142,35.75744],[139.19982,35.75807],[139.19955,35.75815],[139.19864,35.75809],[139.19845,35.75795],[139.19811,35.75818],[139.19785,35.7585],[139.19694,35.75901],[139.19666,35.75937],[139.19632,35.75956],[139.19586,35.75979],[139.19445,35.76037],[139.19429,35.76048],[139.19391,35.76058],[139.19348,35.76083],[139.19294,35.76095],[139.19154,35.76155],[139.19113,35.76169],[139.18924,35.76229],[139.18869,35.76221],[139.1885,35.7621],[139.18841,35.7619],[139.18809,35.76164],[139.18789,35.76142],[139.18787,35.76136],[139.18751,35.76166],[139.18689,35.76202],[139.18558,35.76247],[139.18407,35.76265],[139.18294,35.76244],[139.18191,35.76261],[139.18131,35.76311],[139.18077,35.76388],[139.18066,35.76443],[139.18113,35.76571],[139.18118,35.76654],[139.18136,35.76753],[139.18119,35.76842],[139.18056,35.76877],[139.18005,35.76943],[139.17942,35.77001],[139.17833,35.77056],[139.17785,35.7705],[139.17628,35.77115],[139.1746,35.77204],[139.17162,35.77341],[139.16758,35.77574],[139.16729,35.77524],[139.16693,35.77488],[139.16641,35.77531],[139.16567,35.77609],[139.16487,35.77671],[139.16406,35.77744],[139.16322,35.77852],[139.16404,35.77892],[139.16482,35.77917],[139.1654,35.77955],[139.16567,35.78001],[139.16612,35.78055],[139.16647,35.78087],[139.1669,35.78106],[139.16757,35.78113],[139.1688,35.78134],[139.17102,35.78183],[139.17207,35.78226],[139.17244,35.78253],[139.17459,35.78432],[139.17562,35.78502],[139.17582,35.78499],[139.17972,35.78633],[139.18006,35.78676],[139.18063,35.7871],[139.18193,35.78759],[139.18236,35.78738],[139.18281,35.78733],[139.18319,35.78746],[139.18352,35.78744],[139.18419,35.78777],[139.18459,35.7878],[139.18505,35.78771],[139.18577,35.78776],[139.18641,35.78793],[139.18788,35.78863],[139.18841,35.78873],[139.18931,35.78911],[139.18956,35.78907],[139.19048,35.78877],[139.19127,35.78866],[139.19172,35.78872],[139.19192,35.78899],[139.19232,35.78917],[139.19278,35.78896]]]}},{"type":"Feature","properties":{"id":"area-13305002009","name":"大字大久野長井"},"geometry":{"type":"Polygon","coordinates":[[[139.22246,35.77238],[139.22279,35.77213],[139.22287,35.77216],[139.22537,35.77015],[139.23166,35.76534],[139.23167,35.76503],[139.23185,35.76478],[139.23216,35.76451],[139.23237,35.7642],[139.23293,35.76378],[139.23305,35.7636],[139.23307,35.76344],[139.23262,35.76233],[139.23271,35.76208],[139.23288,35.76185],[139.23298,35.76166],[139.23289,35.76139],[139.23311,35.761],[139.23313,35.7608],[139.23309,35.76065],[139.23298,35.76051],[139.233,35.76026],[139.2333,35.75997],[139.23329,35.75989],[139.23307,35.75973],[139.23276,35.7596],[139.2324,35.7594],[139.23134,35.75911],[139.23072,35.75899],[139.23006,35.75894],[139.22929,35.75895],[139.22869,35.75908],[139.22827,35.75924],[139.22803,35.75952],[139.22795,35.75957],[139.22778,35.75961],[139.22707,35.76015],[139.22649,35.76072],[139.22624,35.76064],[139.22181,35.76442],[139.21958,35.77022],[139.21934,35.77096],[139.22246,35.77238]]]}},{"type":"Feature","properties":{"id":"area-13305002010","name":"大字大久野水口"},"geometry":{"type":"Polygon","coordinates":[[[139.23899,35.75902],[139.2387,35.75882],[139.23845,35.75859],[139.23836,35.75835],[139.23788,35.75769],[139.23861,35.75742],[139.23873,35.75725],[139.23911,35.75704],[139.23916,35.75686],[139.23905,35.75648],[139.23908,35.75608],[139.23935,35.75583],[139.23939,35.75539],[139.23947,35.7553],[139.23943,35.75519],[139.23943,35.7547],[139.23956,35.75447],[139.23962,35.75422],[139.23933,35.75318],[139.23902,35.75282],[139.23897,35.75293],[139.23891,35.75328],[139.23871,35.75338],[139.23852,35.75352],[139.23813,35.75372],[139.23791,35.75379],[139.23749,35.75376],[139.23727,35.75383],[139.23716,35.75392],[139.23694,35.75385],[139.23598,35.75337],[139.23542,35.75336],[139.23526,35.75326],[139.23486,35.75309],[139.22624,35.76064],[139.22649,35.76072],[139.22707,35.76015],[139.22778,35.75961],[139.22795,35.75957],[139.22803,35.75952],[139.22827,35.75924],[139.22869,35.75908],[139.22929,35.75895],[139.23006,35.75894],[139.23072,35.75899],[139.23134,35.75911],[139.2324,35.7594],[139.23276,35.7596],[139.23307,35.75973],[139.23329,35.75989],[139.2333,35.75997],[139.233,35.76026],[139.23298,35.76051],[139.23309,35.76065],[139.23313,35.7608],[139.23311,35.761],[139.23289,35.76139],[139.23298,35.76166],[139.23288,35.76185],[139.23271,35.76208],[139.23262,35.76233],[139.23307,35.76344],[139.23305,35.7636],[139.23293,35.76378],[139.23237,35.7642],[139.23216,35.76451],[139.23185,35.76478],[139.23167,35.76503],[139.23166,35.76534],[139.23498,35.7672],[139.23799,35.76526],[139.23828,35.76442],[139.23961,35.76088],[139.23972,35.76018],[139.23917,35.75955],[139.23912,35.75944],[139.23909,35.75921],[139.23899,35.75902]]]}},{"type":"Feature","properties":{"id":"area-13305002011","name":"大字大久野坊平・北原・坂本"},"geometry":{"type":"Polygon","coordinates":[[[139.24452,35.75286],[139.24444,35.75272],[139.24467,35.75275],[139.24487,35.75265],[139.24496,35.75247],[139.24516,35.75227],[139.24534,35.75221],[139.24546,35.7521],[139.24552,35.75197],[139.24562,35.75121],[139.24559,35.75112],[139.24549,35.75103],[139.24548,35.75094],[139.24588,35.75039],[139.24665,35.74972],[139.2468,35.74945],[139.24698,35.74931],[139.247,35.74925],[139.24691,35.74872],[139.2477,35.74832],[139.2477,35.74823],[139.24741,35.74836],[139.24715,35.74854],[139.24696,35.74832],[139.24654,35.74742],[139.24627,35.74707],[139.24634,35.74671],[139.24632,35.74664],[139.2458,35.74596],[139.24582,35.74548],[139.24593,35.74547],[139.2459,35.74528],[139.24603,35.74518],[139.24602,35.74514],[139.24571,35.74519],[139.24519,35.74514],[139.24492,35.74516],[139.24456,35.74524],[139.24417,35.74549],[139.24406,35.74549],[139.24393,35.74541],[139.24393,35.74547],[139.24373,35.74546],[139.24369,35.74548],[139.2437,35.74536],[139.24349,35.74531],[139.24304,35.74558],[139.24285,35.74563],[139.24112,35.74583],[139.24116,35.74531],[139.24125,35.74515],[139.24069,35.74514],[139.24063,35.74582],[139.24017,35.7458],[139.23962,35.7457],[139.23958,35.74599],[139.24034,35.74645],[139.24057,35.74662],[139.24069,35.74675],[139.24077,35.74693],[139.24054,35.74696],[139.24043,35.747],[139.24041,35.74706],[139.23892,35.74774],[139.23809,35.74788],[139.23756,35.74783],[139.23723,35.74788],[139.23708,35.74797],[139.23691,35.74814],[139.23678,35.7487],[139.23675,35.74912],[139.23671,35.74926],[139.23658,35.7494],[139.23584,35.74963],[139.23554,35.74982],[139.23547,35.74985],[139.23489,35.74984],[139.23451,35.74969],[139.23372,35.74951],[139.23328,35.74996],[139.23271,35.75044],[139.23256,35.75075],[139.23255,35.75094],[139.23265,35.75113],[139.23256,35.75158],[139.23233,35.75187],[139.23225,35.75186],[139.23211,35.75198],[139.23231,35.75233],[139.23294,35.75238],[139.23364,35.75278],[139.23378,35.75291],[139.23403,35.75294],[139.2344,35.75292],[139.23467,35.75296],[139.23486,35.75309],[139.23526,35.75326],[139.23542,35.75336],[139.23598,35.75337],[139.23694,35.75385],[139.23716,35.75392],[139.23727,35.75383],[139.23749,35.75376],[139.23791,35.75379],[139.23813,35.75372],[139.23852,35.75352],[139.23871,35.75338],[139.23891,35.75328],[139.23897,35.75293],[139.23902,35.75282],[139.23933,35.75318],[139.23962,35.75422],[139.23956,35.75447],[139.23943,35.7547],[139.23943,35.75519],[139.23947,35.7553],[139.23939,35.75539],[139.23935,35.75583],[139.23908,35.75608],[139.23905,35.75623],[139.23905,35.75648],[139.23916,35.75686],[139.23911,35.75704],[139.23873,35.75725],[139.23861,35.75742],[139.23788,35.75769],[139.23836,35.75835],[139.23845,35.75859],[139.2387,35.75882],[139.23899,35.75902],[139.23909,35.75921],[139.23912,35.75944],[139.23917,35.75955],[139.23972,35.76018],[139.24002,35.75976],[139.24061,35.75938],[139.24121,35.75912],[139.24184,35.75892],[139.24203,35.75869],[139.24208,35.7585],[139.2423,35.75835],[139.24322,35.75798],[139.24332,35.75758],[139.24346,35.75738],[139.24378,35.75721],[139.244,35.75704],[139.24403,35.75685],[139.24411,35.75668],[139.24414,35.75646],[139.24392,35.75605],[139.24373,35.75584],[139.24361,35.7556],[139.24369,35.75482],[139.2437,35.7547],[139.24389,35.75457],[139.24404,35.75441],[139.24431,35.75378],[139.2445,35.75333],[139.24454,35.75307],[139.24452,35.75286]]]}},{"type":"Feature","properties":{"id":"area-13305002012","name":"大字大久野玉の内"},"geometry":{"type":"Polygon","coordinates":[[[139.25127,35.75882],[139.25304,35.74671],[139.25325,35.74633],[139.25331,35.74557],[139.25359,35.74526],[139.25368,35.7451],[139.25378,35.74515],[139.2538,35.74521],[139.25386,35.74524],[139.25397,35.74524],[139.25401,35.74522],[139.25404,35.74511],[139.25413,35.74503],[139.25449,35.74482],[139.25458,35.74486],[139.25465,35.74485],[139.25468,35.74481],[139.25466,35.74475],[139.25486,35.74467],[139.25482,35.7446],[139.25471,35.74464],[139.2546,35.74447],[139.25445,35.74453],[139.25418,35.74442],[139.25401,35.74424],[139.2539,35.74432],[139.25349,35.74446],[139.2532,35.74453],[139.25281,35.74407],[139.25241,35.74444],[139.25196,35.74462],[139.25132,35.74446],[139.25099,35.74431],[139.25059,35.74444],[139.24992,35.74449],[139.24959,35.74478],[139.24945,35.74467],[139.2493,35.74478],[139.24926,35.74497],[139.24896,35.74519],[139.24868,35.74556],[139.24829,35.74636],[139.24806,35.74673],[139.24791,35.74741],[139.24791,35.74761],[139.24797,35.74788],[139.24796,35.74809],[139.2477,35.74823],[139.2477,35.74832],[139.24691,35.74872],[139.247,35.74925],[139.24698,35.74931],[139.2468,35.74945],[139.24665,35.74972],[139.24588,35.75039],[139.24548,35.75094],[139.24549,35.75103],[139.24559,35.75112],[139.24562,35.75121],[139.24552,35.75197],[139.24546,35.7521],[139.24534,35.75221],[139.24516,35.75227],[139.24496,35.75247],[139.24487,35.75265],[139.24467,35.75275],[139.24444,35.75272],[139.24452,35.75286],[139.24454,35.75307],[139.2445,35.75333],[139.24404,35.75441],[139.24389,35.75457],[139.2437,35.7547],[139.24369,35.75482],[139.24361,35.7556],[139.24373,35.75584],[139.24392,35.75605],[139.24414,35.75646],[139.24411,35.75668],[139.24403,35.75685],[139.244,35.75704],[139.24378,35.75721],[139.24346,35.75738],[139.24332,35.75758],[139.24322,35.75798],[139.2423,35.75835],[139.24208,35.7585],[139.24203,35.75869],[139.24184,35.75892],[139.24121,35.75912],[139.24061,35.75938],[139.24002,35.75976],[139.23972,35.76018],[139.23961,35.76088],[139.24508,35.76052],[139.25013,35.75908],[139.25127,35.75882]]]}}]}