{"type":"FeatureCollection","features":[{"type":"Feature","properties":{"id":"area-133030010","name":"大字殿ケ谷"},"geometry":{"type":"Polygon","coordinates":[[[139.36842,35.77417],[139.36831,35.7738],[139.36813,35.77366],[139.3681,35.77327],[139.36801,35.77326],[139.36776,35.77276],[139.36816,35.77266],[139.36802,35.77246],[139.36799,35.77221],[139.3682,35.77149],[139.36832,35.7712],[139.3685,35.77095],[139.36837,35.77066],[139.36805,35.77078],[139.36783,35.7706],[139.36779,35.77054],[139.36821,35.77042],[139.36811,35.77005],[139.36791,35.76985],[139.36754,35.76922],[139.36694,35.76928],[139.36693,35.76909],[139.36754,35.76906],[139.36759,35.76875],[139.36709,35.76876],[139.3671,35.7686],[139.36726,35.76809],[139.36697,35.76797],[139.36651,35.76791],[139.36642,35.76765],[139.36562,35.76783],[139.36555,35.76777],[139.36564,35.76718],[139.36548,35.76655],[139.36555,35.76653],[139.36548,35.76637],[139.36536,35.76641],[139.36529,35.76615],[139.36505,35.76572],[139.36514,35.76569],[139.36461,35.76507],[139.36422,35.76455],[139.36478,35.76413],[139.36437,35.76383],[139.36418,35.76397],[139.36405,35.76382],[139.36359,35.76399],[139.36309,35.76297],[139.36306,35.76283],[139.36276,35.76261],[139.36231,35.76237],[139.36282,35.76211],[139.36229,35.76175],[139.36247,35.76159],[139.36289,35.76186],[139.36319,35.76158],[139.36336,35.76167],[139.36386,35.76089],[139.36345,35.76065],[139.36291,35.76111],[139.36251,35.76077],[139.36248,35.76077],[139.36216,35.76096],[139.36226,35.76107],[139.36211,35.76121],[139.36169,35.76141],[139.36145,35.76121],[139.36152,35.76112],[139.36124,35.76077],[139.36152,35.76068],[139.36176,35.76099],[139.36197,35.76085],[139.36182,35.76063],[139.36221,35.76051],[139.36286,35.76018],[139.36254,35.75966],[139.36215,35.75992],[139.36175,35.76027],[139.36171,35.76021],[139.36103,35.7606],[139.36119,35.76076],[139.36102,35.76083],[139.36013,35.75994],[139.35994,35.75964],[139.36024,35.75958],[139.36028,35.75927],[139.36025,35.75892],[139.36016,35.75855],[139.36002,35.75839],[139.35967,35.75819],[139.35915,35.75849],[139.35924,35.75859],[139.35915,35.75863],[139.35931,35.75882],[139.3591,35.75894],[139.35872,35.75856],[139.35887,35.75844],[139.35878,35.7583],[139.35881,35.75828],[139.35876,35.75812],[139.35891,35.75802],[139.35865,35.75767],[139.35874,35.75762],[139.35872,35.75758],[139.35894,35.75747],[139.35883,35.75734],[139.35914,35.75718],[139.35914,35.75716],[139.35882,35.75693],[139.35871,35.75693],[139.35862,35.75697],[139.35827,35.75629],[139.35875,35.7561],[139.35863,35.75587],[139.35842,35.75566],[139.35807,35.75579],[139.35808,35.75588],[139.35781,35.75601],[139.3574,35.75533],[139.35628,35.75579],[139.35622,35.7557],[139.35914,35.75455],[139.35904,35.75432],[139.35896,35.75423],[139.35885,35.75402],[139.3591,35.754],[139.35896,35.75314],[139.35749,35.75384],[139.35744,35.75373],[139.35808,35.75068],[139.35785,35.75064],[139.35795,35.75015],[139.35713,35.75003],[139.35624,35.75443],[139.35081,35.75369],[139.34991,35.75809],[139.35088,35.75836],[139.35135,35.75855],[139.35192,35.75916],[139.352,35.75912],[139.35244,35.7599],[139.35311,35.75963],[139.35331,35.75991],[139.35328,35.76005],[139.35368,35.76049],[139.35393,35.76034],[139.35414,35.76059],[139.35379,35.76078],[139.35396,35.76111],[139.35476,35.76094],[139.35486,35.76108],[139.35494,35.76138],[139.35503,35.76136],[139.35504,35.76139],[139.35532,35.76131],[139.35554,35.76172],[139.35603,35.76187],[139.35623,35.7621],[139.35585,35.76235],[139.35576,35.76229],[139.35551,35.76243],[139.35591,35.76287],[139.35606,35.76299],[139.35646,35.76272],[139.35691,35.7631],[139.35715,35.76292],[139.35738,35.76313],[139.35703,35.76337],[139.35673,35.76394],[139.35758,35.76352],[139.3583,35.76465],[139.35854,35.76495],[139.35874,35.76509],[139.35921,35.76533],[139.35908,35.76552],[139.35942,35.76616],[139.35945,35.76625],[139.35941,35.76626],[139.35949,35.76646],[139.35996,35.7664],[139.35993,35.76624],[139.36009,35.76622],[139.36013,35.76638],[139.36021,35.76637],[139.36031,35.76667],[139.36035,35.76683],[139.36028,35.76701],[139.36046,35.76716],[139.36084,35.76694],[139.36112,35.76724],[139.36081,35.76747],[139.36038,35.76759],[139.36034,35.76753],[139.36001,35.76768],[139.36003,35.76756],[139.35991,35.76725],[139.35954,35.76718],[139.35984,35.76801],[139.35973,35.76806],[139.36,35.76819],[139.35999,35.76836],[139.36009,35.76846],[139.36014,35.76843],[139.36024,35.76853],[139.36009,35.76864],[139.36037,35.76889],[139.36025,35.76895],[139.36026,35.76898],[139.36022,35.76901],[139.36031,35.76907],[139.36035,35.76932],[139.36043,35.76938],[139.36086,35.76909],[139.36109,35.76937],[139.36064,35.76961],[139.36068,35.7697],[139.36069,35.76985],[139.36112,35.76977],[139.36113,35.76983],[139.36127,35.7698],[139.36136,35.76997],[139.36101,35.77011],[139.36095,35.77003],[139.36095,35.76991],[139.36068,35.76993],[139.36069,35.77002],[139.36079,35.77021],[139.36087,35.77031],[139.36101,35.77027],[139.36125,35.77076],[139.36177,35.77066],[139.36184,35.77077],[139.3619,35.77093],[139.36156,35.771],[139.36124,35.77111],[139.36132,35.77129],[139.36175,35.7719],[139.36218,35.77226],[139.36238,35.77248],[139.36258,35.77285],[139.36297,35.77295],[139.36309,35.7729],[139.36329,35.773],[139.36343,35.77313],[139.36364,35.77385],[139.36361,35.774],[139.36352,35.77418],[139.36356,35.77442],[139.36378,35.77443],[139.3639,35.77352],[139.36396,35.77348],[139.36392,35.77319],[139.36413,35.77307],[139.36445,35.77339],[139.36486,35.77395],[139.365,35.77408],[139.36519,35.77417],[139.3655,35.77421],[139.36553,35.77429],[139.3651,35.77434],[139.36472,35.77444],[139.36492,35.77488],[139.36506,35.77497],[139.36592,35.77503],[139.36623,35.77498],[139.36635,35.77492],[139.36642,35.77485],[139.36624,35.77458],[139.36631,35.77446],[139.36634,35.77419],[139.36638,35.77414],[139.36671,35.77487],[139.36687,35.77513],[139.36702,35.77523],[139.36743,35.77541],[139.36758,35.77543],[139.36805,35.77531],[139.3681,35.77485],[139.36816,35.77468],[139.36854,35.77422],[139.36842,35.77417]]]}},{"type":"Feature","properties":{"id":"area-133030020","name":"大字石畑"},"geometry":{"type":"MultiPolygon","coordinates":[[[[139.35532,35.76177],[139.35554,35.76172],[139.35532,35.76131],[139.35504,35.76139],[139.35503,35.76136],[139.35494,35.76138],[139.35486,35.76108],[139.35476,35.76094],[139.35396,35.76111],[139.35379,35.76078],[139.35414,35.76059],[139.35393,35.76034],[139.35368,35.76049],[139.35328,35.76005],[139.35331,35.75991],[139.35311,35.75963],[139.35254,35.75987],[139.35268,35.76017],[139.35338,35.76109],[139.35357,35.76145],[139.35357,35.76152],[139.35366,35.76163],[139.35392,35.76169],[139.35458,35.76167],[139.35518,35.76177],[139.35532,35.76177]]],[[[139.36894,35.78016],[139.36848,35.77907],[139.3691,35.77906],[139.36911,35.77886],[139.36879,35.77884],[139.36878,35.77842],[139.37251,35.77854],[139.37294,35.77898],[139.37347,35.77931],[139.37339,35.77959],[139.37356,35.77952],[139.37363,35.77963],[139.37382,35.77977],[139.37393,35.77979],[139.374,35.77972],[139.37426,35.77984],[139.37436,35.77996],[139.37468,35.77998],[139.37477,35.78002],[139.37493,35.78019],[139.37501,35.78015],[139.37508,35.78015],[139.37512,35.78026],[139.3753,35.78033],[139.37543,35.78035],[139.37573,35.78023],[139.3761,35.78025],[139.37627,35.78019],[139.37631,35.78013],[139.37617,35.77994],[139.37623,35.77992],[139.37664,35.78003],[139.37673,35.78001],[139.37695,35.77982],[139.37705,35.77984],[139.37712,35.77995],[139.37744,35.78007],[139.37757,35.78002],[139.37776,35.78002],[139.37785,35.77997],[139.37794,35.77983],[139.37794,35.77976],[139.378,35.77972],[139.3784,35.77968],[139.37886,35.77956],[139.37891,35.77952],[139.3788,35.77932],[139.37878,35.77925],[139.37882,35.77918],[139.37897,35.77917],[139.37907,35.77921],[139.37918,35.77917],[139.37921,35.77908],[139.37927,35.77906],[139.3797,35.77916],[139.37986,35.77914],[139.38005,35.77905],[139.38041,35.77872],[139.38079,35.77851],[139.38045,35.77811],[139.37997,35.77737],[139.37994,35.77726],[139.37999,35.7772],[139.38012,35.77718],[139.38033,35.77723],[139.38065,35.77704],[139.38073,35.77705],[139.38134,35.77749],[139.38142,35.7775],[139.38162,35.77735],[139.38168,35.77718],[139.38166,35.77696],[139.38133,35.77621],[139.38132,35.77575],[139.38141,35.77534],[139.38178,35.77479],[139.38181,35.77444],[139.38177,35.77418],[139.38172,35.77412],[139.38069,35.77349],[139.3806,35.77341],[139.38036,35.77263],[139.38029,35.7725],[139.38026,35.77216],[139.38014,35.77197],[139.38,35.77185],[139.37988,35.77177],[139.37959,35.77166],[139.37948,35.77156],[139.37925,35.77115],[139.37893,35.77138],[139.37873,35.77138],[139.37855,35.77132],[139.37832,35.77113],[139.37796,35.77104],[139.37783,35.77096],[139.37778,35.77073],[139.37765,35.77061],[139.3775,35.77056],[139.37711,35.7703],[139.37691,35.77022],[139.37658,35.77024],[139.376,35.77038],[139.37585,35.77012],[139.37505,35.76933],[139.37477,35.76891],[139.37478,35.7682],[139.37483,35.76809],[139.37514,35.76773],[139.3749,35.76727],[139.37477,35.76687],[139.37417,35.76692],[139.37433,35.76711],[139.37438,35.76723],[139.37443,35.76798],[139.37423,35.76893],[139.37433,35.76912],[139.37469,35.76943],[139.37478,35.77012],[139.37462,35.77021],[139.37452,35.77031],[139.37443,35.77027],[139.37452,35.77008],[139.37439,35.76974],[139.37443,35.76964],[139.37417,35.76942],[139.37404,35.76919],[139.37386,35.76905],[139.37384,35.76872],[139.37334,35.76873],[139.37327,35.76884],[139.37316,35.76927],[139.3732,35.76954],[139.37335,35.76977],[139.37353,35.76997],[139.37357,35.77012],[139.37354,35.7703],[139.37337,35.77066],[139.37324,35.77149],[139.37276,35.77128],[139.37246,35.77126],[139.37175,35.77158],[139.37123,35.77151],[139.37104,35.77153],[139.37014,35.77202],[139.37008,35.77211],[139.37015,35.77262],[139.37017,35.77312],[139.37014,35.77324],[139.36993,35.77356],[139.36915,35.77385],[139.36895,35.77396],[139.36885,35.77407],[139.36879,35.77433],[139.36854,35.77422],[139.36816,35.77468],[139.3681,35.77485],[139.36805,35.77531],[139.36758,35.77543],[139.36743,35.77541],[139.36702,35.77523],[139.36687,35.77513],[139.36671,35.77487],[139.36638,35.77414],[139.36634,35.77419],[139.36631,35.77446],[139.36624,35.77458],[139.36642,35.77485],[139.36635,35.77492],[139.36623,35.77498],[139.36592,35.77503],[139.36506,35.77497],[139.36492,35.77488],[139.36472,35.77444],[139.3651,35.77434],[139.36553,35.77429],[139.3655,35.77421],[139.36519,35.77417],[139.365,35.77408],[139.36486,35.77395],[139.36445,35.77339],[139.36413,35.77307],[139.36392,35.77319],[139.36396,35.77348],[139.3639,35.77352],[139.36378,35.77443],[139.36356,35.77442],[139.36352,35.77418],[139.36361,35.774],[139.36364,35.77385],[139.36343,35.77313],[139.36329,35.773],[139.36309,35.7729],[139.36297,35.77295],[139.36258,35.77285],[139.36238,35.77248],[139.36218,35.77226],[139.36175,35.7719],[139.36132,35.77129],[139.36124,35.77111],[139.36156,35.771],[139.3619,35.77093],[139.36184,35.77077],[139.36177,35.77066],[139.36125,35.77076],[139.36101,35.77027],[139.36087,35.77031],[139.36079,35.77021],[139.36069,35.77002],[139.36068,35.76993],[139.36095,35.76991],[139.36095,35.77003],[139.36101,35.77011],[139.36136,35.76997],[139.36127,35.7698],[139.36113,35.76983],[139.36112,35.76977],[139.36069,35.76985],[139.36068,35.7697],[139.36064,35.76961],[139.36109,35.76937],[139.36086,35.76909],[139.36043,35.76938],[139.36035,35.76932],[139.36031,35.76907],[139.36022,35.76901],[139.36026,35.76898],[139.36025,35.76895],[139.36037,35.76889],[139.36009,35.76864],[139.36024,35.76853],[139.36014,35.76843],[139.36009,35.76846],[139.35999,35.76836],[139.36,35.76819],[139.35973,35.76806],[139.35984,35.76801],[139.35954,35.76718],[139.35991,35.76725],[139.36003,35.76756],[139.36001,35.76768],[139.36034,35.76753],[139.36038,35.76759],[139.36081,35.76747],[139.36112,35.76724],[139.36084,35.76694],[139.36046,35.76716],[139.36028,35.76701],[139.36035,35.76683],[139.36031,35.76667],[139.36021,35.76637],[139.36013,35.76638],[139.36009,35.76622],[139.35993,35.76624],[139.35996,35.7664],[139.35949,35.76646],[139.35941,35.76626],[139.35945,35.76625],[139.35942,35.76616],[139.35908,35.76552],[139.35921,35.76533],[139.35874,35.76509],[139.35854,35.76495],[139.3583,35.76465],[139.35758,35.76352],[139.35669,35.76397],[139.35461,35.76555],[139.35387,35.76613],[139.35373,35.76629],[139.35304,35.76671],[139.35296,35.76669],[139.35272,35.76676],[139.35266,35.76684],[139.35283,35.76702],[139.35283,35.76705],[139.35257,35.76725],[139.35254,35.76724],[139.35246,35.76734],[139.35234,35.76728],[139.35212,35.76757],[139.35293,35.76789],[139.35391,35.76813],[139.35383,35.7683],[139.35366,35.76844],[139.3541,35.76874],[139.35395,35.76886],[139.35427,35.76909],[139.35355,35.76989],[139.35359,35.77004],[139.35368,35.77017],[139.35368,35.77029],[139.3536,35.77046],[139.35339,35.77059],[139.35334,35.77068],[139.35291,35.77107],[139.35309,35.7713],[139.35374,35.77099],[139.35402,35.77147],[139.35462,35.77222],[139.35538,35.77188],[139.35535,35.77214],[139.3552,35.77225],[139.35534,35.77243],[139.35476,35.77282],[139.35514,35.77302],[139.35506,35.77314],[139.3547,35.77299],[139.35445,35.77313],[139.35452,35.77324],[139.35448,35.7733],[139.35485,35.77373],[139.35497,35.77369],[139.35502,35.77374],[139.35497,35.77384],[139.35512,35.77404],[139.35538,35.77391],[139.3557,35.77436],[139.35594,35.77486],[139.35611,35.77502],[139.35588,35.77579],[139.35643,35.77582],[139.35676,35.77603],[139.35677,35.77621],[139.35674,35.77628],[139.35661,35.77638],[139.35617,35.77644],[139.35713,35.77665],[139.35729,35.7766],[139.35749,35.77662],[139.35784,35.77673],[139.35802,35.77681],[139.35872,35.77743],[139.35883,35.7776],[139.35882,35.77814],[139.35886,35.77834],[139.35907,35.77884],[139.35943,35.77946],[139.35982,35.7798],[139.35995,35.77996],[139.36107,35.78015],[139.36135,35.7801],[139.36194,35.77987],[139.36212,35.7799],[139.36229,35.77996],[139.36248,35.77988],[139.36254,35.77982],[139.3626,35.77953],[139.36316,35.77915],[139.36391,35.77889],[139.3641,35.77889],[139.36436,35.77906],[139.36458,35.77935],[139.36486,35.77917],[139.365,35.77902],[139.36521,35.77926],[139.36547,35.77947],[139.36632,35.77962],[139.36642,35.78001],[139.36666,35.7803],[139.36688,35.78045],[139.36693,35.78033],[139.36691,35.7803],[139.36683,35.77967],[139.36701,35.77962],[139.3671,35.77987],[139.36755,35.77978],[139.36745,35.78014],[139.36706,35.78064],[139.36804,35.78062],[139.36818,35.78088],[139.36854,35.78088],[139.36894,35.78016]]]]}},{"type":"Feature","properties":{"id":"area-13303003001","name":"大字箱根ヶ崎"},"geometry":{"type":"Polygon","coordinates":[[[139.34548,35.78195],[139.34689,35.78093],[139.34726,35.78114],[139.34724,35.78163],[139.34796,35.7816],[139.34796,35.78103],[139.3475,35.78119],[139.34755,35.78101],[139.3481,35.78018],[139.3486,35.78032],[139.3488,35.77975],[139.34876,35.7794],[139.35014,35.77944],[139.35009,35.77922],[139.35003,35.77923],[139.34994,35.77865],[139.34997,35.77845],[139.34995,35.7782],[139.35005,35.77766],[139.35012,35.77749],[139.35025,35.77732],[139.35021,35.77709],[139.3503,35.77707],[139.35028,35.77694],[139.35081,35.77678],[139.35125,35.77697],[139.35185,35.77735],[139.35214,35.77748],[139.35229,35.77754],[139.35248,35.77749],[139.35263,35.77769],[139.35271,35.77773],[139.35292,35.77776],[139.3531,35.77773],[139.35316,35.77774],[139.35339,35.77765],[139.35413,35.77828],[139.35424,35.77833],[139.35455,35.77838],[139.35529,35.77828],[139.35578,35.77854],[139.35638,35.77877],[139.3568,35.77884],[139.35743,35.77881],[139.35764,35.77867],[139.35784,35.77866],[139.35833,35.77889],[139.35852,35.77894],[139.35907,35.77884],[139.35886,35.77834],[139.35882,35.77814],[139.35883,35.7776],[139.35872,35.77743],[139.35802,35.77681],[139.35784,35.77673],[139.35749,35.77662],[139.35729,35.7766],[139.35713,35.77665],[139.35617,35.77644],[139.35661,35.77638],[139.35674,35.77628],[139.35677,35.77621],[139.35676,35.77603],[139.35643,35.77582],[139.35588,35.77579],[139.35611,35.77502],[139.35594,35.77486],[139.3557,35.77436],[139.35538,35.77391],[139.35512,35.77404],[139.35497,35.77384],[139.35502,35.77374],[139.35497,35.77369],[139.35485,35.77373],[139.35448,35.7733],[139.35452,35.77324],[139.35445,35.77313],[139.3547,35.77299],[139.35506,35.77314],[139.35514,35.77302],[139.35476,35.77282],[139.35534,35.77243],[139.3552,35.77225],[139.35535,35.77214],[139.35538,35.77188],[139.35462,35.77222],[139.35402,35.77147],[139.35374,35.77099],[139.35309,35.7713],[139.35291,35.77107],[139.35334,35.77068],[139.35339,35.77059],[139.3536,35.77046],[139.35368,35.77029],[139.35368,35.77017],[139.35359,35.77004],[139.35355,35.76989],[139.35427,35.76909],[139.35395,35.76886],[139.3541,35.76874],[139.35366,35.76844],[139.35383,35.7683],[139.35391,35.76813],[139.35293,35.76789],[139.35167,35.76739],[139.35114,35.7676],[139.3506,35.7677],[139.35042,35.76779],[139.35035,35.76775],[139.34917,35.76858],[139.34886,35.76867],[139.3486,35.76815],[139.34926,35.76779],[139.34914,35.76765],[139.34997,35.76649],[139.34845,35.76581],[139.348,35.76565],[139.34744,35.76553],[139.3472,35.76663],[139.34747,35.7685],[139.34738,35.76855],[139.34733,35.76853],[139.34707,35.76825],[139.34679,35.76803],[139.3465,35.76787],[139.34618,35.76775],[139.34558,35.76763],[139.34411,35.76746],[139.3435,35.76729],[139.34285,35.76696],[139.34258,35.76676],[139.34222,35.7664],[139.34189,35.76591],[139.3417,35.76539],[139.34165,35.76501],[139.34167,35.76461],[139.34184,35.76374],[139.34115,35.76405],[139.34113,35.76451],[139.34121,35.76503],[139.34132,35.76545],[139.34159,35.76606],[139.34208,35.76676],[139.34239,35.76779],[139.34233,35.76789],[139.34202,35.76873],[139.34274,35.76908],[139.34304,35.76974],[139.34288,35.76976],[139.34308,35.77029],[139.34284,35.77034],[139.34286,35.7705],[139.34346,35.77084],[139.34319,35.77107],[139.34059,35.77509],[139.3404,35.77537],[139.34009,35.77568],[139.3396,35.77588],[139.33718,35.77656],[139.33795,35.77762],[139.33874,35.77884],[139.33999,35.78059],[139.34041,35.78102],[139.3407,35.78125],[139.34595,35.78374],[139.34673,35.78288],[139.34548,35.78195]]]}},{"type":"Feature","properties":{"id":"area-13303003002","name":"大字箱根ヶ崎"},"geometry":{"type":"Polygon","coordinates":[[[139.33157,35.79261],[139.33261,35.7917],[139.33464,35.79308],[139.33503,35.79267],[139.33415,35.79211],[139.33568,35.79059],[139.33648,35.79111],[139.33611,35.79151],[139.33706,35.79188],[139.33762,35.79127],[139.33864,35.79162],[139.33933,35.79088],[139.33836,35.79048],[139.33877,35.79005],[139.33973,35.79046],[139.34356,35.78631],[139.34394,35.78598],[139.34415,35.78571],[139.34595,35.78374],[139.3407,35.78125],[139.34041,35.78102],[139.33999,35.78059],[139.3395,35.77993],[139.33874,35.77884],[139.33795,35.77762],[139.33718,35.77656],[139.33626,35.77684],[139.33332,35.77785],[139.33385,35.77872],[139.33475,35.78044],[139.33508,35.78039],[139.33512,35.78046],[139.33583,35.78262],[139.3358,35.78268],[139.33476,35.78341],[139.33369,35.78411],[139.3348,35.78526],[139.33628,35.78663],[139.3287,35.79178],[139.33052,35.79339],[139.33157,35.79261]]]}},{"type":"Feature","properties":{"id":"area-133030040","name":"大字長岡下師岡"},"geometry":{"type":"Polygon","coordinates":[[[139.32607,35.78566],[139.32583,35.78426],[139.32544,35.78419],[139.32523,35.7828],[139.32505,35.7828],[139.32468,35.78119],[139.32407,35.78138],[139.32231,35.78272],[139.32168,35.78304],[139.32122,35.78317],[139.32078,35.78334],[139.32098,35.78374],[139.32102,35.78433],[139.32093,35.78437],[139.32088,35.78447],[139.32045,35.78461],[139.3204,35.78486],[139.32183,35.78454],[139.32247,35.78467],[139.32436,35.78523],[139.32607,35.78566]]]}},{"type":"Feature","properties":{"id":"area-133030050","name":"大字長岡長谷部"},"geometry":{"type":"Polygon","coordinates":[[[139.33029,35.79069],[139.33628,35.78663],[139.3348,35.78526],[139.33369,35.78411],[139.33476,35.78341],[139.3358,35.78268],[139.33583,35.78262],[139.33512,35.78046],[139.33508,35.78039],[139.33475,35.78044],[139.33385,35.77872],[139.33332,35.77785],[139.33237,35.7782],[139.32598,35.78083],[139.32468,35.78119],[139.32505,35.7828],[139.32523,35.7828],[139.32544,35.78419],[139.32583,35.78426],[139.32607,35.78566],[139.32436,35.78523],[139.32247,35.78467],[139.32183,35.78454],[139.3204,35.78486],[139.3203,35.78572],[139.32042,35.78576],[139.32045,35.78581],[139.32054,35.78581],[139.32065,35.78601],[139.32082,35.78598],[139.3209,35.78602],[139.32111,35.78669],[139.32091,35.78668],[139.3209,35.78712],[139.32114,35.78714],[139.32101,35.78759],[139.32077,35.78763],[139.32096,35.78834],[139.32013,35.78857],[139.32008,35.78851],[139.31948,35.78885],[139.31908,35.789],[139.3192,35.78923],[139.31885,35.78937],[139.31882,35.78932],[139.31863,35.78935],[139.31848,35.78909],[139.31824,35.78917],[139.3183,35.78932],[139.31829,35.78941],[139.31834,35.78942],[139.31837,35.78949],[139.32087,35.78979],[139.32156,35.78905],[139.32269,35.78619],[139.32308,35.78629],[139.32377,35.78654],[139.32333,35.78734],[139.32379,35.78754],[139.32234,35.78903],[139.32111,35.78982],[139.3216,35.78989],[139.32624,35.78683],[139.32762,35.78817],[139.33029,35.79069]],[[139.32179,35.78775],[139.32155,35.78879],[139.32137,35.78878],[139.32136,35.78882],[139.32117,35.78898],[139.32065,35.78892],[139.3207,35.78869],[139.32115,35.78875],[139.32125,35.78861],[139.32137,35.78608],[139.32192,35.78609],[139.32179,35.78775]],[[139.32061,35.78896],[139.32054,35.78939],[139.31983,35.78931],[139.31985,35.78898],[139.3201,35.78888],[139.32061,35.78896]]]}},{"type":"Feature","properties":{"id":"area-133030060","name":"大字二本木"},"geometry":{"type":"MultiPolygon","coordinates":[[[[139.34996,35.79416],[139.35019,35.79333],[139.35166,35.79353],[139.35306,35.79366],[139.35327,35.79265],[139.3534,35.79263],[139.35382,35.79286],[139.35353,35.79325],[139.35385,35.79325],[139.354,35.79297],[139.35419,35.79313],[139.35527,35.79373],[139.35533,35.79345],[139.3555,35.79346],[139.3555,35.7935],[139.356,35.79355],[139.3571,35.79354],[139.35716,35.79396],[139.3575,35.79399],[139.35753,35.79373],[139.35717,35.7937],[139.35715,35.79355],[139.35733,35.79353],[139.35732,35.79326],[139.35791,35.79326],[139.3581,35.79322],[139.35829,35.79311],[139.35859,35.79264],[139.35865,35.79206],[139.35876,35.79175],[139.35912,35.79148],[139.3599,35.79134],[139.36018,35.79134],[139.36246,35.79161],[139.36291,35.79162],[139.36404,35.79142],[139.36409,35.79112],[139.36376,35.79111],[139.3632,35.79118],[139.36231,35.79117],[139.36165,35.79108],[139.36139,35.79093],[139.36109,35.79062],[139.36086,35.79053],[139.36091,35.79027],[139.36099,35.79006],[139.36123,35.78969],[139.36139,35.78919],[139.36156,35.78817],[139.36162,35.78796],[139.36163,35.7877],[139.36221,35.78679],[139.36249,35.7869],[139.36333,35.78713],[139.36338,35.787],[139.36413,35.7872],[139.36498,35.78748],[139.36529,35.78693],[139.36553,35.78673],[139.36571,35.78629],[139.3656,35.78625],[139.36517,35.78594],[139.36466,35.78586],[139.36444,35.78574],[139.36372,35.78566],[139.36359,35.78554],[139.36353,35.78552],[139.36346,35.78536],[139.36305,35.7852],[139.36275,35.78578],[139.36212,35.78562],[139.36166,35.78545],[139.36179,35.78413],[139.36134,35.78406],[139.3613,35.78403],[139.36112,35.78379],[139.36111,35.78356],[139.36086,35.78328],[139.36047,35.78319],[139.36035,35.78348],[139.35966,35.78323],[139.35907,35.78413],[139.35806,35.78538],[139.35796,35.78545],[139.35826,35.78586],[139.35827,35.78595],[139.3585,35.78622],[139.35873,35.78622],[139.35892,35.78628],[139.35866,35.78673],[139.35842,35.78737],[139.35806,35.78815],[139.35754,35.789],[139.35746,35.78922],[139.35746,35.78938],[139.35702,35.7896],[139.35676,35.78953],[139.35572,35.78959],[139.35413,35.78938],[139.35365,35.78934],[139.35332,35.78924],[139.35222,35.78905],[139.35139,35.78904],[139.35068,35.78908],[139.35061,35.78907],[139.3506,35.78899],[139.35057,35.78897],[139.34998,35.78907],[139.34996,35.78904],[139.34886,35.78879],[139.34829,35.78873],[139.34805,35.78986],[139.34801,35.79041],[139.34582,35.78964],[139.34506,35.78944],[139.34474,35.79056],[139.34113,35.79387],[139.33893,35.79423],[139.33866,35.79421],[139.33818,35.79423],[139.33811,35.79461],[139.33863,35.79469],[139.33902,35.79471],[139.33955,35.79469],[139.33991,35.7946],[139.34024,35.79458],[139.34131,35.79457],[139.3417,35.79454],[139.3428,35.79418],[139.34298,35.79418],[139.34366,35.7943],[139.3435,35.79476],[139.34458,35.79535],[139.34569,35.79607],[139.34659,35.79653],[139.3473,35.79603],[139.34755,35.79593],[139.34758,35.79589],[139.34748,35.79529],[139.34766,35.79519],[139.34811,35.7951],[139.34865,35.79491],[139.34985,35.79485],[139.34988,35.79435],[139.34996,35.79416]]],[[[139.3702,35.79149],[139.37017,35.79148],[139.37032,35.79121],[139.37029,35.7912],[139.37043,35.79096],[139.37022,35.79089],[139.3703,35.79073],[139.36964,35.79045],[139.36879,35.79021],[139.36896,35.78981],[139.36872,35.78973],[139.36902,35.78903],[139.36863,35.78883],[139.36758,35.7882],[139.36733,35.78884],[139.3669,35.7894],[139.36653,35.79016],[139.36617,35.79015],[139.36574,35.79003],[139.36569,35.79004],[139.36564,35.79049],[139.36563,35.79071],[139.36566,35.79077],[139.3655,35.79076],[139.36532,35.79143],[139.36663,35.79156],[139.36703,35.79155],[139.36999,35.79188],[139.3702,35.79149]]]]}},{"type":"Feature","properties":{"id":"area-133030070","name":"大字駒形富士山"},"geometry":{"type":"MultiPolygon","coordinates":[[[[139.35746,35.78938],[139.35746,35.78922],[139.35754,35.789],[139.35806,35.78815],[139.35842,35.78737],[139.35866,35.78673],[139.35892,35.78628],[139.35873,35.78622],[139.3585,35.78622],[139.35827,35.78595],[139.35826,35.78586],[139.35813,35.78571],[139.35786,35.78522],[139.35746,35.7846],[139.35665,35.78403],[139.35694,35.7838],[139.35709,35.78345],[139.3566,35.78336],[139.35626,35.78335],[139.35607,35.78341],[139.35589,35.78342],[139.35487,35.78327],[139.35485,35.78292],[139.35501,35.78292],[139.355,35.78297],[139.35535,35.78299],[139.35531,35.7825],[139.35517,35.7822],[139.35556,35.78218],[139.35565,35.78202],[139.35644,35.78231],[139.3567,35.78168],[139.35701,35.78184],[139.35711,35.78167],[139.35695,35.78158],[139.35763,35.7807],[139.35726,35.78054],[139.35696,35.78098],[139.35646,35.78078],[139.35623,35.78117],[139.35589,35.78096],[139.35612,35.7806],[139.35576,35.78044],[139.35581,35.78037],[139.35539,35.78021],[139.35558,35.77945],[139.35604,35.77863],[139.35578,35.77854],[139.35529,35.77828],[139.35455,35.77838],[139.35424,35.77833],[139.35413,35.77828],[139.35339,35.77765],[139.35316,35.77774],[139.3531,35.77773],[139.35292,35.77776],[139.35271,35.77773],[139.35263,35.77769],[139.35248,35.77749],[139.35229,35.77754],[139.35214,35.77748],[139.35185,35.77735],[139.35125,35.77697],[139.35081,35.77678],[139.35028,35.77694],[139.3503,35.77707],[139.35021,35.77709],[139.35025,35.77732],[139.35012,35.77749],[139.34998,35.77796],[139.34994,35.77865],[139.35003,35.77923],[139.35009,35.77922],[139.35024,35.77988],[139.35018,35.77992],[139.35025,35.7802],[139.35032,35.78018],[139.35039,35.7808],[139.35033,35.78088],[139.35038,35.78122],[139.35079,35.78126],[139.35088,35.78186],[139.35099,35.78185],[139.35101,35.78247],[139.35085,35.78248],[139.35087,35.78287],[139.3513,35.78286],[139.35129,35.78312],[139.35162,35.78313],[139.35163,35.78327],[139.35128,35.78326],[139.35131,35.78366],[139.35167,35.78363],[139.35172,35.78414],[139.35181,35.78453],[139.35197,35.7848],[139.35176,35.78491],[139.35194,35.78554],[139.35222,35.78549],[139.35232,35.78593],[139.35236,35.78634],[139.35248,35.78694],[139.35239,35.78695],[139.35241,35.78712],[139.35231,35.78802],[139.35204,35.78801],[139.35162,35.78843],[139.35164,35.78904],[139.35222,35.78905],[139.35332,35.78924],[139.35365,35.78934],[139.35413,35.78938],[139.35572,35.78959],[139.35676,35.78953],[139.35702,35.7896],[139.35746,35.78938]]],[[[139.36204,35.78376],[139.36203,35.78384],[139.36191,35.78391],[139.36183,35.7841],[139.36255,35.78411],[139.36216,35.78391],[139.36215,35.78377],[139.36204,35.78376]]],[[[139.36532,35.79143],[139.3655,35.79076],[139.36566,35.79077],[139.36563,35.79071],[139.36564,35.79049],[139.36569,35.79004],[139.36574,35.79003],[139.36617,35.79015],[139.36653,35.79016],[139.3669,35.7894],[139.36733,35.78884],[139.36758,35.7882],[139.36863,35.78883],[139.36902,35.78903],[139.36947,35.78919],[139.36979,35.78844],[139.36953,35.7884],[139.36986,35.78734],[139.36944,35.78721],[139.36824,35.78699],[139.36804,35.78688],[139.367,35.78661],[139.3664,35.7864],[139.36607,35.78639],[139.36571,35.78629],[139.36553,35.78673],[139.36529,35.78693],[139.36498,35.78748],[139.36413,35.7872],[139.36338,35.787],[139.36333,35.78713],[139.36249,35.7869],[139.36221,35.78679],[139.36163,35.7877],[139.36162,35.78796],[139.36156,35.78817],[139.36139,35.78919],[139.36123,35.78969],[139.36099,35.79006],[139.36091,35.79027],[139.36086,35.79053],[139.36109,35.79062],[139.36139,35.79093],[139.36165,35.79108],[139.36231,35.79117],[139.3632,35.79118],[139.36376,35.79111],[139.36409,35.79112],[139.36404,35.79142],[139.36484,35.79139],[139.36532,35.79143]]]]}},{"type":"Feature","properties":{"id":"area-133030080","name":"大字高根"},"geometry":{"type":"MultiPolygon","coordinates":[[[[139.36754,35.78515],[139.36759,35.78495],[139.36778,35.78462],[139.36785,35.78465],[139.36816,35.78413],[139.36859,35.78385],[139.36961,35.78293],[139.37015,35.78256],[139.3701,35.78208],[139.37015,35.78139],[139.37038,35.78139],[139.3707,35.78146],[139.37156,35.78148],[139.37158,35.78047],[139.37229,35.77996],[139.37249,35.77986],[139.37327,35.77965],[139.3724,35.77893],[139.37199,35.77881],[139.37104,35.77864],[139.37069,35.77861],[139.3694,35.77878],[139.36911,35.77886],[139.3691,35.77906],[139.36848,35.77907],[139.36894,35.78016],[139.36854,35.78088],[139.36818,35.78088],[139.36804,35.78062],[139.36706,35.78064],[139.36745,35.78014],[139.36755,35.77978],[139.3671,35.77987],[139.36701,35.77962],[139.36683,35.77967],[139.36691,35.7803],[139.36693,35.78033],[139.36688,35.78045],[139.36666,35.7803],[139.36642,35.78001],[139.36632,35.77962],[139.36547,35.77947],[139.36521,35.77926],[139.365,35.77902],[139.36486,35.77917],[139.36458,35.77935],[139.36436,35.77906],[139.3641,35.77889],[139.36391,35.77889],[139.36316,35.77915],[139.3626,35.77953],[139.36254,35.77982],[139.36248,35.77988],[139.36229,35.77996],[139.36212,35.7799],[139.36194,35.77987],[139.36135,35.7801],[139.36107,35.78015],[139.35995,35.77996],[139.35982,35.7798],[139.35943,35.77946],[139.35907,35.77884],[139.35852,35.77894],[139.35833,35.77889],[139.35784,35.77866],[139.35764,35.77867],[139.35743,35.77881],[139.3568,35.77884],[139.35638,35.77877],[139.35604,35.77863],[139.35558,35.77945],[139.35539,35.78021],[139.35581,35.78037],[139.35576,35.78044],[139.35612,35.7806],[139.35589,35.78096],[139.35623,35.78117],[139.35646,35.78078],[139.35696,35.78098],[139.35726,35.78054],[139.35763,35.7807],[139.35695,35.78158],[139.35711,35.78167],[139.35701,35.78184],[139.3567,35.78168],[139.35644,35.78231],[139.35565,35.78202],[139.35556,35.78218],[139.35517,35.7822],[139.35531,35.7825],[139.35535,35.78299],[139.355,35.78297],[139.35501,35.78292],[139.35485,35.78292],[139.35487,35.78327],[139.35589,35.78342],[139.35607,35.78341],[139.35626,35.78335],[139.3566,35.78336],[139.35709,35.78345],[139.35694,35.7838],[139.35665,35.78403],[139.35746,35.7846],[139.35786,35.78522],[139.35796,35.78545],[139.35806,35.78538],[139.35907,35.78413],[139.35966,35.78323],[139.36035,35.78348],[139.36047,35.78319],[139.36086,35.78328],[139.36111,35.78356],[139.36112,35.78379],[139.3613,35.78403],[139.36134,35.78406],[139.36179,35.78413],[139.36166,35.78545],[139.36212,35.78562],[139.36275,35.78578],[139.36305,35.7852],[139.36346,35.78536],[139.36353,35.78552],[139.36359,35.78554],[139.36372,35.78566],[139.36444,35.78574],[139.36466,35.78586],[139.36517,35.78594],[139.3656,35.78625],[139.36576,35.78631],[139.36607,35.78639],[139.3664,35.7864],[139.367,35.78661],[139.36804,35.78688],[139.36821,35.78635],[139.36829,35.78626],[139.36849,35.78591],[139.36835,35.78584],[139.3678,35.78568],[139.36733,35.78547],[139.36754,35.78515]],[[139.36191,35.78391],[139.36203,35.78384],[139.36204,35.78376],[139.36215,35.78377],[139.36216,35.78391],[139.36255,35.78411],[139.36183,35.7841],[139.36191,35.78391]]],[[[139.35104,35.78908],[139.35164,35.78904],[139.35162,35.78843],[139.35204,35.78801],[139.35231,35.78802],[139.35241,35.78712],[139.35239,35.78695],[139.35248,35.78694],[139.35236,35.78634],[139.35232,35.78593],[139.35222,35.78549],[139.35194,35.78554],[139.35176,35.78491],[139.35197,35.7848],[139.35181,35.78453],[139.35172,35.78414],[139.35167,35.78363],[139.35131,35.78366],[139.35128,35.78326],[139.35163,35.78327],[139.35162,35.78313],[139.35129,35.78312],[139.3513,35.78286],[139.35087,35.78287],[139.35085,35.78248],[139.35101,35.78247],[139.35099,35.78185],[139.35088,35.78186],[139.35079,35.78126],[139.35038,35.78122],[139.35033,35.78088],[139.35039,35.7808],[139.35032,35.78018],[139.35025,35.7802],[139.35018,35.77992],[139.35024,35.77988],[139.35014,35.77944],[139.34876,35.7794],[139.3488,35.77975],[139.3486,35.78032],[139.3481,35.78018],[139.34755,35.78101],[139.3475,35.78119],[139.34796,35.78103],[139.34796,35.7816],[139.34811,35.7816],[139.34805,35.78183],[139.34793,35.78319],[139.34799,35.78417],[139.34814,35.7852],[139.34675,35.78685],[139.34819,35.78787],[139.34806,35.78798],[139.34856,35.78816],[139.34879,35.78837],[139.34903,35.78846],[139.34899,35.78853],[139.34921,35.78861],[139.34969,35.78899],[139.34996,35.78904],[139.34998,35.78907],[139.35057,35.78897],[139.3506,35.78899],[139.35061,35.78907],[139.35104,35.78908]]]]}},{"type":"Feature","properties":{"id":"area-133030090","name":"大字富士山栗原新田"},"geometry":{"type":"Polygon","coordinates":[[[139.33855,35.79421],[139.33893,35.79423],[139.34113,35.79387],[139.34474,35.79056],[139.34506,35.78944],[139.34582,35.78964],[139.34801,35.79041],[139.34805,35.78986],[139.34829,35.78873],[139.34886,35.78879],[139.34969,35.78899],[139.34921,35.78861],[139.34899,35.78853],[139.34903,35.78846],[139.34879,35.78837],[139.34856,35.78816],[139.34806,35.78798],[139.34819,35.78787],[139.34675,35.78685],[139.34814,35.7852],[139.34799,35.78417],[139.34793,35.78319],[139.34805,35.78183],[139.34811,35.7816],[139.34724,35.78163],[139.34726,35.78114],[139.34689,35.78093],[139.34548,35.78195],[139.34673,35.78288],[139.34415,35.78571],[139.34394,35.78598],[139.34356,35.78631],[139.33973,35.79046],[139.33877,35.79005],[139.33836,35.79048],[139.33933,35.79088],[139.33864,35.79162],[139.33762,35.79127],[139.33706,35.79188],[139.33611,35.79151],[139.33648,35.79111],[139.33568,35.79059],[139.33415,35.79211],[139.33503,35.79267],[139.33464,35.79308],[139.33535,35.79357],[139.3361,35.79352],[139.33761,35.79389],[139.33818,35.79423],[139.33855,35.79421]]]}},{"type":"Feature","properties":{"id":"area-133030100","name":"大字武蔵"},"geometry":{"type":"Polygon","coordinates":[[[139.34917,35.76858],[139.35035,35.76775],[139.35042,35.76779],[139.3506,35.7677],[139.35114,35.7676],[139.35167,35.76739],[139.35212,35.76757],[139.35234,35.76728],[139.35246,35.76734],[139.35254,35.76724],[139.35257,35.76725],[139.35283,35.76705],[139.35283,35.76702],[139.35266,35.76684],[139.35272,35.76676],[139.35296,35.76669],[139.35304,35.76671],[139.35373,35.76629],[139.35387,35.76613],[139.35461,35.76555],[139.35673,35.76394],[139.35703,35.76337],[139.35738,35.76313],[139.35715,35.76292],[139.35691,35.7631],[139.35646,35.76272],[139.35606,35.76299],[139.35591,35.76287],[139.35551,35.76243],[139.35576,35.76229],[139.35585,35.76235],[139.35623,35.7621],[139.35603,35.76187],[139.35593,35.76183],[139.35552,35.76171],[139.35532,35.76177],[139.35518,35.76177],[139.35458,35.76167],[139.35392,35.76169],[139.35366,35.76163],[139.35357,35.76152],[139.35357,35.76145],[139.35338,35.76109],[139.35268,35.76017],[139.35254,35.75987],[139.35244,35.7599],[139.352,35.75912],[139.35192,35.75916],[139.35135,35.75855],[139.35088,35.75836],[139.34991,35.75809],[139.34858,35.76453],[139.34752,35.76515],[139.34744,35.76553],[139.348,35.76565],[139.34845,35.76581],[139.34997,35.76649],[139.34914,35.76765],[139.34926,35.76779],[139.3486,35.76815],[139.34886,35.76867],[139.34917,35.76858]]]}},{"type":"Feature","properties":{"id":"area-133030110","name":"大字長岡藤橋"},"geometry":{"type":"MultiPolygon","coordinates":[[[[139.32137,35.78878],[139.32155,35.78879],[139.32179,35.78775],[139.32192,35.78609],[139.32137,35.78608],[139.32125,35.78861],[139.32115,35.78875],[139.3207,35.78869],[139.32065,35.78892],[139.32117,35.78898],[139.32136,35.78882],[139.32137,35.78878]]],[[[139.3201,35.78888],[139.31985,35.78898],[139.31983,35.78931],[139.32054,35.78939],[139.32061,35.78896],[139.3201,35.78888]]]]}},{"type":"Feature","properties":{"id":"area-133030120","name":"箱根ヶ崎東松原"},"geometry":{"type":"Polygon","coordinates":[[[139.34311,35.77075],[139.33894,35.76855],[139.3367,35.77263],[139.33639,35.77333],[139.33627,35.77413],[139.33634,35.7747],[139.33647,35.77519],[139.33669,35.77571],[139.33718,35.77656],[139.3396,35.77588],[139.34009,35.77568],[139.3404,35.77537],[139.34059,35.77509],[139.34319,35.77107],[139.34311,35.77075]]]}},{"type":"Feature","properties":{"id":"area-133030130","name":"箱根ヶ崎西松原"},"geometry":{"type":"Polygon","coordinates":[[[139.3367,35.77263],[139.33894,35.76855],[139.33534,35.76665],[139.33321,35.76765],[139.33314,35.7678],[139.33316,35.76789],[139.33325,35.76799],[139.33345,35.76878],[139.33356,35.76946],[139.33362,35.77022],[139.33368,35.77022],[139.33371,35.77106],[139.33353,35.77104],[139.3334,35.77107],[139.33338,35.77117],[139.33285,35.77113],[139.33274,35.7715],[139.33228,35.77195],[139.33273,35.77232],[139.33354,35.77311],[139.33411,35.77361],[139.33443,35.77382],[139.33479,35.77397],[139.33513,35.77405],[139.33627,35.77413],[139.33639,35.77333],[139.3367,35.77263]]]}},{"type":"Feature","properties":{"id":"area-13303014001","name":"南平一丁目"},"geometry":{"type":"Polygon","coordinates":[[[139.34115,35.76477],[139.34113,35.76451],[139.33982,35.76683],[139.33934,35.76784],[139.33894,35.76855],[139.34311,35.77075],[139.34319,35.77107],[139.34346,35.77084],[139.34286,35.7705],[139.34284,35.77034],[139.34308,35.77029],[139.34288,35.76976],[139.34304,35.76974],[139.34274,35.76908],[139.34202,35.76873],[139.34233,35.76789],[139.34239,35.76779],[139.34208,35.76676],[139.34159,35.76606],[139.34132,35.76545],[139.34115,35.76477]]]}},{"type":"Feature","properties":{"id":"area-13303014002","name":"南平二丁目"},"geometry":{"type":"Polygon","coordinates":[[[139.33982,35.76683],[139.34113,35.76451],[139.34114,35.76411],[139.34131,35.76332],[139.34088,35.76325],[139.33948,35.76288],[139.33943,35.76299],[139.33956,35.76315],[139.33899,35.76345],[139.3382,35.7638],[139.33771,35.76364],[139.33747,35.76337],[139.33705,35.76367],[139.33679,35.76342],[139.33653,35.76364],[139.33632,35.76372],[139.33614,35.7639],[139.33571,35.76445],[139.33526,35.76422],[139.3347,35.76479],[139.335,35.76505],[139.33517,35.76501],[139.33546,35.76501],[139.33525,35.76551],[139.33534,35.76555],[139.33509,35.76615],[139.33561,35.76632],[139.33663,35.76597],[139.33665,35.76601],[139.33534,35.76665],[139.33894,35.76855],[139.33934,35.76784],[139.33982,35.76683]]]}},{"type":"Feature","properties":{"id":"area-13303015001","name":"長岡一丁目"},"geometry":{"type":"Polygon","coordinates":[[[139.33411,35.77361],[139.33363,35.77319],[139.33089,35.77507],[139.33051,35.7753],[139.32963,35.77573],[139.32986,35.77673],[139.32982,35.7768],[139.33007,35.77777],[139.33023,35.77815],[139.33068,35.77891],[139.33237,35.7782],[139.3333,35.77786],[139.33626,35.77684],[139.33718,35.77656],[139.3367,35.77573],[139.33647,35.77519],[139.33634,35.7747],[139.33627,35.77413],[139.33526,35.77407],[139.33497,35.77402],[139.33449,35.77384],[139.33411,35.77361]]]}},{"type":"Feature","properties":{"id":"area-13303015002","name":"長岡二丁目"},"geometry":{"type":"Polygon","coordinates":[[[139.33363,35.77319],[139.33273,35.77232],[139.33228,35.77195],[139.33129,35.77278],[139.32883,35.77117],[139.32725,35.7723],[139.32729,35.77238],[139.3276,35.77394],[139.32816,35.77647],[139.33051,35.7753],[139.33089,35.77507],[139.33363,35.77319]]]}},{"type":"Feature","properties":{"id":"area-13303015003","name":"長岡三丁目"},"geometry":{"type":"Polygon","coordinates":[[[139.32729,35.77238],[139.32725,35.7723],[139.32072,35.77711],[139.32157,35.77799],[139.32179,35.77817],[139.32278,35.77923],[139.32816,35.77647],[139.3276,35.77394],[139.32729,35.77238]]]}},{"type":"Feature","properties":{"id":"area-13303015004","name":"長岡四丁目"},"geometry":{"type":"Polygon","coordinates":[[[139.32986,35.77673],[139.32963,35.77573],[139.32278,35.77923],[139.32408,35.78064],[139.32426,35.78127],[139.32422,35.78132],[139.32598,35.78083],[139.33068,35.77891],[139.33023,35.77815],[139.33007,35.77777],[139.32982,35.7768],[139.32986,35.77673]]]}},{"type":"Feature","properties":{"id":"area-13303016001","name":"むさし野一丁目"},"geometry":{"type":"Polygon","coordinates":[[[139.33899,35.76345],[139.33956,35.76315],[139.33943,35.76299],[139.33948,35.76288],[139.34088,35.76325],[139.34126,35.76332],[139.34146,35.76249],[139.34184,35.76063],[139.3405,35.76047],[139.33975,35.76042],[139.3389,35.76029],[139.33835,35.76087],[139.33871,35.76114],[139.3381,35.76153],[139.33732,35.76064],[139.33683,35.76086],[139.33695,35.76105],[139.33674,35.76114],[139.33635,35.76148],[139.33616,35.7614],[139.33596,35.76174],[139.33586,35.76213],[139.3363,35.7623],[139.33609,35.76269],[139.33586,35.76262],[139.33558,35.7631],[139.33611,35.76341],[139.33634,35.76359],[139.33635,35.76367],[139.33632,35.76372],[139.33653,35.76364],[139.33679,35.76342],[139.33705,35.76367],[139.33747,35.76337],[139.33771,35.76364],[139.3382,35.7638],[139.33899,35.76345]]]}},{"type":"Feature","properties":{"id":"area-13303016002","name":"むさし野二丁目"},"geometry":{"type":"Polygon","coordinates":[[[139.33835,35.76087],[139.3389,35.76029],[139.33975,35.76042],[139.3405,35.76047],[139.34186,35.76063],[139.34191,35.76003],[139.34187,35.75958],[139.34177,35.75914],[139.3416,35.75872],[139.34074,35.75704],[139.34007,35.75728],[139.33961,35.7576],[139.33914,35.75722],[139.33924,35.75711],[139.33905,35.75697],[139.33901,35.75688],[139.3381,35.75708],[139.33783,35.75746],[139.33767,35.75738],[139.33753,35.75751],[139.33733,35.75742],[139.33722,35.75755],[139.33737,35.75768],[139.33696,35.75811],[139.33629,35.75904],[139.33612,35.75915],[139.33603,35.75905],[139.33568,35.75923],[139.33599,35.76],[139.33568,35.75999],[139.33571,35.76041],[139.33609,35.76101],[139.3361,35.76114],[139.3362,35.76124],[139.33612,35.76135],[139.33617,35.76138],[139.33616,35.7614],[139.33635,35.76148],[139.33674,35.76114],[139.33695,35.76105],[139.33683,35.76086],[139.33732,35.76064],[139.3381,35.76153],[139.33871,35.76114],[139.33835,35.76087]]]}},{"type":"Feature","properties":{"id":"area-13303016003","name":"むさし野三丁目"},"geometry":{"type":"Polygon","coordinates":[[[139.34184,35.76374],[139.34297,35.75835],[139.34301,35.75801],[139.343,35.75772],[139.34296,35.75751],[139.34282,35.7571],[139.34209,35.75581],[139.34132,35.75601],[139.34149,35.75643],[139.34054,35.75665],[139.34165,35.75883],[139.3418,35.75926],[139.3419,35.75984],[139.34191,35.76029],[139.34186,35.76063],[139.34126,35.76332],[139.34131,35.76332],[139.34115,35.76405],[139.34184,35.76374]]]}},{"type":"Feature","properties":{"id":"area-133030170","name":"横田基地"},"geometry":{"type":"MultiPolygon","coordinates":[[[[139.35859,35.74536],[139.35815,35.74446],[139.35712,35.74479],[139.35625,35.74511],[139.35675,35.74583],[139.3568,35.74584],[139.35859,35.74536]]],[[[139.35019,35.75674],[139.35081,35.75369],[139.35624,35.75443],[139.35707,35.75039],[139.35656,35.75051],[139.35604,35.74934],[139.35574,35.74835],[139.35555,35.74835],[139.35531,35.74795],[139.35518,35.74755],[139.35528,35.74742],[139.35573,35.74764],[139.35586,35.74748],[139.35651,35.7475],[139.35643,35.74668],[139.3564,35.74663],[139.35461,35.74581],[139.35107,35.74694],[139.35007,35.74786],[139.35088,35.74528],[139.351,35.74507],[139.35334,35.74257],[139.35216,35.74163],[139.35185,35.74129],[139.34575,35.747],[139.34226,35.7461],[139.34262,35.74966],[139.34323,35.75362],[139.34234,35.75408],[139.34217,35.75394],[139.34166,35.75404],[139.34142,35.75373],[139.34046,35.75408],[139.33995,35.75392],[139.33971,35.75431],[139.33899,35.75432],[139.33896,35.75447],[139.33872,35.75491],[139.33912,35.75515],[139.3391,35.7552],[139.33899,35.75531],[139.3392,35.75554],[139.33874,35.75558],[139.3383,35.75532],[139.33817,35.7559],[139.33858,35.75601],[139.33848,35.75641],[139.33847,35.75654],[139.33855,35.75698],[139.33901,35.75688],[139.33905,35.75697],[139.33924,35.75711],[139.33914,35.75722],[139.33961,35.7576],[139.34007,35.75728],[139.34074,35.75704],[139.34054,35.75665],[139.34149,35.75643],[139.34132,35.75601],[139.34209,35.75581],[139.34271,35.75686],[139.34288,35.75724],[139.343,35.75772],[139.34301,35.75811],[139.34172,35.76429],[139.34167,35.76461],[139.34165,35.76501],[139.3417,35.76539],[139.34178,35.76563],[139.34196,35.76604],[139.34235,35.76654],[139.34285,35.76696],[139.34331,35.76721],[139.34386,35.76741],[139.34429,35.76749],[139.34594,35.76769],[139.34618,35.76775],[139.3465,35.76787],[139.34679,35.76803],[139.34707,35.76825],[139.34735,35.76855],[139.34747,35.7685],[139.3472,35.76663],[139.34752,35.76515],[139.34858,35.76453],[139.35019,35.75674]]]]}}]}