{"type":"FeatureCollection","features":[{"type":"Feature","properties":{"id":"area-13307001001","name":"下元郷"},"geometry":{"type":"Polygon","coordinates":[[[139.16424,35.74146],[139.16406,35.74062],[139.16421,35.74041],[139.16442,35.7392],[139.16439,35.7387],[139.16443,35.73816],[139.16461,35.73764],[139.1648,35.73728],[139.16541,35.73682],[139.16577,35.73639],[139.16596,35.73603],[139.1657,35.73568],[139.16501,35.73339],[139.1644,35.73266],[139.16439,35.73245],[139.16451,35.73183],[139.16468,35.73156],[139.16494,35.73131],[139.16491,35.73044],[139.16623,35.72948],[139.1663,35.7292],[139.1662,35.72877],[139.16549,35.72744],[139.16542,35.7269],[139.16553,35.72459],[139.16616,35.72444],[139.16635,35.72431],[139.16658,35.72393],[139.16697,35.72268],[139.16738,35.72215],[139.1674,35.72186],[139.16727,35.72154],[139.16703,35.72137],[139.16696,35.72127],[139.16693,35.72097],[139.16715,35.7208],[139.16719,35.72071],[139.16717,35.72063],[139.16707,35.72056],[139.16698,35.72056],[139.16641,35.72028],[139.16654,35.72009],[139.16682,35.71996],[139.16691,35.71974],[139.16648,35.71905],[139.16598,35.71873],[139.16584,35.7185],[139.16599,35.71777],[139.16586,35.71699],[139.16618,35.71607],[139.16627,35.71527],[139.16647,35.71479],[139.16657,35.7142],[139.16648,35.71384],[139.16601,35.71264],[139.16507,35.71133],[139.16519,35.71118],[139.16529,35.71097],[139.16513,35.71028],[139.16522,35.70942],[139.16512,35.70854],[139.16406,35.70904],[139.16349,35.7095],[139.16265,35.71107],[139.16248,35.71275],[139.16177,35.7141],[139.16096,35.7145],[139.16005,35.71472],[139.15855,35.71609],[139.15834,35.71664],[139.15783,35.71751],[139.15639,35.71918],[139.15762,35.72149],[139.15771,35.72211],[139.15739,35.72301],[139.15697,35.72381],[139.15686,35.72446],[139.15674,35.72531],[139.15691,35.72619],[139.15671,35.72665],[139.15649,35.72731],[139.15666,35.72831],[139.15647,35.72897],[139.15654,35.72988],[139.15556,35.73168],[139.15485,35.73333],[139.15497,35.73383],[139.15593,35.7351],[139.15614,35.73549],[139.15637,35.73575],[139.15683,35.73665],[139.15735,35.73754],[139.15768,35.73848],[139.1579,35.73923],[139.15796,35.73982],[139.15816,35.74044],[139.15784,35.74034],[139.15821,35.74084],[139.1585,35.74145],[139.15904,35.74233],[139.15946,35.74328],[139.15962,35.74352],[139.16019,35.74345],[139.16089,35.74328],[139.16144,35.74306],[139.16174,35.74278],[139.16212,35.74231],[139.16292,35.74189],[139.16306,35.74174],[139.16331,35.74157],[139.1638,35.74146],[139.16424,35.74146]]]}},{"type":"Feature","properties":{"id":"area-13307001002","name":"上元郷"},"geometry":{"type":"Polygon","coordinates":[[[139.15485,35.73333],[139.15556,35.73168],[139.15654,35.72988],[139.15647,35.72897],[139.15666,35.72831],[139.15649,35.72731],[139.15671,35.72665],[139.15691,35.72619],[139.15674,35.72531],[139.15686,35.72446],[139.15697,35.72381],[139.15739,35.72301],[139.15771,35.72211],[139.15762,35.72149],[139.15639,35.71918],[139.15559,35.71989],[139.15458,35.72064],[139.15194,35.72251],[139.15107,35.72329],[139.15071,35.72392],[139.14863,35.72607],[139.14828,35.72654],[139.1481,35.72705],[139.14959,35.73243],[139.15205,35.73258],[139.15301,35.73272],[139.15361,35.73287],[139.15452,35.73321],[139.15469,35.73335],[139.15485,35.73333]]]}},{"type":"Feature","properties":{"id":"area-13307001003","name":"本宿"},"geometry":{"type":"Polygon","coordinates":[[[139.13351,35.73489],[139.13399,35.73482],[139.13504,35.73484],[139.13532,35.73482],[139.1356,35.73487],[139.13571,35.73479],[139.13721,35.73479],[139.13839,35.73468],[139.13901,35.73456],[139.13986,35.73429],[139.14193,35.73383],[139.14292,35.73357],[139.14369,35.73332],[139.14438,35.7332],[139.14519,35.73287],[139.1459,35.7325],[139.14629,35.73246],[139.14804,35.73274],[139.14889,35.73284],[139.1493,35.73284],[139.14948,35.73275],[139.14959,35.73243],[139.1481,35.72705],[139.14828,35.72654],[139.14863,35.72607],[139.15071,35.72392],[139.15107,35.72329],[139.15194,35.72251],[139.15458,35.72064],[139.15559,35.71989],[139.15639,35.71918],[139.15783,35.71751],[139.15834,35.71664],[139.15855,35.71609],[139.15927,35.71546],[139.15972,35.71501],[139.16005,35.71472],[139.16096,35.7145],[139.16177,35.7141],[139.16248,35.71275],[139.16265,35.71107],[139.16349,35.7095],[139.16406,35.70904],[139.16508,35.70856],[139.16516,35.70787],[139.16531,35.70746],[139.16532,35.70636],[139.16645,35.70602],[139.16772,35.70453],[139.16799,35.70427],[139.16841,35.70401],[139.17036,35.70344],[139.17069,35.70313],[139.17114,35.70243],[139.17194,35.70197],[139.17239,35.70166],[139.17255,35.70135],[139.17265,35.69955],[139.17243,35.69846],[139.17283,35.69688],[139.17239,35.69618],[139.17225,35.69579],[139.17235,35.69361],[139.17203,35.69271],[139.17179,35.69241],[139.17128,35.69213],[139.17097,35.69166],[139.17046,35.69118],[139.16995,35.69086],[139.16981,35.69065],[139.16966,35.68987],[139.17027,35.68962],[139.17104,35.689],[139.17133,35.68884],[139.17169,35.68809],[139.17165,35.68737],[139.17106,35.68606],[139.17109,35.68557],[139.17153,35.68486],[139.17173,35.68418],[139.17096,35.68365],[139.17057,35.68274],[139.17059,35.68219],[139.17014,35.68135],[139.17004,35.68088],[139.17008,35.68048],[139.17007,35.6797],[139.16962,35.67902],[139.1687,35.67834],[139.16857,35.67813],[139.16812,35.67691],[139.16791,35.67656],[139.16772,35.67637],[139.16713,35.67601],[139.16642,35.67547],[139.16614,35.67514],[139.16613,35.67485],[139.16623,35.67386],[139.16592,35.67293],[139.16587,35.67242],[139.16555,35.67182],[139.16525,35.67162],[139.16496,35.67103],[139.16491,35.67064],[139.16491,35.67019],[139.16475,35.66995],[139.16428,35.6699],[139.16366,35.66912],[139.16305,35.66883],[139.16254,35.66832],[139.16163,35.66785],[139.16055,35.66776],[139.15932,35.66744],[139.15818,35.66695],[139.15768,35.66679],[139.15715,35.66637],[139.15703,35.66633],[139.15665,35.66637],[139.15603,35.66651],[139.15496,35.66629],[139.15378,35.66586],[139.15315,35.66618],[139.15232,35.66645],[139.15082,35.66669],[139.14857,35.66676],[139.14761,35.66674],[139.14705,35.66679],[139.14625,35.66704],[139.14586,35.66726],[139.14528,35.66769],[139.14478,35.66819],[139.14445,35.66846],[139.14417,35.6686],[139.14342,35.6688],[139.14296,35.66908],[139.14271,35.66951],[139.14269,35.66966],[139.14337,35.67031],[139.14486,35.6715],[139.14584,35.67241],[139.14629,35.67266],[139.14667,35.67311],[139.14738,35.6743],[139.14781,35.67487],[139.14804,35.67546],[139.14825,35.6759],[139.1484,35.67744],[139.14831,35.67829],[139.14801,35.67957],[139.14795,35.68033],[139.14766,35.68088],[139.14757,35.68166],[139.14738,35.68259],[139.1471,35.68302],[139.14677,35.68361],[139.14687,35.6842],[139.14677,35.68464],[139.14656,35.6849],[139.14634,35.68525],[139.14607,35.6855],[139.14531,35.68591],[139.14475,35.68641],[139.14428,35.68699],[139.14332,35.68831],[139.14242,35.68917],[139.14291,35.69035],[139.14338,35.69098],[139.14392,35.69151],[139.14442,35.69188],[139.14648,35.69249],[139.14734,35.69286],[139.14787,35.69387],[139.1481,35.69447],[139.14806,35.69496],[139.14829,35.69558],[139.14853,35.696],[139.14884,35.69629],[139.14937,35.69657],[139.1498,35.69684],[139.15036,35.69703],[139.15092,35.69736],[139.15143,35.6979],[139.15185,35.69856],[139.15203,35.69911],[139.15158,35.70025],[139.15089,35.70151],[139.15066,35.70204],[139.15079,35.70243],[139.15137,35.7028],[139.15188,35.70301],[139.1527,35.7035],[139.15332,35.70408],[139.15384,35.70496],[139.15401,35.70558],[139.15376,35.70628],[139.15327,35.70679],[139.15226,35.70732],[139.15115,35.7077],[139.14771,35.70838],[139.14611,35.70864],[139.14392,35.7089],[139.14253,35.70931],[139.13988,35.71019],[139.1392,35.71064],[139.13857,35.71087],[139.1355,35.71256],[139.13391,35.71361],[139.1336,35.71406],[139.13332,35.71472],[139.13308,35.71565],[139.13298,35.71661],[139.13263,35.71747],[139.13266,35.71774],[139.13225,35.71827],[139.13205,35.71835],[139.13073,35.71962],[139.13012,35.71979],[139.13008,35.72054],[139.13034,35.7208],[139.13074,35.72188],[139.13014,35.72311],[139.12987,35.72407],[139.12972,35.72488],[139.12986,35.72523],[139.12992,35.72569],[139.12921,35.72633],[139.12828,35.72856],[139.12802,35.72899],[139.12772,35.72925],[139.12757,35.72959],[139.1275,35.73005],[139.1294,35.73042],[139.12969,35.73062],[139.1308,35.73239],[139.13098,35.73328],[139.13208,35.73471],[139.13268,35.73524],[139.13351,35.73489]]]}},{"type":"Feature","properties":{"id":"area-13307001004","name":"南郷"},"geometry":{"type":"Polygon","coordinates":[[[139.1177,35.7203],[139.11851,35.71989],[139.11906,35.71995],[139.12052,35.71999],[139.12142,35.71953],[139.12193,35.71942],[139.12494,35.71931],[139.12544,35.71925],[139.12576,35.71937],[139.12638,35.71939],[139.12684,35.71948],[139.12742,35.71951],[139.12762,35.71958],[139.12778,35.71968],[139.12824,35.71961],[139.12847,35.71951],[139.12909,35.71958],[139.13012,35.71979],[139.13073,35.71962],[139.13205,35.71835],[139.13225,35.71827],[139.13266,35.71774],[139.13263,35.71747],[139.13298,35.71661],[139.13308,35.71565],[139.13332,35.71472],[139.1336,35.71406],[139.13391,35.71361],[139.1355,35.71256],[139.13857,35.71087],[139.1392,35.71064],[139.13988,35.71019],[139.14253,35.70931],[139.14392,35.7089],[139.14611,35.70864],[139.14771,35.70838],[139.15115,35.7077],[139.15226,35.70732],[139.15327,35.70679],[139.15376,35.70628],[139.15401,35.70558],[139.15384,35.70496],[139.15332,35.70408],[139.1527,35.7035],[139.15188,35.70301],[139.15137,35.7028],[139.15079,35.70243],[139.15066,35.70204],[139.15089,35.70151],[139.15158,35.70025],[139.15203,35.69911],[139.15185,35.69856],[139.15143,35.6979],[139.15092,35.69736],[139.15036,35.69703],[139.1498,35.69684],[139.14937,35.69657],[139.14884,35.69629],[139.14853,35.696],[139.14829,35.69558],[139.14806,35.69496],[139.1481,35.69447],[139.14787,35.69387],[139.14734,35.69286],[139.14648,35.69249],[139.14442,35.69188],[139.14392,35.69151],[139.14338,35.69098],[139.14291,35.69035],[139.14242,35.68917],[139.14332,35.68831],[139.14428,35.68699],[139.14475,35.68641],[139.14531,35.68591],[139.14607,35.6855],[139.14634,35.68525],[139.14656,35.6849],[139.14677,35.68464],[139.14687,35.6842],[139.14677,35.68361],[139.1471,35.68302],[139.14738,35.68259],[139.14757,35.68166],[139.14766,35.68088],[139.14795,35.68033],[139.14801,35.67957],[139.14831,35.67829],[139.1484,35.67744],[139.14825,35.6759],[139.14804,35.67546],[139.14781,35.67487],[139.14738,35.6743],[139.14667,35.67311],[139.14629,35.67266],[139.14584,35.67241],[139.14486,35.6715],[139.14337,35.67031],[139.14269,35.66966],[139.14266,35.66987],[139.14286,35.66989],[139.14111,35.67041],[139.14056,35.67053],[139.14015,35.67055],[139.13917,35.67037],[139.13881,35.67051],[139.13854,35.67069],[139.13815,35.67121],[139.13724,35.67173],[139.13694,35.67218],[139.13675,35.67232],[139.13632,35.67232],[139.13594,35.67225],[139.13544,35.67223],[139.13527,35.67226],[139.13414,35.67264],[139.13361,35.67276],[139.13304,35.67269],[139.13211,35.67233],[139.1317,35.67208],[139.13097,35.67182],[139.13095,35.67198],[139.13072,35.67245],[139.1304,35.67293],[139.1296,35.67361],[139.12949,35.67422],[139.12907,35.67472],[139.12885,35.6751],[139.12742,35.67643],[139.12686,35.67672],[139.12526,35.67732],[139.12482,35.67759],[139.12446,35.67771],[139.12404,35.67759],[139.12357,35.67737],[139.12344,35.67735],[139.12307,35.67751],[139.12257,35.67832],[139.12219,35.67864],[139.12182,35.67877],[139.12164,35.67899],[139.12145,35.67915],[139.12095,35.67931],[139.12056,35.67962],[139.1201,35.6799],[139.1196,35.68006],[139.11927,35.68028],[139.11914,35.68065],[139.11911,35.68101],[139.11886,35.68146],[139.11834,35.68198],[139.11751,35.68266],[139.11664,35.68357],[139.11634,35.68382],[139.11572,35.68391],[139.11497,35.68412],[139.11437,35.68434],[139.11374,35.68442],[139.11312,35.68464],[139.11274,35.68492],[139.11247,35.68532],[139.11181,35.68613],[139.11117,35.68672],[139.11107,35.68712],[139.11069,35.68778],[139.1094,35.68866],[139.1089,35.68914],[139.10851,35.68964],[139.10812,35.68998],[139.10747,35.69039],[139.10645,35.69082],[139.10587,35.69114],[139.10562,35.69118],[139.10504,35.69098],[139.10435,35.69112],[139.10316,35.69156],[139.10131,35.69191],[139.10089,35.69193],[139.10004,35.69211],[139.0996,35.69234],[139.09899,35.69248],[139.09821,35.69239],[139.09735,35.69246],[139.09688,35.69231],[139.09671,35.69215],[139.0961,35.69171],[139.0956,35.69126],[139.09546,35.69123],[139.09519,35.69139],[139.0948,35.69153],[139.09425,35.69146],[139.09378,35.69153],[139.09328,35.69171],[139.09286,35.69145],[139.09273,35.69127],[139.09244,35.69076],[139.09225,35.69053],[139.09023,35.69116],[139.08949,35.69146],[139.08816,35.69174],[139.08745,35.69199],[139.08791,35.69241],[139.0889,35.69294],[139.09096,35.69392],[139.09212,35.69464],[139.09297,35.69505],[139.09417,35.69572],[139.09578,35.69638],[139.09796,35.69716],[139.09902,35.6979],[139.1006,35.6999],[139.10124,35.70126],[139.10136,35.70221],[139.1012,35.70277],[139.10081,35.70387],[139.10083,35.70427],[139.10113,35.70476],[139.10195,35.7056],[139.10257,35.70615],[139.10284,35.70659],[139.10311,35.7073],[139.10288,35.70817],[139.10235,35.70888],[139.10181,35.71006],[139.10155,35.71109],[139.10162,35.71104],[139.10155,35.71179],[139.10165,35.71218],[139.10165,35.71236],[139.10193,35.71341],[139.10239,35.71454],[139.10242,35.71521],[139.10267,35.71646],[139.10265,35.71822],[139.10259,35.71898],[139.1027,35.71968],[139.1027,35.72004],[139.10341,35.72017],[139.10381,35.7204],[139.10466,35.72052],[139.10522,35.7205],[139.10609,35.72031],[139.10668,35.72028],[139.10736,35.72045],[139.10802,35.72053],[139.10866,35.72048],[139.1093,35.72039],[139.10975,35.72042],[139.10976,35.72032],[139.11036,35.72034],[139.1111,35.72011],[139.11142,35.71997],[139.11312,35.72025],[139.11394,35.72043],[139.11522,35.72067],[139.11586,35.72066],[139.1169,35.72047],[139.1177,35.7203]]]}},{"type":"Feature","properties":{"id":"area-13307001005","name":"人里"},"geometry":{"type":"Polygon","coordinates":[[[139.08305,35.72522],[139.08354,35.72462],[139.08377,35.72467],[139.08385,35.72439],[139.08398,35.7243],[139.08507,35.7237],[139.08622,35.72315],[139.08707,35.72261],[139.08756,35.72223],[139.08825,35.72186],[139.08852,35.72159],[139.08896,35.72141],[139.09013,35.7213],[139.09088,35.72138],[139.09215,35.72143],[139.09288,35.72123],[139.09313,35.72107],[139.09424,35.72085],[139.09542,35.72041],[139.09724,35.72051],[139.09766,35.7204],[139.09829,35.72036],[139.09931,35.71992],[139.09994,35.71983],[139.10125,35.71985],[139.1027,35.71982],[139.10259,35.71898],[139.10265,35.71822],[139.10267,35.71646],[139.10242,35.71521],[139.10239,35.71454],[139.10193,35.71341],[139.10165,35.71236],[139.10165,35.71218],[139.10155,35.71179],[139.10162,35.71104],[139.10155,35.71109],[139.10181,35.71006],[139.10235,35.70888],[139.10288,35.70817],[139.10311,35.7073],[139.10284,35.70659],[139.10257,35.70615],[139.10195,35.7056],[139.10113,35.70476],[139.10083,35.70427],[139.10081,35.70387],[139.1012,35.70277],[139.10136,35.70221],[139.10124,35.70126],[139.1006,35.6999],[139.09902,35.6979],[139.09796,35.69716],[139.09578,35.69638],[139.09417,35.69572],[139.09297,35.69505],[139.09212,35.69464],[139.09096,35.69392],[139.0889,35.69294],[139.08791,35.69241],[139.08745,35.69199],[139.08684,35.6924],[139.08618,35.69301],[139.0857,35.69321],[139.08506,35.6932],[139.08454,35.69329],[139.08389,35.69412],[139.08353,35.69445],[139.08295,35.69476],[139.0824,35.69541],[139.08201,35.69566],[139.08149,35.69567],[139.08115,35.69571],[139.08088,35.6958],[139.08074,35.6958],[139.08024,35.6957],[139.07828,35.69582],[139.07761,35.69557],[139.07705,35.69515],[139.07648,35.695],[139.07617,35.69497],[139.07562,35.69509],[139.07518,35.69559],[139.0747,35.69572],[139.07409,35.69565],[139.07388,35.69557],[139.07313,35.69546],[139.07243,35.69542],[139.07219,35.69551],[139.0718,35.69615],[139.07155,35.69669],[139.0712,35.69725],[139.07095,35.69756],[139.07073,35.6977],[139.06894,35.69805],[139.06753,35.6985],[139.06705,35.6985],[139.0667,35.69858],[139.06614,35.69822],[139.06584,35.69788],[139.06542,35.6978],[139.06493,35.69811],[139.06454,35.69861],[139.06369,35.69992],[139.0633,35.7004],[139.06262,35.7009],[139.06173,35.70128],[139.0609,35.70155],[139.06008,35.70179],[139.05917,35.70199],[139.05848,35.70222],[139.05803,35.70254],[139.05787,35.70269],[139.05723,35.7029],[139.05638,35.70313],[139.05448,35.70402],[139.05337,35.70468],[139.05279,35.70494],[139.05234,35.70497],[139.05213,35.7049],[139.0521,35.70495],[139.05215,35.70538],[139.05199,35.70588],[139.05167,35.70634],[139.05125,35.70678],[139.05114,35.707],[139.05211,35.70758],[139.05241,35.70821],[139.05268,35.70848],[139.05314,35.70855],[139.05366,35.70884],[139.0542,35.70925],[139.05453,35.70945],[139.05485,35.70975],[139.05607,35.71014],[139.05686,35.7107],[139.05743,35.711],[139.0577,35.71134],[139.05802,35.71163],[139.05854,35.71242],[139.06055,35.7127],[139.06164,35.71291],[139.06281,35.71296],[139.06376,35.71323],[139.06534,35.71358],[139.06656,35.71399],[139.0671,35.71431],[139.06827,35.71537],[139.06905,35.71623],[139.06946,35.71682],[139.06983,35.71747],[139.07016,35.71785],[139.07062,35.71866],[139.07156,35.72058],[139.07237,35.72184],[139.07291,35.72238],[139.07356,35.7229],[139.07423,35.72369],[139.0745,35.72417],[139.07471,35.72502],[139.07509,35.72556],[139.07566,35.72624],[139.07599,35.72647],[139.07647,35.72669],[139.07816,35.72709],[139.07851,35.72711],[139.07944,35.72725],[139.08026,35.72764],[139.08062,35.72759],[139.08067,35.72737],[139.08178,35.72726],[139.08225,35.72713],[139.08249,35.72688],[139.08291,35.72628],[139.08311,35.72543],[139.08305,35.72522]]]}},{"type":"Feature","properties":{"id":"area-13307001006","name":"数馬"},"geometry":{"type":"Polygon","coordinates":[[[139.04072,35.74435],[139.04143,35.74107],[139.04184,35.74],[139.0422,35.73953],[139.04393,35.73783],[139.04448,35.73646],[139.04487,35.73597],[139.04522,35.73559],[139.04561,35.73532],[139.04681,35.73492],[139.0479,35.7345],[139.04872,35.73399],[139.04894,35.73374],[139.04946,35.7335],[139.04979,35.73307],[139.05023,35.73278],[139.05061,35.73263],[139.05307,35.73221],[139.05484,35.73184],[139.05525,35.73146],[139.05585,35.7311],[139.05645,35.73079],[139.05686,35.7307],[139.05743,35.73066],[139.05809,35.73069],[139.05912,35.73085],[139.05991,35.73077],[139.06048,35.73086],[139.06089,35.7307],[139.06152,35.73053],[139.06209,35.73044],[139.06256,35.73049],[139.06326,35.73082],[139.06339,35.73091],[139.0635,35.73093],[139.06438,35.73133],[139.06481,35.73147],[139.06557,35.73143],[139.06612,35.73127],[139.06757,35.73029],[139.0679,35.72995],[139.06929,35.72944],[139.07098,35.72896],[139.07158,35.72889],[139.07199,35.72896],[139.07259,35.72951],[139.07327,35.72973],[139.0737,35.72974],[139.07409,35.72969],[139.07466,35.72979],[139.07504,35.72995],[139.07572,35.7299],[139.07629,35.7298],[139.07683,35.72955],[139.07762,35.72933],[139.07782,35.72915],[139.07845,35.72886],[139.07935,35.72828],[139.08026,35.72764],[139.07944,35.72725],[139.07851,35.72711],[139.07816,35.72709],[139.07647,35.72669],[139.07599,35.72647],[139.07566,35.72624],[139.07509,35.72556],[139.07471,35.72502],[139.0745,35.72417],[139.07423,35.72369],[139.07356,35.7229],[139.07291,35.72238],[139.07237,35.72184],[139.07156,35.72058],[139.07062,35.71866],[139.07016,35.71785],[139.06983,35.71747],[139.06946,35.71682],[139.06905,35.71623],[139.06827,35.71537],[139.0671,35.71431],[139.06656,35.71399],[139.06534,35.71358],[139.06376,35.71323],[139.06281,35.71296],[139.06164,35.71291],[139.06055,35.7127],[139.05854,35.71242],[139.05802,35.71163],[139.0577,35.71134],[139.05743,35.711],[139.05686,35.7107],[139.05607,35.71014],[139.05485,35.70975],[139.05453,35.70945],[139.0542,35.70925],[139.05366,35.70884],[139.05314,35.70855],[139.05268,35.70848],[139.05241,35.70821],[139.05211,35.70758],[139.05114,35.707],[139.05098,35.70732],[139.05079,35.70748],[139.05021,35.70748],[139.04993,35.70769],[139.04966,35.70782],[139.04904,35.70791],[139.04836,35.70814],[139.04808,35.70839],[139.04784,35.709],[139.04757,35.70925],[139.04701,35.70945],[139.04657,35.70939],[139.04427,35.70938],[139.04344,35.70949],[139.04269,35.70993],[139.04233,35.71027],[139.04182,35.71056],[139.04112,35.71081],[139.04002,35.71104],[139.03902,35.71138],[139.03849,35.71173],[139.03753,35.71285],[139.03698,35.71315],[139.03646,35.71338],[139.03599,35.71381],[139.03506,35.71489],[139.03489,35.71498],[139.03368,35.71535],[139.03321,35.71569],[139.03291,35.71601],[139.03229,35.71621],[139.03202,35.71626],[139.03026,35.71629],[139.02951,35.71652],[139.02832,35.71752],[139.02796,35.71765],[139.02741,35.71806],[139.02713,35.71815],[139.02672,35.71863],[139.02606,35.71901],[139.02562,35.71935],[139.0245,35.72037],[139.02422,35.72088],[139.02395,35.72122],[139.0231,35.7217],[139.02273,35.72209],[139.02227,35.72267],[139.02211,35.72324],[139.02233,35.72445],[139.02228,35.72483],[139.0219,35.72565],[139.02143,35.72682],[139.02078,35.72784],[139.02017,35.72832],[139.01957,35.72888],[139.01863,35.72992],[139.01831,35.73051],[139.01822,35.73098],[139.01808,35.73127],[139.01732,35.73172],[139.01673,35.73213],[139.01613,35.73302],[139.01588,35.7332],[139.01533,35.73329],[139.01508,35.73347],[139.01476,35.73435],[139.0141,35.73492],[139.01388,35.73535],[139.0138,35.73584],[139.0132,35.73677],[139.01278,35.73785],[139.0125,35.73882],[139.01257,35.73887],[139.01327,35.739],[139.01368,35.73897],[139.01382,35.73891],[139.01405,35.73867],[139.01432,35.73857],[139.01487,35.73854],[139.01537,35.73862],[139.01565,35.73885],[139.01596,35.73903],[139.01614,35.73904],[139.0166,35.73896],[139.01708,35.73902],[139.01742,35.73927],[139.01776,35.73961],[139.01828,35.73962],[139.01895,35.73978],[139.02001,35.73996],[139.02083,35.73995],[139.02167,35.74002],[139.02217,35.74017],[139.02267,35.74042],[139.02331,35.74087],[139.02411,35.74122],[139.02663,35.742],[139.02719,35.74229],[139.02736,35.74242],[139.02749,35.74278],[139.02751,35.74335],[139.02762,35.7438],[139.02806,35.74427],[139.02832,35.74442],[139.02862,35.74437],[139.02978,35.74455],[139.03099,35.74439],[139.03172,35.74443],[139.03213,35.74413],[139.03252,35.74372],[139.03307,35.74347],[139.03348,35.74316],[139.03373,35.74289],[139.03433,35.74255],[139.03481,35.74237],[139.03533,35.74241],[139.03547,35.74246],[139.03603,35.74292],[139.03676,35.74328],[139.03828,35.7437],[139.03903,35.74397],[139.03983,35.74432],[139.04041,35.74472],[139.04072,35.74435]]]}},{"type":"Feature","properties":{"id":"area-13307001007","name":"三都郷"},"geometry":{"type":"Polygon","coordinates":[[[139.13928,35.75523],[139.13999,35.75515],[139.14068,35.75519],[139.14072,35.75549],[139.14096,35.7553],[139.14097,35.75536],[139.14116,35.75546],[139.14182,35.75559],[139.14232,35.75564],[139.14311,35.75547],[139.14361,35.75545],[139.14426,35.75535],[139.1451,35.75502],[139.14556,35.75465],[139.14647,35.75438],[139.14691,35.75413],[139.14749,35.75407],[139.14822,35.75413],[139.14868,35.75428],[139.1491,35.75427],[139.14946,35.75414],[139.14976,35.75358],[139.15007,35.75322],[139.15071,35.75289],[139.15108,35.75231],[139.15159,35.75181],[139.15161,35.75167],[139.1519,35.75136],[139.15361,35.75043],[139.15398,35.75014],[139.15401,35.74919],[139.15427,35.74847],[139.155,35.74785],[139.15563,35.74744],[139.15597,35.74712],[139.1561,35.74681],[139.15621,35.74551],[139.15633,35.7451],[139.15646,35.74504],[139.15672,35.74479],[139.15709,35.74462],[139.15737,35.74456],[139.15813,35.74432],[139.15867,35.74406],[139.15899,35.74375],[139.15925,35.74357],[139.15962,35.74352],[139.15946,35.74328],[139.15904,35.74233],[139.1585,35.74145],[139.15821,35.74084],[139.15784,35.74034],[139.15816,35.74044],[139.15796,35.73982],[139.1579,35.73923],[139.15768,35.73848],[139.15735,35.73754],[139.15683,35.73665],[139.15637,35.73575],[139.15614,35.73549],[139.15593,35.7351],[139.15497,35.73383],[139.15485,35.73333],[139.15469,35.73335],[139.15452,35.73321],[139.15361,35.73287],[139.15301,35.73272],[139.15205,35.73258],[139.14959,35.73243],[139.14948,35.73275],[139.1493,35.73284],[139.14889,35.73284],[139.14804,35.73274],[139.14629,35.73246],[139.1459,35.7325],[139.14519,35.73287],[139.14438,35.7332],[139.14369,35.73332],[139.14292,35.73357],[139.14193,35.73383],[139.13986,35.73429],[139.13901,35.73456],[139.13839,35.73468],[139.13721,35.73479],[139.13571,35.73479],[139.1356,35.73487],[139.13532,35.73482],[139.13504,35.73484],[139.13399,35.73482],[139.13351,35.73489],[139.13268,35.73524],[139.13245,35.73504],[139.13222,35.73527],[139.1306,35.73642],[139.12864,35.73792],[139.12796,35.73837],[139.12659,35.73948],[139.12538,35.74082],[139.12497,35.74134],[139.12473,35.74172],[139.12463,35.74223],[139.12516,35.74275],[139.12533,35.74316],[139.12542,35.74378],[139.12536,35.74445],[139.12502,35.74538],[139.12526,35.74614],[139.1254,35.7469],[139.12549,35.74802],[139.12522,35.74924],[139.12617,35.75151],[139.12728,35.75333],[139.12846,35.75478],[139.12882,35.75528],[139.1296,35.75594],[139.13095,35.75726],[139.13186,35.75795],[139.13264,35.75759],[139.13364,35.75725],[139.13566,35.75679],[139.13734,35.75596],[139.13928,35.75523]]]}},{"type":"Feature","properties":{"id":"area-13307001008","name":"大嶽"},"geometry":{"type":"Polygon","coordinates":[[[139.13606,35.7702],[139.13699,35.76939],[139.13816,35.76873],[139.13909,35.76806],[139.14036,35.76763],[139.14143,35.76736],[139.14378,35.7661],[139.14417,35.76563],[139.14471,35.7648],[139.14508,35.76395],[139.1458,35.76325],[139.14674,35.76248],[139.14723,35.76221],[139.14668,35.7618],[139.14628,35.76123],[139.14567,35.76104],[139.14523,35.76049],[139.14446,35.76017],[139.14252,35.76008],[139.14215,35.75976],[139.14068,35.75919],[139.14034,35.75872],[139.14004,35.75768],[139.14012,35.75725],[139.1401,35.75721],[139.14041,35.75589],[139.14072,35.75549],[139.14068,35.75519],[139.13999,35.75515],[139.13928,35.75523],[139.13734,35.75596],[139.13566,35.75679],[139.13364,35.75725],[139.13264,35.75759],[139.13186,35.75795],[139.13153,35.75857],[139.13086,35.75942],[139.13029,35.75986],[139.12948,35.7606],[139.12927,35.76113],[139.12908,35.76173],[139.12925,35.76224],[139.12933,35.76307],[139.12968,35.76383],[139.13026,35.76522],[139.13066,35.76502],[139.13072,35.76502],[139.13144,35.7656],[139.13268,35.76615],[139.13324,35.76718],[139.13367,35.76769],[139.13428,35.76797],[139.13468,35.76838],[139.13497,35.76873],[139.13531,35.76929],[139.13606,35.7702]]]}},{"type":"Feature","properties":{"id":"area-13307001009","name":"神戸"},"geometry":{"type":"Polygon","coordinates":[[[139.10558,35.77939],[139.10582,35.77933],[139.10602,35.77911],[139.10608,35.77899],[139.10696,35.77792],[139.10748,35.77701],[139.10803,35.77671],[139.10848,35.77656],[139.10883,35.77628],[139.10936,35.776],[139.10982,35.77555],[139.11021,35.77538],[139.1105,35.77536],[139.11123,35.77519],[139.11201,35.77491],[139.11297,35.77426],[139.11357,35.77402],[139.11412,35.77385],[139.11474,35.77324],[139.11502,35.77283],[139.11566,35.77241],[139.11592,35.77235],[139.11657,35.77182],[139.11709,35.77162],[139.11761,35.77153],[139.11824,35.77152],[139.11931,35.77087],[139.12014,35.77031],[139.12058,35.77019],[139.12102,35.76981],[139.12126,35.76968],[139.12191,35.76966],[139.12221,35.76975],[139.12262,35.76972],[139.12422,35.76882],[139.12477,35.76841],[139.12503,35.76805],[139.12524,35.76761],[139.12554,35.76731],[139.12602,35.76716],[139.12743,35.76696],[139.12806,35.76691],[139.12848,35.76674],[139.12946,35.76567],[139.12976,35.76548],[139.13026,35.76522],[139.12968,35.76383],[139.12933,35.76307],[139.12925,35.76224],[139.12908,35.76173],[139.12927,35.76113],[139.12948,35.7606],[139.13029,35.75986],[139.13086,35.75942],[139.13153,35.75857],[139.13186,35.75795],[139.13095,35.75726],[139.1296,35.75594],[139.12882,35.75528],[139.12846,35.75478],[139.12728,35.75333],[139.12617,35.75151],[139.12522,35.74924],[139.12549,35.74802],[139.1254,35.7469],[139.12526,35.74614],[139.12502,35.74538],[139.12536,35.74445],[139.12542,35.74378],[139.1248,35.74404],[139.12319,35.74431],[139.12255,35.74435],[139.12187,35.74429],[139.12117,35.74392],[139.12054,35.74368],[139.11994,35.74347],[139.11929,35.74332],[139.11675,35.74336],[139.116,35.74363],[139.11538,35.74373],[139.11389,35.74386],[139.11256,35.74463],[139.11138,35.7451],[139.10914,35.74608],[139.10779,35.74661],[139.10673,35.74685],[139.10574,35.74688],[139.10393,35.74735],[139.10261,35.7479],[139.10142,35.74866],[139.10062,35.74931],[139.09954,35.75011],[139.09904,35.75024],[139.09833,35.75067],[139.0969,35.75126],[139.09525,35.75165],[139.09458,35.75191],[139.0943,35.75264],[139.09389,35.75338],[139.09353,35.75387],[139.09269,35.7549],[139.09131,35.75685],[139.09082,35.75742],[139.09008,35.75861],[139.08976,35.75902],[139.08851,35.75987],[139.08662,35.76159],[139.08661,35.76306],[139.08651,35.76402],[139.0863,35.76446],[139.0857,35.76496],[139.08495,35.76521],[139.08304,35.76604],[139.08242,35.76638],[139.08198,35.76684],[139.0816,35.76741],[139.08131,35.76839],[139.08068,35.77003],[139.08125,35.77001],[139.08252,35.77003],[139.08326,35.77011],[139.08399,35.7703],[139.08464,35.77052],[139.0852,35.77084],[139.08571,35.77119],[139.08635,35.77132],[139.08696,35.77137],[139.08732,35.77113],[139.08772,35.77074],[139.08832,35.77038],[139.089,35.77027],[139.09022,35.77012],[139.0907,35.7703],[139.09131,35.77043],[139.09171,35.77033],[139.09207,35.77004],[139.09248,35.76995],[139.09313,35.76998],[139.09358,35.77014],[139.09408,35.77054],[139.09503,35.77182],[139.0954,35.77281],[139.09526,35.7738],[139.09531,35.77484],[139.09548,35.77501],[139.09613,35.77533],[139.09632,35.77576],[139.0965,35.77605],[139.09736,35.7765],[139.09791,35.7767],[139.09843,35.77696],[139.09898,35.77694],[139.09963,35.77703],[139.10047,35.77738],[139.10123,35.77781],[139.10181,35.77823],[139.10235,35.77855],[139.10291,35.7787],[139.10351,35.7788],[139.10407,35.77872],[139.10448,35.77879],[139.10497,35.77914],[139.10558,35.77939]]]}},{"type":"Feature","properties":{"id":"area-13307001010","name":"小沢"},"geometry":{"type":"Polygon","coordinates":[[[139.11675,35.74336],[139.11929,35.74332],[139.11994,35.74347],[139.12054,35.74368],[139.12117,35.74392],[139.12187,35.74429],[139.12255,35.74435],[139.12319,35.74431],[139.1248,35.74404],[139.12542,35.74378],[139.12533,35.74316],[139.12516,35.74275],[139.12463,35.74223],[139.12473,35.74172],[139.12497,35.74134],[139.12538,35.74082],[139.12659,35.73948],[139.12796,35.73837],[139.12864,35.73792],[139.1306,35.73642],[139.13222,35.73527],[139.13245,35.73504],[139.13208,35.73471],[139.13098,35.73328],[139.1308,35.73239],[139.12969,35.73062],[139.1294,35.73042],[139.1275,35.73005],[139.12757,35.72959],[139.12772,35.72925],[139.12802,35.72899],[139.12828,35.72856],[139.12921,35.72633],[139.12992,35.72569],[139.12986,35.72523],[139.12972,35.72488],[139.12987,35.72407],[139.13014,35.72311],[139.13074,35.72188],[139.13034,35.7208],[139.13008,35.72054],[139.13012,35.71979],[139.12909,35.71958],[139.12847,35.71951],[139.12824,35.71961],[139.12778,35.71968],[139.12762,35.71958],[139.12742,35.71951],[139.12684,35.71948],[139.12638,35.71939],[139.12576,35.71937],[139.12544,35.71925],[139.12494,35.71931],[139.12193,35.71942],[139.12142,35.71953],[139.12052,35.71999],[139.11906,35.71995],[139.11851,35.71989],[139.1177,35.7203],[139.1169,35.72047],[139.11578,35.72066],[139.11514,35.72394],[139.11519,35.7247],[139.11542,35.72528],[139.11614,35.72583],[139.11722,35.72699],[139.11749,35.72849],[139.11817,35.72997],[139.11847,35.73196],[139.11795,35.73324],[139.1178,35.73478],[139.11717,35.7347],[139.11675,35.73422],[139.11602,35.73387],[139.11573,35.73364],[139.11521,35.73357],[139.11387,35.73378],[139.11367,35.73407],[139.11375,35.73463],[139.11427,35.73555],[139.11439,35.73602],[139.11416,35.73622],[139.11347,35.73609],[139.11319,35.73624],[139.11261,35.73623],[139.1119,35.73684],[139.11018,35.73772],[139.10884,35.73816],[139.10563,35.73829],[139.1048,35.73837],[139.10292,35.73913],[139.10218,35.73967],[139.10166,35.73966],[139.10059,35.73904],[139.09953,35.73988],[139.09912,35.74037],[139.09751,35.74131],[139.09722,35.74162],[139.09628,35.74236],[139.09549,35.74274],[139.09475,35.74348],[139.09353,35.74413],[139.09293,35.74458],[139.09195,35.74579],[139.09105,35.74679],[139.09089,35.74728],[139.09058,35.74801],[139.09028,35.74941],[139.08998,35.74992],[139.08984,35.75067],[139.08984,35.75194],[139.09048,35.75251],[139.0911,35.75333],[139.09269,35.7549],[139.09353,35.75387],[139.09389,35.75338],[139.0943,35.75264],[139.09458,35.75191],[139.09525,35.75165],[139.0969,35.75126],[139.09833,35.75067],[139.09904,35.75024],[139.09954,35.75011],[139.10062,35.74931],[139.10142,35.74866],[139.10261,35.7479],[139.10393,35.74735],[139.10574,35.74688],[139.10673,35.74685],[139.10779,35.74661],[139.10914,35.74608],[139.11138,35.7451],[139.11256,35.74463],[139.11389,35.74386],[139.11538,35.74373],[139.116,35.74363],[139.11675,35.74336]]]}},{"type":"Feature","properties":{"id":"area-13307001011","name":"樋里"},"geometry":{"type":"Polygon","coordinates":[[[139.09953,35.73988],[139.10059,35.73904],[139.10166,35.73966],[139.10218,35.73967],[139.10292,35.73913],[139.1048,35.73837],[139.10563,35.73829],[139.10884,35.73816],[139.11018,35.73772],[139.1119,35.73684],[139.11261,35.73623],[139.11319,35.73624],[139.11347,35.73609],[139.11416,35.73622],[139.11439,35.73602],[139.11427,35.73555],[139.11375,35.73463],[139.11367,35.73407],[139.11387,35.73378],[139.11521,35.73357],[139.11573,35.73364],[139.11602,35.73387],[139.11675,35.73422],[139.11717,35.7347],[139.1178,35.73478],[139.11795,35.73324],[139.11847,35.73196],[139.11817,35.72997],[139.11749,35.72849],[139.11722,35.72699],[139.11614,35.72583],[139.11542,35.72528],[139.11519,35.7247],[139.11514,35.72394],[139.11578,35.72066],[139.11522,35.72067],[139.11394,35.72043],[139.11312,35.72025],[139.11142,35.71997],[139.1111,35.72011],[139.11036,35.72034],[139.10976,35.72032],[139.10975,35.72042],[139.1093,35.72039],[139.10866,35.72048],[139.10802,35.72053],[139.10736,35.72045],[139.10668,35.72028],[139.10609,35.72031],[139.10522,35.7205],[139.10466,35.72052],[139.10381,35.7204],[139.10341,35.72017],[139.1027,35.72004],[139.1027,35.71982],[139.10125,35.71985],[139.09994,35.71983],[139.09931,35.71992],[139.09829,35.72036],[139.09766,35.7204],[139.09724,35.72051],[139.09542,35.72041],[139.09424,35.72085],[139.09313,35.72107],[139.09288,35.72123],[139.09215,35.72143],[139.09088,35.72138],[139.09013,35.7213],[139.08896,35.72141],[139.08852,35.72159],[139.08825,35.72186],[139.08756,35.72223],[139.08707,35.72261],[139.08622,35.72315],[139.08507,35.7237],[139.08398,35.7243],[139.08385,35.72439],[139.08377,35.72467],[139.08354,35.72462],[139.08305,35.72522],[139.08311,35.72543],[139.08291,35.72628],[139.08249,35.72688],[139.08225,35.72713],[139.08178,35.72726],[139.08067,35.72737],[139.08062,35.72759],[139.08162,35.72805],[139.08234,35.72865],[139.08273,35.72913],[139.08304,35.72969],[139.08334,35.73085],[139.08365,35.73148],[139.08401,35.73207],[139.08451,35.73262],[139.08514,35.73341],[139.08547,35.73404],[139.08584,35.73447],[139.08713,35.73642],[139.08762,35.73741],[139.08764,35.73877],[139.08836,35.73878],[139.08867,35.7385],[139.08892,35.73802],[139.08892,35.73769],[139.08903,35.73711],[139.08937,35.73664],[139.09,35.73638],[139.09069,35.73644],[139.09107,35.73694],[139.09068,35.73767],[139.09055,35.73777],[139.09041,35.73744],[139.09001,35.73726],[139.08991,35.73743],[139.08996,35.73778],[139.08977,35.73884],[139.0896,35.74018],[139.08947,35.74058],[139.08952,35.74131],[139.08879,35.74209],[139.08817,35.74258],[139.08764,35.74306],[139.08759,35.74344],[139.0874,35.74382],[139.08762,35.74568],[139.08814,35.74658],[139.08783,35.74728],[139.08773,35.74775],[139.08803,35.74854],[139.08863,35.74926],[139.08877,35.74991],[139.08882,35.75049],[139.08917,35.75135],[139.08984,35.75194],[139.08984,35.75067],[139.08998,35.74992],[139.09028,35.74941],[139.09058,35.74801],[139.09089,35.74728],[139.09105,35.74679],[139.09195,35.74579],[139.09293,35.74458],[139.09353,35.74413],[139.09475,35.74348],[139.09549,35.74274],[139.09628,35.74236],[139.09722,35.74162],[139.09751,35.74131],[139.09912,35.74037],[139.09953,35.73988]]]}},{"type":"Feature","properties":{"id":"area-13307001012","name":"藤原"},"geometry":{"type":"Polygon","coordinates":[[[139.08304,35.76604],[139.08495,35.76521],[139.0857,35.76496],[139.0863,35.76446],[139.08651,35.76402],[139.08661,35.76306],[139.08662,35.76159],[139.08851,35.75987],[139.08976,35.75902],[139.09008,35.75861],[139.09082,35.75742],[139.09131,35.75685],[139.09269,35.7549],[139.0911,35.75333],[139.09048,35.75251],[139.08917,35.75135],[139.08882,35.75049],[139.08877,35.74991],[139.08863,35.74926],[139.08803,35.74854],[139.08773,35.74775],[139.08783,35.74728],[139.08814,35.74658],[139.08762,35.74568],[139.0874,35.74382],[139.08759,35.74344],[139.08764,35.74306],[139.08817,35.74258],[139.08879,35.74209],[139.08952,35.74131],[139.08947,35.74058],[139.0896,35.74018],[139.08977,35.73884],[139.08996,35.73778],[139.08991,35.73743],[139.09001,35.73726],[139.09041,35.73744],[139.09055,35.73777],[139.09068,35.73767],[139.09107,35.73694],[139.09069,35.73644],[139.09,35.73638],[139.08937,35.73664],[139.08903,35.73711],[139.08892,35.73769],[139.08892,35.73802],[139.08867,35.7385],[139.08836,35.73878],[139.08764,35.73877],[139.08762,35.73741],[139.08713,35.73642],[139.08584,35.73447],[139.08547,35.73404],[139.08514,35.73341],[139.08451,35.73262],[139.08401,35.73207],[139.08365,35.73148],[139.08334,35.73085],[139.08304,35.72969],[139.08273,35.72913],[139.08234,35.72865],[139.08162,35.72805],[139.08062,35.72759],[139.08026,35.72764],[139.07935,35.72828],[139.07845,35.72886],[139.07782,35.72915],[139.07762,35.72933],[139.07683,35.72955],[139.07629,35.7298],[139.07572,35.7299],[139.07527,35.72993],[139.0756,35.7315],[139.07595,35.73231],[139.07639,35.73312],[139.07745,35.73465],[139.07757,35.73517],[139.07754,35.73584],[139.07734,35.73728],[139.07632,35.73916],[139.07582,35.73988],[139.07495,35.74104],[139.07408,35.74185],[139.07319,35.74219],[139.0725,35.74351],[139.07195,35.74401],[139.07045,35.74563],[139.06942,35.74659],[139.06834,35.74792],[139.06847,35.75002],[139.06812,35.75108],[139.06733,35.75167],[139.0664,35.75207],[139.06562,35.7529],[139.06522,35.75319],[139.06446,35.75353],[139.05982,35.75432],[139.05877,35.75445],[139.05753,35.75516],[139.05647,35.75536],[139.05521,35.75578],[139.05466,35.75575],[139.05383,35.7552],[139.0519,35.75522],[139.05043,35.75548],[139.04463,35.75787],[139.04494,35.75797],[139.04578,35.75807],[139.04623,35.75819],[139.04643,35.75828],[139.04687,35.75854],[139.04758,35.75937],[139.04805,35.75972],[139.04862,35.75986],[139.04925,35.75995],[139.0499,35.75992],[139.05052,35.75966],[139.05069,35.75962],[139.05124,35.75961],[139.05195,35.75966],[139.05267,35.75966],[139.05317,35.7596],[139.05338,35.75954],[139.05394,35.75964],[139.05478,35.76002],[139.05529,35.7604],[139.05552,35.76062],[139.0559,35.76132],[139.05602,35.76202],[139.0563,35.76258],[139.05668,35.76314],[139.05705,35.76356],[139.05831,35.76438],[139.0588,35.76445],[139.05911,35.76434],[139.05948,35.76413],[139.05984,35.76406],[139.0607,35.76402],[139.06124,35.76411],[139.06175,35.76446],[139.06235,35.76467],[139.06289,35.76501],[139.0633,35.76539],[139.06374,35.76562],[139.06399,35.76564],[139.06518,35.76545],[139.06556,35.76545],[139.06626,35.76552],[139.0666,35.76565],[139.06764,35.76616],[139.0681,35.7666],[139.06851,35.76671],[139.0692,35.7668],[139.06954,35.76728],[139.06983,35.76752],[139.0704,35.76821],[139.07089,35.76852],[139.0721,35.76892],[139.07275,35.76945],[139.07315,35.76957],[139.07366,35.76991],[139.07381,35.77008],[139.07407,35.77055],[139.07442,35.771],[139.07467,35.77148],[139.07501,35.77182],[139.07587,35.77193],[139.07644,35.77177],[139.07752,35.77119],[139.07809,35.77109],[139.07874,35.77103],[139.07922,35.77081],[139.0797,35.77041],[139.08017,35.77011],[139.08037,35.77005],[139.08068,35.77003],[139.08131,35.76839],[139.0816,35.76741],[139.08198,35.76684],[139.08242,35.76638],[139.08304,35.76604]]]}},{"type":"Feature","properties":{"id":"area-13307001013","name":"倉掛"},"geometry":{"type":"Polygon","coordinates":[[[139.04463,35.75787],[139.05043,35.75548],[139.0519,35.75522],[139.05383,35.7552],[139.05466,35.75575],[139.05521,35.75578],[139.05647,35.75536],[139.05753,35.75516],[139.05877,35.75445],[139.05982,35.75432],[139.06446,35.75353],[139.06522,35.75319],[139.06562,35.7529],[139.0664,35.75207],[139.06733,35.75167],[139.06812,35.75108],[139.06847,35.75002],[139.06834,35.74792],[139.06942,35.74659],[139.07045,35.74563],[139.07195,35.74401],[139.0725,35.74351],[139.07319,35.74219],[139.07408,35.74185],[139.07495,35.74104],[139.07582,35.73988],[139.07632,35.73916],[139.07734,35.73728],[139.07754,35.73584],[139.07757,35.73517],[139.07745,35.73465],[139.07639,35.73312],[139.07595,35.73231],[139.0756,35.7315],[139.07527,35.72993],[139.07504,35.72995],[139.07466,35.72979],[139.07409,35.72969],[139.0737,35.72974],[139.07327,35.72973],[139.07259,35.72951],[139.07199,35.72896],[139.07158,35.72889],[139.07098,35.72896],[139.06929,35.72944],[139.0679,35.72995],[139.06757,35.73029],[139.06612,35.73127],[139.06557,35.73143],[139.06481,35.73147],[139.06438,35.73133],[139.0635,35.73093],[139.06339,35.73091],[139.06326,35.73082],[139.06256,35.73049],[139.06209,35.73044],[139.06152,35.73053],[139.06089,35.7307],[139.06048,35.73086],[139.05991,35.73077],[139.05912,35.73085],[139.05809,35.73069],[139.05743,35.73066],[139.05686,35.7307],[139.05645,35.73079],[139.05585,35.7311],[139.05525,35.73146],[139.05484,35.73184],[139.05307,35.73221],[139.05061,35.73263],[139.05023,35.73278],[139.04979,35.73307],[139.04946,35.7335],[139.04894,35.73374],[139.04872,35.73399],[139.0479,35.7345],[139.04681,35.73492],[139.04561,35.73532],[139.04522,35.73559],[139.04487,35.73597],[139.04448,35.73646],[139.04393,35.73783],[139.0422,35.73953],[139.04184,35.74],[139.04143,35.74107],[139.04072,35.74435],[139.04041,35.74472],[139.04097,35.74511],[139.04144,35.74574],[139.04162,35.74605],[139.04137,35.74648],[139.04123,35.74687],[139.04141,35.74729],[139.04138,35.74772],[139.04103,35.74853],[139.04062,35.74912],[139.03973,35.75013],[139.03966,35.75029],[139.03982,35.75066],[139.03993,35.75081],[139.04013,35.75142],[139.04047,35.75142],[139.04054,35.75151],[139.04081,35.75238],[139.04204,35.75389],[139.04272,35.75497],[139.04294,35.75558],[139.04301,35.75602],[139.04289,35.7565],[139.04274,35.75693],[139.04276,35.75732],[139.04303,35.75759],[139.04329,35.75763],[139.04402,35.75766],[139.04463,35.75787]]]}}]}