{"type":"FeatureCollection","features":[{"type":"Feature","properties":{"id":"area-133620010","name":"利島村"},"geometry":{"type":"Polygon","coordinates":[[[139.28034,34.53196],[139.28053,34.53196],[139.28086,34.53186],[139.28144,34.53184],[139.28153,34.53189],[139.28162,34.53184],[139.28169,34.5319],[139.28188,34.53195],[139.28186,34.53209],[139.28207,34.53212],[139.2821,34.53193],[139.2822,34.53192],[139.28234,34.53204],[139.28242,34.53203],[139.28249,34.53208],[139.28262,34.53209],[139.28314,34.53206],[139.28323,34.53201],[139.28358,34.53203],[139.28391,34.53195],[139.28411,34.53198],[139.2843,34.53187],[139.28468,34.5318],[139.28487,34.53172],[139.28518,34.53169],[139.28551,34.53148],[139.2861,34.53119],[139.28671,34.53094],[139.28709,34.53092],[139.28757,34.5307],[139.28771,34.53056],[139.28807,34.53039],[139.2883,34.53019],[139.28843,34.53013],[139.28895,34.52973],[139.28922,34.52959],[139.28934,34.52948],[139.2895,34.52943],[139.28957,34.52934],[139.2902,34.52897],[139.29038,34.52875],[139.29058,34.52867],[139.29069,34.52853],[139.29072,34.5284],[139.29092,34.5282],[139.29111,34.52786],[139.2913,34.52772],[139.29139,34.52757],[139.29175,34.52723],[139.29221,34.52645],[139.29228,34.52625],[139.29236,34.52614],[139.29239,34.52597],[139.29246,34.52581],[139.29254,34.52574],[139.29255,34.52559],[139.29261,34.52548],[139.29264,34.52532],[139.29272,34.52522],[139.29273,34.52492],[139.29285,34.52469],[139.29284,34.52453],[139.29288,34.52439],[139.29285,34.52425],[139.29294,34.52397],[139.29286,34.52372],[139.29274,34.52356],[139.29258,34.52297],[139.2924,34.52254],[139.2923,34.52246],[139.29226,34.52236],[139.29211,34.52222],[139.29185,34.52187],[139.29168,34.5217],[139.29159,34.52163],[139.29148,34.5216],[139.2915,34.52154],[139.29146,34.52134],[139.29132,34.52107],[139.29107,34.52071],[139.29074,34.52035],[139.2905,34.5202],[139.29036,34.52006],[139.29024,34.52006],[139.29012,34.52],[139.29008,34.51992],[139.29017,34.51985],[139.29015,34.5198],[139.2901,34.5198],[139.29,34.51984],[139.28993,34.51982],[139.28987,34.51972],[139.28947,34.51941],[139.28922,34.51913],[139.28892,34.51892],[139.28875,34.51885],[139.28793,34.51811],[139.28723,34.51734],[139.28623,34.51651],[139.28559,34.5159],[139.28515,34.5156],[139.28492,34.51535],[139.28456,34.51511],[139.28402,34.51462],[139.28352,34.51411],[139.28292,34.51357],[139.28184,34.51233],[139.28134,34.51191],[139.28096,34.51169],[139.27963,34.51124],[139.27831,34.51097],[139.27783,34.51092],[139.27709,34.51091],[139.27609,34.51105],[139.27585,34.51106],[139.27557,34.51112],[139.27529,34.51121],[139.27383,34.51185],[139.27294,34.51216],[139.27252,34.51227],[139.27202,34.51251],[139.27113,34.51299],[139.27096,34.51315],[139.27076,34.51344],[139.27064,34.51367],[139.27051,34.51404],[139.27026,34.51445],[139.26931,34.5155],[139.26889,34.5161],[139.26859,34.5164],[139.26819,34.51702],[139.26798,34.51747],[139.26759,34.51863],[139.26754,34.51947],[139.26743,34.51994],[139.26738,34.52049],[139.26727,34.52109],[139.26729,34.52137],[139.26725,34.52154],[139.26728,34.52179],[139.26726,34.52205],[139.26728,34.52234],[139.26723,34.52258],[139.26731,34.52295],[139.26732,34.52322],[139.26745,34.52383],[139.26757,34.52419],[139.26773,34.52499],[139.2678,34.52511],[139.268,34.52574],[139.26821,34.52607],[139.26831,34.52631],[139.2687,34.52676],[139.26873,34.52692],[139.26887,34.5271],[139.26899,34.52735],[139.26963,34.52821],[139.26982,34.52838],[139.26996,34.52864],[139.27032,34.52894],[139.27082,34.52954],[139.27096,34.52957],[139.27108,34.52966],[139.27116,34.52979],[139.27146,34.53011],[139.27159,34.53019],[139.27165,34.53027],[139.27177,34.53029],[139.2719,34.53045],[139.27217,34.53069],[139.27224,34.53081],[139.27267,34.53104],[139.27305,34.53136],[139.27311,34.53148],[139.27343,34.53171],[139.2738,34.53178],[139.27479,34.53181],[139.27547,34.53194],[139.27574,34.53195],[139.27609,34.53193],[139.27612,34.53198],[139.2762,34.53201],[139.27647,34.53205],[139.2769,34.53204],[139.27783,34.53196],[139.27855,34.53201],[139.27883,34.53195],[139.27939,34.5319],[139.27993,34.53212],[139.28009,34.53223],[139.28037,34.53401],[139.28055,34.53398],[139.28024,34.53209],[139.28035,34.53207],[139.28034,34.53196]]]}}]}