{"type":"FeatureCollection","features":[{"type":"Feature","properties":{"id":"area-13364001001","name":"神津島村"},"geometry":{"type":"Polygon","coordinates":[[[139.14305,34.2116],[139.14322,34.21119],[139.14331,34.21123],[139.14344,34.21102],[139.14336,34.21092],[139.1435,34.21079],[139.14339,34.21074],[139.1435,34.21059],[139.14357,34.21016],[139.14371,34.21021],[139.14376,34.21016],[139.14374,34.20964],[139.14367,34.20959],[139.14357,34.20962],[139.14377,34.20919],[139.14371,34.20903],[139.14367,34.209],[139.14338,34.20915],[139.14327,34.20906],[139.14328,34.20903],[139.14315,34.20904],[139.14304,34.20929],[139.14273,34.20932],[139.14266,34.2092],[139.1423,34.2093],[139.14226,34.20926],[139.14217,34.20924],[139.14229,34.20915],[139.14228,34.20909],[139.14211,34.20901],[139.1419,34.20895],[139.14144,34.20898],[139.14137,34.20888],[139.14119,34.20877],[139.1411,34.20861],[139.14095,34.20842],[139.14094,34.20836],[139.14104,34.20815],[139.14129,34.20798],[139.14148,34.20791],[139.14166,34.20769],[139.14166,34.20759],[139.14178,34.20741],[139.14156,34.20723],[139.14091,34.2073],[139.14063,34.20726],[139.14058,34.20722],[139.14028,34.20738],[139.14008,34.2074],[139.13968,34.20736],[139.13963,34.20733],[139.13963,34.20717],[139.13958,34.20709],[139.13957,34.20703],[139.13969,34.20681],[139.1398,34.20671],[139.14001,34.20676],[139.14015,34.20651],[139.14027,34.20646],[139.14031,34.20637],[139.14048,34.20628],[139.14044,34.2061],[139.14046,34.20594],[139.14064,34.20572],[139.14063,34.20563],[139.14056,34.20561],[139.14049,34.20544],[139.14048,34.20525],[139.14045,34.20522],[139.14033,34.20524],[139.1403,34.20519],[139.14034,34.20505],[139.14032,34.205],[139.14039,34.2049],[139.14028,34.20485],[139.14026,34.2048],[139.14026,34.20468],[139.1403,34.20457],[139.14022,34.20448],[139.14019,34.20436],[139.14016,34.20399],[139.14032,34.20398],[139.14032,34.20391],[139.14036,34.20387],[139.14105,34.20346],[139.14114,34.20334],[139.14113,34.20329],[139.14085,34.20306],[139.14089,34.2028],[139.14084,34.20262],[139.14067,34.20255],[139.14013,34.20265],[139.14,34.20254],[139.14,34.20246],[139.14004,34.20238],[139.14083,34.20202],[139.14111,34.20176],[139.14118,34.20157],[139.14103,34.20141],[139.14089,34.2014],[139.14033,34.20153],[139.13945,34.20164],[139.139,34.20185],[139.13869,34.20178],[139.13856,34.20165],[139.13839,34.20178],[139.13827,34.20183],[139.13811,34.20173],[139.13788,34.20168],[139.1378,34.20159],[139.13752,34.20142],[139.13752,34.20133],[139.13729,34.20123],[139.13716,34.20128],[139.1371,34.20112],[139.13712,34.20105],[139.13719,34.20098],[139.13699,34.20073],[139.13665,34.20093],[139.13654,34.20077],[139.13635,34.20073],[139.13608,34.20037],[139.13602,34.20038],[139.13588,34.20018],[139.13578,34.20017],[139.1356,34.20003],[139.13553,34.19994],[139.13547,34.20005],[139.13552,34.20037],[139.13549,34.2005],[139.13544,34.20051],[139.13499,34.20005],[139.13475,34.19996],[139.13463,34.19997],[139.13408,34.20017],[139.13406,34.20013],[139.13413,34.20008],[139.13453,34.19991],[139.13467,34.19981],[139.13468,34.19978],[139.13463,34.19976],[139.13439,34.19991],[139.13387,34.19998],[139.13344,34.19983],[139.13335,34.19982],[139.13284,34.20015],[139.13259,34.2002],[139.1324,34.2003],[139.13206,34.20052],[139.13213,34.20063],[139.13193,34.20071],[139.1319,34.20123],[139.13202,34.20124],[139.13212,34.2013],[139.13248,34.20181],[139.13277,34.20271],[139.13323,34.20387],[139.1335,34.20493],[139.13354,34.20537],[139.13351,34.20583],[139.13341,34.20627],[139.13334,34.20647],[139.1332,34.2067],[139.13313,34.20732],[139.13126,34.20789],[139.13033,34.20884],[139.13015,34.20946],[139.12734,34.20902],[139.12729,34.20929],[139.12811,34.20941],[139.12813,34.20934],[139.13038,34.2097],[139.13029,34.21004],[139.1305,34.21008],[139.13059,34.20973],[139.13069,34.20968],[139.13134,34.20977],[139.13126,34.21012],[139.13113,34.21018],[139.13118,34.2103],[139.13146,34.21021],[139.13144,34.21015],[139.13151,34.2098],[139.13156,34.20979],[139.13158,34.20968],[139.13167,34.20964],[139.13172,34.20953],[139.1317,34.2095],[139.13161,34.20948],[139.13151,34.20963],[139.13144,34.20965],[139.13115,34.20961],[139.13101,34.20927],[139.13105,34.20921],[139.13126,34.20915],[139.13128,34.20912],[139.13159,34.20925],[139.13161,34.20941],[139.1317,34.20943],[139.13188,34.20889],[139.13143,34.20893],[139.1314,34.20877],[139.13159,34.2085],[139.13165,34.20834],[139.13276,34.20832],[139.13267,34.2088],[139.1324,34.20885],[139.13241,34.20893],[139.13263,34.20892],[139.13287,34.20983],[139.13279,34.20981],[139.13276,34.20994],[139.13202,34.20982],[139.13201,34.20991],[139.13293,34.21008],[139.13274,34.21074],[139.13265,34.21089],[139.13245,34.21113],[139.13264,34.21184],[139.13287,34.21185],[139.13287,34.21179],[139.13307,34.21183],[139.13316,34.21189],[139.13334,34.21187],[139.13351,34.21173],[139.13356,34.21157],[139.13369,34.21147],[139.13386,34.21125],[139.13384,34.21108],[139.1339,34.21092],[139.13384,34.21086],[139.13383,34.21062],[139.13399,34.21049],[139.1339,34.21004],[139.13386,34.20997],[139.13389,34.20972],[139.13407,34.20961],[139.13383,34.20942],[139.13387,34.20938],[139.13411,34.20935],[139.1341,34.20919],[139.13473,34.20908],[139.13537,34.20894],[139.13551,34.20895],[139.13597,34.20918],[139.13599,34.20931],[139.13613,34.20945],[139.13627,34.20933],[139.13641,34.20931],[139.13649,34.20924],[139.13655,34.20926],[139.13663,34.20918],[139.13677,34.20923],[139.13689,34.20936],[139.13701,34.20938],[139.13704,34.20951],[139.1374,34.20963],[139.13776,34.20961],[139.13779,34.20953],[139.13796,34.20944],[139.13809,34.2095],[139.13848,34.20915],[139.13871,34.20932],[139.13888,34.2096],[139.13882,34.20989],[139.13924,34.20984],[139.13942,34.21001],[139.13957,34.21002],[139.13974,34.2102],[139.13989,34.21009],[139.14003,34.20988],[139.14003,34.21048],[139.14013,34.21116],[139.14046,34.21117],[139.14057,34.21147],[139.14075,34.21145],[139.14093,34.21161],[139.14189,34.21194],[139.14225,34.21217],[139.14253,34.21247],[139.14296,34.21219],[139.14288,34.21212],[139.1429,34.21202],[139.14271,34.2118],[139.14298,34.21166],[139.14305,34.2116]]]}},{"type":"Feature","properties":{"id":"area-13364001002","name":"高嶺"},"geometry":{"type":"MultiPolygon","coordinates":[[[[139.13375,34.21696],[139.13397,34.21695],[139.13414,34.21684],[139.13458,34.21642],[139.134,34.21647],[139.13421,34.21615],[139.13423,34.21597],[139.13418,34.21591],[139.13402,34.21582],[139.13398,34.21571],[139.13454,34.2157],[139.13481,34.21566],[139.13493,34.21578],[139.13505,34.21576],[139.13511,34.21568],[139.13511,34.21491],[139.13567,34.21435],[139.13661,34.21411],[139.13719,34.21437],[139.13765,34.2145],[139.13792,34.21462],[139.13851,34.21449],[139.13901,34.21434],[139.13935,34.21392],[139.13966,34.21377],[139.14026,34.21367],[139.14022,34.21351],[139.14023,34.21341],[139.14016,34.21333],[139.14004,34.21335],[139.13994,34.21329],[139.13998,34.21325],[139.13991,34.21313],[139.13971,34.21312],[139.1393,34.21302],[139.13911,34.21301],[139.13878,34.21332],[139.13876,34.21358],[139.13844,34.21338],[139.13837,34.21329],[139.13809,34.21343],[139.13796,34.21343],[139.13779,34.21324],[139.13754,34.21328],[139.13709,34.21306],[139.13693,34.21315],[139.13678,34.21315],[139.13643,34.21302],[139.13635,34.21286],[139.13606,34.21278],[139.13576,34.21278],[139.13574,34.21283],[139.13579,34.21306],[139.13554,34.21321],[139.13543,34.21306],[139.13532,34.21314],[139.1352,34.21315],[139.13513,34.21328],[139.13518,34.21338],[139.13503,34.21341],[139.13496,34.21346],[139.13464,34.21331],[139.13433,34.21326],[139.13428,34.213],[139.13421,34.21296],[139.13393,34.213],[139.13385,34.21286],[139.13363,34.21272],[139.13324,34.21275],[139.13286,34.21271],[139.13285,34.21256],[139.13292,34.21245],[139.13305,34.21243],[139.13319,34.21227],[139.13323,34.21225],[139.13327,34.21212],[139.13321,34.2121],[139.13323,34.21196],[139.13334,34.21187],[139.13316,34.21189],[139.13307,34.21183],[139.13287,34.21179],[139.13287,34.21185],[139.13264,34.21184],[139.13245,34.21113],[139.13219,34.21138],[139.13168,34.21137],[139.13134,34.21079],[139.13091,34.21082],[139.13092,34.21094],[139.13126,34.21091],[139.13172,34.2117],[139.1316,34.2117],[139.13149,34.21185],[139.13135,34.21186],[139.13132,34.21193],[139.13135,34.21202],[139.13133,34.21212],[139.13129,34.21212],[139.13123,34.21207],[139.13119,34.21211],[139.13126,34.21222],[139.1311,34.21246],[139.13123,34.21259],[139.13126,34.21269],[139.13114,34.21283],[139.13107,34.21285],[139.13101,34.21306],[139.13093,34.2132],[139.13092,34.21332],[139.13096,34.2134],[139.13125,34.21355],[139.13129,34.21361],[139.13129,34.21384],[139.13113,34.21394],[139.13117,34.2141],[139.13127,34.21424],[139.13126,34.21453],[139.13114,34.21483],[139.13099,34.2149],[139.13096,34.21503],[139.13088,34.21513],[139.13072,34.21507],[139.13052,34.2152],[139.13052,34.2156],[139.13048,34.21581],[139.13051,34.21591],[139.13061,34.21605],[139.13102,34.21641],[139.13155,34.21643],[139.13164,34.21652],[139.13188,34.21655],[139.13217,34.21668],[139.13233,34.21666],[139.13274,34.21672],[139.13291,34.21679],[139.13321,34.21703],[139.13344,34.2171],[139.13355,34.21712],[139.13375,34.21696]]],[[[139.13027,34.21635],[139.13019,34.21593],[139.13013,34.21579],[139.12999,34.21566],[139.12994,34.21566],[139.12992,34.21576],[139.12997,34.21611],[139.13001,34.21618],[139.12999,34.21623],[139.12991,34.21629],[139.12959,34.21629],[139.12951,34.21637],[139.12939,34.21638],[139.12936,34.21648],[139.12942,34.21665],[139.13007,34.21669],[139.13016,34.21667],[139.13028,34.21655],[139.13027,34.21635]]]]}},{"type":"Feature","properties":{"id":"area-13364001003","name":"沢尻"},"geometry":{"type":"Polygon","coordinates":[[[139.13416,34.22101],[139.13436,34.22099],[139.135,34.22107],[139.13525,34.22129],[139.13545,34.22136],[139.13569,34.22137],[139.13581,34.2213],[139.13607,34.22087],[139.13617,34.2206],[139.13613,34.21998],[139.13618,34.21961],[139.1363,34.21934],[139.13631,34.21922],[139.13621,34.21904],[139.13622,34.21888],[139.13637,34.21843],[139.13639,34.21839],[139.13722,34.21835],[139.13739,34.21831],[139.13751,34.21822],[139.13781,34.21738],[139.13806,34.21718],[139.13806,34.21691],[139.13816,34.21662],[139.13818,34.21634],[139.13841,34.21593],[139.13836,34.21577],[139.13813,34.21539],[139.13742,34.21531],[139.13703,34.21547],[139.13692,34.21543],[139.13674,34.21527],[139.13669,34.21515],[139.13672,34.21473],[139.13679,34.21464],[139.13697,34.2146],[139.13744,34.21464],[139.13792,34.21462],[139.13765,34.2145],[139.13719,34.21437],[139.13661,34.21411],[139.13567,34.21435],[139.13511,34.21491],[139.13511,34.21568],[139.13505,34.21576],[139.13493,34.21578],[139.13481,34.21566],[139.13454,34.2157],[139.13398,34.21571],[139.13402,34.21582],[139.13418,34.21591],[139.13423,34.21597],[139.13421,34.21615],[139.134,34.21647],[139.13458,34.21642],[139.13414,34.21684],[139.13397,34.21695],[139.13375,34.21696],[139.13355,34.21712],[139.13365,34.21716],[139.13384,34.21749],[139.13382,34.21809],[139.13367,34.21837],[139.1333,34.21847],[139.13321,34.21856],[139.13361,34.21861],[139.13371,34.21867],[139.13352,34.21885],[139.13333,34.21919],[139.1331,34.2193],[139.13307,34.21936],[139.13305,34.21972],[139.13301,34.21997],[139.13255,34.22025],[139.13245,34.22039],[139.13249,34.22059],[139.13257,34.22052],[139.13271,34.2205],[139.13281,34.22058],[139.13291,34.22078],[139.13306,34.22094],[139.13309,34.22103],[139.13302,34.22154],[139.13304,34.22162],[139.13326,34.22163],[139.13344,34.2214],[139.13416,34.22101]]]}},{"type":"Feature","properties":{"id":"area-13364001004","name":"錆崎"},"geometry":{"type":"Polygon","coordinates":[[[139.13413,34.22328],[139.13414,34.22316],[139.13421,34.22302],[139.13406,34.22291],[139.13347,34.22228],[139.13335,34.22221],[139.13304,34.22214],[139.13282,34.22203],[139.13254,34.2218],[139.1325,34.22169],[139.13263,34.2214],[139.13267,34.22121],[139.13264,34.22108],[139.13241,34.22086],[139.13236,34.22076],[139.13249,34.22059],[139.13245,34.22039],[139.13255,34.22025],[139.13301,34.21997],[139.13305,34.21972],[139.13307,34.21936],[139.1331,34.2193],[139.13327,34.21924],[139.13337,34.21913],[139.13352,34.21885],[139.13371,34.21867],[139.13361,34.21861],[139.13321,34.21856],[139.13318,34.2186],[139.13278,34.21877],[139.13262,34.21877],[139.13262,34.21881],[139.13258,34.21883],[139.13233,34.21877],[139.13196,34.21874],[139.13189,34.2187],[139.13184,34.21871],[139.13181,34.21878],[139.13167,34.21875],[139.13159,34.21867],[139.13155,34.21872],[139.13149,34.2187],[139.1314,34.2188],[139.13147,34.21885],[139.13138,34.21891],[139.13138,34.21902],[139.1313,34.21908],[139.13123,34.21905],[139.13122,34.21901],[139.13117,34.21904],[139.13105,34.21925],[139.13106,34.21937],[139.13103,34.21947],[139.13085,34.21961],[139.13088,34.21968],[139.13086,34.21974],[139.13072,34.21981],[139.13063,34.21991],[139.13061,34.21998],[139.13042,34.22013],[139.13031,34.22013],[139.13026,34.22017],[139.13009,34.22022],[139.13005,34.22018],[139.13008,34.22013],[139.13007,34.22008],[139.12998,34.2201],[139.12995,34.22016],[139.13,34.22033],[139.12998,34.22036],[139.12978,34.2204],[139.12964,34.22035],[139.12963,34.22029],[139.12956,34.22033],[139.12956,34.22027],[139.12962,34.22018],[139.12946,34.22003],[139.12938,34.22002],[139.12928,34.22007],[139.12927,34.22019],[139.12917,34.22023],[139.12924,34.22036],[139.12914,34.22035],[139.12917,34.2204],[139.12892,34.22038],[139.1288,34.22019],[139.12876,34.22004],[139.12868,34.22006],[139.12869,34.22013],[139.12855,34.22025],[139.12843,34.22025],[139.1284,34.22028],[139.12838,34.22037],[139.12845,34.2204],[139.12847,34.22044],[139.12843,34.22057],[139.12851,34.22051],[139.12855,34.22055],[139.12864,34.22054],[139.12887,34.22061],[139.12887,34.22067],[139.12881,34.22074],[139.1288,34.22083],[139.12877,34.22087],[139.12877,34.22099],[139.1287,34.22101],[139.12868,34.22094],[139.12861,34.22094],[139.12843,34.22114],[139.1284,34.22128],[139.12844,34.22144],[139.12849,34.22143],[139.1286,34.22134],[139.12877,34.22107],[139.12897,34.22097],[139.1291,34.221],[139.12901,34.22111],[139.129,34.22119],[139.12875,34.22145],[139.12856,34.22172],[139.12849,34.22198],[139.12855,34.22255],[139.1285,34.22257],[139.12849,34.22266],[139.12841,34.22278],[139.12843,34.22289],[139.12855,34.22295],[139.12861,34.22294],[139.12869,34.22271],[139.12873,34.22269],[139.12898,34.22283],[139.12918,34.22288],[139.12925,34.22294],[139.1295,34.22299],[139.12948,34.22302],[139.12951,34.22305],[139.1297,34.22303],[139.12971,34.22311],[139.12978,34.22309],[139.12982,34.22301],[139.12988,34.22318],[139.12994,34.22319],[139.13023,34.22305],[139.13024,34.22282],[139.13038,34.2228],[139.13087,34.22286],[139.13093,34.22293],[139.13109,34.223],[139.13126,34.22316],[139.13127,34.22328],[139.13137,34.22333],[139.13133,34.22343],[139.13137,34.22347],[139.13149,34.22347],[139.13156,34.22332],[139.13162,34.22335],[139.13174,34.22333],[139.13166,34.22346],[139.13167,34.22356],[139.13163,34.22361],[139.13169,34.22367],[139.13198,34.22352],[139.132,34.22355],[139.13192,34.22364],[139.13197,34.22366],[139.1323,34.22369],[139.13255,34.22365],[139.13285,34.22356],[139.13306,34.22356],[139.13311,34.22353],[139.13316,34.22345],[139.13341,34.22342],[139.13353,34.22332],[139.13368,34.22333],[139.1338,34.22331],[139.13381,34.22336],[139.13386,34.22336],[139.13413,34.22328]]]}},{"type":"Feature","properties":{"id":"area-13364001005","name":"滝川"},"geometry":{"type":"Polygon","coordinates":[[[139.14014,34.21125],[139.14003,34.21048],[139.14003,34.20988],[139.13989,34.21009],[139.13974,34.2102],[139.13957,34.21002],[139.13942,34.21001],[139.13924,34.20984],[139.13882,34.20989],[139.13888,34.2096],[139.13871,34.20932],[139.13848,34.20915],[139.13809,34.2095],[139.13796,34.20944],[139.13779,34.20953],[139.13776,34.20961],[139.1374,34.20963],[139.13704,34.20951],[139.13701,34.20938],[139.13689,34.20936],[139.13677,34.20923],[139.13663,34.20918],[139.13655,34.20926],[139.13649,34.20924],[139.13641,34.20931],[139.13627,34.20933],[139.13613,34.20945],[139.13599,34.20931],[139.13597,34.20918],[139.13551,34.20895],[139.13537,34.20894],[139.13473,34.20908],[139.13427,34.20915],[139.1341,34.20919],[139.13411,34.20935],[139.13387,34.20938],[139.13383,34.20942],[139.13407,34.20961],[139.13389,34.20972],[139.13386,34.20997],[139.1339,34.21004],[139.13399,34.21049],[139.13383,34.21062],[139.13384,34.21086],[139.1339,34.21092],[139.13384,34.21108],[139.13386,34.21125],[139.13369,34.21147],[139.13356,34.21157],[139.13351,34.21173],[139.13323,34.21196],[139.13321,34.2121],[139.13327,34.21212],[139.13323,34.21225],[139.13319,34.21227],[139.13305,34.21243],[139.13292,34.21245],[139.13285,34.21256],[139.13286,34.21271],[139.13324,34.21275],[139.13363,34.21272],[139.13385,34.21286],[139.13393,34.213],[139.13421,34.21296],[139.13428,34.213],[139.13433,34.21326],[139.13464,34.21331],[139.13496,34.21346],[139.13503,34.21341],[139.13518,34.21338],[139.13513,34.21328],[139.1352,34.21315],[139.13532,34.21314],[139.13543,34.21306],[139.13554,34.21321],[139.13579,34.21306],[139.13574,34.21283],[139.13576,34.21278],[139.13606,34.21278],[139.13635,34.21286],[139.13643,34.21302],[139.13678,34.21315],[139.13693,34.21315],[139.13709,34.21306],[139.13754,34.21328],[139.13779,34.21324],[139.13796,34.21343],[139.13809,34.21343],[139.13837,34.21329],[139.13844,34.21338],[139.13876,34.21358],[139.13878,34.21332],[139.13882,34.21326],[139.13911,34.21301],[139.1393,34.21302],[139.13971,34.21312],[139.13991,34.21313],[139.13998,34.21325],[139.13994,34.21329],[139.14004,34.21335],[139.14016,34.21333],[139.14023,34.21341],[139.14022,34.21351],[139.14026,34.21367],[139.14034,34.21362],[139.14049,34.21333],[139.14054,34.21317],[139.14018,34.21277],[139.14004,34.21269],[139.1398,34.21261],[139.13968,34.21252],[139.13968,34.2124],[139.14,34.21213],[139.13994,34.21199],[139.13978,34.21185],[139.13973,34.21176],[139.13974,34.21164],[139.13988,34.21151],[139.14008,34.21139],[139.14014,34.21125]]]}},{"type":"Feature","properties":{"id":"area-13364001006","name":"鍛冶山"},"geometry":{"type":"Polygon","coordinates":[[[139.14241,34.21234],[139.14225,34.21217],[139.14189,34.21194],[139.14093,34.21161],[139.14075,34.21145],[139.14057,34.21147],[139.14046,34.21117],[139.14013,34.21116],[139.14014,34.21125],[139.14008,34.21139],[139.13988,34.21151],[139.13974,34.21164],[139.13973,34.21176],[139.13978,34.21185],[139.13994,34.21199],[139.14,34.21213],[139.13968,34.2124],[139.13968,34.21252],[139.1398,34.21261],[139.14004,34.21269],[139.14018,34.21277],[139.14054,34.21317],[139.14049,34.21333],[139.14034,34.21362],[139.14026,34.21367],[139.13966,34.21377],[139.13935,34.21392],[139.13901,34.21434],[139.13851,34.21449],[139.13792,34.21462],[139.13744,34.21464],[139.13697,34.2146],[139.13679,34.21464],[139.13672,34.21473],[139.13669,34.21515],[139.13674,34.21527],[139.13692,34.21543],[139.13703,34.21547],[139.13742,34.21531],[139.13813,34.21539],[139.13836,34.21577],[139.13841,34.21593],[139.13818,34.21634],[139.13816,34.21662],[139.13806,34.21691],[139.13806,34.21718],[139.13781,34.21738],[139.13772,34.21757],[139.13763,34.21792],[139.13769,34.21824],[139.13765,34.21836],[139.13738,34.21846],[139.13672,34.2186],[139.13652,34.21868],[139.13646,34.2188],[139.13645,34.21894],[139.13689,34.21929],[139.13691,34.21936],[139.13686,34.21946],[139.13666,34.21966],[139.1367,34.21983],[139.13677,34.2199],[139.13706,34.21995],[139.13723,34.22004],[139.13719,34.2203],[139.1372,34.22045],[139.13714,34.22055],[139.13697,34.22064],[139.13692,34.22073],[139.13693,34.22086],[139.13698,34.22097],[139.13716,34.22106],[139.13727,34.22117],[139.13727,34.22128],[139.13722,34.22142],[139.13729,34.22151],[139.13738,34.22156],[139.13779,34.22153],[139.13792,34.22164],[139.13805,34.22165],[139.13822,34.22157],[139.13839,34.22168],[139.1384,34.2218],[139.13856,34.22203],[139.13874,34.22274],[139.13876,34.2229],[139.13873,34.22321],[139.13876,34.22332],[139.1387,34.22355],[139.13882,34.2237],[139.13904,34.22385],[139.13911,34.22387],[139.13919,34.22384],[139.13961,34.2235],[139.13976,34.22342],[139.14001,34.22347],[139.14021,34.22322],[139.1404,34.22275],[139.14044,34.22238],[139.14014,34.22174],[139.14037,34.22123],[139.14048,34.22082],[139.14096,34.22014],[139.14137,34.21992],[139.14161,34.21938],[139.14186,34.21903],[139.14204,34.21888],[139.14226,34.21843],[139.14296,34.21758],[139.1432,34.21655],[139.14378,34.21562],[139.14376,34.21544],[139.1438,34.21528],[139.14377,34.21515],[139.1438,34.21495],[139.14351,34.21453],[139.14336,34.21438],[139.1427,34.21402],[139.14245,34.21356],[139.14207,34.21329],[139.14205,34.21296],[139.14185,34.2128],[139.14193,34.21258],[139.14212,34.21238],[139.14241,34.21234]]]}},{"type":"Feature","properties":{"id":"area-13364001007","name":"鉄砲場"},"geometry":{"type":"Polygon","coordinates":[[[139.14666,34.20998],[139.14665,34.20887],[139.14652,34.20876],[139.14622,34.2086],[139.14605,34.20878],[139.14595,34.20881],[139.1459,34.20888],[139.14572,34.2089],[139.14547,34.20904],[139.1453,34.20924],[139.14502,34.20926],[139.14479,34.20935],[139.14464,34.20935],[139.14441,34.20942],[139.14417,34.2094],[139.14382,34.20951],[139.14367,34.20959],[139.14374,34.20964],[139.14376,34.21016],[139.14371,34.21021],[139.14357,34.21016],[139.1435,34.21059],[139.14339,34.21074],[139.1435,34.21079],[139.14336,34.21092],[139.14344,34.21102],[139.14331,34.21123],[139.14322,34.21119],[139.14312,34.21138],[139.14305,34.2116],[139.14271,34.2118],[139.1429,34.21202],[139.14288,34.21212],[139.14296,34.21219],[139.14253,34.21247],[139.14263,34.21258],[139.14312,34.21287],[139.14319,34.21287],[139.14347,34.21276],[139.14375,34.21274],[139.14411,34.21279],[139.14455,34.21299],[139.14506,34.21329],[139.1451,34.21345],[139.14509,34.2137],[139.14542,34.21371],[139.14639,34.21251],[139.14632,34.21191],[139.14643,34.21173],[139.14653,34.2117],[139.1469,34.2111],[139.14684,34.21069],[139.14695,34.21031],[139.14695,34.21021],[139.14688,34.21014],[139.14673,34.21009],[139.14666,34.20998]]]}},{"type":"Feature","properties":{"id":"area-13364001008","name":"高処山"},"geometry":{"type":"Polygon","coordinates":[[[139.14815,34.20461],[139.14788,34.20455],[139.14775,34.2045],[139.14755,34.20431],[139.14718,34.20425],[139.14695,34.20411],[139.14681,34.20397],[139.14662,34.2037],[139.14601,34.20278],[139.1459,34.20254],[139.14583,34.20247],[139.14541,34.20222],[139.1453,34.20143],[139.14542,34.2011],[139.14547,34.20084],[139.14534,34.20071],[139.14508,34.20056],[139.14491,34.20096],[139.14481,34.20104],[139.14432,34.20132],[139.14402,34.2018],[139.14372,34.20209],[139.14317,34.20239],[139.14162,34.20305],[139.14141,34.20349],[139.14134,34.20355],[139.14069,34.20387],[139.14054,34.20401],[139.14045,34.20405],[139.14032,34.20398],[139.14016,34.20399],[139.14019,34.20436],[139.14022,34.20448],[139.1403,34.20457],[139.14026,34.20468],[139.14026,34.2048],[139.14028,34.20485],[139.14039,34.2049],[139.14032,34.205],[139.14034,34.20505],[139.1403,34.20519],[139.14033,34.20524],[139.14045,34.20522],[139.14048,34.20525],[139.14049,34.20544],[139.14056,34.20561],[139.14063,34.20563],[139.14064,34.20572],[139.14046,34.20594],[139.14044,34.2061],[139.14048,34.20628],[139.14031,34.20637],[139.14027,34.20646],[139.14015,34.20651],[139.14001,34.20676],[139.1398,34.20671],[139.13969,34.20681],[139.13957,34.20703],[139.13963,34.20717],[139.13963,34.20733],[139.13968,34.20736],[139.14008,34.2074],[139.14028,34.20738],[139.14058,34.20722],[139.14063,34.20726],[139.14091,34.2073],[139.14158,34.20724],[139.14178,34.20741],[139.14166,34.20759],[139.14166,34.20769],[139.14148,34.20791],[139.14129,34.20798],[139.14104,34.20815],[139.14094,34.20839],[139.14119,34.20877],[139.14137,34.20888],[139.14144,34.20898],[139.1419,34.20895],[139.14211,34.20901],[139.14228,34.20909],[139.14229,34.20915],[139.14217,34.20924],[139.14226,34.20926],[139.1423,34.2093],[139.14266,34.2092],[139.14273,34.20932],[139.14304,34.20929],[139.14315,34.20904],[139.14328,34.20903],[139.14327,34.20906],[139.14338,34.20915],[139.14367,34.209],[139.14377,34.20913],[139.14377,34.20919],[139.14357,34.20962],[139.14361,34.20963],[139.14382,34.20951],[139.14417,34.2094],[139.14441,34.20942],[139.14464,34.20935],[139.14479,34.20935],[139.14502,34.20926],[139.1453,34.20924],[139.14547,34.20904],[139.14572,34.2089],[139.1459,34.20888],[139.14595,34.20881],[139.14605,34.20878],[139.14622,34.2086],[139.14652,34.20876],[139.14665,34.20887],[139.14665,34.20968],[139.14681,34.20969],[139.14699,34.20976],[139.14734,34.21002],[139.14772,34.20997],[139.14783,34.20977],[139.14772,34.20949],[139.14747,34.20939],[139.14745,34.20923],[139.14748,34.2092],[139.14734,34.2091],[139.1473,34.20896],[139.14737,34.20871],[139.14783,34.2087],[139.14802,34.20882],[139.14818,34.20861],[139.14824,34.20847],[139.14842,34.2084],[139.14855,34.20826],[139.14873,34.20814],[139.14921,34.20821],[139.14978,34.20819],[139.15,34.20808],[139.15008,34.20795],[139.15007,34.20785],[139.1501,34.20781],[139.15033,34.20764],[139.15039,34.20754],[139.15044,34.20754],[139.15058,34.20731],[139.15045,34.20725],[139.15029,34.20711],[139.1504,34.20699],[139.15037,34.20695],[139.15048,34.20671],[139.15033,34.20658],[139.15035,34.20648],[139.14999,34.20649],[139.1497,34.20645],[139.14957,34.20625],[139.14911,34.20618],[139.14908,34.20607],[139.14897,34.20598],[139.14893,34.20578],[139.1488,34.20576],[139.14878,34.20568],[139.14861,34.20567],[139.14863,34.20551],[139.14855,34.20534],[139.14837,34.20514],[139.14832,34.20502],[139.14855,34.205],[139.14839,34.20481],[139.14809,34.20469],[139.14815,34.20461]]]}},{"type":"Feature","properties":{"id":"area-13364001009","name":"面房"},"geometry":{"type":"Polygon","coordinates":[[[139.13198,34.20058],[139.13259,34.2002],[139.13284,34.20015],[139.13335,34.19982],[139.13333,34.19979],[139.13309,34.19987],[139.13301,34.19987],[139.13297,34.19981],[139.13298,34.19967],[139.13312,34.19935],[139.13314,34.19921],[139.13303,34.19904],[139.13289,34.19894],[139.13285,34.19886],[139.13273,34.19848],[139.13271,34.19829],[139.13265,34.19817],[139.13251,34.19801],[139.13206,34.19765],[139.13199,34.19744],[139.13202,34.19673],[139.13205,34.19651],[139.13221,34.1964],[139.13231,34.19627],[139.13253,34.19609],[139.13264,34.19584],[139.13238,34.19555],[139.13238,34.19543],[139.13252,34.19513],[139.13251,34.19497],[139.13244,34.19455],[139.13232,34.19443],[139.13215,34.19439],[139.1321,34.19431],[139.13219,34.19408],[139.13222,34.19379],[139.13213,34.19367],[139.13214,34.19358],[139.13224,34.19346],[139.13224,34.19338],[139.13177,34.19316],[139.1317,34.19293],[139.13143,34.19282],[139.13139,34.19247],[139.13133,34.19242],[139.13132,34.19261],[139.13128,34.19268],[139.13118,34.19269],[139.13079,34.19263],[139.13003,34.1924],[139.12793,34.19255],[139.12778,34.1926],[139.12758,34.19291],[139.1275,34.19294],[139.12674,34.19281],[139.12646,34.19279],[139.12628,34.19286],[139.12589,34.19317],[139.12535,34.19334],[139.12526,34.19341],[139.12517,34.19368],[139.12533,34.19417],[139.12535,34.19454],[139.12539,34.1946],[139.12551,34.19461],[139.1261,34.19443],[139.12624,34.19442],[139.12675,34.19484],[139.12704,34.19492],[139.12718,34.19503],[139.12722,34.19531],[139.12696,34.19586],[139.12699,34.19593],[139.12714,34.19613],[139.12743,34.19669],[139.12773,34.19686],[139.12814,34.19723],[139.12867,34.19758],[139.12869,34.19773],[139.12856,34.19795],[139.12854,34.1981],[139.12859,34.19827],[139.12869,34.19835],[139.12893,34.19846],[139.12923,34.19868],[139.12945,34.19875],[139.12977,34.19892],[139.12977,34.19922],[139.13054,34.19975],[139.13096,34.19989],[139.13107,34.20008],[139.13188,34.20059],[139.13198,34.20058]]]}},{"type":"Feature","properties":{"id":"area-13364001010","name":"向山"},"geometry":{"type":"Polygon","coordinates":[[[139.13547,34.20005],[139.1356,34.19971],[139.13561,34.19947],[139.13569,34.19936],[139.13569,34.19924],[139.13581,34.19906],[139.13577,34.19896],[139.13556,34.1987],[139.13554,34.19828],[139.13547,34.19803],[139.13532,34.19791],[139.13514,34.19787],[139.13505,34.19782],[139.13492,34.19758],[139.13493,34.19745],[139.13509,34.19709],[139.13527,34.19688],[139.13528,34.19666],[139.13564,34.19626],[139.13613,34.19598],[139.13662,34.19583],[139.13667,34.19588],[139.13673,34.19588],[139.13674,34.19571],[139.13679,34.19567],[139.13679,34.19547],[139.13671,34.19539],[139.13667,34.1953],[139.13637,34.19499],[139.13619,34.19519],[139.13476,34.19527],[139.13415,34.19515],[139.13367,34.19516],[139.13323,34.19524],[139.13313,34.1953],[139.13292,34.19558],[139.13263,34.19585],[139.13253,34.19609],[139.13231,34.19627],[139.13221,34.1964],[139.13205,34.19651],[139.13202,34.19673],[139.13199,34.19744],[139.13206,34.19765],[139.13251,34.19801],[139.13265,34.19817],[139.13271,34.19829],[139.13273,34.19848],[139.13285,34.19886],[139.13289,34.19894],[139.13303,34.19904],[139.13314,34.19921],[139.13312,34.19935],[139.13298,34.19967],[139.13297,34.19981],[139.13301,34.19987],[139.13309,34.19987],[139.13333,34.19979],[139.13387,34.19998],[139.13439,34.19991],[139.13463,34.19976],[139.13468,34.19978],[139.13467,34.19981],[139.13453,34.19991],[139.13413,34.20008],[139.13406,34.20013],[139.13408,34.20017],[139.13463,34.19997],[139.13475,34.19996],[139.13499,34.20005],[139.13544,34.20051],[139.13549,34.2005],[139.13552,34.20037],[139.13547,34.20005]]]}},{"type":"Feature","properties":{"id":"area-13364001011","name":"山川"},"geometry":{"type":"Polygon","coordinates":[[[139.13699,34.20073],[139.1377,34.20041],[139.13778,34.2003],[139.13787,34.20027],[139.13796,34.2002],[139.1379,34.20006],[139.13784,34.20002],[139.1379,34.1998],[139.13785,34.19977],[139.13786,34.19973],[139.13789,34.19973],[139.13785,34.19971],[139.13785,34.1996],[139.13793,34.19955],[139.13789,34.19953],[139.13786,34.19943],[139.13789,34.1994],[139.13816,34.19937],[139.13816,34.19934],[139.13822,34.19932],[139.1383,34.19943],[139.13851,34.19946],[139.13863,34.19953],[139.13874,34.19965],[139.13897,34.1996],[139.13902,34.19968],[139.13937,34.19964],[139.13933,34.19958],[139.13946,34.19951],[139.13949,34.19938],[139.13959,34.19931],[139.13988,34.19876],[139.14014,34.19837],[139.14018,34.19808],[139.14027,34.198],[139.1402,34.19795],[139.14016,34.19781],[139.14006,34.19771],[139.1407,34.19758],[139.14136,34.19732],[139.14167,34.19727],[139.14191,34.19729],[139.14181,34.19716],[139.14187,34.19677],[139.14186,34.19668],[139.14201,34.19605],[139.14197,34.1958],[139.142,34.19536],[139.14191,34.19526],[139.14189,34.19516],[139.14192,34.19466],[139.14228,34.19387],[139.14223,34.19378],[139.14232,34.19363],[139.14236,34.19346],[139.14219,34.19324],[139.14219,34.19316],[139.14234,34.19313],[139.14243,34.19305],[139.14248,34.19294],[139.14247,34.19287],[139.14198,34.19228],[139.14177,34.19239],[139.14166,34.19239],[139.1413,34.19218],[139.14123,34.19209],[139.14102,34.19143],[139.14085,34.19124],[139.13981,34.192],[139.13959,34.19212],[139.13858,34.19251],[139.13849,34.19267],[139.13828,34.19285],[139.13789,34.19287],[139.13756,34.19297],[139.13731,34.19324],[139.13738,34.19369],[139.13736,34.19379],[139.13726,34.19395],[139.13712,34.19446],[139.13693,34.19463],[139.13651,34.19486],[139.13637,34.19499],[139.13667,34.1953],[139.13671,34.19539],[139.13679,34.19547],[139.13679,34.19567],[139.13674,34.19571],[139.13673,34.19588],[139.13667,34.19588],[139.13662,34.19583],[139.13613,34.19598],[139.13564,34.19626],[139.13528,34.19666],[139.13527,34.19688],[139.13509,34.19709],[139.13493,34.19745],[139.13492,34.19758],[139.13505,34.19782],[139.13514,34.19787],[139.13532,34.19791],[139.13547,34.19803],[139.13554,34.19828],[139.13556,34.1987],[139.13577,34.19896],[139.13581,34.19906],[139.13569,34.19924],[139.13569,34.19936],[139.13561,34.19947],[139.1356,34.19971],[139.13553,34.19994],[139.1356,34.20003],[139.13578,34.20017],[139.13588,34.20018],[139.13602,34.20038],[139.13608,34.20037],[139.13635,34.20073],[139.13654,34.20077],[139.13665,34.20093],[139.13699,34.20073]]]}},{"type":"Feature","properties":{"id":"area-13364001012","name":"洞沢"},"geometry":{"type":"Polygon","coordinates":[[[139.14396,34.20187],[139.14389,34.20177],[139.14419,34.20118],[139.14404,34.20085],[139.1441,34.20032],[139.14407,34.20011],[139.14423,34.19979],[139.1441,34.19932],[139.14386,34.19908],[139.14376,34.19889],[139.14365,34.19857],[139.14355,34.19849],[139.14345,34.1983],[139.14337,34.19825],[139.14316,34.19827],[139.14291,34.19803],[139.14281,34.198],[139.14262,34.19802],[139.14249,34.19797],[139.14221,34.19777],[139.14214,34.1976],[139.14194,34.19742],[139.14191,34.19729],[139.14167,34.19727],[139.14136,34.19732],[139.1407,34.19758],[139.14006,34.19771],[139.14016,34.19781],[139.1402,34.19795],[139.14027,34.198],[139.14018,34.19808],[139.14014,34.19837],[139.13988,34.19876],[139.13959,34.19931],[139.13949,34.19938],[139.13946,34.19951],[139.13933,34.19958],[139.13937,34.19964],[139.13902,34.19968],[139.13897,34.1996],[139.13874,34.19965],[139.13863,34.19953],[139.13851,34.19946],[139.1383,34.19943],[139.13822,34.19932],[139.13816,34.19934],[139.13816,34.19937],[139.13789,34.1994],[139.13786,34.19943],[139.13789,34.19953],[139.13793,34.19955],[139.13785,34.1996],[139.13785,34.19971],[139.13789,34.19973],[139.13786,34.19973],[139.13785,34.19977],[139.1379,34.1998],[139.13784,34.20002],[139.1379,34.20006],[139.13796,34.2002],[139.13787,34.20027],[139.13778,34.2003],[139.1377,34.20041],[139.13699,34.20073],[139.13719,34.20098],[139.13712,34.20105],[139.1371,34.20112],[139.13716,34.20128],[139.13729,34.20123],[139.13752,34.20133],[139.13752,34.20142],[139.1378,34.20159],[139.13788,34.20168],[139.13811,34.20173],[139.13827,34.20183],[139.13839,34.20178],[139.13856,34.20165],[139.13869,34.20178],[139.139,34.20185],[139.13945,34.20164],[139.14033,34.20153],[139.14089,34.2014],[139.14103,34.20141],[139.14112,34.20148],[139.14118,34.20157],[139.14118,34.20163],[139.14111,34.20176],[139.14083,34.20202],[139.14004,34.20238],[139.14,34.20246],[139.14,34.20254],[139.14013,34.20265],[139.14067,34.20255],[139.14084,34.20262],[139.14089,34.2028],[139.14085,34.20306],[139.14113,34.20329],[139.14114,34.20334],[139.14105,34.20346],[139.14032,34.20391],[139.14033,34.20401],[139.14045,34.20405],[139.14054,34.20401],[139.14069,34.20387],[139.14134,34.20355],[139.14141,34.20349],[139.14162,34.20305],[139.14317,34.20239],[139.14372,34.20209],[139.14396,34.20187]]]}},{"type":"Feature","properties":{"id":"area-13364001013","name":"秩父山"},"geometry":{"type":"Polygon","coordinates":[[[139.14508,34.20056],[139.14526,34.19995],[139.14532,34.19991],[139.14547,34.19935],[139.14552,34.19907],[139.14545,34.19879],[139.1452,34.19863],[139.14505,34.19844],[139.14495,34.19794],[139.14483,34.19791],[139.14428,34.19798],[139.14401,34.19762],[139.14357,34.19756],[139.14363,34.1972],[139.14361,34.19705],[139.14376,34.19649],[139.14352,34.19563],[139.14354,34.19519],[139.14341,34.19506],[139.14322,34.19497],[139.14318,34.19465],[139.14344,34.19427],[139.14352,34.19409],[139.14368,34.19395],[139.14383,34.19377],[139.14382,34.19325],[139.14388,34.19298],[139.14414,34.19259],[139.14407,34.19205],[139.14401,34.19194],[139.14351,34.19187],[139.14313,34.19176],[139.14291,34.19175],[139.14198,34.19228],[139.1423,34.19266],[139.14247,34.19287],[139.14248,34.19294],[139.14243,34.19305],[139.14234,34.19313],[139.14219,34.19316],[139.14219,34.19324],[139.14236,34.19346],[139.14232,34.19363],[139.14223,34.19378],[139.14228,34.19387],[139.14192,34.19466],[139.14189,34.19516],[139.14191,34.19526],[139.142,34.19536],[139.14197,34.1958],[139.14201,34.19605],[139.14186,34.19668],[139.14187,34.19677],[139.14181,34.19716],[139.14191,34.19727],[139.14194,34.19742],[139.14214,34.1976],[139.14221,34.19777],[139.14249,34.19797],[139.14262,34.19802],[139.14281,34.198],[139.14291,34.19803],[139.14316,34.19827],[139.14337,34.19825],[139.14345,34.1983],[139.14355,34.19849],[139.14365,34.19857],[139.14376,34.19889],[139.14386,34.19908],[139.1441,34.19932],[139.14423,34.19979],[139.14407,34.20011],[139.1441,34.20032],[139.14404,34.20085],[139.14419,34.20118],[139.14389,34.20177],[139.14396,34.20187],[139.14432,34.20132],[139.14481,34.20104],[139.14491,34.20096],[139.14508,34.20056]]]}},{"type":"Feature","properties":{"id":"area-13364001014","name":"三浦"},"geometry":{"type":"MultiPolygon","coordinates":[[[[139.14709,34.19019],[139.14665,34.19032],[139.14651,34.19051],[139.14648,34.19072],[139.14659,34.19085],[139.14637,34.19158],[139.14639,34.1917],[139.14648,34.19179],[139.14653,34.19179],[139.14659,34.19171],[139.14671,34.1912],[139.14706,34.19101],[139.14721,34.19039],[139.14721,34.19022],[139.14709,34.19019]]],[[[139.14774,34.19121],[139.14776,34.19131],[139.1479,34.19156],[139.14812,34.19174],[139.14819,34.19178],[139.14822,34.19176],[139.148,34.19139],[139.14792,34.19113],[139.14776,34.19106],[139.14774,34.19121]]],[[[139.14824,34.19794],[139.14808,34.19787],[139.14815,34.19689],[139.1476,34.19679],[139.14714,34.1966],[139.14705,34.1965],[139.14685,34.19635],[139.1469,34.19617],[139.14684,34.19614],[139.14678,34.19616],[139.14655,34.19596],[139.1465,34.19582],[139.14642,34.19576],[139.14628,34.19558],[139.14632,34.19541],[139.14619,34.195],[139.14615,34.19464],[139.14605,34.19435],[139.14609,34.19403],[139.14617,34.19386],[139.14628,34.19373],[139.1464,34.19326],[139.14636,34.19283],[139.14636,34.19261],[139.14631,34.1924],[139.14633,34.1921],[139.14637,34.19198],[139.1463,34.19188],[139.14621,34.1914],[139.14571,34.19103],[139.14553,34.19062],[139.14558,34.19045],[139.14572,34.19048],[139.14587,34.19042],[139.14601,34.19032],[139.14606,34.19024],[139.14619,34.18993],[139.14638,34.18965],[139.14644,34.18947],[139.14646,34.18939],[139.14641,34.1893],[139.14644,34.18906],[139.14642,34.18898],[139.14634,34.18885],[139.14614,34.18868],[139.14562,34.1883],[139.14561,34.18824],[139.14566,34.18816],[139.14566,34.18809],[139.1456,34.18804],[139.1454,34.18801],[139.14527,34.1878],[139.14518,34.18781],[139.14514,34.18793],[139.145,34.18795],[139.14497,34.18805],[139.14471,34.18825],[139.1445,34.18847],[139.14448,34.18857],[139.14427,34.18874],[139.14406,34.18885],[139.1441,34.1886],[139.14402,34.18847],[139.14405,34.1883],[139.14412,34.18824],[139.14409,34.18818],[139.14402,34.18817],[139.14385,34.18832],[139.14367,34.1889],[139.14369,34.18899],[139.14376,34.18907],[139.14385,34.18911],[139.14396,34.18911],[139.14386,34.18937],[139.14382,34.18963],[139.14377,34.18969],[139.14356,34.18973],[139.14357,34.18986],[139.14363,34.19],[139.14356,34.19078],[139.14361,34.19189],[139.14401,34.19194],[139.14412,34.19226],[139.14414,34.19259],[139.14388,34.19298],[139.14382,34.19325],[139.14383,34.19377],[139.14368,34.19395],[139.14352,34.19409],[139.14344,34.19427],[139.14318,34.19465],[139.14322,34.19497],[139.14341,34.19506],[139.14354,34.19519],[139.14352,34.19563],[139.14376,34.19649],[139.14361,34.19705],[139.14363,34.1972],[139.14357,34.19756],[139.14401,34.19762],[139.14428,34.19798],[139.14483,34.19791],[139.14495,34.19794],[139.14505,34.19844],[139.1452,34.19863],[139.14545,34.19879],[139.14552,34.19907],[139.14532,34.19991],[139.14641,34.1992],[139.14732,34.19871],[139.14765,34.19861],[139.14847,34.19852],[139.14854,34.19848],[139.14876,34.19816],[139.14862,34.1981],[139.14856,34.19801],[139.14843,34.19793],[139.14824,34.19794]]]]}},{"type":"Feature","properties":{"id":"area-13364001015","name":"大沢"},"geometry":{"type":"Polygon","coordinates":[[[139.1488,34.19811],[139.14854,34.19848],[139.14847,34.19852],[139.14765,34.19861],[139.14732,34.19871],[139.14641,34.1992],[139.14549,34.19978],[139.14526,34.19995],[139.14508,34.20056],[139.14534,34.20071],[139.14547,34.20084],[139.14542,34.2011],[139.1453,34.20143],[139.14541,34.20222],[139.14583,34.20247],[139.1459,34.20254],[139.14601,34.20278],[139.14662,34.2037],[139.14681,34.20397],[139.14695,34.20411],[139.14718,34.20425],[139.14755,34.20431],[139.14775,34.2045],[139.14788,34.20455],[139.14815,34.20461],[139.14825,34.20436],[139.14835,34.20431],[139.14841,34.20402],[139.14858,34.20401],[139.14865,34.20396],[139.14905,34.20395],[139.14923,34.20388],[139.14946,34.20385],[139.14966,34.20375],[139.14977,34.20375],[139.15016,34.20417],[139.15023,34.20421],[139.15028,34.20406],[139.15046,34.20384],[139.15039,34.20375],[139.15039,34.20338],[139.15058,34.20321],[139.15073,34.20301],[139.15074,34.20292],[139.15158,34.20147],[139.15173,34.20114],[139.15165,34.20104],[139.15163,34.20091],[139.15154,34.20086],[139.15156,34.20067],[139.15163,34.20048],[139.15156,34.20043],[139.15163,34.20027],[139.1516,34.20014],[139.15146,34.20008],[139.15155,34.19988],[139.15137,34.19978],[139.15144,34.19956],[139.15159,34.19939],[139.15132,34.19937],[139.15079,34.19948],[139.15063,34.19937],[139.1503,34.19926],[139.15011,34.19908],[139.14988,34.19894],[139.14983,34.19885],[139.14943,34.19887],[139.1494,34.19883],[139.14928,34.19887],[139.14917,34.19896],[139.14892,34.19902],[139.14879,34.19901],[139.14871,34.19883],[139.1489,34.1986],[139.14877,34.19847],[139.14895,34.19838],[139.14917,34.19843],[139.14943,34.19839],[139.14954,34.19845],[139.1498,34.19849],[139.1504,34.19883],[139.15086,34.19903],[139.15117,34.19909],[139.15132,34.19897],[139.15149,34.19893],[139.15175,34.19911],[139.15208,34.19915],[139.1523,34.19912],[139.1526,34.19918],[139.15341,34.19877],[139.15367,34.19851],[139.15414,34.19792],[139.15434,34.19693],[139.15436,34.19663],[139.15432,34.19656],[139.1542,34.19652],[139.15412,34.19652],[139.15377,34.19662],[139.15327,34.19686],[139.15311,34.19723],[139.15298,34.19734],[139.15256,34.19757],[139.15237,34.19757],[139.15199,34.19746],[139.15165,34.19746],[139.15152,34.19748],[139.15067,34.1978],[139.1499,34.19782],[139.14906,34.19802],[139.1488,34.19811]]]}},{"type":"Feature","properties":{"id":"area-13364001016","name":"天上山、多幸、等"},"geometry":{"type":"MultiPolygon","coordinates":[[[[139.15406,34.20071],[139.15395,34.20075],[139.15386,34.20082],[139.15383,34.20092],[139.15384,34.20102],[139.15391,34.2011],[139.15401,34.20115],[139.15422,34.20114],[139.15436,34.20103],[139.15437,34.20088],[139.15426,34.20075],[139.15406,34.20071]]],[[[139.17578,34.20527],[139.17563,34.20546],[139.17551,34.20584],[139.17571,34.20622],[139.17591,34.20618],[139.17613,34.20605],[139.17626,34.20576],[139.17631,34.20524],[139.17616,34.20512],[139.17598,34.20516],[139.17578,34.20527]]],[[[139.17674,34.20986],[139.17672,34.20991],[139.17642,34.20995],[139.17637,34.20986],[139.17607,34.20992],[139.17597,34.20999],[139.17607,34.21015],[139.17634,34.21022],[139.17699,34.21027],[139.17707,34.21018],[139.17707,34.21006],[139.17697,34.20993],[139.17687,34.20986],[139.17674,34.20986]]],[[[139.14187,34.2435],[139.14227,34.24343],[139.14245,34.24344],[139.14263,34.2435],[139.14288,34.24349],[139.14337,34.24334],[139.1435,34.24337],[139.14362,34.24335],[139.14379,34.24325],[139.14378,34.24318],[139.14392,34.24309],[139.14408,34.24318],[139.14419,34.24317],[139.14437,34.24301],[139.14436,34.24294],[139.14425,34.24276],[139.1442,34.24262],[139.14422,34.24256],[139.14428,34.24254],[139.14461,34.24252],[139.1448,34.24244],[139.14517,34.2424],[139.1453,34.24241],[139.14538,34.2425],[139.14555,34.24248],[139.14561,34.24253],[139.14577,34.24253],[139.14582,34.2425],[139.14591,34.24257],[139.14587,34.24262],[139.1459,34.24265],[139.1461,34.24257],[139.14616,34.24252],[139.14618,34.24238],[139.14625,34.24244],[139.14631,34.24235],[139.14624,34.24227],[139.14638,34.242],[139.14644,34.24172],[139.14636,34.24164],[139.14635,34.24156],[139.14655,34.24129],[139.14658,34.24127],[139.14663,34.24132],[139.14665,34.2413],[139.14668,34.24126],[139.14666,34.24121],[139.14674,34.24118],[139.1468,34.2412],[139.14705,34.24091],[139.14716,34.24085],[139.14755,34.24069],[139.14794,34.24064],[139.14814,34.24037],[139.14811,34.24024],[139.14844,34.24013],[139.14843,34.24007],[139.14862,34.23981],[139.14891,34.23958],[139.14905,34.23941],[139.1493,34.23927],[139.14966,34.23915],[139.15012,34.23916],[139.15045,34.23927],[139.15055,34.23935],[139.15064,34.23937],[139.15095,34.23955],[139.15104,34.23955],[139.15126,34.23966],[139.15138,34.23967],[139.15155,34.23981],[139.15181,34.23989],[139.15216,34.23992],[139.15219,34.23997],[139.15226,34.23994],[139.1523,34.23998],[139.15236,34.23994],[139.15237,34.23986],[139.15246,34.23989],[139.15251,34.23987],[139.15259,34.23974],[139.15281,34.23972],[139.15282,34.23965],[139.1529,34.23965],[139.15298,34.2396],[139.15328,34.23963],[139.15339,34.23973],[139.15352,34.23972],[139.15356,34.23977],[139.15362,34.23974],[139.15394,34.23974],[139.15404,34.23981],[139.15411,34.23982],[139.15423,34.23974],[139.15445,34.23977],[139.15453,34.23972],[139.15462,34.23976],[139.15469,34.23969],[139.15475,34.23971],[139.15481,34.23966],[139.15493,34.23968],[139.15548,34.23959],[139.15558,34.23954],[139.15569,34.23956],[139.15601,34.23945],[139.15608,34.23947],[139.15609,34.2394],[139.15619,34.23938],[139.15624,34.23932],[139.15634,34.23938],[139.15642,34.23926],[139.15652,34.23929],[139.15665,34.2392],[139.15663,34.23914],[139.15676,34.23907],[139.15697,34.23897],[139.15704,34.23897],[139.15712,34.2389],[139.1572,34.23889],[139.15722,34.23886],[139.15716,34.23879],[139.15723,34.23877],[139.15749,34.23851],[139.15751,34.23843],[139.15762,34.23841],[139.15766,34.23823],[139.15772,34.23813],[139.15785,34.23806],[139.15788,34.23799],[139.15817,34.23788],[139.15818,34.23777],[139.15826,34.2377],[139.15838,34.23773],[139.15843,34.23763],[139.1585,34.23763],[139.15857,34.23758],[139.15863,34.23759],[139.15879,34.23745],[139.15901,34.23747],[139.15914,34.23741],[139.15929,34.23741],[139.15961,34.23727],[139.15994,34.23723],[139.16039,34.23702],[139.16056,34.23686],[139.16068,34.23684],[139.16089,34.2367],[139.1609,34.23675],[139.16093,34.23674],[139.16101,34.23664],[139.1613,34.23654],[139.16159,34.23631],[139.16192,34.23619],[139.16196,34.23611],[139.16221,34.23606],[139.16234,34.23608],[139.16241,34.23604],[139.1625,34.23604],[139.16253,34.23597],[139.16277,34.23587],[139.16282,34.23576],[139.16337,34.23564],[139.1635,34.23556],[139.16361,34.23555],[139.16366,34.23558],[139.16377,34.23557],[139.16388,34.23559],[139.16398,34.23551],[139.16414,34.23552],[139.16435,34.23538],[139.16451,34.23532],[139.16461,34.23533],[139.16467,34.23525],[139.16499,34.23522],[139.16498,34.2351],[139.16507,34.2351],[139.16509,34.23504],[139.16523,34.23498],[139.16527,34.23491],[139.16546,34.23487],[139.16565,34.23478],[139.16577,34.23477],[139.16592,34.23469],[139.16604,34.23472],[139.16606,34.23466],[139.1664,34.23448],[139.1668,34.23433],[139.16713,34.23423],[139.16724,34.23424],[139.16745,34.23418],[139.16759,34.23419],[139.16772,34.23414],[139.168,34.23384],[139.16802,34.23376],[139.168,34.23355],[139.16809,34.23345],[139.16809,34.23334],[139.16819,34.23316],[139.16834,34.23311],[139.16832,34.23303],[139.16835,34.233],[139.16835,34.23293],[139.16871,34.2326],[139.16877,34.23258],[139.16879,34.2325],[139.16885,34.23243],[139.16895,34.23242],[139.16899,34.23235],[139.16909,34.2323],[139.16923,34.23227],[139.16934,34.23217],[139.16945,34.23212],[139.1697,34.23179],[139.1698,34.23176],[139.17001,34.23146],[139.17008,34.23142],[139.17011,34.23132],[139.1702,34.23127],[139.17021,34.23115],[139.17031,34.2309],[139.17027,34.23078],[139.17028,34.23069],[139.17038,34.23047],[139.17045,34.23041],[139.17045,34.23035],[139.17053,34.23029],[139.17054,34.2302],[139.17061,34.23014],[139.17054,34.23009],[139.1706,34.22999],[139.17053,34.22992],[139.17053,34.22978],[139.1706,34.22976],[139.17063,34.22972],[139.17056,34.22965],[139.17061,34.22959],[139.17057,34.22955],[139.1706,34.22941],[139.17068,34.22929],[139.1709,34.22923],[139.17095,34.22918],[139.1709,34.22914],[139.17067,34.22914],[139.17061,34.22919],[139.1706,34.2291],[139.17052,34.22912],[139.17047,34.22909],[139.1704,34.22879],[139.17041,34.22855],[139.17051,34.22792],[139.17074,34.22745],[139.17098,34.22667],[139.17118,34.22643],[139.17124,34.22629],[139.17125,34.22615],[139.17116,34.22582],[139.17118,34.22567],[139.17115,34.22542],[139.17127,34.22471],[139.17135,34.22462],[139.17134,34.22434],[139.17142,34.22429],[139.17133,34.2242],[139.17134,34.22411],[139.17126,34.22385],[139.17122,34.22324],[139.17132,34.22296],[139.17132,34.22275],[139.17135,34.22261],[139.17151,34.22229],[139.17149,34.22207],[139.17153,34.22154],[139.17157,34.22149],[139.17177,34.22139],[139.17183,34.22119],[139.17209,34.22109],[139.17204,34.22091],[139.17208,34.22081],[139.17244,34.22061],[139.1724,34.22052],[139.17221,34.22041],[139.17199,34.22039],[139.17169,34.22045],[139.17161,34.22041],[139.17155,34.22032],[139.17151,34.22022],[139.17157,34.21988],[139.17164,34.21959],[139.17169,34.21955],[139.17168,34.21948],[139.17176,34.21926],[139.17185,34.2192],[139.17212,34.2193],[139.17222,34.21925],[139.17223,34.21905],[139.17227,34.21887],[139.17236,34.21872],[139.17236,34.21858],[139.17239,34.21853],[139.17294,34.21826],[139.17321,34.21846],[139.17326,34.21846],[139.17347,34.21832],[139.1736,34.21817],[139.17359,34.21803],[139.17346,34.21796],[139.17347,34.21793],[139.17369,34.21797],[139.17388,34.21794],[139.17432,34.21754],[139.17442,34.21764],[139.17449,34.21765],[139.17458,34.21751],[139.17469,34.21748],[139.17483,34.21738],[139.17486,34.21722],[139.17484,34.21703],[139.1749,34.21698],[139.17508,34.21694],[139.17517,34.21677],[139.17526,34.2167],[139.17533,34.21667],[139.17539,34.21669],[139.17545,34.21686],[139.1755,34.21691],[139.17559,34.21689],[139.17564,34.21683],[139.17564,34.21674],[139.17554,34.21659],[139.1757,34.21647],[139.17559,34.21629],[139.17548,34.21628],[139.17536,34.21634],[139.17512,34.21632],[139.17494,34.21623],[139.17481,34.216],[139.17454,34.21576],[139.17423,34.21559],[139.17399,34.21528],[139.1738,34.21514],[139.17352,34.21427],[139.17335,34.21406],[139.17316,34.21353],[139.17318,34.213],[139.17325,34.21279],[139.17333,34.21267],[139.17314,34.21208],[139.17329,34.21159],[139.17347,34.21129],[139.17356,34.21124],[139.17372,34.21104],[139.17399,34.21081],[139.17421,34.21052],[139.17449,34.2103],[139.1746,34.20998],[139.17473,34.20982],[139.17473,34.20963],[139.17481,34.2096],[139.1748,34.20911],[139.17493,34.20915],[139.17507,34.20915],[139.17516,34.20912],[139.17521,34.20907],[139.1753,34.20907],[139.17536,34.20898],[139.17535,34.20893],[139.17531,34.20891],[139.17497,34.20895],[139.17472,34.20894],[139.17469,34.20891],[139.17455,34.20841],[139.17455,34.20818],[139.1746,34.20813],[139.17483,34.20812],[139.17499,34.20821],[139.17523,34.2082],[139.1756,34.20808],[139.17583,34.20805],[139.17605,34.20792],[139.17621,34.20774],[139.1762,34.20768],[139.1761,34.20762],[139.17583,34.20731],[139.17577,34.20711],[139.17567,34.20697],[139.17557,34.20696],[139.17532,34.207],[139.17523,34.20697],[139.17501,34.20699],[139.1748,34.20693],[139.17472,34.20683],[139.17471,34.20665],[139.17479,34.20641],[139.17532,34.20574],[139.17524,34.20566],[139.17528,34.20526],[139.17524,34.20474],[139.17526,34.2044],[139.17521,34.20439],[139.1751,34.20448],[139.175,34.20472],[139.1749,34.20477],[139.1746,34.20484],[139.17432,34.20508],[139.17419,34.20513],[139.17407,34.20523],[139.1739,34.20528],[139.17367,34.2055],[139.17358,34.20551],[139.17338,34.20547],[139.17322,34.20535],[139.17269,34.20539],[139.17231,34.20565],[139.17203,34.20577],[139.17192,34.20593],[139.17184,34.20594],[139.17151,34.20589],[139.17131,34.20568],[139.1713,34.20559],[139.17148,34.20548],[139.17145,34.20532],[139.17158,34.20525],[139.17161,34.20519],[139.17151,34.20499],[139.17142,34.20493],[139.171,34.20482],[139.17099,34.20468],[139.17105,34.20455],[139.171,34.20442],[139.17094,34.2044],[139.17085,34.20451],[139.17076,34.20446],[139.17063,34.20454],[139.17041,34.20451],[139.17033,34.20462],[139.17039,34.205],[139.17024,34.20519],[139.17,34.2058],[139.16999,34.20644],[139.16988,34.20676],[139.16975,34.20692],[139.16931,34.2072],[139.16885,34.20762],[139.16884,34.20771],[139.16899,34.20773],[139.16913,34.20788],[139.16924,34.20796],[139.16927,34.20822],[139.16918,34.20829],[139.16898,34.20833],[139.16899,34.20848],[139.16876,34.20865],[139.16826,34.20873],[139.16766,34.20869],[139.16735,34.20871],[139.16689,34.20869],[139.1657,34.20853],[139.1655,34.20841],[139.16518,34.20834],[139.16461,34.20807],[139.16402,34.20789],[139.1635,34.20764],[139.16312,34.20752],[139.163,34.20752],[139.16282,34.20743],[139.16246,34.20724],[139.16221,34.20703],[139.16205,34.20669],[139.16199,34.2066],[139.16141,34.20629],[139.16114,34.20631],[139.16092,34.20623],[139.16059,34.20619],[139.16003,34.20589],[139.15971,34.20578],[139.15933,34.20557],[139.15856,34.20539],[139.1578,34.20526],[139.15759,34.20517],[139.15697,34.20484],[139.15651,34.2045],[139.15617,34.20418],[139.15558,34.20352],[139.15509,34.20284],[139.15493,34.2025],[139.15476,34.20179],[139.15742,34.20077],[139.15732,34.20056],[139.15374,34.20193],[139.15358,34.2018],[139.15346,34.20164],[139.15338,34.20146],[139.1533,34.20109],[139.1533,34.20065],[139.15324,34.20052],[139.15398,34.20051],[139.15398,34.20048],[139.15352,34.20048],[139.15352,34.19958],[139.15424,34.19888],[139.1548,34.19885],[139.15495,34.19873],[139.15516,34.19878],[139.155,34.19927],[139.15497,34.19926],[139.15479,34.19978],[139.15477,34.19977],[139.15472,34.19987],[139.15472,34.19998],[139.15514,34.20063],[139.1553,34.20055],[139.15489,34.19992],[139.15521,34.19909],[139.15533,34.19906],[139.15544,34.19868],[139.15557,34.19867],[139.15562,34.19864],[139.15561,34.19861],[139.15552,34.19855],[139.15554,34.1985],[139.15562,34.19844],[139.15562,34.19835],[139.15547,34.19824],[139.15551,34.19814],[139.15558,34.19819],[139.15564,34.19817],[139.15564,34.19811],[139.15559,34.19801],[139.15572,34.19806],[139.15608,34.19784],[139.15604,34.19776],[139.15589,34.19767],[139.15586,34.19761],[139.15605,34.19752],[139.15608,34.19742],[139.15614,34.19753],[139.15621,34.19753],[139.15625,34.19747],[139.15622,34.19737],[139.15631,34.19735],[139.15638,34.19721],[139.15644,34.19718],[139.15657,34.1972],[139.15658,34.19714],[139.15654,34.19698],[139.1565,34.19693],[139.15635,34.19688],[139.15611,34.19701],[139.15605,34.1971],[139.15599,34.19653],[139.15586,34.19619],[139.1557,34.19596],[139.15559,34.19554],[139.15553,34.19543],[139.15532,34.19524],[139.15522,34.19526],[139.15507,34.19534],[139.15489,34.19522],[139.15466,34.19518],[139.15463,34.1951],[139.15481,34.19501],[139.1548,34.19498],[139.15474,34.19499],[139.15471,34.19493],[139.15461,34.19498],[139.15459,34.19478],[139.15448,34.19461],[139.15464,34.19453],[139.15471,34.19439],[139.15464,34.19443],[139.15454,34.19443],[139.1543,34.19435],[139.15402,34.19475],[139.15382,34.19475],[139.15391,34.19439],[139.15384,34.19442],[139.15373,34.1943],[139.15361,34.19431],[139.15322,34.19454],[139.15323,34.19457],[139.1534,34.1946],[139.15326,34.1947],[139.15325,34.19483],[139.15331,34.19486],[139.1533,34.19488],[139.15303,34.195],[139.15268,34.19502],[139.15247,34.1952],[139.15226,34.19515],[139.15224,34.1951],[139.15225,34.19506],[139.15292,34.19459],[139.15329,34.1944],[139.15348,34.19425],[139.15369,34.19402],[139.15373,34.19392],[139.15369,34.1938],[139.1537,34.1937],[139.15361,34.19357],[139.15353,34.19359],[139.15353,34.19366],[139.1534,34.19368],[139.15327,34.19364],[139.15318,34.19357],[139.15312,34.19357],[139.15306,34.19362],[139.15298,34.19359],[139.15291,34.19362],[139.15263,34.19358],[139.15248,34.19353],[139.15231,34.19333],[139.1523,34.19319],[139.15221,34.19299],[139.1521,34.19287],[139.15179,34.19268],[139.15176,34.19268],[139.1517,34.19276],[139.15161,34.19274],[139.15156,34.19276],[139.15158,34.19292],[139.1515,34.19293],[139.15148,34.19297],[139.15155,34.19309],[139.15153,34.19314],[139.15138,34.19316],[139.15129,34.19323],[139.1513,34.19328],[139.15142,34.19337],[139.15142,34.1937],[139.15138,34.19374],[139.15134,34.19372],[139.15129,34.19357],[139.15117,34.19351],[139.15107,34.19354],[139.15094,34.19371],[139.15099,34.19381],[139.15116,34.19375],[139.15112,34.19387],[139.15117,34.19388],[139.15123,34.19381],[139.15124,34.19391],[139.15134,34.19397],[139.15142,34.19409],[139.15131,34.19426],[139.15123,34.19428],[139.15104,34.19446],[139.15102,34.19457],[139.15111,34.19465],[139.15076,34.1947],[139.15073,34.19473],[139.15074,34.19493],[139.15071,34.19497],[139.15061,34.19501],[139.15047,34.19498],[139.15042,34.19488],[139.15031,34.19481],[139.15,34.19484],[139.14988,34.19492],[139.14981,34.19503],[139.14948,34.19533],[139.14949,34.19543],[139.14937,34.19546],[139.14925,34.19542],[139.14913,34.19545],[139.14909,34.19552],[139.14905,34.19596],[139.14917,34.19663],[139.14914,34.19677],[139.14907,34.19684],[139.14894,34.19689],[139.14868,34.19687],[139.14834,34.19693],[139.14815,34.19689],[139.14808,34.19787],[139.14824,34.19794],[139.14843,34.19793],[139.14856,34.19801],[139.14862,34.1981],[139.14876,34.19816],[139.1488,34.19811],[139.14906,34.19802],[139.1499,34.19782],[139.15067,34.1978],[139.15152,34.19748],[139.15165,34.19746],[139.15199,34.19746],[139.15237,34.19757],[139.15256,34.19757],[139.15298,34.19734],[139.15311,34.19723],[139.15327,34.19686],[139.15377,34.19662],[139.15412,34.19652],[139.1542,34.19652],[139.15432,34.19656],[139.15436,34.19663],[139.15434,34.19693],[139.15414,34.19792],[139.15367,34.19851],[139.15341,34.19877],[139.1526,34.19918],[139.1523,34.19912],[139.15208,34.19915],[139.15175,34.19911],[139.15149,34.19893],[139.15132,34.19897],[139.15117,34.19909],[139.15086,34.19903],[139.1504,34.19883],[139.1498,34.19849],[139.14954,34.19845],[139.14943,34.19839],[139.14917,34.19843],[139.14895,34.19838],[139.14877,34.19847],[139.1489,34.1986],[139.14871,34.19883],[139.14879,34.19901],[139.14892,34.19902],[139.14917,34.19896],[139.14928,34.19887],[139.1494,34.19883],[139.14943,34.19887],[139.14983,34.19885],[139.14988,34.19894],[139.15011,34.19908],[139.1503,34.19926],[139.15063,34.19937],[139.15079,34.19948],[139.15132,34.19937],[139.15159,34.19939],[139.15144,34.19956],[139.15137,34.19978],[139.15155,34.19988],[139.15146,34.20008],[139.1516,34.20014],[139.15163,34.20027],[139.15156,34.20043],[139.15163,34.20048],[139.15156,34.20067],[139.15154,34.20086],[139.15163,34.20091],[139.15165,34.20104],[139.15173,34.20114],[139.15158,34.20147],[139.15074,34.20292],[139.15073,34.20301],[139.15058,34.20321],[139.15039,34.20338],[139.15039,34.20375],[139.15046,34.20384],[139.15028,34.20406],[139.15023,34.20421],[139.15016,34.20417],[139.14977,34.20375],[139.14957,34.20378],[139.14946,34.20385],[139.14923,34.20388],[139.14905,34.20395],[139.14865,34.20396],[139.14858,34.20401],[139.14841,34.20402],[139.14835,34.20431],[139.14825,34.20436],[139.14809,34.20469],[139.14839,34.20481],[139.14855,34.205],[139.14832,34.20502],[139.14837,34.20514],[139.14855,34.20534],[139.14863,34.20551],[139.14861,34.20567],[139.14878,34.20568],[139.1488,34.20576],[139.14893,34.20578],[139.14897,34.20598],[139.14908,34.20607],[139.14911,34.20618],[139.14957,34.20625],[139.1497,34.20645],[139.14999,34.20649],[139.15035,34.20648],[139.15033,34.20658],[139.15048,34.20671],[139.15037,34.20695],[139.1504,34.20699],[139.15029,34.20711],[139.15045,34.20725],[139.15058,34.20731],[139.15044,34.20754],[139.15039,34.20754],[139.15033,34.20764],[139.1501,34.20781],[139.15007,34.20785],[139.15008,34.20795],[139.15,34.20808],[139.14978,34.20819],[139.14921,34.20821],[139.14873,34.20814],[139.14855,34.20826],[139.14842,34.2084],[139.14824,34.20847],[139.14818,34.20861],[139.14802,34.20882],[139.14783,34.2087],[139.14737,34.20871],[139.1473,34.20896],[139.14734,34.2091],[139.14748,34.2092],[139.14745,34.20923],[139.14747,34.20939],[139.14772,34.20949],[139.14783,34.20977],[139.14772,34.20997],[139.14734,34.21002],[139.14699,34.20976],[139.14681,34.20969],[139.14665,34.20968],[139.14666,34.20998],[139.14673,34.21009],[139.14688,34.21014],[139.14695,34.21021],[139.14695,34.21031],[139.14684,34.21069],[139.1469,34.2111],[139.14653,34.2117],[139.14643,34.21173],[139.14632,34.21191],[139.14639,34.21251],[139.14542,34.21371],[139.14509,34.2137],[139.1451,34.21345],[139.14506,34.21329],[139.14455,34.21299],[139.14411,34.21279],[139.14375,34.21274],[139.14347,34.21276],[139.14319,34.21287],[139.14312,34.21287],[139.14263,34.21258],[139.14241,34.21234],[139.14212,34.21238],[139.14193,34.21258],[139.14185,34.2128],[139.14205,34.21296],[139.14207,34.21329],[139.14245,34.21356],[139.1427,34.21402],[139.14336,34.21438],[139.14351,34.21453],[139.1438,34.21495],[139.14377,34.21515],[139.1438,34.21528],[139.14376,34.21544],[139.14378,34.21562],[139.1432,34.21655],[139.14296,34.21758],[139.14226,34.21843],[139.14204,34.21888],[139.14186,34.21903],[139.14161,34.21938],[139.14137,34.21992],[139.14096,34.22014],[139.14048,34.22082],[139.14037,34.22123],[139.14014,34.22174],[139.14044,34.22238],[139.1404,34.22275],[139.14021,34.22322],[139.14001,34.22347],[139.13976,34.22342],[139.13961,34.2235],[139.13919,34.22384],[139.13911,34.22387],[139.13904,34.22385],[139.13882,34.2237],[139.1387,34.22355],[139.13876,34.22332],[139.13873,34.22321],[139.13876,34.2229],[139.13874,34.22274],[139.13856,34.22203],[139.1384,34.2218],[139.13839,34.22168],[139.13822,34.22157],[139.13805,34.22165],[139.13792,34.22164],[139.13779,34.22153],[139.13738,34.22156],[139.13729,34.22151],[139.13722,34.22142],[139.13727,34.22128],[139.13727,34.22117],[139.13716,34.22106],[139.13698,34.22097],[139.13693,34.22086],[139.13692,34.22073],[139.13697,34.22064],[139.13714,34.22055],[139.1372,34.22045],[139.13719,34.2203],[139.13723,34.22004],[139.13706,34.21995],[139.13677,34.2199],[139.1367,34.21983],[139.13666,34.21966],[139.13686,34.21946],[139.13691,34.21936],[139.13689,34.21929],[139.13645,34.21894],[139.13646,34.2188],[139.13652,34.21868],[139.13672,34.2186],[139.13738,34.21846],[139.13765,34.21836],[139.13769,34.21824],[139.13763,34.21792],[139.13751,34.21822],[139.13739,34.21831],[139.13722,34.21835],[139.13639,34.21839],[139.13622,34.21888],[139.13621,34.21904],[139.13631,34.21922],[139.1363,34.21934],[139.13618,34.21961],[139.13613,34.21998],[139.13617,34.2206],[139.13607,34.22087],[139.13581,34.2213],[139.13569,34.22137],[139.13545,34.22136],[139.13525,34.22129],[139.135,34.22107],[139.13436,34.22099],[139.13416,34.22101],[139.13344,34.2214],[139.13326,34.22163],[139.13304,34.22162],[139.13302,34.22154],[139.13309,34.22103],[139.13306,34.22094],[139.13291,34.22078],[139.13281,34.22058],[139.13271,34.2205],[139.13257,34.22052],[139.13245,34.22062],[139.13236,34.22076],[139.13241,34.22086],[139.13264,34.22108],[139.13267,34.22121],[139.13263,34.2214],[139.1325,34.22169],[139.13254,34.2218],[139.13282,34.22203],[139.13304,34.22214],[139.13335,34.22221],[139.13347,34.22228],[139.13406,34.22291],[139.13421,34.22302],[139.13414,34.22316],[139.13413,34.22328],[139.13448,34.22333],[139.13465,34.22347],[139.13482,34.22353],[139.13493,34.22366],[139.13493,34.2237],[139.13477,34.22378],[139.13479,34.22392],[139.13468,34.22397],[139.13467,34.22405],[139.1347,34.22407],[139.13506,34.2241],[139.13523,34.22405],[139.13534,34.22398],[139.13538,34.22408],[139.13542,34.22408],[139.13551,34.22401],[139.13556,34.22405],[139.13559,34.22412],[139.13572,34.22414],[139.13579,34.22411],[139.13579,34.22407],[139.13583,34.22407],[139.13611,34.22437],[139.13631,34.22467],[139.13643,34.22493],[139.13649,34.22509],[139.13649,34.22535],[139.1366,34.22555],[139.13669,34.22557],[139.13687,34.22582],[139.1371,34.22662],[139.13721,34.22722],[139.13724,34.22766],[139.13718,34.22777],[139.13718,34.22789],[139.13724,34.22806],[139.13725,34.22822],[139.13717,34.22854],[139.13711,34.22861],[139.13701,34.22868],[139.13694,34.22869],[139.13691,34.22875],[139.13685,34.22876],[139.13668,34.22892],[139.13659,34.22897],[139.13652,34.22908],[139.13652,34.22919],[139.13649,34.22919],[139.1364,34.2293],[139.1365,34.22939],[139.13653,34.22971],[139.13651,34.22988],[139.13661,34.23005],[139.1366,34.2303],[139.13656,34.23042],[139.1365,34.23047],[139.13654,34.23053],[139.13653,34.2307],[139.13612,34.23136],[139.13585,34.23158],[139.13544,34.23174],[139.13532,34.23183],[139.13535,34.23192],[139.1353,34.23211],[139.13537,34.23218],[139.13548,34.23219],[139.13558,34.23235],[139.13571,34.23236],[139.13575,34.23246],[139.13596,34.23261],[139.13601,34.2327],[139.13611,34.23278],[139.13616,34.23294],[139.13619,34.23318],[139.13603,34.23349],[139.13595,34.23351],[139.1359,34.23359],[139.13575,34.23368],[139.13571,34.23374],[139.13528,34.23407],[139.13498,34.23416],[139.13483,34.23426],[139.13474,34.23461],[139.13453,34.2348],[139.13444,34.23482],[139.13422,34.23498],[139.13419,34.23507],[139.13424,34.23523],[139.13432,34.23524],[139.13444,34.23516],[139.13442,34.23526],[139.13449,34.23529],[139.13455,34.23527],[139.13467,34.23514],[139.13456,34.23536],[139.13468,34.23534],[139.13472,34.23536],[139.13474,34.23545],[139.13483,34.23545],[139.13483,34.23548],[139.13479,34.23555],[139.13458,34.23558],[139.13456,34.23572],[139.13477,34.23574],[139.13477,34.23577],[139.1347,34.23585],[139.13459,34.23589],[139.13458,34.23596],[139.13461,34.23598],[139.13471,34.23594],[139.13478,34.23596],[139.1349,34.23583],[139.13498,34.23591],[139.135,34.23613],[139.13497,34.23619],[139.13503,34.23628],[139.135,34.23637],[139.13512,34.2364],[139.13518,34.23633],[139.1352,34.23626],[139.13539,34.2363],[139.13546,34.23636],[139.13539,34.2366],[139.13549,34.23676],[139.13559,34.23679],[139.1357,34.23678],[139.13574,34.23675],[139.13574,34.23667],[139.13587,34.23678],[139.13584,34.23684],[139.13578,34.23686],[139.13581,34.23691],[139.1356,34.23693],[139.13554,34.23697],[139.13549,34.23715],[139.13556,34.23719],[139.13556,34.23728],[139.13565,34.23724],[139.13585,34.237],[139.13587,34.23702],[139.13585,34.23708],[139.13587,34.2371],[139.13593,34.23704],[139.13597,34.23712],[139.13607,34.23707],[139.13601,34.23719],[139.13604,34.23723],[139.13613,34.23717],[139.13621,34.2372],[139.13637,34.23715],[139.13643,34.23719],[139.13647,34.23717],[139.13652,34.23722],[139.13652,34.23716],[139.13662,34.23719],[139.13661,34.23713],[139.13668,34.23713],[139.13672,34.23706],[139.13695,34.23724],[139.13711,34.23719],[139.13723,34.23724],[139.1373,34.2373],[139.13739,34.23729],[139.13751,34.23738],[139.1375,34.23752],[139.13759,34.23759],[139.13765,34.23776],[139.13763,34.23782],[139.13748,34.23796],[139.13755,34.2381],[139.13754,34.23825],[139.13762,34.23828],[139.13767,34.23838],[139.13781,34.23838],[139.13786,34.23841],[139.1379,34.23849],[139.13787,34.2387],[139.13799,34.23875],[139.13793,34.23881],[139.13789,34.23899],[139.13777,34.23913],[139.13775,34.2393],[139.13761,34.23953],[139.13755,34.23955],[139.13755,34.23962],[139.13752,34.23965],[139.13745,34.23963],[139.13729,34.23949],[139.13716,34.23967],[139.13717,34.23971],[139.1373,34.23974],[139.13732,34.2398],[139.13729,34.23989],[139.13732,34.23998],[139.13729,34.24002],[139.13719,34.24005],[139.13716,34.24008],[139.13717,34.24021],[139.13711,34.24028],[139.13708,34.24055],[139.13713,34.24076],[139.13722,34.24092],[139.13735,34.24128],[139.13745,34.24134],[139.13744,34.24146],[139.13747,34.24147],[139.13753,34.24138],[139.13753,34.24157],[139.13757,34.24162],[139.13765,34.24163],[139.13782,34.2419],[139.13771,34.242],[139.13772,34.24208],[139.1381,34.24213],[139.13815,34.24211],[139.13828,34.24185],[139.13846,34.24184],[139.13864,34.24189],[139.13878,34.242],[139.13885,34.24215],[139.13881,34.24221],[139.13884,34.24234],[139.13873,34.24243],[139.13888,34.24241],[139.13893,34.24245],[139.13892,34.24249],[139.13881,34.24253],[139.13885,34.24271],[139.13935,34.24292],[139.13941,34.24302],[139.1395,34.24302],[139.13962,34.24317],[139.13975,34.2432],[139.13983,34.24328],[139.13993,34.24324],[139.14024,34.24323],[139.14053,34.24328],[139.14056,34.24336],[139.14063,34.24338],[139.14067,34.24335],[139.14068,34.24345],[139.14072,34.24344],[139.14076,34.24334],[139.14104,34.24334],[139.1412,34.2434],[139.14131,34.24349],[139.14142,34.2435],[139.14187,34.2435]]],[[[139.18359,34.22297],[139.18357,34.22284],[139.18344,34.22279],[139.18329,34.22281],[139.18319,34.22295],[139.18289,34.22296],[139.1829,34.22312],[139.18285,34.22328],[139.18288,34.22342],[139.18298,34.22358],[139.18303,34.22358],[139.18318,34.22375],[139.18338,34.22369],[139.18365,34.22379],[139.18373,34.22374],[139.18358,34.22333],[139.18359,34.22297]]],[[[139.1365,34.23929],[139.13626,34.23891],[139.13606,34.2389],[139.13592,34.23899],[139.13595,34.23933],[139.13602,34.23944],[139.13587,34.23953],[139.13567,34.23928],[139.13552,34.23926],[139.13545,34.23935],[139.13545,34.23964],[139.13572,34.23998],[139.13582,34.24005],[139.13605,34.23997],[139.13607,34.2399],[139.1362,34.24006],[139.13635,34.24015],[139.13655,34.23997],[139.13652,34.23947],[139.13642,34.23933],[139.1365,34.23929]]],[[[139.13715,34.24169],[139.13706,34.24127],[139.13705,34.24102],[139.13696,34.24083],[139.13694,34.24065],[139.13679,34.2403],[139.1367,34.24025],[139.13658,34.24036],[139.13639,34.24043],[139.13627,34.24058],[139.13624,34.24082],[139.13631,34.24093],[139.13629,34.24102],[139.13643,34.24105],[139.13649,34.24112],[139.13657,34.24112],[139.13656,34.24127],[139.13659,34.24132],[139.13666,34.24133],[139.13669,34.24155],[139.13661,34.2416],[139.13662,34.24168],[139.13681,34.24168],[139.13688,34.24164],[139.13715,34.24169]]],[[[139.13875,34.24346],[139.13841,34.24359],[139.13836,34.24366],[139.13843,34.24404],[139.13848,34.24411],[139.13871,34.24418],[139.13883,34.24413],[139.13896,34.24398],[139.13895,34.24353],[139.13887,34.24346],[139.13875,34.24346]]]]}},{"type":"Feature","properties":{"id":"area-13364001017","name":"恩馳島"},"geometry":{"type":"MultiPolygon","coordinates":[[[[139.07577,34.1848],[139.07619,34.1846],[139.07624,34.18453],[139.07626,34.18411],[139.07618,34.18397],[139.07609,34.18394],[139.07596,34.18401],[139.07583,34.18413],[139.07586,34.18422],[139.07582,34.18439],[139.07552,34.18454],[139.07516,34.18467],[139.07494,34.18483],[139.07473,34.18479],[139.07421,34.18457],[139.07404,34.18419],[139.07383,34.18406],[139.07382,34.18393],[139.07367,34.18386],[139.07366,34.18365],[139.07352,34.18365],[139.07324,34.18332],[139.07301,34.18328],[139.07293,34.18336],[139.07269,34.18342],[139.07227,34.18373],[139.07211,34.18392],[139.07211,34.18421],[139.07226,34.18448],[139.07257,34.18482],[139.07289,34.18504],[139.07323,34.18542],[139.07359,34.18557],[139.07407,34.18587],[139.07431,34.18593],[139.07458,34.18587],[139.07523,34.18536],[139.07526,34.18517],[139.07577,34.1848]]],[[[139.07917,34.18588],[139.07872,34.1861],[139.07863,34.18649],[139.07826,34.18668],[139.07819,34.18689],[139.07826,34.18707],[139.07838,34.18715],[139.07846,34.18736],[139.07866,34.18734],[139.07879,34.18727],[139.07874,34.18674],[139.07889,34.18648],[139.07887,34.18647],[139.07903,34.18627],[139.07921,34.18614],[139.07924,34.18601],[139.07917,34.18588]]],[[[139.07756,34.18766],[139.07771,34.18718],[139.07766,34.18702],[139.07696,34.18639],[139.07689,34.18607],[139.07738,34.18612],[139.07737,34.18594],[139.07718,34.18582],[139.07677,34.18574],[139.07628,34.18582],[139.07573,34.18612],[139.07507,34.18628],[139.07499,34.18652],[139.07511,34.18677],[139.07503,34.18689],[139.07516,34.1872],[139.07526,34.1873],[139.07547,34.18722],[139.07564,34.18737],[139.07588,34.18746],[139.07592,34.18758],[139.07616,34.18781],[139.07614,34.18795],[139.07627,34.18805],[139.07662,34.18803],[139.07678,34.18819],[139.07704,34.18813],[139.07733,34.1878],[139.07756,34.18766]]]]}},{"type":"Feature","properties":{"id":"area-13364001018","name":"祇苗島"},"geometry":{"type":"MultiPolygon","coordinates":[[[[139.19348,34.20446],[139.19365,34.20448],[139.19395,34.20432],[139.19383,34.20401],[139.19358,34.20402],[139.19343,34.20393],[139.19323,34.20386],[139.19308,34.20389],[139.19298,34.20402],[139.19295,34.20421],[139.1927,34.20442],[139.19255,34.20465],[139.1925,34.2049],[139.19257,34.20512],[139.19272,34.20524],[139.19327,34.20522],[139.19338,34.20508],[139.19333,34.20486],[139.1932,34.20476],[139.19315,34.20463],[139.1932,34.20438],[139.19318,34.20422],[139.19323,34.20418],[139.19348,34.20446]]],[[[139.19294,34.20536],[139.19284,34.20553],[139.19284,34.20569],[139.19314,34.20583],[139.19379,34.20596],[139.19399,34.20567],[139.19397,34.20559],[139.19384,34.2055],[139.19349,34.20536],[139.19322,34.20533],[139.19294,34.20536]]],[[[139.19307,34.2084],[139.19312,34.20815],[139.19304,34.20783],[139.19288,34.2075],[139.1926,34.20713],[139.19218,34.20677],[139.1921,34.20663],[139.19228,34.2065],[139.19247,34.20614],[139.19239,34.20596],[139.19217,34.20593],[139.19204,34.20596],[139.19179,34.20609],[139.19158,34.20642],[139.19133,34.20629],[139.19123,34.20633],[139.1912,34.20645],[139.19095,34.20649],[139.19073,34.20678],[139.19017,34.20711],[139.18977,34.20772],[139.18947,34.20811],[139.18928,34.20846],[139.18925,34.20871],[139.18935,34.20878],[139.18985,34.20865],[139.1901,34.2087],[139.19067,34.20858],[139.19092,34.20863],[139.19143,34.20913],[139.1917,34.20931],[139.19188,34.20936],[139.1923,34.20934],[139.19275,34.20921],[139.19294,34.20901],[139.19304,34.20871],[139.19309,34.20837],[139.19307,34.2084]]],[[[139.19025,34.21219],[139.19095,34.21204],[139.19103,34.21192],[139.191,34.21184],[139.19085,34.2117],[139.1907,34.21163],[139.19028,34.21165],[139.19008,34.21154],[139.18985,34.21146],[139.18873,34.21135],[139.18845,34.21114],[139.1883,34.21089],[139.18847,34.21051],[139.18852,34.21017],[139.18869,34.20981],[139.18892,34.20956],[139.1887,34.20918],[139.18843,34.20936],[139.18822,34.20967],[139.18799,34.21064],[139.18787,34.21051],[139.18774,34.21048],[139.1873,34.21093],[139.1872,34.21116],[139.18698,34.21126],[139.18671,34.21153],[139.18668,34.21169],[139.18709,34.21187],[139.18719,34.21208],[139.18757,34.21246],[139.18782,34.21246],[139.18809,34.21238],[139.18832,34.21238],[139.18897,34.2125],[139.18937,34.21248],[139.18978,34.21237],[139.19025,34.21219]]]]}},{"type":"Feature","properties":{"id":"area-13364001019","name":"金長、等"},"geometry":{"type":"MultiPolygon","coordinates":[[[[139.12819,34.18422],[139.12805,34.18483],[139.1281,34.18497],[139.12817,34.18497],[139.1284,34.18488],[139.12845,34.18468],[139.12856,34.1845],[139.12859,34.18427],[139.12846,34.18418],[139.12829,34.18414],[139.12819,34.18422]]],[[[139.14042,34.18553],[139.14027,34.18567],[139.14027,34.18589],[139.14046,34.18617],[139.14066,34.18619],[139.14079,34.18612],[139.14067,34.18592],[139.14052,34.18551],[139.14042,34.18553]]],[[[139.12696,34.18605],[139.12681,34.18638],[139.12694,34.1865],[139.12714,34.18656],[139.12721,34.18677],[139.12729,34.18681],[139.12746,34.18677],[139.12746,34.18634],[139.12719,34.18614],[139.12696,34.18605]]],[[[139.12519,34.18633],[139.12512,34.18654],[139.12527,34.1867],[139.1253,34.18683],[139.12542,34.1869],[139.12562,34.18675],[139.12616,34.18657],[139.12619,34.18646],[139.12584,34.18625],[139.12519,34.18633]]],[[[139.13189,34.20123],[139.13193,34.20071],[139.13213,34.20063],[139.13206,34.20052],[139.13198,34.20058],[139.13188,34.20059],[139.13107,34.20008],[139.13096,34.19989],[139.13054,34.19975],[139.12977,34.19922],[139.12977,34.19892],[139.12945,34.19875],[139.12923,34.19868],[139.12893,34.19846],[139.12869,34.19835],[139.12859,34.19827],[139.12854,34.1981],[139.12856,34.19795],[139.12869,34.19773],[139.12867,34.19758],[139.12814,34.19723],[139.12773,34.19686],[139.12743,34.19669],[139.12714,34.19613],[139.12699,34.19593],[139.12696,34.19586],[139.12722,34.19531],[139.12718,34.19503],[139.12711,34.19496],[139.12675,34.19484],[139.12624,34.19442],[139.1261,34.19443],[139.12551,34.19461],[139.12539,34.1946],[139.12535,34.19454],[139.12533,34.19417],[139.12517,34.19368],[139.12526,34.19341],[139.12535,34.19334],[139.12589,34.19317],[139.12628,34.19286],[139.12646,34.19279],[139.12674,34.19281],[139.1275,34.19294],[139.12758,34.19291],[139.12778,34.1926],[139.12793,34.19255],[139.13003,34.1924],[139.13079,34.19263],[139.13118,34.19269],[139.13128,34.19268],[139.13132,34.19261],[139.13133,34.19242],[139.13139,34.19247],[139.13142,34.19257],[139.13143,34.19282],[139.1317,34.19293],[139.13177,34.19316],[139.13224,34.19338],[139.13224,34.19346],[139.13214,34.19358],[139.13213,34.19367],[139.13222,34.19379],[139.13219,34.19408],[139.1321,34.19431],[139.13215,34.19439],[139.13232,34.19443],[139.13244,34.19455],[139.13251,34.19497],[139.13252,34.19513],[139.13238,34.19543],[139.13238,34.19555],[139.13264,34.19584],[139.13292,34.19558],[139.13313,34.1953],[139.13323,34.19524],[139.13367,34.19516],[139.13415,34.19515],[139.13476,34.19527],[139.13619,34.19519],[139.13651,34.19486],[139.13693,34.19463],[139.13712,34.19446],[139.13726,34.19395],[139.13736,34.19379],[139.13738,34.19369],[139.13731,34.19324],[139.13756,34.19297],[139.13789,34.19287],[139.13828,34.19285],[139.13849,34.19267],[139.13858,34.19251],[139.13959,34.19212],[139.13981,34.192],[139.14085,34.19124],[139.14102,34.19143],[139.14123,34.19209],[139.1413,34.19218],[139.14166,34.19239],[139.14185,34.19236],[139.14291,34.19175],[139.14313,34.19176],[139.14361,34.19189],[139.14356,34.19078],[139.14363,34.19],[139.14357,34.18986],[139.14356,34.18973],[139.14347,34.1897],[139.14341,34.18943],[139.14342,34.18924],[139.14318,34.189],[139.14314,34.18852],[139.14289,34.18806],[139.14288,34.18789],[139.14295,34.18769],[139.14289,34.18747],[139.14275,34.18734],[139.14271,34.18736],[139.14269,34.18742],[139.14266,34.18741],[139.14232,34.18706],[139.14232,34.18699],[139.14244,34.18682],[139.14238,34.18671],[139.1424,34.18657],[139.14231,34.18633],[139.1424,34.18596],[139.14234,34.18587],[139.14221,34.18576],[139.14206,34.18575],[139.14184,34.186],[139.14176,34.18598],[139.14171,34.18602],[139.14173,34.18613],[139.1416,34.18657],[139.14165,34.18684],[139.14158,34.18693],[139.14148,34.18717],[139.14153,34.18726],[139.14147,34.1875],[139.1416,34.18789],[139.1415,34.18794],[139.14143,34.18809],[139.14142,34.18795],[139.14129,34.18778],[139.14121,34.1876],[139.14122,34.18737],[139.14113,34.18736],[139.14109,34.1874],[139.14101,34.18769],[139.14093,34.1878],[139.14083,34.18774],[139.14098,34.18738],[139.14097,34.18723],[139.14094,34.18719],[139.14085,34.18718],[139.14069,34.18729],[139.14073,34.18713],[139.14066,34.18708],[139.1406,34.18711],[139.14054,34.18727],[139.14047,34.1873],[139.14046,34.18721],[139.14054,34.18701],[139.14044,34.1869],[139.14048,34.18684],[139.14059,34.18684],[139.14063,34.18679],[139.14068,34.18662],[139.14064,34.18648],[139.14056,34.18647],[139.14053,34.18654],[139.14037,34.18639],[139.14028,34.18638],[139.14023,34.18672],[139.14026,34.1869],[139.14019,34.18684],[139.14014,34.1869],[139.1401,34.18756],[139.14007,34.18759],[139.14001,34.18758],[139.13998,34.18753],[139.13999,34.18735],[139.13996,34.18727],[139.13988,34.18723],[139.13972,34.18674],[139.13964,34.18675],[139.13958,34.18684],[139.13961,34.1866],[139.13957,34.18643],[139.13951,34.18636],[139.1395,34.18627],[139.13942,34.18623],[139.13939,34.18615],[139.13926,34.18612],[139.13918,34.1862],[139.13901,34.18609],[139.1386,34.18616],[139.1384,34.18609],[139.13828,34.18597],[139.13829,34.18588],[139.13836,34.18585],[139.13839,34.18578],[139.13837,34.18568],[139.13845,34.18561],[139.1385,34.18549],[139.13853,34.18552],[139.13857,34.18549],[139.13855,34.18544],[139.13851,34.18546],[139.13847,34.18542],[139.13844,34.18528],[139.13838,34.18529],[139.13827,34.18544],[139.13825,34.18543],[139.13827,34.18526],[139.13821,34.1851],[139.13818,34.1851],[139.13815,34.18535],[139.13811,34.18544],[139.13815,34.18555],[139.1382,34.18551],[139.13819,34.1857],[139.13811,34.18574],[139.1381,34.18569],[139.13806,34.18569],[139.13803,34.18578],[139.13772,34.18627],[139.13763,34.18629],[139.13753,34.18621],[139.13754,34.18611],[139.13746,34.18585],[139.13749,34.18578],[139.13748,34.18567],[139.13745,34.18567],[139.13738,34.18577],[139.13733,34.18577],[139.13735,34.18583],[139.1373,34.1861],[139.13737,34.18645],[139.13752,34.18661],[139.13776,34.18668],[139.13779,34.1868],[139.13774,34.18683],[139.13753,34.1868],[139.13741,34.18691],[139.13729,34.1869],[139.13724,34.18679],[139.13726,34.1867],[139.13722,34.18658],[139.13706,34.18648],[139.13705,34.18643],[139.13699,34.18642],[139.13692,34.18636],[139.1369,34.18653],[139.13688,34.18633],[139.13685,34.18634],[139.13685,34.1864],[139.13679,34.18652],[139.13688,34.18656],[139.13683,34.18675],[139.13685,34.18684],[139.13673,34.18693],[139.13666,34.18709],[139.13657,34.18711],[139.13654,34.18699],[139.1365,34.18698],[139.13647,34.18691],[139.13655,34.18687],[139.13656,34.1868],[139.1365,34.18665],[139.13656,34.18657],[139.1365,34.1865],[139.13653,34.18644],[139.1365,34.18629],[139.13645,34.18621],[139.13634,34.18618],[139.13619,34.18603],[139.13613,34.18602],[139.13614,34.18609],[139.13609,34.1861],[139.1362,34.18628],[139.13596,34.18679],[139.13591,34.18678],[139.13585,34.18667],[139.13574,34.18662],[139.13555,34.18669],[139.13537,34.18691],[139.13544,34.18703],[139.13542,34.18709],[139.13527,34.18708],[139.1351,34.18697],[139.1351,34.18692],[139.13502,34.18692],[139.13497,34.18663],[139.13488,34.18657],[139.13481,34.18656],[139.13476,34.1866],[139.13473,34.18653],[139.13466,34.18648],[139.13451,34.18648],[139.13445,34.18653],[139.13443,34.18648],[139.13433,34.18651],[139.13418,34.18679],[139.13419,34.18667],[139.13423,34.18658],[139.13421,34.18652],[139.13409,34.18645],[139.13409,34.18656],[139.13402,34.1866],[139.13402,34.18647],[139.13396,34.18644],[139.13388,34.18651],[139.13386,34.18646],[139.13379,34.18641],[139.13367,34.18642],[139.13363,34.18647],[139.13363,34.18657],[139.13353,34.18659],[139.13341,34.18668],[139.13345,34.18671],[139.13377,34.18675],[139.13396,34.18689],[139.13409,34.18693],[139.13402,34.18705],[139.13398,34.18706],[139.13393,34.18698],[139.13369,34.18699],[139.13355,34.18696],[139.13345,34.18701],[139.13338,34.18714],[139.13328,34.18692],[139.13321,34.18688],[139.13318,34.18691],[139.13318,34.18713],[139.13314,34.18716],[139.13302,34.18714],[139.13287,34.18721],[139.13286,34.18698],[139.133,34.187],[139.13306,34.18688],[139.13303,34.18685],[139.13287,34.18684],[139.13283,34.18695],[139.13279,34.1868],[139.13269,34.18678],[139.13245,34.1866],[139.13251,34.18645],[139.13262,34.18638],[139.1327,34.18641],[139.13277,34.18649],[139.1329,34.18653],[139.13293,34.18645],[139.13284,34.18633],[139.13273,34.18625],[139.13274,34.18611],[139.13257,34.18589],[139.13262,34.18583],[139.1326,34.1858],[139.13261,34.18577],[139.13259,34.18574],[139.13254,34.18574],[139.13255,34.1857],[139.13245,34.18553],[139.13237,34.18552],[139.13233,34.1858],[139.13223,34.18582],[139.13216,34.18575],[139.13204,34.18548],[139.13191,34.18536],[139.13186,34.1854],[139.13187,34.18522],[139.13173,34.18516],[139.13171,34.18522],[139.13176,34.18533],[139.13169,34.18578],[139.13162,34.18572],[139.13159,34.18555],[139.13152,34.18545],[139.13146,34.18545],[139.1314,34.18559],[139.13138,34.18546],[139.13134,34.18545],[139.13132,34.18553],[139.13126,34.18551],[139.13129,34.18556],[139.13133,34.18555],[139.13132,34.18557],[139.13119,34.18571],[139.13121,34.1856],[139.13112,34.1854],[139.13109,34.18514],[139.13103,34.18511],[139.13098,34.18498],[139.13089,34.18496],[139.13086,34.18499],[139.13089,34.18511],[139.1308,34.18533],[139.13079,34.18595],[139.13074,34.18589],[139.13074,34.1854],[139.13063,34.18504],[139.13035,34.1847],[139.13022,34.18465],[139.13005,34.18468],[139.12956,34.18507],[139.12936,34.18505],[139.12902,34.18549],[139.12896,34.18544],[139.12905,34.18532],[139.12903,34.18503],[139.12908,34.18494],[139.12914,34.18492],[139.12909,34.18469],[139.1292,34.18448],[139.12917,34.1844],[139.12911,34.18441],[139.12907,34.18446],[139.129,34.18442],[139.12894,34.18455],[139.12891,34.18489],[139.12877,34.18489],[139.12886,34.18486],[139.12883,34.18467],[139.12877,34.18467],[139.12865,34.18482],[139.12863,34.18495],[139.12855,34.18507],[139.12854,34.18516],[139.12858,34.18527],[139.12855,34.18533],[139.12858,34.18539],[139.12855,34.18546],[139.12851,34.1855],[139.12847,34.18544],[139.12841,34.18543],[139.12843,34.18548],[139.12841,34.18557],[139.12858,34.18559],[139.12867,34.18586],[139.12864,34.18593],[139.12853,34.18595],[139.1284,34.18608],[139.12847,34.18644],[139.1284,34.18666],[139.12833,34.18666],[139.12831,34.18672],[139.12856,34.18677],[139.12859,34.18682],[139.12845,34.18701],[139.12839,34.18729],[139.12835,34.18729],[139.12832,34.18716],[139.12823,34.18706],[139.1282,34.18712],[139.12793,34.18718],[139.12783,34.18724],[139.12778,34.18731],[139.12768,34.18729],[139.12755,34.18746],[139.12743,34.18735],[139.12737,34.18734],[139.12735,34.18726],[139.12729,34.18724],[139.12724,34.18738],[139.12717,34.18738],[139.12711,34.18742],[139.12706,34.18715],[139.12711,34.1871],[139.12711,34.18701],[139.12706,34.18694],[139.12693,34.18692],[139.12667,34.18702],[139.12662,34.18706],[139.12659,34.18725],[139.12655,34.18729],[139.1264,34.18725],[139.12639,34.18716],[139.12632,34.18695],[139.12623,34.18687],[139.12615,34.18687],[139.12603,34.18705],[139.12596,34.18705],[139.12585,34.187],[139.12582,34.18684],[139.12586,34.1868],[139.12582,34.18672],[139.12559,34.1868],[139.12546,34.18699],[139.12539,34.18705],[139.12532,34.18734],[139.12537,34.18748],[139.12536,34.18766],[139.1254,34.18768],[139.12548,34.18763],[139.12553,34.18764],[139.12556,34.18774],[139.12555,34.18793],[139.12548,34.18808],[139.12529,34.18818],[139.12515,34.18838],[139.12517,34.18851],[139.12539,34.18862],[139.12541,34.18867],[139.12532,34.18879],[139.12509,34.18892],[139.12506,34.18907],[139.12501,34.18911],[139.12506,34.18924],[139.12513,34.18921],[139.12517,34.18915],[139.12521,34.18917],[139.12521,34.18926],[139.12509,34.18942],[139.12517,34.18981],[139.12504,34.18961],[139.12504,34.18982],[139.12501,34.18983],[139.12494,34.18958],[139.1249,34.18957],[139.12486,34.18973],[139.12479,34.18979],[139.12474,34.18996],[139.12463,34.18982],[139.12461,34.18974],[139.12449,34.18977],[139.12442,34.18966],[139.12433,34.18971],[139.12416,34.18968],[139.1241,34.18961],[139.12408,34.18948],[139.124,34.18948],[139.12402,34.18934],[139.12395,34.18928],[139.12378,34.18928],[139.12362,34.18945],[139.12362,34.18932],[139.12368,34.18926],[139.12371,34.18907],[139.12382,34.18879],[139.12381,34.18873],[139.12376,34.1887],[139.12368,34.18874],[139.12347,34.18904],[139.12344,34.1891],[139.12343,34.18924],[139.12337,34.18939],[139.12329,34.18942],[139.12332,34.1893],[139.12324,34.18932],[139.12304,34.18952],[139.12296,34.1897],[139.1227,34.18963],[139.12285,34.18951],[139.12301,34.18925],[139.12319,34.18903],[139.1233,34.18879],[139.12325,34.18872],[139.12313,34.18869],[139.12282,34.18875],[139.12275,34.18872],[139.12276,34.18866],[139.12303,34.18855],[139.1231,34.18847],[139.12296,34.18825],[139.12283,34.18818],[139.1226,34.18827],[139.12229,34.18857],[139.12202,34.18865],[139.12161,34.18892],[139.12125,34.18893],[139.12115,34.18908],[139.12101,34.18917],[139.12094,34.18927],[139.1209,34.18928],[139.12089,34.18922],[139.12082,34.18922],[139.12063,34.1894],[139.12045,34.18927],[139.12034,34.18929],[139.12025,34.18938],[139.12041,34.18954],[139.12037,34.18966],[139.12027,34.18966],[139.12016,34.1896],[139.12006,34.18961],[139.11988,34.18982],[139.11986,34.18978],[139.11978,34.1898],[139.11962,34.18996],[139.11944,34.19],[139.11937,34.19007],[139.11935,34.19015],[139.11938,34.19032],[139.11926,34.1905],[139.11924,34.19062],[139.11926,34.1908],[139.11938,34.19084],[139.11941,34.19089],[139.11961,34.19081],[139.11975,34.19065],[139.11975,34.19053],[139.11987,34.19031],[139.11996,34.18999],[139.12003,34.18992],[139.12002,34.18999],[139.12009,34.19011],[139.12027,34.19],[139.12041,34.19003],[139.12042,34.19007],[139.12038,34.19021],[139.12041,34.19026],[139.12057,34.19013],[139.12056,34.19008],[139.1206,34.19004],[139.12071,34.19001],[139.12075,34.18997],[139.12078,34.1899],[139.12074,34.18977],[139.12085,34.18951],[139.12122,34.18924],[139.12141,34.18922],[139.12152,34.18924],[139.12172,34.18939],[139.12169,34.1895],[139.12144,34.18982],[139.12067,34.19044],[139.12039,34.19055],[139.12029,34.19062],[139.12022,34.19061],[139.12023,34.19053],[139.1202,34.19053],[139.1201,34.19066],[139.11979,34.19083],[139.11981,34.19099],[139.11989,34.19118],[139.11983,34.19127],[139.11984,34.19135],[139.11979,34.19146],[139.11981,34.19153],[139.11976,34.19161],[139.11978,34.19164],[139.11989,34.19156],[139.11992,34.19157],[139.11986,34.19162],[139.11986,34.19166],[139.11992,34.1917],[139.12,34.19169],[139.12022,34.19153],[139.12048,34.19148],[139.12087,34.19124],[139.12046,34.1917],[139.12041,34.19187],[139.12023,34.19187],[139.1203,34.19209],[139.12027,34.19219],[139.12047,34.19227],[139.12036,34.1923],[139.12029,34.19241],[139.12028,34.19264],[139.12023,34.19266],[139.12021,34.19272],[139.12021,34.19282],[139.12025,34.19289],[139.12021,34.1929],[139.12016,34.19284],[139.1201,34.19288],[139.12018,34.19301],[139.12027,34.19302],[139.12031,34.19299],[139.12041,34.19305],[139.12042,34.19319],[139.12044,34.19321],[139.12066,34.19308],[139.12054,34.19351],[139.1207,34.19382],[139.12069,34.19394],[139.12064,34.19402],[139.12056,34.19407],[139.12036,34.19405],[139.12005,34.19367],[139.12001,34.19355],[139.11995,34.19351],[139.1199,34.19354],[139.11983,34.19384],[139.11992,34.19411],[139.12009,34.19445],[139.12007,34.19459],[139.1201,34.19465],[139.12048,34.19492],[139.12083,34.19525],[139.12102,34.19529],[139.12103,34.1955],[139.12098,34.19566],[139.12103,34.19584],[139.12103,34.19599],[139.1212,34.19624],[139.12124,34.19623],[139.12131,34.19606],[139.12138,34.19608],[139.12149,34.19658],[139.12172,34.197],[139.12188,34.19717],[139.12188,34.19722],[139.12173,34.19764],[139.12168,34.19765],[139.12165,34.1976],[139.12152,34.19752],[139.12146,34.19752],[139.12143,34.19767],[139.12147,34.19773],[139.12141,34.19776],[139.1216,34.19792],[139.12172,34.19793],[139.12175,34.19796],[139.12175,34.19828],[139.12184,34.19841],[139.12181,34.19843],[139.12173,34.19838],[139.12169,34.19839],[139.12168,34.19853],[139.1216,34.19862],[139.12168,34.19872],[139.12171,34.19882],[139.12185,34.19887],[139.12181,34.19904],[139.12198,34.19917],[139.12196,34.19927],[139.12199,34.1993],[139.12214,34.19931],[139.12249,34.19921],[139.12275,34.19924],[139.1231,34.19943],[139.12337,34.19949],[139.12361,34.19961],[139.12379,34.1999],[139.12393,34.1999],[139.12406,34.19995],[139.1244,34.19986],[139.12453,34.19986],[139.12464,34.19979],[139.12482,34.19976],[139.12499,34.19978],[139.12503,34.19986],[139.12509,34.19989],[139.12509,34.19994],[139.12536,34.20018],[139.12552,34.20024],[139.12555,34.2003],[139.12592,34.20031],[139.12591,34.20038],[139.12573,34.20055],[139.12573,34.20067],[139.12588,34.20078],[139.12603,34.20075],[139.12607,34.20078],[139.12609,34.20087],[139.12613,34.2009],[139.12625,34.20086],[139.12637,34.20054],[139.12654,34.20053],[139.12662,34.20062],[139.12671,34.20058],[139.12689,34.20056],[139.12701,34.20057],[139.12708,34.20061],[139.12718,34.2006],[139.12726,34.20065],[139.12749,34.20063],[139.12756,34.20066],[139.12767,34.20076],[139.12787,34.20079],[139.12801,34.20086],[139.12816,34.20083],[139.12827,34.20092],[139.12839,34.20091],[139.12909,34.20115],[139.12923,34.20117],[139.12935,34.20125],[139.12953,34.20124],[139.12985,34.20129],[139.12998,34.20125],[139.13014,34.20126],[139.13026,34.20122],[139.13048,34.20122],[139.13056,34.20126],[139.1306,34.20121],[139.13067,34.20123],[139.13071,34.2012],[139.13105,34.20126],[139.13124,34.2014],[139.1313,34.20141],[139.13137,34.20129],[139.13144,34.20126],[139.13169,34.20122],[139.13189,34.20123]]]]}}]}