{"type":"FeatureCollection","features":[{"type":"Feature","properties":{"id":"area-133820010","name":"御蔵島村"},"geometry":{"type":"Polygon","coordinates":[[[139.60356,33.90105],[139.60414,33.90096],[139.6045,33.90096],[139.6048,33.90088],[139.60505,33.90086],[139.6052,33.90081],[139.60529,33.90081],[139.60661,33.90014],[139.60688,33.89991],[139.60829,33.89912],[139.60886,33.89899],[139.60965,33.89868],[139.61019,33.89832],[139.61078,33.89775],[139.61174,33.89667],[139.61292,33.89548],[139.61343,33.89504],[139.61371,33.89493],[139.61376,33.89484],[139.6147,33.89426],[139.61512,33.89389],[139.6156,33.8936],[139.6159,33.89322],[139.61752,33.89256],[139.61774,33.89242],[139.61793,33.89235],[139.61797,33.89226],[139.61808,33.89224],[139.61825,33.8923],[139.61831,33.89227],[139.61837,33.89217],[139.61839,33.89203],[139.61838,33.89184],[139.61849,33.89172],[139.61854,33.89172],[139.61897,33.8914],[139.61909,33.89102],[139.61945,33.89071],[139.62006,33.88989],[139.62005,33.88984],[139.6201,33.88983],[139.62043,33.88945],[139.62142,33.88812],[139.62191,33.8876],[139.62231,33.88706],[139.6227,33.8867],[139.62315,33.88621],[139.62357,33.88562],[139.62388,33.88526],[139.62457,33.88436],[139.62516,33.88376],[139.62519,33.88365],[139.6252,33.88345],[139.62541,33.88306],[139.62566,33.88245],[139.62573,33.88237],[139.62595,33.88183],[139.62597,33.8817],[139.62607,33.88161],[139.62613,33.88142],[139.62626,33.88129],[139.6265,33.88065],[139.62653,33.88048],[139.62683,33.88015],[139.6269,33.87991],[139.62684,33.87987],[139.62697,33.8798],[139.62712,33.87977],[139.62727,33.87966],[139.62727,33.8796],[139.6272,33.87954],[139.62733,33.87907],[139.62737,33.87902],[139.62743,33.87903],[139.62747,33.87876],[139.62758,33.87864],[139.62766,33.87838],[139.62781,33.87807],[139.62801,33.87778],[139.62826,33.87787],[139.62837,33.87786],[139.62837,33.87782],[139.6283,33.87775],[139.62816,33.87769],[139.62819,33.87759],[139.6283,33.87748],[139.62834,33.87734],[139.62845,33.87731],[139.62868,33.87732],[139.62873,33.87727],[139.62873,33.87722],[139.62866,33.87721],[139.62863,33.87715],[139.62865,33.87709],[139.62874,33.87701],[139.62878,33.87681],[139.62889,33.87664],[139.62926,33.87631],[139.62943,33.876],[139.62942,33.87559],[139.62948,33.8752],[139.62972,33.87454],[139.63,33.87388],[139.63034,33.8734],[139.63043,33.87333],[139.63054,33.87332],[139.63061,33.87327],[139.63079,33.87272],[139.63108,33.87237],[139.63139,33.8718],[139.63172,33.87151],[139.63179,33.8714],[139.6318,33.87111],[139.63173,33.87066],[139.63188,33.87034],[139.63188,33.87013],[139.63181,33.86969],[139.63165,33.86924],[139.63145,33.8684],[139.63132,33.86807],[139.63132,33.86796],[139.63127,33.86784],[139.63127,33.8677],[139.63124,33.86767],[139.63119,33.8677],[139.63116,33.86768],[139.63123,33.86763],[139.63123,33.86758],[139.63119,33.86753],[139.63106,33.86755],[139.63103,33.8675],[139.63094,33.86748],[139.6309,33.86741],[139.63079,33.8672],[139.63071,33.86697],[139.63067,33.86696],[139.63068,33.86688],[139.63072,33.86685],[139.63062,33.86681],[139.63059,33.86671],[139.63055,33.86668],[139.63058,33.86662],[139.63053,33.86655],[139.63059,33.86649],[139.63048,33.86647],[139.63017,33.866],[139.63009,33.86576],[139.63001,33.86566],[139.63002,33.86561],[139.62995,33.86558],[139.6299,33.86547],[139.62993,33.86541],[139.62985,33.8654],[139.62987,33.86536],[139.62984,33.86534],[139.6298,33.86536],[139.62973,33.86514],[139.62943,33.86462],[139.62941,33.86444],[139.62932,33.86444],[139.62928,33.86433],[139.62932,33.8643],[139.62925,33.86425],[139.62919,33.86415],[139.62913,33.86414],[139.62896,33.86379],[139.62897,33.86372],[139.62876,33.86353],[139.62882,33.86351],[139.62882,33.86348],[139.62871,33.86341],[139.62877,33.86337],[139.62879,33.86331],[139.62868,33.86331],[139.62866,33.86319],[139.62861,33.86313],[139.62856,33.86314],[139.62854,33.86302],[139.62837,33.8628],[139.62819,33.86228],[139.62825,33.86204],[139.62833,33.86196],[139.62825,33.86193],[139.6282,33.86199],[139.62796,33.86163],[139.62789,33.86158],[139.6277,33.86126],[139.62732,33.86082],[139.62731,33.86073],[139.62717,33.86062],[139.62702,33.86025],[139.6269,33.86018],[139.62688,33.8601],[139.62683,33.86008],[139.62687,33.86004],[139.62682,33.86001],[139.62679,33.86004],[139.62666,33.85995],[139.62664,33.85989],[139.62641,33.85973],[139.62633,33.85965],[139.62637,33.85963],[139.62636,33.8596],[139.62626,33.85962],[139.62614,33.85957],[139.62591,33.8592],[139.62575,33.85904],[139.62573,33.85897],[139.62547,33.85866],[139.62536,33.85849],[139.62533,33.85834],[139.62524,33.85822],[139.625,33.85766],[139.62466,33.85723],[139.6245,33.85694],[139.62437,33.85633],[139.62428,33.8561],[139.62412,33.85582],[139.62389,33.85552],[139.62364,33.85533],[139.6236,33.85525],[139.62317,33.85502],[139.62302,33.85487],[139.62287,33.85464],[139.62213,33.85409],[139.62186,33.8538],[139.62165,33.85344],[139.62124,33.85288],[139.62071,33.85245],[139.6203,33.85225],[139.6202,33.85208],[139.6201,33.852],[139.6199,33.85202],[139.61976,33.85196],[139.61959,33.852],[139.61943,33.85195],[139.61888,33.85215],[139.61868,33.85215],[139.61803,33.85225],[139.61696,33.85231],[139.61693,33.85227],[139.61694,33.85217],[139.61687,33.85206],[139.61645,33.85183],[139.61617,33.85179],[139.61596,33.85169],[139.61561,33.85162],[139.61493,33.85157],[139.61466,33.85158],[139.61449,33.85164],[139.61436,33.85178],[139.61428,33.85197],[139.61426,33.85219],[139.61422,33.85224],[139.61371,33.85257],[139.61345,33.85264],[139.61288,33.85306],[139.61239,33.85326],[139.61209,33.85331],[139.61178,33.85343],[139.61149,33.85345],[139.61065,33.85368],[139.61042,33.85366],[139.60963,33.85372],[139.60876,33.85384],[139.60784,33.85392],[139.60708,33.85408],[139.60671,33.85413],[139.6058,33.85435],[139.60531,33.85437],[139.60492,33.85446],[139.60449,33.85447],[139.60417,33.85452],[139.60396,33.8545],[139.60296,33.85461],[139.60265,33.85467],[139.60216,33.85466],[139.60108,33.85477],[139.60042,33.85475],[139.59948,33.85467],[139.59873,33.85472],[139.59798,33.85468],[139.5974,33.85468],[139.59721,33.85472],[139.59587,33.85468],[139.59527,33.8547],[139.59493,33.85475],[139.59455,33.85475],[139.59335,33.85462],[139.5925,33.85449],[139.59219,33.85455],[139.59211,33.8546],[139.59192,33.85462],[139.59156,33.85471],[139.59022,33.85514],[139.59005,33.85524],[139.58987,33.8553],[139.58921,33.85546],[139.58906,33.85546],[139.58883,33.85559],[139.5887,33.85561],[139.58828,33.85583],[139.58769,33.85605],[139.58692,33.85639],[139.58649,33.85663],[139.58586,33.85688],[139.58533,33.85713],[139.58446,33.85745],[139.5841,33.85754],[139.58325,33.85786],[139.58249,33.85825],[139.58211,33.85836],[139.58179,33.85853],[139.58163,33.85858],[139.58041,33.85925],[139.57975,33.85975],[139.5795,33.8599],[139.57903,33.86034],[139.57882,33.86064],[139.57855,33.86111],[139.57814,33.86197],[139.57784,33.86291],[139.5776,33.863],[139.57764,33.86305],[139.57778,33.86307],[139.57716,33.86431],[139.57702,33.8647],[139.57683,33.866],[139.57682,33.86645],[139.57665,33.86651],[139.57662,33.86659],[139.57671,33.86669],[139.57683,33.86673],[139.57682,33.86692],[139.57702,33.8682],[139.57708,33.86877],[139.57698,33.86906],[139.57686,33.86907],[139.57684,33.86911],[139.5769,33.86915],[139.57712,33.86917],[139.57716,33.86929],[139.57703,33.86967],[139.57702,33.87015],[139.57708,33.87034],[139.5771,33.87056],[139.57706,33.87083],[139.57711,33.87096],[139.5772,33.8722],[139.57723,33.874],[139.57727,33.87418],[139.57727,33.8747],[139.57721,33.87522],[139.57715,33.87539],[139.57719,33.87579],[139.57709,33.87612],[139.57701,33.87652],[139.57692,33.87671],[139.57674,33.87732],[139.57677,33.87743],[139.57669,33.87755],[139.57676,33.8776],[139.57666,33.87807],[139.57677,33.87813],[139.57675,33.87836],[139.57681,33.87851],[139.57682,33.87878],[139.57694,33.87898],[139.57694,33.87934],[139.577,33.87943],[139.577,33.87959],[139.57713,33.87963],[139.57728,33.88006],[139.57736,33.88048],[139.57785,33.88161],[139.57811,33.88242],[139.57834,33.88302],[139.5787,33.88358],[139.57912,33.88413],[139.57956,33.88486],[139.5798,33.88508],[139.57991,33.88523],[139.58009,33.88534],[139.58019,33.8855],[139.58033,33.88564],[139.58054,33.88591],[139.5806,33.88606],[139.58082,33.88642],[139.58108,33.88652],[139.58128,33.88674],[139.58157,33.88715],[139.58184,33.88764],[139.58272,33.8889],[139.58304,33.88921],[139.58316,33.88937],[139.5832,33.88944],[139.58317,33.88946],[139.58318,33.88951],[139.58333,33.88961],[139.58395,33.89024],[139.58418,33.89053],[139.58437,33.89064],[139.58454,33.89091],[139.58488,33.89119],[139.58497,33.89135],[139.58533,33.89178],[139.58546,33.89186],[139.58593,33.89233],[139.58629,33.89275],[139.58653,33.89311],[139.58669,33.89327],[139.5867,33.89332],[139.58688,33.89338],[139.58699,33.89349],[139.58694,33.89354],[139.58695,33.89357],[139.58712,33.89363],[139.58738,33.89393],[139.58757,33.89408],[139.58819,33.89463],[139.5882,33.89474],[139.58807,33.89497],[139.58808,33.89507],[139.58817,33.8951],[139.58837,33.89494],[139.58846,33.89491],[139.58856,33.89495],[139.58866,33.89506],[139.58879,33.89507],[139.58894,33.8955],[139.58859,33.89597],[139.58824,33.8957],[139.588,33.8959],[139.58832,33.89615],[139.5866,33.89732],[139.58679,33.8975],[139.58859,33.89628],[139.58869,33.89618],[139.58897,33.89572],[139.58902,33.89573],[139.58922,33.89585],[139.58946,33.89608],[139.58982,33.89634],[139.59016,33.89677],[139.5903,33.89689],[139.59043,33.89712],[139.58987,33.89749],[139.58996,33.89758],[139.5903,33.89737],[139.59079,33.89788],[139.5906,33.89801],[139.59078,33.89818],[139.59037,33.89844],[139.58961,33.89767],[139.58932,33.89786],[139.58953,33.89806],[139.58959,33.89803],[139.59028,33.89874],[139.59136,33.89801],[139.59174,33.89823],[139.59209,33.89835],[139.59232,33.89847],[139.59276,33.89861],[139.59432,33.899],[139.59493,33.89909],[139.59557,33.89934],[139.59718,33.89962],[139.5977,33.89974],[139.59796,33.89987],[139.59897,33.90005],[139.59966,33.90028],[139.60027,33.90064],[139.60037,33.90076],[139.60064,33.90075],[139.60195,33.90084],[139.60253,33.90095],[139.60293,33.90105],[139.60356,33.90105]]]}}]}