{"type":"FeatureCollection","features":[{"type":"Feature","properties":{"id":"area-133810010","name":"坪田"},"geometry":{"type":"Polygon","coordinates":[[[139.56341,34.10302],[139.56357,34.10281],[139.56366,34.1028],[139.5636,34.1026],[139.56365,34.10249],[139.56443,34.10235],[139.56451,34.10227],[139.56483,34.10234],[139.56508,34.10236],[139.5651,34.10233],[139.56505,34.10225],[139.56513,34.10218],[139.56519,34.1022],[139.56525,34.10228],[139.56536,34.10232],[139.5656,34.10233],[139.56568,34.1023],[139.56565,34.10227],[139.56541,34.10226],[139.56518,34.10206],[139.56522,34.10196],[139.56533,34.10191],[139.56546,34.102],[139.5655,34.10208],[139.56549,34.10215],[139.56555,34.10215],[139.56569,34.10209],[139.56566,34.10195],[139.56553,34.10187],[139.56536,34.10168],[139.56563,34.1012],[139.56575,34.10121],[139.56572,34.10114],[139.56548,34.10095],[139.56535,34.10093],[139.56514,34.10101],[139.56487,34.10121],[139.56484,34.10108],[139.56477,34.10104],[139.56464,34.10089],[139.56427,34.10079],[139.56411,34.10068],[139.56375,34.10069],[139.56364,34.10065],[139.56355,34.10051],[139.56355,34.10034],[139.56349,34.10018],[139.56354,34.10011],[139.56354,34.10006],[139.56347,34.09997],[139.56362,34.09978],[139.56361,34.09968],[139.56374,34.0996],[139.56383,34.09947],[139.56418,34.09932],[139.56427,34.09921],[139.56446,34.09912],[139.56449,34.09903],[139.56449,34.09906],[139.56454,34.09907],[139.56473,34.09901],[139.56466,34.09879],[139.56469,34.0987],[139.56482,34.09855],[139.56484,34.09836],[139.56494,34.09833],[139.56499,34.09813],[139.56517,34.09798],[139.56522,34.09787],[139.56522,34.09773],[139.56538,34.09749],[139.56539,34.09738],[139.56529,34.09728],[139.56538,34.09716],[139.56538,34.09706],[139.56546,34.09701],[139.56547,34.09696],[139.56543,34.09685],[139.5654,34.09686],[139.56539,34.09692],[139.56536,34.09691],[139.56536,34.09686],[139.5653,34.09688],[139.56528,34.09685],[139.56544,34.09675],[139.56538,34.09668],[139.56553,34.09662],[139.56533,34.09667],[139.56531,34.09665],[139.56555,34.0965],[139.56552,34.09647],[139.56546,34.09651],[139.56536,34.09649],[139.5653,34.09643],[139.56547,34.09638],[139.56552,34.09591],[139.56555,34.09586],[139.56554,34.09578],[139.56555,34.09576],[139.56559,34.0958],[139.56564,34.09578],[139.56556,34.09568],[139.56557,34.09561],[139.56552,34.09556],[139.56539,34.09549],[139.56522,34.09546],[139.56516,34.09541],[139.56515,34.09506],[139.56512,34.09497],[139.56514,34.09491],[139.56506,34.09487],[139.56504,34.09474],[139.5649,34.09455],[139.56484,34.09433],[139.56486,34.09425],[139.56514,34.09394],[139.5652,34.09381],[139.56526,34.09376],[139.56561,34.09384],[139.56582,34.09396],[139.56605,34.09396],[139.56621,34.0939],[139.56644,34.09372],[139.56655,34.09349],[139.56646,34.09332],[139.56604,34.09305],[139.56565,34.09291],[139.56524,34.09288],[139.56485,34.09264],[139.5646,34.09255],[139.56459,34.0925],[139.56468,34.09236],[139.56464,34.09204],[139.56446,34.09198],[139.56434,34.09211],[139.56422,34.09208],[139.56415,34.09202],[139.56411,34.09189],[139.56396,34.0918],[139.56415,34.0917],[139.56418,34.0916],[139.56411,34.09158],[139.56398,34.0917],[139.56391,34.09164],[139.5639,34.0915],[139.56397,34.0914],[139.56412,34.09137],[139.56416,34.09149],[139.56427,34.09145],[139.56425,34.09133],[139.56431,34.09122],[139.56431,34.09114],[139.56387,34.09113],[139.56364,34.09105],[139.56327,34.09114],[139.56318,34.09107],[139.56315,34.09093],[139.56317,34.09069],[139.56304,34.09056],[139.56294,34.09033],[139.56285,34.09023],[139.56285,34.09009],[139.56293,34.08982],[139.56312,34.08941],[139.56315,34.08915],[139.56329,34.08917],[139.56334,34.08915],[139.56325,34.08898],[139.56331,34.08854],[139.56334,34.08854],[139.56345,34.08875],[139.56346,34.08871],[139.56326,34.08811],[139.56307,34.08775],[139.56288,34.08752],[139.56272,34.08738],[139.56255,34.08745],[139.56234,34.08738],[139.56187,34.08701],[139.56174,34.08688],[139.56165,34.08673],[139.56155,34.08648],[139.56145,34.08606],[139.56133,34.08583],[139.56119,34.08532],[139.56116,34.08516],[139.5612,34.08506],[139.56109,34.0842],[139.56132,34.08321],[139.56143,34.08291],[139.56175,34.08239],[139.56182,34.0823],[139.56219,34.08218],[139.56219,34.08215],[139.56225,34.08213],[139.56242,34.08192],[139.56251,34.08189],[139.56254,34.08181],[139.56273,34.08181],[139.56277,34.08177],[139.56303,34.08046],[139.56327,34.08001],[139.56337,34.07999],[139.56354,34.08002],[139.56356,34.08011],[139.56379,34.08013],[139.56403,34.0802],[139.56409,34.08019],[139.56412,34.0801],[139.56684,34.08038],[139.56686,34.08022],[139.56699,34.08021],[139.56703,34.08017],[139.56705,34.07973],[139.56711,34.07959],[139.56703,34.07949],[139.56688,34.07944],[139.56677,34.07946],[139.56672,34.07955],[139.56602,34.07948],[139.56594,34.07929],[139.56571,34.07928],[139.56567,34.07932],[139.56568,34.07935],[139.56594,34.07944],[139.56595,34.07947],[139.5659,34.07947],[139.56588,34.07957],[139.56633,34.07962],[139.56625,34.08014],[139.5657,34.08008],[139.56569,34.08012],[139.56528,34.0801],[139.56529,34.08002],[139.56538,34.08003],[139.56544,34.07998],[139.56542,34.07991],[139.56547,34.07973],[139.56559,34.07978],[139.56555,34.07992],[139.56564,34.08001],[139.56581,34.08004],[139.56588,34.07998],[139.56598,34.08007],[139.5661,34.08006],[139.56612,34.08002],[139.56603,34.07993],[139.56589,34.07988],[139.56586,34.07981],[139.5657,34.07973],[139.56567,34.07966],[139.56554,34.07965],[139.56555,34.07953],[139.56546,34.07949],[139.56563,34.07949],[139.56564,34.07944],[139.56462,34.07934],[139.56456,34.07929],[139.56444,34.07928],[139.56367,34.07928],[139.56335,34.079],[139.56332,34.07889],[139.56321,34.07879],[139.56308,34.07849],[139.56297,34.07807],[139.56295,34.07784],[139.56304,34.07752],[139.56298,34.07718],[139.56302,34.07664],[139.56305,34.07653],[139.56315,34.07639],[139.5631,34.07606],[139.56309,34.07553],[139.56313,34.07544],[139.56326,34.07546],[139.56332,34.07544],[139.56327,34.07525],[139.56329,34.075],[139.56365,34.075],[139.56372,34.07488],[139.56369,34.07481],[139.56358,34.07475],[139.5633,34.07471],[139.56318,34.07465],[139.56324,34.07457],[139.5635,34.07461],[139.56376,34.07456],[139.56379,34.0745],[139.56376,34.07444],[139.56364,34.07436],[139.56355,34.07438],[139.56354,34.07434],[139.56355,34.07428],[139.56372,34.07413],[139.56374,34.07401],[139.56382,34.07388],[139.56375,34.0736],[139.56375,34.07353],[139.56381,34.07347],[139.5638,34.07339],[139.56365,34.07337],[139.5636,34.07316],[139.56348,34.07299],[139.56341,34.07277],[139.56327,34.07264],[139.56336,34.07248],[139.56337,34.07232],[139.56342,34.07224],[139.56345,34.07171],[139.56342,34.0717],[139.5634,34.07178],[139.56329,34.07179],[139.56327,34.07174],[139.56335,34.07162],[139.56327,34.07161],[139.56319,34.07172],[139.56309,34.07167],[139.56311,34.07152],[139.56307,34.07146],[139.56285,34.07135],[139.56283,34.07131],[139.56284,34.07124],[139.56278,34.07118],[139.56281,34.07115],[139.56281,34.07102],[139.56294,34.07096],[139.56295,34.07082],[139.56305,34.07054],[139.56298,34.07053],[139.56292,34.07057],[139.56291,34.07069],[139.56295,34.07076],[139.56293,34.07078],[139.56287,34.07074],[139.56284,34.07062],[139.5628,34.07066],[139.56276,34.07063],[139.56271,34.07049],[139.56272,34.07023],[139.56283,34.06991],[139.56281,34.06986],[139.56255,34.06972],[139.56259,34.06965],[139.56272,34.06956],[139.56295,34.06953],[139.563,34.0695],[139.56305,34.06923],[139.5631,34.06933],[139.56324,34.06906],[139.5632,34.06898],[139.56318,34.06896],[139.56315,34.06904],[139.56301,34.06882],[139.56273,34.06878],[139.56274,34.06874],[139.56292,34.06871],[139.56274,34.0687],[139.56283,34.06868],[139.56274,34.06862],[139.56263,34.06866],[139.56248,34.06863],[139.56247,34.06868],[139.56244,34.06868],[139.56226,34.0686],[139.56202,34.06859],[139.56193,34.06852],[139.56188,34.06858],[139.56159,34.0686],[139.56144,34.06874],[139.56125,34.0687],[139.56102,34.06871],[139.56091,34.06856],[139.56092,34.06849],[139.56082,34.06846],[139.56087,34.06841],[139.56079,34.06831],[139.56082,34.0682],[139.56062,34.06811],[139.56072,34.06803],[139.56065,34.06788],[139.56078,34.06791],[139.56104,34.06785],[139.56101,34.0678],[139.56082,34.06768],[139.56081,34.0676],[139.5607,34.06761],[139.5608,34.06749],[139.56066,34.06749],[139.56075,34.06739],[139.56071,34.06729],[139.56059,34.06723],[139.56063,34.06722],[139.56061,34.06718],[139.5605,34.0672],[139.56031,34.06713],[139.55999,34.06716],[139.55984,34.0672],[139.55978,34.06718],[139.5598,34.06697],[139.5599,34.06679],[139.55988,34.06664],[139.5598,34.06647],[139.55983,34.06635],[139.55989,34.06629],[139.5598,34.06614],[139.55981,34.06607],[139.55968,34.06591],[139.55957,34.06581],[139.55916,34.06563],[139.55893,34.06565],[139.55879,34.06569],[139.55872,34.06569],[139.55867,34.06564],[139.5584,34.06578],[139.5583,34.06577],[139.55852,34.06564],[139.55858,34.06556],[139.55866,34.06552],[139.55869,34.06546],[139.55881,34.06544],[139.55889,34.06538],[139.55892,34.06531],[139.5589,34.06525],[139.55864,34.06511],[139.55864,34.06495],[139.55873,34.06496],[139.55876,34.06482],[139.55871,34.06464],[139.55857,34.06463],[139.55872,34.06457],[139.55865,34.06448],[139.55879,34.06442],[139.5588,34.06436],[139.55868,34.06428],[139.55857,34.06429],[139.55835,34.06436],[139.55828,34.06427],[139.55824,34.06427],[139.558,34.06451],[139.55786,34.0645],[139.55772,34.06457],[139.55754,34.06451],[139.55751,34.06443],[139.55746,34.06443],[139.55731,34.06456],[139.55733,34.06447],[139.5572,34.06445],[139.5572,34.06442],[139.55727,34.06434],[139.55745,34.06425],[139.55749,34.06419],[139.55748,34.06411],[139.5574,34.06411],[139.55729,34.06418],[139.55718,34.06421],[139.55707,34.06413],[139.55704,34.064],[139.55707,34.06393],[139.55705,34.0639],[139.55694,34.06389],[139.55694,34.06383],[139.55676,34.06389],[139.55644,34.06386],[139.55632,34.06389],[139.55624,34.06384],[139.55621,34.06366],[139.556,34.0637],[139.55568,34.06356],[139.55549,34.06361],[139.5554,34.06359],[139.55536,34.06346],[139.5553,34.06345],[139.5553,34.06337],[139.55521,34.06326],[139.55524,34.06315],[139.5552,34.06308],[139.55528,34.06287],[139.55496,34.06274],[139.55498,34.0627],[139.55524,34.06277],[139.55528,34.06269],[139.55517,34.06257],[139.55521,34.06248],[139.55537,34.06241],[139.5554,34.06246],[139.55553,34.06246],[139.55564,34.06238],[139.55565,34.06232],[139.55557,34.06229],[139.55547,34.06234],[139.55523,34.06227],[139.55521,34.06224],[139.55526,34.0621],[139.55523,34.06205],[139.55508,34.06194],[139.55496,34.06195],[139.55492,34.06192],[139.55472,34.06173],[139.55461,34.06157],[139.55455,34.06129],[139.55409,34.06094],[139.55406,34.06087],[139.55409,34.06077],[139.55397,34.0607],[139.55391,34.06048],[139.55357,34.06021],[139.55338,34.0601],[139.55313,34.06006],[139.55266,34.06019],[139.55249,34.06007],[139.55237,34.06004],[139.55162,34.05963],[139.55119,34.05946],[139.5511,34.05937],[139.55087,34.05901],[139.55087,34.05895],[139.55089,34.05894],[139.55107,34.05896],[139.55092,34.05888],[139.55101,34.05876],[139.55093,34.05873],[139.55075,34.05876],[139.5507,34.05871],[139.55077,34.05854],[139.55077,34.05845],[139.55073,34.05843],[139.55056,34.05853],[139.55033,34.05851],[139.55029,34.05854],[139.5503,34.05857],[139.55018,34.0586],[139.54963,34.0584],[139.54951,34.05832],[139.54936,34.05815],[139.54924,34.05809],[139.54906,34.05805],[139.5485,34.05799],[139.54795,34.05803],[139.54672,34.05794],[139.54656,34.05789],[139.54641,34.05789],[139.54636,34.05763],[139.54639,34.0576],[139.54639,34.05736],[139.54637,34.05733],[139.54611,34.05727],[139.54559,34.05692],[139.54518,34.0567],[139.54503,34.05688],[139.54597,34.05739],[139.54607,34.05747],[139.54565,34.0582],[139.54449,34.0577],[139.54448,34.05762],[139.54436,34.05756],[139.54446,34.05739],[139.54451,34.05741],[139.54456,34.05736],[139.54472,34.05708],[139.54458,34.05702],[139.54439,34.05736],[139.54442,34.05738],[139.54432,34.05755],[139.54418,34.05749],[139.54413,34.05752],[139.544,34.05748],[139.54403,34.05743],[139.54376,34.05731],[139.54393,34.05702],[139.5438,34.05695],[139.54371,34.05707],[139.54293,34.05666],[139.54292,34.05663],[139.5428,34.05661],[139.54286,34.05638],[139.54323,34.05638],[139.54397,34.05678],[139.54395,34.0568],[139.54402,34.05683],[139.54405,34.05679],[139.54417,34.05684],[139.54423,34.05696],[139.54431,34.05694],[139.54426,34.0568],[139.54456,34.0567],[139.54491,34.05637],[139.54494,34.05639],[139.54524,34.05615],[139.54618,34.05632],[139.54623,34.05608],[139.54528,34.05592],[139.54505,34.05612],[139.54494,34.05609],[139.54444,34.05656],[139.54419,34.05664],[139.54401,34.05659],[139.54331,34.05622],[139.54317,34.05624],[139.54317,34.05629],[139.54303,34.05631],[139.54281,34.0563],[139.54281,34.05624],[139.54271,34.05617],[139.54273,34.0561],[139.54265,34.05608],[139.54261,34.05612],[139.54262,34.05622],[139.5424,34.05622],[139.54233,34.05618],[139.54231,34.05627],[139.54223,34.05627],[139.54223,34.05634],[139.54195,34.05645],[139.5419,34.05649],[139.54189,34.05654],[139.54179,34.05658],[139.54175,34.0565],[139.5416,34.05657],[139.54156,34.05661],[139.54147,34.05663],[139.5413,34.05655],[139.54119,34.05653],[139.54113,34.05643],[139.541,34.05636],[139.54092,34.05634],[139.54082,34.05639],[139.54053,34.05622],[139.54012,34.0558],[139.54021,34.05561],[139.54007,34.05567],[139.53996,34.05554],[139.5398,34.05549],[139.53976,34.05532],[139.53984,34.05528],[139.53983,34.05526],[139.53979,34.05524],[139.53967,34.05529],[139.53969,34.05521],[139.53963,34.05508],[139.53966,34.05503],[139.53954,34.05496],[139.53958,34.05491],[139.53975,34.05489],[139.53966,34.05487],[139.53953,34.05489],[139.53951,34.05482],[139.53944,34.05483],[139.5394,34.05487],[139.53932,34.05486],[139.53929,34.05484],[139.53932,34.05476],[139.53942,34.05477],[139.53939,34.05471],[139.53918,34.05467],[139.53909,34.0547],[139.53868,34.05423],[139.53835,34.05402],[139.53849,34.05385],[139.53874,34.05363],[139.53858,34.05362],[139.53854,34.05358],[139.53854,34.05348],[139.53864,34.05338],[139.5386,34.0533],[139.5384,34.05338],[139.53838,34.05325],[139.53828,34.05331],[139.53822,34.05327],[139.53821,34.05331],[139.53827,34.05344],[139.53826,34.0535],[139.53816,34.05353],[139.53806,34.05352],[139.53796,34.05364],[139.53736,34.05363],[139.53685,34.05353],[139.53663,34.05332],[139.53649,34.05327],[139.5363,34.05328],[139.53583,34.05322],[139.53546,34.05325],[139.53448,34.05308],[139.53383,34.05272],[139.5338,34.05266],[139.53399,34.05212],[139.53406,34.05197],[139.53409,34.05165],[139.53403,34.05154],[139.53404,34.05138],[139.53401,34.05123],[139.53393,34.05115],[139.53394,34.05097],[139.53371,34.05069],[139.53387,34.0507],[139.53396,34.05065],[139.53368,34.05066],[139.53366,34.05065],[139.53364,34.05054],[139.53383,34.05039],[139.53398,34.05022],[139.53408,34.05019],[139.5341,34.04999],[139.53397,34.04996],[139.53409,34.04989],[139.53409,34.04976],[139.53398,34.04967],[139.53387,34.04971],[139.53391,34.0496],[139.53384,34.04957],[139.5339,34.04945],[139.53395,34.04947],[139.53398,34.04956],[139.53401,34.04955],[139.53404,34.04944],[139.53402,34.04936],[139.53397,34.04932],[139.5339,34.04935],[139.53381,34.04946],[139.53374,34.04943],[139.5337,34.04938],[139.5338,34.04927],[139.53393,34.04921],[139.53392,34.04919],[139.5338,34.0492],[139.53363,34.04937],[139.53361,34.04936],[139.53366,34.04922],[139.53364,34.04921],[139.53348,34.04934],[139.53344,34.04932],[139.53348,34.04922],[139.5334,34.04884],[139.53306,34.04881],[139.53281,34.04872],[139.5327,34.04848],[139.5326,34.04841],[139.53259,34.04834],[139.53251,34.04828],[139.53237,34.04829],[139.53222,34.04841],[139.53214,34.04838],[139.53201,34.04841],[139.53186,34.0486],[139.53178,34.04859],[139.53175,34.04867],[139.53167,34.0487],[139.53152,34.04884],[139.53153,34.04877],[139.53165,34.04865],[139.53162,34.04853],[139.53172,34.04839],[139.53167,34.04825],[139.53167,34.04815],[139.53171,34.04813],[139.53177,34.04822],[139.53186,34.04808],[139.53199,34.048],[139.53203,34.04788],[139.532,34.04776],[139.53183,34.04764],[139.53205,34.04767],[139.532,34.04755],[139.53184,34.04739],[139.53181,34.04719],[139.53172,34.04711],[139.53177,34.04711],[139.53194,34.04722],[139.53189,34.04723],[139.53189,34.04727],[139.53199,34.04746],[139.5321,34.04753],[139.53211,34.04758],[139.53215,34.04754],[139.53211,34.04741],[139.53214,34.0473],[139.53211,34.04729],[139.53207,34.04734],[139.53207,34.04728],[139.5319,34.04708],[139.5318,34.04687],[139.5318,34.04708],[139.53177,34.04707],[139.5317,34.04688],[139.53167,34.04689],[139.53166,34.047],[139.5316,34.04699],[139.53151,34.04687],[139.53147,34.04689],[139.53155,34.04705],[139.53155,34.04711],[139.53149,34.04712],[139.53141,34.04705],[139.53135,34.04683],[139.53132,34.04682],[139.53121,34.04687],[139.53111,34.04687],[139.53112,34.04696],[139.531,34.04704],[139.53091,34.04705],[139.53101,34.04714],[139.53101,34.04717],[139.53087,34.04716],[139.53049,34.04727],[139.52994,34.0473],[139.52989,34.04727],[139.52989,34.04708],[139.52996,34.04693],[139.52994,34.0469],[139.52981,34.04697],[139.52975,34.04696],[139.5298,34.04685],[139.52985,34.04682],[139.52991,34.04687],[139.52998,34.04677],[139.53002,34.04658],[139.52998,34.0465],[139.52993,34.04648],[139.52988,34.0465],[139.52988,34.04659],[139.52977,34.04669],[139.52974,34.04681],[139.52962,34.04696],[139.52938,34.04737],[139.5295,34.0471],[139.5295,34.04687],[139.52934,34.04695],[139.52917,34.0468],[139.52909,34.04677],[139.52913,34.04675],[139.52932,34.04681],[139.52938,34.04678],[139.52936,34.04673],[139.52902,34.04656],[139.52926,34.04666],[139.52932,34.04662],[139.5293,34.04654],[139.52921,34.04649],[139.52833,34.04646],[139.52812,34.0466],[139.52812,34.04667],[139.52819,34.04674],[139.52818,34.0468],[139.52805,34.04688],[139.52785,34.04691],[139.52787,34.04695],[139.52798,34.04698],[139.52789,34.04712],[139.52751,34.04731],[139.52731,34.04755],[139.52724,34.04767],[139.52724,34.04774],[139.52719,34.04775],[139.52706,34.04791],[139.52709,34.04801],[139.52722,34.04816],[139.5272,34.04822],[139.52701,34.04804],[139.52686,34.04831],[139.52663,34.0485],[139.52627,34.04895],[139.5261,34.0491],[139.52568,34.04927],[139.52516,34.04934],[139.52488,34.04932],[139.52461,34.04922],[139.52419,34.04923],[139.52348,34.04904],[139.5234,34.04896],[139.52325,34.04891],[139.52305,34.04872],[139.52257,34.0484],[139.52251,34.04831],[139.52243,34.04828],[139.52241,34.04823],[139.52236,34.04825],[139.52231,34.04823],[139.52232,34.04809],[139.52217,34.04801],[139.52205,34.0479],[139.522,34.04779],[139.52205,34.04764],[139.52193,34.04776],[139.52188,34.04773],[139.5219,34.04758],[139.52185,34.04763],[139.52184,34.0477],[139.52184,34.04763],[139.52179,34.04759],[139.52184,34.04756],[139.52198,34.04733],[139.52194,34.0473],[139.52185,34.04735],[139.52185,34.04731],[139.5222,34.04696],[139.52221,34.04691],[139.5221,34.04695],[139.5218,34.04689],[139.52177,34.04691],[139.52169,34.04707],[139.52164,34.0471],[139.52126,34.04717],[139.52117,34.04711],[139.52107,34.04709],[139.52099,34.04713],[139.52082,34.04729],[139.52069,34.04731],[139.52064,34.04727],[139.52064,34.04721],[139.52048,34.04719],[139.52048,34.04709],[139.52051,34.04702],[139.52044,34.04681],[139.52034,34.04681],[139.52015,34.04698],[139.52008,34.04711],[139.51981,34.0474],[139.51983,34.0475],[139.51991,34.04756],[139.52006,34.04751],[139.51995,34.04777],[139.51989,34.04777],[139.51985,34.04773],[139.51985,34.0476],[139.51974,34.04759],[139.51956,34.04763],[139.5194,34.04754],[139.51947,34.04732],[139.51953,34.04728],[139.51956,34.0472],[139.51935,34.04701],[139.51927,34.04699],[139.51922,34.04703],[139.51922,34.04711],[139.5193,34.04728],[139.51917,34.0476],[139.51912,34.04783],[139.51851,34.04783],[139.51842,34.04781],[139.5179,34.04792],[139.51769,34.04788],[139.51751,34.0479],[139.51748,34.04785],[139.51743,34.04789],[139.51734,34.04778],[139.51714,34.04792],[139.51708,34.04786],[139.51683,34.04796],[139.51679,34.04796],[139.51674,34.04789],[139.51659,34.04794],[139.51633,34.04791],[139.5162,34.048],[139.51602,34.04796],[139.51634,34.05064],[139.51653,34.05146],[139.51698,34.05382],[139.51745,34.07],[139.51744,34.07057],[139.51755,34.07112],[139.51765,34.07129],[139.51807,34.07166],[139.51801,34.07089],[139.51835,34.07037],[139.51863,34.07001],[139.51901,34.06975],[139.51913,34.06959],[139.51916,34.0693],[139.51907,34.0691],[139.51887,34.06842],[139.51891,34.06822],[139.51897,34.0682],[139.51911,34.06826],[139.51947,34.06849],[139.51964,34.06843],[139.5198,34.06827],[139.51987,34.0678],[139.52031,34.06711],[139.52163,34.06638],[139.52217,34.06597],[139.5224,34.06589],[139.52293,34.06595],[139.52323,34.06605],[139.52343,34.06605],[139.52351,34.06599],[139.52357,34.06551],[139.52361,34.06538],[139.52382,34.06522],[139.52389,34.06493],[139.52404,34.06489],[139.52425,34.06539],[139.52453,34.06574],[139.52476,34.06597],[139.52496,34.06608],[139.52536,34.06602],[139.52558,34.06587],[139.52569,34.06556],[139.5258,34.06547],[139.52598,34.06546],[139.52619,34.06532],[139.52642,34.06529],[139.52689,34.0655],[139.52738,34.06536],[139.528,34.06577],[139.52831,34.06591],[139.52851,34.0659],[139.52862,34.06578],[139.52862,34.06562],[139.52869,34.06546],[139.529,34.06532],[139.52923,34.06506],[139.52936,34.06505],[139.5298,34.06515],[139.52991,34.06525],[139.52996,34.06539],[139.53006,34.06544],[139.5301,34.06539],[139.53013,34.065],[139.53023,34.06498],[139.53039,34.06511],[139.53055,34.06566],[139.53065,34.06568],[139.53074,34.06562],[139.53085,34.06535],[139.5309,34.0651],[139.53082,34.06487],[139.53086,34.06481],[139.531,34.06475],[139.53101,34.06481],[139.53115,34.06494],[139.53119,34.06512],[139.53113,34.0654],[139.53108,34.06552],[139.53092,34.06568],[139.53089,34.06578],[139.53069,34.06592],[139.5307,34.06603],[139.53077,34.06607],[139.53127,34.06612],[139.53139,34.06619],[139.53135,34.06646],[139.53137,34.06655],[139.53147,34.06659],[139.53164,34.06647],[139.53192,34.06618],[139.53209,34.06611],[139.53228,34.0662],[139.53241,34.06633],[139.53278,34.06638],[139.53317,34.06668],[139.53316,34.06675],[139.5331,34.06677],[139.53278,34.06667],[139.53255,34.06668],[139.53251,34.06672],[139.53254,34.06678],[139.53273,34.06691],[139.53278,34.06717],[139.53289,34.06741],[139.53288,34.06756],[139.53272,34.06757],[139.53244,34.06751],[139.53207,34.0675],[139.532,34.0676],[139.53205,34.0677],[139.53245,34.0679],[139.5326,34.06813],[139.53288,34.06839],[139.53294,34.06852],[139.53284,34.06879],[139.53282,34.0689],[139.53284,34.06896],[139.53292,34.06899],[139.53315,34.06887],[139.53325,34.06887],[139.53329,34.06908],[139.53332,34.06914],[139.53338,34.06917],[139.53387,34.06905],[139.53406,34.06906],[139.53428,34.06924],[139.53467,34.0693],[139.53482,34.06958],[139.53522,34.06992],[139.5353,34.07003],[139.53513,34.07041],[139.53511,34.07054],[139.53514,34.07058],[139.53537,34.07059],[139.5357,34.07072],[139.53583,34.07093],[139.53614,34.0709],[139.53629,34.07094],[139.53649,34.07105],[139.53666,34.07108],[139.53709,34.07101],[139.53732,34.07103],[139.53752,34.0711],[139.53775,34.0713],[139.53788,34.07154],[139.53777,34.07164],[139.53776,34.07187],[139.53838,34.07201],[139.53946,34.07216],[139.53961,34.07233],[139.53958,34.07245],[139.5393,34.0727],[139.53925,34.07286],[139.53933,34.07307],[139.53932,34.07319],[139.53936,34.07341],[139.53953,34.0736],[139.53981,34.07381],[139.54093,34.07449],[139.54108,34.0745],[139.54121,34.07433],[139.54122,34.07391],[139.54133,34.07377],[139.54153,34.07382],[139.54176,34.07408],[139.54231,34.07461],[139.54244,34.07471],[139.5429,34.07481],[139.54313,34.07482],[139.54373,34.07507],[139.54394,34.07521],[139.54398,34.07551],[139.54397,34.07578],[139.54387,34.0765],[139.54393,34.07681],[139.54356,34.07729],[139.54296,34.07788],[139.54299,34.07799],[139.54339,34.07855],[139.54404,34.07859],[139.54411,34.07867],[139.54404,34.07881],[139.54382,34.07893],[139.54357,34.07914],[139.54347,34.07944],[139.54328,34.08022],[139.54292,34.08107],[139.54289,34.08123],[139.543,34.08144],[139.54353,34.08202],[139.54495,34.0827],[139.5452,34.08289],[139.54484,34.08322],[139.54477,34.08348],[139.54449,34.08364],[139.54341,34.08416],[139.5433,34.08426],[139.54331,34.08434],[139.54372,34.08451],[139.54393,34.08439],[139.54416,34.08439],[139.54474,34.08447],[139.54494,34.08456],[139.54499,34.08461],[139.54498,34.08473],[139.54494,34.08479],[139.54464,34.08498],[139.54461,34.08507],[139.54467,34.08518],[139.54494,34.08543],[139.54563,34.08578],[139.54643,34.08589],[139.54679,34.08605],[139.54699,34.08635],[139.54711,34.08646],[139.54778,34.08655],[139.54789,34.08667],[139.54794,34.08686],[139.5479,34.08697],[139.54779,34.08701],[139.54711,34.08699],[139.54687,34.08709],[139.54673,34.08718],[139.54667,34.08727],[139.54668,34.08736],[139.5469,34.08754],[139.54691,34.08767],[139.54687,34.08777],[139.5468,34.08783],[139.54623,34.08793],[139.54616,34.08802],[139.54616,34.08815],[139.54651,34.08835],[139.5467,34.08874],[139.54704,34.08886],[139.54739,34.08913],[139.54739,34.08928],[139.54723,34.08942],[139.54718,34.08954],[139.5474,34.08989],[139.54742,34.08997],[139.5474,34.09005],[139.54732,34.09012],[139.54689,34.09025],[139.54683,34.09032],[139.54673,34.09064],[139.54663,34.09081],[139.54655,34.09111],[139.54647,34.09126],[139.54628,34.09145],[139.54625,34.09156],[139.54629,34.09164],[139.54641,34.0917],[139.54728,34.0919],[139.54752,34.09257],[139.54689,34.09314],[139.54674,34.09323],[139.5466,34.09323],[139.54601,34.09292],[139.54581,34.0929],[139.54567,34.09293],[139.54556,34.09301],[139.54548,34.09312],[139.54536,34.09386],[139.54542,34.09402],[139.5459,34.09442],[139.54605,34.09471],[139.54623,34.09485],[139.54685,34.09515],[139.5472,34.09551],[139.54733,34.0957],[139.54789,34.09591],[139.56306,34.10595],[139.56349,34.10545],[139.56345,34.105],[139.56346,34.10469],[139.56333,34.10435],[139.5633,34.10395],[139.56334,34.10358],[139.56332,34.10342],[139.56337,34.10313],[139.56341,34.10302]]]}},{"type":"Feature","properties":{"id":"area-133810020","name":"阿古"},"geometry":{"type":"Polygon","coordinates":[[[139.4833,34.08264],[139.48337,34.08243],[139.48352,34.08224],[139.48391,34.08205],[139.48414,34.082],[139.4847,34.082],[139.48501,34.08193],[139.48525,34.08194],[139.48561,34.08178],[139.48595,34.08173],[139.48621,34.08175],[139.4866,34.08193],[139.48685,34.08208],[139.48755,34.08207],[139.488,34.082],[139.48858,34.08225],[139.48893,34.08244],[139.48915,34.08262],[139.48986,34.08335],[139.49022,34.08356],[139.4906,34.08371],[139.49199,34.08402],[139.49377,34.0842],[139.49456,34.08408],[139.49552,34.08336],[139.49587,34.0832],[139.49618,34.08311],[139.49706,34.08315],[139.49736,34.08321],[139.49793,34.08319],[139.49805,34.08317],[139.49868,34.0828],[139.49952,34.08276],[139.49966,34.08282],[139.49999,34.08307],[139.50024,34.0831],[139.50101,34.08302],[139.50098,34.0828],[139.50109,34.08272],[139.50175,34.083],[139.50225,34.08305],[139.50344,34.08297],[139.50388,34.083],[139.50375,34.08266],[139.50381,34.08241],[139.50393,34.08223],[139.50407,34.08181],[139.50417,34.08163],[139.50426,34.0812],[139.50448,34.08055],[139.50444,34.08036],[139.50435,34.08022],[139.50433,34.0801],[139.50446,34.0799],[139.50495,34.07967],[139.50538,34.07952],[139.50566,34.07909],[139.50563,34.07883],[139.50572,34.07863],[139.50622,34.07817],[139.5063,34.07798],[139.50664,34.07764],[139.50689,34.07746],[139.50701,34.07723],[139.50701,34.07698],[139.50711,34.07683],[139.50707,34.07667],[139.50757,34.07607],[139.50789,34.07592],[139.50815,34.07565],[139.50975,34.0736],[139.51063,34.07235],[139.51093,34.07208],[139.51227,34.07152],[139.51306,34.0714],[139.51588,34.07147],[139.51625,34.07158],[139.51741,34.07202],[139.51805,34.07237],[139.51823,34.07181],[139.51765,34.07129],[139.51755,34.07112],[139.51744,34.07057],[139.51745,34.07],[139.51698,34.05382],[139.51653,34.05146],[139.51634,34.05064],[139.51602,34.04796],[139.51581,34.04808],[139.51559,34.04807],[139.51537,34.04813],[139.51518,34.04814],[139.51465,34.0484],[139.51388,34.0486],[139.51298,34.04872],[139.51236,34.04875],[139.51221,34.04873],[139.51216,34.04863],[139.51209,34.04868],[139.512,34.04868],[139.51195,34.04855],[139.51186,34.04861],[139.51168,34.04857],[139.51147,34.04849],[139.51144,34.04843],[139.51132,34.04843],[139.51121,34.04837],[139.51076,34.04834],[139.51037,34.04825],[139.51009,34.04829],[139.50976,34.04827],[139.50976,34.04817],[139.50973,34.04814],[139.50955,34.04803],[139.50945,34.04793],[139.50943,34.04771],[139.50936,34.0476],[139.5093,34.04758],[139.5092,34.04775],[139.50913,34.04776],[139.5091,34.04772],[139.50918,34.0475],[139.50917,34.04749],[139.50913,34.04755],[139.50911,34.04762],[139.50906,34.04763],[139.50906,34.04755],[139.509,34.04752],[139.50891,34.04757],[139.50887,34.04755],[139.50885,34.04747],[139.50888,34.0474],[139.50885,34.04739],[139.50873,34.04741],[139.50848,34.04736],[139.50824,34.04739],[139.50821,34.0474],[139.50827,34.04741],[139.50823,34.04747],[139.50801,34.04754],[139.50785,34.04757],[139.50759,34.04756],[139.50748,34.04763],[139.50747,34.04769],[139.5074,34.04758],[139.5072,34.04766],[139.50698,34.04765],[139.50644,34.04771],[139.5064,34.04769],[139.50645,34.04758],[139.50636,34.04748],[139.50617,34.04746],[139.506,34.04752],[139.50596,34.0475],[139.50594,34.04721],[139.50555,34.04739],[139.50545,34.04737],[139.50527,34.0472],[139.50534,34.04707],[139.50533,34.04702],[139.50514,34.04703],[139.50505,34.047],[139.50483,34.04715],[139.50477,34.04716],[139.50476,34.04709],[139.50469,34.04705],[139.5048,34.04697],[139.5046,34.0467],[139.50445,34.04672],[139.50432,34.04677],[139.50426,34.04675],[139.50423,34.04669],[139.50406,34.04669],[139.50381,34.04657],[139.50358,34.04662],[139.50343,34.04652],[139.50328,34.04649],[139.50331,34.04641],[139.50328,34.04634],[139.50309,34.04598],[139.50297,34.04587],[139.50291,34.04586],[139.50275,34.04595],[139.50276,34.04611],[139.5027,34.04613],[139.50258,34.0461],[139.50246,34.04602],[139.50231,34.04605],[139.50227,34.04605],[139.50226,34.04599],[139.50216,34.04599],[139.50212,34.04602],[139.5021,34.04598],[139.50195,34.04597],[139.50187,34.04591],[139.50193,34.04576],[139.50187,34.04554],[139.50187,34.04531],[139.50178,34.04523],[139.50169,34.04523],[139.50164,34.04527],[139.50171,34.04551],[139.5017,34.04569],[139.50167,34.04575],[139.50147,34.0458],[139.50137,34.0457],[139.50127,34.04567],[139.50113,34.04569],[139.50112,34.04576],[139.50123,34.04591],[139.5012,34.04594],[139.50098,34.04578],[139.50091,34.04567],[139.5008,34.04556],[139.5006,34.04552],[139.50049,34.04553],[139.50047,34.04558],[139.50076,34.0458],[139.50084,34.04589],[139.50071,34.04582],[139.50064,34.04582],[139.50066,34.04587],[139.50078,34.04597],[139.50054,34.046],[139.50056,34.04618],[139.50054,34.04626],[139.50036,34.04621],[139.50021,34.04622],[139.50022,34.0464],[139.49999,34.0466],[139.49988,34.04657],[139.49933,34.04672],[139.49927,34.04668],[139.49921,34.04672],[139.49895,34.04666],[139.4989,34.04668],[139.49887,34.04673],[139.49901,34.04677],[139.49891,34.04681],[139.49888,34.04688],[139.49874,34.04697],[139.49888,34.04699],[139.49884,34.04704],[139.49849,34.04721],[139.49845,34.04728],[139.49824,34.04737],[139.49776,34.04766],[139.49744,34.04776],[139.49727,34.04795],[139.49722,34.04797],[139.49705,34.04793],[139.49715,34.04802],[139.49708,34.04809],[139.49699,34.04808],[139.49688,34.04818],[139.49671,34.04822],[139.49657,34.04818],[139.49655,34.04825],[139.49648,34.04819],[139.49645,34.04829],[139.49638,34.04823],[139.49628,34.0482],[139.49623,34.04823],[139.49627,34.04836],[139.49624,34.04841],[139.49614,34.04845],[139.49608,34.04841],[139.496,34.04848],[139.49564,34.04855],[139.49552,34.04867],[139.49519,34.04875],[139.49503,34.04882],[139.4949,34.04879],[139.49485,34.04884],[139.49445,34.04888],[139.49438,34.04884],[139.49428,34.04885],[139.49403,34.04882],[139.49403,34.04873],[139.49398,34.0487],[139.49388,34.04875],[139.49381,34.04894],[139.49396,34.04899],[139.49396,34.04908],[139.49394,34.04909],[139.49388,34.04897],[139.49374,34.04895],[139.49379,34.04885],[139.49378,34.0488],[139.49368,34.04877],[139.49362,34.04879],[139.49356,34.04888],[139.49349,34.04885],[139.49364,34.04872],[139.49376,34.04877],[139.49381,34.04876],[139.4938,34.04871],[139.4936,34.04862],[139.49359,34.04857],[139.49373,34.04847],[139.49372,34.04842],[139.49365,34.04841],[139.49354,34.04849],[139.49346,34.04842],[139.49345,34.04832],[139.49339,34.04827],[139.49309,34.04822],[139.49289,34.04823],[139.49277,34.04817],[139.4927,34.04823],[139.49264,34.04822],[139.49267,34.04839],[139.49266,34.04852],[139.49234,34.04861],[139.49213,34.04873],[139.49215,34.04875],[139.4921,34.04886],[139.492,34.04895],[139.49211,34.04898],[139.49201,34.04908],[139.49209,34.04918],[139.49209,34.04922],[139.49206,34.04916],[139.492,34.04924],[139.49194,34.04918],[139.49189,34.0492],[139.49193,34.0493],[139.49216,34.04948],[139.49206,34.04948],[139.49193,34.04957],[139.49176,34.04944],[139.49177,34.0494],[139.49165,34.04941],[139.49165,34.04935],[139.49157,34.04929],[139.49156,34.0494],[139.49146,34.0494],[139.49133,34.04969],[139.49133,34.04958],[139.49126,34.04965],[139.49133,34.0495],[139.49126,34.04948],[139.49117,34.04959],[139.49117,34.04955],[139.49113,34.04954],[139.49102,34.04963],[139.491,34.04954],[139.49097,34.04953],[139.49089,34.04962],[139.49091,34.04972],[139.49076,34.04968],[139.49069,34.04971],[139.49071,34.04984],[139.49085,34.04989],[139.49084,34.04995],[139.49076,34.05009],[139.4907,34.05028],[139.49062,34.05033],[139.49058,34.05047],[139.49026,34.0508],[139.48996,34.05092],[139.48964,34.05122],[139.48939,34.05134],[139.48912,34.05108],[139.48896,34.05103],[139.48886,34.05105],[139.4889,34.0511],[139.4889,34.05119],[139.48879,34.05117],[139.48881,34.05125],[139.4889,34.05122],[139.48909,34.05125],[139.4891,34.05127],[139.48896,34.05127],[139.48894,34.05132],[139.48913,34.05133],[139.48897,34.05137],[139.48903,34.05157],[139.48902,34.05168],[139.48893,34.05181],[139.48894,34.05188],[139.4888,34.05199],[139.48867,34.05201],[139.4884,34.05219],[139.48803,34.05234],[139.48773,34.05237],[139.48768,34.05234],[139.48764,34.05239],[139.48763,34.05236],[139.48759,34.05236],[139.48759,34.05239],[139.48752,34.05235],[139.48749,34.05236],[139.4875,34.05239],[139.48704,34.05245],[139.48688,34.05243],[139.48674,34.05238],[139.4866,34.05205],[139.48651,34.052],[139.48645,34.05204],[139.4864,34.05227],[139.48624,34.05232],[139.48617,34.0523],[139.4862,34.05234],[139.48603,34.05237],[139.4856,34.05254],[139.48523,34.05262],[139.48502,34.05262],[139.48467,34.05254],[139.48444,34.05233],[139.48436,34.05229],[139.48432,34.05222],[139.48428,34.0522],[139.48423,34.05223],[139.48387,34.05211],[139.48387,34.05204],[139.48371,34.05194],[139.48346,34.05182],[139.48329,34.05179],[139.48322,34.05166],[139.48308,34.05159],[139.48297,34.05162],[139.48293,34.05184],[139.48248,34.05183],[139.4825,34.05165],[139.48248,34.05156],[139.48237,34.05145],[139.48222,34.0514],[139.48202,34.05144],[139.48203,34.05155],[139.48199,34.05161],[139.4818,34.05169],[139.48184,34.05194],[139.482,34.05202],[139.48191,34.0521],[139.48184,34.05214],[139.48165,34.05201],[139.48142,34.05194],[139.48134,34.05199],[139.48134,34.05224],[139.48151,34.05241],[139.48157,34.05251],[139.48154,34.05263],[139.48147,34.05272],[139.48128,34.05278],[139.48124,34.05282],[139.48137,34.05301],[139.48139,34.05318],[139.48133,34.05335],[139.48123,34.05332],[139.48121,34.05334],[139.48125,34.0534],[139.48125,34.05346],[139.48122,34.05347],[139.4811,34.05366],[139.48112,34.05373],[139.48112,34.05385],[139.48123,34.05387],[139.48127,34.05391],[139.48123,34.05427],[139.48126,34.05457],[139.48135,34.05489],[139.48134,34.05617],[139.48132,34.05632],[139.48115,34.05681],[139.48083,34.05713],[139.48058,34.05751],[139.48043,34.05761],[139.48023,34.05768],[139.48012,34.05776],[139.47996,34.05774],[139.47984,34.05768],[139.47976,34.05752],[139.47972,34.05732],[139.47953,34.05714],[139.47915,34.05698],[139.47904,34.05702],[139.47913,34.05704],[139.47907,34.05709],[139.47911,34.05716],[139.47902,34.05721],[139.479,34.05718],[139.47895,34.05719],[139.47888,34.05732],[139.47888,34.05738],[139.47906,34.05762],[139.47904,34.05771],[139.47879,34.0579],[139.47861,34.05779],[139.47847,34.05777],[139.47843,34.0579],[139.4785,34.05816],[139.4786,34.05836],[139.47874,34.05843],[139.47879,34.05858],[139.47875,34.05872],[139.47888,34.05875],[139.47874,34.0589],[139.47881,34.05925],[139.47886,34.05935],[139.47883,34.05943],[139.47879,34.05942],[139.47881,34.05953],[139.47869,34.05955],[139.47874,34.05961],[139.47871,34.05976],[139.47854,34.05997],[139.47849,34.05999],[139.47841,34.06015],[139.47828,34.0602],[139.47813,34.06017],[139.4778,34.06002],[139.47768,34.06013],[139.47768,34.06019],[139.47784,34.06028],[139.47805,34.0603],[139.47812,34.06035],[139.47799,34.06042],[139.47781,34.06041],[139.47773,34.06045],[139.47772,34.06068],[139.47768,34.06063],[139.47771,34.06057],[139.47762,34.06058],[139.47763,34.06066],[139.47768,34.06073],[139.47773,34.06075],[139.47783,34.0607],[139.47788,34.06082],[139.47783,34.06083],[139.47781,34.0609],[139.47776,34.06092],[139.4778,34.06106],[139.47755,34.06122],[139.47753,34.0613],[139.47756,34.06136],[139.47767,34.06138],[139.47776,34.06132],[139.47783,34.06121],[139.47784,34.06129],[139.47774,34.0614],[139.4778,34.06155],[139.47762,34.06153],[139.47757,34.06155],[139.47755,34.06161],[139.47762,34.06167],[139.47785,34.06167],[139.47764,34.0618],[139.47755,34.06175],[139.47752,34.06177],[139.47752,34.06181],[139.47761,34.06191],[139.47798,34.06196],[139.47791,34.06204],[139.4779,34.0621],[139.47797,34.06217],[139.47798,34.06229],[139.47803,34.06237],[139.47778,34.06251],[139.47775,34.06258],[139.4778,34.06261],[139.47808,34.06262],[139.47809,34.06272],[139.47793,34.06278],[139.47791,34.06292],[139.47802,34.06305],[139.47815,34.06312],[139.47828,34.06337],[139.47822,34.06344],[139.47811,34.0635],[139.47803,34.06369],[139.47777,34.0637],[139.47772,34.06374],[139.4777,34.06382],[139.47777,34.06391],[139.4779,34.06398],[139.4781,34.06398],[139.47827,34.06394],[139.47828,34.0641],[139.4782,34.06419],[139.47817,34.06417],[139.47817,34.0641],[139.47812,34.06411],[139.47809,34.06406],[139.478,34.06405],[139.47794,34.06412],[139.47794,34.06422],[139.47806,34.06432],[139.47821,34.06433],[139.4783,34.06423],[139.47833,34.06432],[139.47837,34.06431],[139.47839,34.06434],[139.47834,34.06439],[139.47842,34.06442],[139.47846,34.06454],[139.47843,34.06472],[139.47863,34.06492],[139.47834,34.06512],[139.47807,34.06524],[139.47803,34.0653],[139.47809,34.06533],[139.47838,34.06528],[139.47882,34.065],[139.47895,34.06497],[139.47895,34.06505],[139.47887,34.06516],[139.47874,34.06531],[139.4785,34.0655],[139.47847,34.06557],[139.47849,34.06561],[139.47869,34.0655],[139.47883,34.0655],[139.47896,34.06532],[139.47903,34.06539],[139.47916,34.06545],[139.47921,34.06552],[139.4792,34.06558],[139.47928,34.06556],[139.47928,34.06553],[139.47924,34.06551],[139.47943,34.06539],[139.4795,34.06545],[139.47955,34.06561],[139.47968,34.06569],[139.47991,34.06563],[139.48,34.06569],[139.48002,34.06574],[139.48015,34.06575],[139.48017,34.0659],[139.47994,34.06588],[139.47986,34.06598],[139.48006,34.06613],[139.48053,34.06623],[139.48081,34.06636],[139.48086,34.0664],[139.48076,34.06661],[139.48079,34.0667],[139.48142,34.06651],[139.48185,34.06753],[139.48126,34.06771],[139.48115,34.06746],[139.48082,34.06756],[139.48058,34.06697],[139.48028,34.06707],[139.48053,34.06766],[139.47993,34.06784],[139.47931,34.06638],[139.47959,34.06629],[139.48008,34.06653],[139.48016,34.06642],[139.47961,34.06614],[139.47958,34.06615],[139.47956,34.06608],[139.47951,34.06606],[139.47936,34.06608],[139.4793,34.06613],[139.47928,34.06621],[139.47916,34.06625],[139.47908,34.06619],[139.47893,34.06622],[139.4789,34.06627],[139.47905,34.06672],[139.47966,34.06816],[139.47906,34.06832],[139.47899,34.0684],[139.47748,34.06775],[139.47741,34.06787],[139.4795,34.06878],[139.47991,34.06866],[139.47995,34.06859],[139.48013,34.06854],[139.48014,34.06858],[139.48023,34.06858],[139.48028,34.0688],[139.48028,34.06965],[139.48004,34.0701],[139.48007,34.07013],[139.47996,34.07032],[139.48001,34.07038],[139.4802,34.07038],[139.48021,34.07055],[139.48028,34.0706],[139.48011,34.07063],[139.48002,34.07069],[139.48008,34.07078],[139.48003,34.07082],[139.47983,34.07116],[139.47946,34.07151],[139.47937,34.07174],[139.47931,34.07184],[139.47899,34.07212],[139.4789,34.07225],[139.47883,34.07227],[139.47866,34.07224],[139.47865,34.07229],[139.47868,34.07236],[139.47855,34.07244],[139.47851,34.07258],[139.47843,34.0726],[139.47828,34.07257],[139.47802,34.07264],[139.47794,34.07249],[139.47783,34.07241],[139.47784,34.07237],[139.47779,34.07233],[139.4776,34.07232],[139.47753,34.07234],[139.47749,34.07244],[139.47757,34.07262],[139.47771,34.07274],[139.47768,34.0728],[139.47753,34.07288],[139.4772,34.07296],[139.47702,34.07295],[139.47679,34.07302],[139.47678,34.07295],[139.47667,34.07282],[139.47634,34.07272],[139.47627,34.07277],[139.47628,34.0728],[139.47621,34.07295],[139.47604,34.0732],[139.47599,34.07322],[139.47598,34.07318],[139.47605,34.07304],[139.47604,34.07295],[139.47591,34.07298],[139.47566,34.0731],[139.47557,34.07323],[139.4755,34.07326],[139.47543,34.07319],[139.47538,34.07318],[139.47524,34.07322],[139.47533,34.07357],[139.47528,34.0736],[139.47515,34.07355],[139.4751,34.07356],[139.47501,34.0736],[139.47494,34.0737],[139.47496,34.0738],[139.47512,34.07389],[139.47519,34.07389],[139.47542,34.07373],[139.47547,34.07373],[139.47536,34.074],[139.4753,34.07403],[139.47521,34.07393],[139.47486,34.0739],[139.47457,34.07393],[139.47452,34.07402],[139.47453,34.07413],[139.47474,34.07423],[139.4749,34.07438],[139.47434,34.0744],[139.47429,34.07442],[139.47427,34.07446],[139.47436,34.07461],[139.47455,34.0747],[139.47464,34.07466],[139.47471,34.07455],[139.47484,34.07457],[139.47472,34.07468],[139.47421,34.075],[139.47401,34.075],[139.47395,34.07502],[139.47395,34.07506],[139.47402,34.07512],[139.47421,34.07516],[139.47415,34.07525],[139.47416,34.0753],[139.47424,34.07531],[139.47437,34.07524],[139.47424,34.07549],[139.4743,34.07558],[139.4744,34.07555],[139.47454,34.07541],[139.47443,34.07557],[139.47404,34.07582],[139.474,34.0759],[139.474,34.07598],[139.47413,34.07619],[139.47412,34.07625],[139.47396,34.07632],[139.47387,34.07619],[139.47379,34.07619],[139.47364,34.07612],[139.47343,34.07613],[139.47332,34.07619],[139.47346,34.07624],[139.47364,34.07622],[139.47372,34.07625],[139.47374,34.07629],[139.47372,34.07633],[139.47351,34.07649],[139.47348,34.07655],[139.47356,34.07667],[139.47349,34.07667],[139.47326,34.07652],[139.47318,34.0765],[139.47298,34.0765],[139.47291,34.07657],[139.47296,34.07666],[139.47323,34.07677],[139.47319,34.07692],[139.47322,34.07697],[139.47346,34.07714],[139.47347,34.0773],[139.47332,34.07737],[139.47322,34.07752],[139.47335,34.07764],[139.4736,34.07766],[139.47364,34.07769],[139.47348,34.07774],[139.47341,34.07783],[139.47348,34.07787],[139.47377,34.07786],[139.4738,34.07814],[139.47391,34.07815],[139.47408,34.07809],[139.47392,34.07836],[139.47369,34.07852],[139.47369,34.07856],[139.47373,34.07861],[139.47381,34.07862],[139.47396,34.07856],[139.47423,34.07837],[139.47431,34.07836],[139.47436,34.07848],[139.47448,34.07851],[139.47453,34.07863],[139.47466,34.07872],[139.47482,34.07876],[139.4749,34.07873],[139.475,34.07865],[139.47508,34.0787],[139.47484,34.07878],[139.4748,34.07882],[139.47481,34.07891],[139.47497,34.07894],[139.47504,34.07892],[139.47514,34.07883],[139.47521,34.07892],[139.4752,34.07905],[139.47524,34.0791],[139.47529,34.07913],[139.47542,34.07912],[139.47553,34.07905],[139.47559,34.07931],[139.47575,34.07934],[139.47591,34.07959],[139.47609,34.07962],[139.47603,34.07972],[139.47616,34.07991],[139.47629,34.07991],[139.47649,34.07982],[139.47659,34.07974],[139.47678,34.07987],[139.47695,34.07984],[139.47705,34.07991],[139.47693,34.07995],[139.47686,34.08001],[139.47687,34.08006],[139.47691,34.08007],[139.47709,34.07998],[139.47715,34.08002],[139.47727,34.08001],[139.47728,34.07987],[139.47734,34.08002],[139.47732,34.08015],[139.47745,34.08031],[139.47755,34.08033],[139.47758,34.0803],[139.47754,34.08014],[139.47772,34.08015],[139.47819,34.08024],[139.47868,34.08048],[139.47941,34.08102],[139.47942,34.08105],[139.47932,34.08118],[139.4793,34.08128],[139.47942,34.08154],[139.48011,34.08205],[139.48019,34.08208],[139.48032,34.08206],[139.4808,34.08237],[139.48095,34.08254],[139.4811,34.08265],[139.48126,34.08292],[139.48163,34.08322],[139.48183,34.08347],[139.48189,34.08371],[139.48205,34.0839],[139.48214,34.08433],[139.48276,34.08406],[139.48289,34.08375],[139.48311,34.08353],[139.48334,34.08314],[139.48335,34.08302],[139.48331,34.08283],[139.48337,34.08273],[139.4833,34.08264]]]}},{"type":"Feature","properties":{"id":"area-133810030","name":"伊ヶ谷"},"geometry":{"type":"Polygon","coordinates":[[[139.49411,34.10341],[139.49421,34.10338],[139.49467,34.10342],[139.49494,34.10305],[139.49533,34.10271],[139.49529,34.10254],[139.49537,34.10239],[139.49583,34.10237],[139.49598,34.10242],[139.49665,34.10243],[139.49686,34.10231],[139.49686,34.10202],[139.49701,34.10186],[139.49756,34.10184],[139.4977,34.10179],[139.49781,34.10164],[139.49784,34.10149],[139.49794,34.10138],[139.49811,34.10131],[139.49844,34.10123],[139.49854,34.10124],[139.49869,34.10131],[139.49881,34.10128],[139.49904,34.10103],[139.50005,34.10052],[139.50054,34.10037],[139.50072,34.10021],[139.50073,34.09998],[139.50126,34.09947],[139.50127,34.09927],[139.50143,34.09912],[139.50153,34.09894],[139.50166,34.09879],[139.50213,34.09853],[139.50222,34.09835],[139.50226,34.09817],[139.50232,34.09738],[139.50237,34.09723],[139.50235,34.09676],[139.50242,34.09662],[139.50323,34.09553],[139.50363,34.09527],[139.50398,34.09491],[139.50425,34.09471],[139.50456,34.0946],[139.50503,34.09456],[139.50501,34.09451],[139.50492,34.09447],[139.50468,34.09444],[139.50439,34.09448],[139.50423,34.09443],[139.50416,34.0943],[139.50414,34.09411],[139.5042,34.09384],[139.50457,34.09349],[139.50468,34.09333],[139.50468,34.09317],[139.50452,34.09306],[139.50419,34.09301],[139.50389,34.093],[139.50361,34.09306],[139.50348,34.09301],[139.50333,34.09266],[139.50316,34.0925],[139.50311,34.09237],[139.50299,34.09235],[139.50243,34.09247],[139.50188,34.0923],[139.5018,34.09224],[139.50159,34.09192],[139.50171,34.09172],[139.50183,34.09159],[139.50185,34.09143],[139.50195,34.09123],[139.50216,34.09109],[139.50212,34.09089],[139.50216,34.09067],[139.50213,34.09044],[139.50226,34.09021],[139.50229,34.09005],[139.50275,34.08967],[139.50281,34.08954],[139.50277,34.08923],[139.50305,34.0887],[139.50341,34.08821],[139.50344,34.08789],[139.50342,34.08739],[139.50354,34.08685],[139.50355,34.08658],[139.50366,34.08618],[139.50399,34.08549],[139.50401,34.085],[139.50407,34.08477],[139.50407,34.0842],[139.50402,34.08374],[139.50389,34.08341],[139.50388,34.083],[139.50344,34.08297],[139.50225,34.08305],[139.50175,34.083],[139.50109,34.08272],[139.50098,34.0828],[139.50101,34.08302],[139.50024,34.0831],[139.49999,34.08307],[139.49966,34.08282],[139.49952,34.08276],[139.49868,34.0828],[139.49805,34.08317],[139.49793,34.08319],[139.49736,34.08321],[139.49706,34.08315],[139.49618,34.08311],[139.49587,34.0832],[139.49552,34.08336],[139.49456,34.08408],[139.49377,34.0842],[139.49199,34.08402],[139.4906,34.08371],[139.49022,34.08356],[139.48986,34.08335],[139.48915,34.08262],[139.48893,34.08244],[139.48858,34.08225],[139.488,34.082],[139.48755,34.08207],[139.48685,34.08208],[139.4866,34.08193],[139.48621,34.08175],[139.48595,34.08173],[139.48561,34.08178],[139.48525,34.08194],[139.48501,34.08193],[139.4847,34.082],[139.48414,34.082],[139.48391,34.08205],[139.48368,34.08214],[139.48352,34.08224],[139.48337,34.08243],[139.4833,34.08264],[139.48337,34.08273],[139.48331,34.08283],[139.48335,34.08302],[139.48334,34.08314],[139.48311,34.08353],[139.48289,34.08375],[139.48276,34.08406],[139.48214,34.08433],[139.48216,34.08452],[139.48213,34.08481],[139.48214,34.08491],[139.48203,34.08501],[139.48194,34.08526],[139.48202,34.08529],[139.48202,34.08532],[139.48143,34.08534],[139.48116,34.08547],[139.48126,34.08556],[139.48123,34.08569],[139.48128,34.08575],[139.48152,34.08572],[139.48139,34.08582],[139.48144,34.0859],[139.48167,34.08585],[139.48177,34.08589],[139.48174,34.08611],[139.48166,34.08618],[139.48167,34.08624],[139.48165,34.08628],[139.48137,34.08637],[139.48119,34.08625],[139.48118,34.08606],[139.48098,34.08594],[139.48097,34.08598],[139.48084,34.08598],[139.48086,34.08602],[139.4807,34.08603],[139.48073,34.0861],[139.48083,34.08617],[139.48059,34.08622],[139.48062,34.08625],[139.48059,34.08628],[139.48061,34.08631],[139.4809,34.08635],[139.48102,34.0864],[139.481,34.08643],[139.48102,34.08646],[139.48114,34.08648],[139.48095,34.08649],[139.48092,34.08663],[139.48107,34.08671],[139.48105,34.0868],[139.48114,34.08683],[139.48109,34.08687],[139.48147,34.08695],[139.48161,34.08703],[139.48158,34.08708],[139.48176,34.08717],[139.48176,34.08724],[139.48188,34.08727],[139.48197,34.08722],[139.48202,34.08696],[139.48208,34.08689],[139.48228,34.08708],[139.48237,34.08725],[139.48237,34.08735],[139.48232,34.08746],[139.48229,34.08772],[139.48215,34.08786],[139.48213,34.08795],[139.48193,34.08826],[139.48183,34.0883],[139.48177,34.08839],[139.48194,34.08852],[139.48189,34.08855],[139.4819,34.08857],[139.4822,34.0886],[139.48214,34.0887],[139.48233,34.08874],[139.48234,34.08877],[139.4822,34.0891],[139.48213,34.08916],[139.48222,34.08924],[139.48216,34.08932],[139.48223,34.08952],[139.48219,34.08985],[139.48238,34.09025],[139.48237,34.0903],[139.48232,34.09034],[139.48232,34.09042],[139.48237,34.09048],[139.48257,34.09053],[139.48261,34.09074],[139.48277,34.09092],[139.4828,34.09107],[139.48294,34.09109],[139.48296,34.09117],[139.48292,34.09123],[139.48306,34.09146],[139.48314,34.09153],[139.48315,34.09159],[139.48329,34.0918],[139.48331,34.0919],[139.48355,34.09202],[139.48371,34.09216],[139.48389,34.09216],[139.48406,34.09237],[139.48417,34.09245],[139.48427,34.09247],[139.48446,34.09245],[139.48447,34.09249],[139.4844,34.09261],[139.48442,34.09264],[139.48455,34.09273],[139.48462,34.09267],[139.48467,34.09268],[139.48484,34.09289],[139.48495,34.0929],[139.48509,34.09281],[139.4853,34.09295],[139.48539,34.09299],[139.48546,34.09296],[139.48584,34.09316],[139.48618,34.09353],[139.48626,34.09371],[139.48624,34.09376],[139.48631,34.09382],[139.48637,34.09379],[139.48659,34.09382],[139.48679,34.09392],[139.48687,34.09401],[139.48692,34.09415],[139.487,34.09427],[139.48713,34.09435],[139.48717,34.09434],[139.48722,34.09445],[139.48739,34.09458],[139.4875,34.09471],[139.48759,34.0947],[139.48762,34.09476],[139.48775,34.09484],[139.48786,34.09496],[139.48805,34.09531],[139.48817,34.09543],[139.48846,34.09563],[139.4885,34.0958],[139.48846,34.09604],[139.48838,34.09622],[139.48832,34.09625],[139.48833,34.09629],[139.48826,34.0964],[139.48819,34.09644],[139.48821,34.09651],[139.48816,34.09682],[139.48808,34.09697],[139.48807,34.09706],[139.48799,34.09713],[139.48798,34.0973],[139.48795,34.09733],[139.48788,34.09734],[139.48784,34.09758],[139.48779,34.09768],[139.48785,34.09796],[139.48775,34.09814],[139.48779,34.09818],[139.48779,34.09825],[139.48775,34.09832],[139.4876,34.09841],[139.48767,34.0985],[139.48775,34.09852],[139.48774,34.09857],[139.48769,34.09854],[139.48766,34.09856],[139.48769,34.09862],[139.48779,34.09862],[139.48784,34.09866],[139.48791,34.09857],[139.48792,34.09866],[139.48803,34.09863],[139.48809,34.09883],[139.48823,34.09893],[139.48831,34.09913],[139.48843,34.09927],[139.48845,34.09939],[139.48841,34.0995],[139.48851,34.09997],[139.48847,34.10019],[139.48831,34.10036],[139.48831,34.10046],[139.48835,34.10053],[139.48824,34.10071],[139.48834,34.10115],[139.48828,34.10134],[139.48951,34.10201],[139.48931,34.10226],[139.48925,34.10221],[139.48895,34.10259],[139.48922,34.10272],[139.4898,34.10199],[139.48918,34.10167],[139.48908,34.10166],[139.48841,34.10131],[139.48845,34.10117],[139.48835,34.10072],[139.48843,34.10058],[139.48854,34.10049],[139.48908,34.10072],[139.48881,34.10117],[139.489,34.10125],[139.48919,34.10092],[139.48912,34.10088],[139.48914,34.10085],[139.4891,34.10083],[139.48917,34.10071],[139.48934,34.10076],[139.48952,34.10066],[139.48954,34.10058],[139.48958,34.10056],[139.48974,34.10061],[139.48993,34.10073],[139.48967,34.10112],[139.48986,34.10121],[139.48993,34.1011],[139.4898,34.10106],[139.48998,34.10077],[139.49008,34.10081],[139.49016,34.10091],[139.49036,34.10098],[139.49044,34.10098],[139.49054,34.10093],[139.49066,34.10093],[139.49068,34.10089],[139.49111,34.10089],[139.49154,34.10103],[139.49173,34.10115],[139.49189,34.1013],[139.49229,34.10158],[139.49273,34.102],[139.493,34.10244],[139.49296,34.10274],[139.49298,34.10292],[139.49308,34.10315],[139.49319,34.10323],[139.49399,34.10352],[139.49411,34.10341]]]}},{"type":"Feature","properties":{"id":"area-133810040","name":"伊豆"},"geometry":{"type":"Polygon","coordinates":[[[139.50649,34.12269],[139.50688,34.12261],[139.50689,34.12264],[139.50695,34.1226],[139.50722,34.12255],[139.50728,34.12251],[139.50737,34.12252],[139.50749,34.12236],[139.50756,34.12232],[139.50761,34.12222],[139.50808,34.12252],[139.50811,34.12247],[139.50819,34.12251],[139.50827,34.12239],[139.50795,34.1222],[139.50806,34.12191],[139.50817,34.1218],[139.50818,34.12173],[139.50826,34.12162],[139.50837,34.12157],[139.50837,34.12153],[139.5088,34.12127],[139.50898,34.12147],[139.50871,34.12164],[139.50867,34.1217],[139.5086,34.12168],[139.50859,34.12171],[139.50865,34.12172],[139.50851,34.12187],[139.50847,34.12183],[139.50839,34.12187],[139.50847,34.12198],[139.5086,34.12191],[139.50878,34.12167],[139.50905,34.12151],[139.50909,34.12146],[139.50924,34.12147],[139.50939,34.12163],[139.50947,34.12159],[139.50933,34.12142],[139.50896,34.12129],[139.50884,34.12116],[139.50893,34.12107],[139.50923,34.12087],[139.5097,34.12062],[139.51041,34.12043],[139.51201,34.12024],[139.51201,34.11875],[139.51215,34.11873],[139.51261,34.11849],[139.51284,34.11844],[139.51319,34.11844],[139.51362,34.11853],[139.51403,34.11857],[139.51456,34.11836],[139.5147,34.1187],[139.51489,34.11904],[139.5153,34.11948],[139.51604,34.12017],[139.51863,34.12197],[139.51951,34.1225],[139.51968,34.12202],[139.51965,34.12134],[139.51962,34.12101],[139.51926,34.12014],[139.51923,34.11972],[139.51926,34.11931],[139.51917,34.11906],[139.51898,34.1187],[139.51876,34.11849],[139.51861,34.11816],[139.51887,34.11293],[139.51891,34.10949],[139.51888,34.1084],[139.51891,34.10802],[139.51881,34.10583],[139.51875,34.1056],[139.51861,34.10561],[139.51814,34.10544],[139.51756,34.10546],[139.51705,34.10519],[139.51674,34.10489],[139.51664,34.10483],[139.51636,34.1048],[139.51631,34.1047],[139.51641,34.1044],[139.51634,34.10429],[139.51558,34.10414],[139.51536,34.10418],[139.51527,34.10438],[139.51514,34.10446],[139.51495,34.10448],[139.51473,34.1044],[139.51467,34.10432],[139.51458,34.10376],[139.51473,34.10358],[139.5147,34.10347],[139.51458,34.10342],[139.51442,34.10351],[139.51427,34.10364],[139.5141,34.10369],[139.51398,34.10368],[139.51385,34.10359],[139.51383,34.1034],[139.51375,34.10329],[139.51366,34.10322],[139.51324,34.1033],[139.51302,34.10331],[139.51281,34.10307],[139.51235,34.10307],[139.51202,34.10263],[139.512,34.10242],[139.51158,34.10233],[139.51137,34.10206],[139.51115,34.10191],[139.511,34.10185],[139.51055,34.1018],[139.51038,34.10155],[139.50994,34.10121],[139.50946,34.10071],[139.50943,34.10038],[139.50915,34.10025],[139.5091,34.10016],[139.50868,34.09908],[139.50857,34.09892],[139.50801,34.09864],[139.50751,34.09823],[139.50741,34.09806],[139.50736,34.09763],[139.5071,34.0972],[139.50708,34.09695],[139.50674,34.09676],[139.50661,34.09663],[139.50649,34.09628],[139.50632,34.09613],[139.50592,34.09596],[139.50579,34.09587],[139.50533,34.09523],[139.50516,34.09509],[139.50506,34.09487],[139.50503,34.09456],[139.50484,34.09456],[139.50456,34.0946],[139.50425,34.09471],[139.50398,34.09491],[139.50363,34.09527],[139.50323,34.09553],[139.50242,34.09662],[139.50235,34.09676],[139.50237,34.09723],[139.50232,34.09738],[139.50226,34.09817],[139.50222,34.09835],[139.50213,34.09853],[139.50166,34.09879],[139.50153,34.09894],[139.50143,34.09912],[139.50127,34.09927],[139.50126,34.09947],[139.50073,34.09998],[139.50072,34.10021],[139.50054,34.10037],[139.50005,34.10052],[139.49904,34.10103],[139.49881,34.10128],[139.49869,34.10131],[139.49854,34.10124],[139.49844,34.10123],[139.49811,34.10131],[139.49794,34.10138],[139.49784,34.10149],[139.49781,34.10164],[139.4977,34.10179],[139.49756,34.10184],[139.49701,34.10186],[139.49686,34.10202],[139.49686,34.10231],[139.49665,34.10243],[139.49598,34.10242],[139.49583,34.10237],[139.49537,34.10239],[139.49529,34.10254],[139.49533,34.10271],[139.49494,34.10305],[139.49467,34.10342],[139.49421,34.10338],[139.49411,34.10341],[139.49399,34.10352],[139.49425,34.10371],[139.49436,34.10383],[139.49445,34.10415],[139.49447,34.10439],[139.49445,34.10445],[139.49421,34.10449],[139.49415,34.10457],[139.49416,34.10461],[139.4941,34.10471],[139.49406,34.10475],[139.49399,34.10476],[139.49404,34.10482],[139.49396,34.10497],[139.49396,34.10508],[139.49402,34.10532],[139.49401,34.10538],[139.49396,34.10558],[139.49384,34.10573],[139.4937,34.10605],[139.49369,34.10613],[139.49361,34.10622],[139.49331,34.1064],[139.49319,34.10662],[139.49321,34.10675],[139.49303,34.10688],[139.49286,34.10693],[139.49277,34.10703],[139.49243,34.10722],[139.49228,34.10744],[139.49209,34.10764],[139.492,34.10784],[139.49195,34.10788],[139.49195,34.10798],[139.49189,34.10803],[139.49195,34.10851],[139.49194,34.10903],[139.49189,34.10923],[139.49179,34.10942],[139.49142,34.10981],[139.49132,34.10999],[139.4913,34.11012],[139.49113,34.11023],[139.49112,34.11032],[139.4908,34.11078],[139.4907,34.11082],[139.49067,34.11093],[139.49041,34.11109],[139.49037,34.11118],[139.4903,34.11121],[139.49029,34.11129],[139.49015,34.11148],[139.49005,34.11155],[139.48981,34.11188],[139.48974,34.11193],[139.48972,34.11208],[139.48946,34.11224],[139.48939,34.11245],[139.48941,34.1125],[139.48931,34.11257],[139.48933,34.11263],[139.48927,34.11268],[139.4893,34.11274],[139.48927,34.11279],[139.48929,34.11285],[139.48918,34.11287],[139.48917,34.11292],[139.48927,34.11302],[139.48929,34.11326],[139.48938,34.11335],[139.48943,34.11336],[139.48942,34.11343],[139.48955,34.11344],[139.48958,34.11351],[139.48957,34.11354],[139.48964,34.11358],[139.48967,34.11367],[139.48972,34.11368],[139.48978,34.11365],[139.48982,34.11368],[139.48982,34.11385],[139.48991,34.11392],[139.48994,34.11401],[139.48993,34.1141],[139.49002,34.11419],[139.49006,34.11436],[139.49012,34.1144],[139.49008,34.11451],[139.49004,34.11455],[139.49007,34.11477],[139.49014,34.11474],[139.49028,34.11488],[139.49025,34.11496],[139.4903,34.11501],[139.49029,34.11507],[139.49044,34.11521],[139.49043,34.1153],[139.49055,34.11527],[139.49063,34.11535],[139.49065,34.11538],[139.4906,34.11543],[139.49067,34.11549],[139.49065,34.11563],[139.49067,34.1157],[139.49075,34.11579],[139.49076,34.11595],[139.49083,34.11599],[139.49088,34.11606],[139.49087,34.11611],[139.49093,34.11613],[139.49095,34.1162],[139.49103,34.11623],[139.49106,34.11654],[139.49116,34.11665],[139.49112,34.11679],[139.49126,34.11689],[139.49133,34.11707],[139.49144,34.11719],[139.4915,34.1174],[139.49149,34.11748],[139.49142,34.11753],[139.49145,34.11758],[139.49146,34.11773],[139.49143,34.11778],[139.49134,34.11779],[139.49133,34.11782],[139.49143,34.11794],[139.49155,34.11786],[139.49161,34.11788],[139.49165,34.11808],[139.49172,34.11811],[139.49179,34.11819],[139.49179,34.11822],[139.492,34.11831],[139.492,34.1184],[139.49208,34.11844],[139.49207,34.11858],[139.49215,34.11861],[139.49215,34.11866],[139.49224,34.11873],[139.49237,34.11879],[139.49251,34.11898],[139.49251,34.11901],[139.49243,34.11911],[139.49268,34.11911],[139.4927,34.11914],[139.49264,34.11921],[139.49265,34.11926],[139.49272,34.11926],[139.4928,34.11938],[139.49287,34.11939],[139.49297,34.11948],[139.49318,34.11942],[139.49318,34.11956],[139.49339,34.11959],[139.49341,34.11952],[139.49351,34.11952],[139.49353,34.11957],[139.49347,34.11965],[139.49368,34.11988],[139.49379,34.11989],[139.4938,34.1198],[139.49389,34.1199],[139.49405,34.11989],[139.49413,34.11985],[139.49427,34.11991],[139.49428,34.11995],[139.49441,34.11987],[139.49467,34.1199],[139.49475,34.11997],[139.49485,34.11998],[139.49484,34.12008],[139.49477,34.12011],[139.49485,34.12013],[139.49491,34.12021],[139.49496,34.12018],[139.49503,34.12018],[139.49517,34.12013],[139.49574,34.12012],[139.49577,34.12017],[139.49584,34.12015],[139.49589,34.12021],[139.49601,34.12019],[139.49604,34.12022],[139.49601,34.12027],[139.49605,34.1203],[139.49633,34.12015],[139.4964,34.12015],[139.49646,34.12018],[139.49645,34.12022],[139.49631,34.12035],[139.49632,34.12037],[139.49646,34.12033],[139.49657,34.12024],[139.49658,34.12032],[139.49676,34.12035],[139.49701,34.12051],[139.49698,34.12056],[139.49701,34.1206],[139.49708,34.12061],[139.4971,34.12068],[139.49722,34.12064],[139.49729,34.12055],[139.4974,34.12056],[139.49752,34.12061],[139.49758,34.12073],[139.49784,34.12101],[139.49786,34.12129],[139.49819,34.12152],[139.49823,34.12166],[139.49819,34.12177],[139.49833,34.12185],[139.4986,34.12172],[139.49878,34.12177],[139.49886,34.12183],[139.49923,34.12175],[139.49933,34.12179],[139.49956,34.12177],[139.49978,34.12184],[139.4999,34.12174],[139.50011,34.12173],[139.50021,34.12165],[139.50027,34.12168],[139.50032,34.12161],[139.50043,34.12156],[139.50077,34.12149],[139.50091,34.1215],[139.50097,34.1214],[139.50119,34.12136],[139.50137,34.12137],[139.50147,34.12134],[139.5015,34.12129],[139.50183,34.1213],[139.50184,34.12138],[139.50188,34.12139],[139.50194,34.12133],[139.50212,34.12133],[139.50231,34.1214],[139.50237,34.12137],[139.50254,34.12139],[139.50268,34.12137],[139.50281,34.12144],[139.50293,34.12142],[139.50317,34.12148],[139.50338,34.12147],[139.50386,34.1216],[139.50431,34.12181],[139.50451,34.12185],[139.50483,34.12202],[139.50497,34.12204],[139.5055,34.12224],[139.50593,34.12244],[139.506,34.12254],[139.50623,34.12257],[139.50628,34.12262],[139.50649,34.12269]]]}},{"type":"Feature","properties":{"id":"area-133810050","name":"神着"},"geometry":{"type":"Polygon","coordinates":[[[139.53247,34.12463],[139.53255,34.12424],[139.53263,34.12424],[139.53262,34.1244],[139.53268,34.12444],[139.53314,34.12449],[139.53331,34.12447],[139.53345,34.12439],[139.53362,34.12425],[139.53368,34.12402],[139.53379,34.12396],[139.53404,34.12389],[139.53412,34.12392],[139.53418,34.12388],[139.53427,34.12401],[139.53439,34.12407],[139.53475,34.12399],[139.53478,34.12391],[139.5347,34.12373],[139.53472,34.1237],[139.53489,34.12386],[139.53512,34.12384],[139.53516,34.12388],[139.53513,34.12393],[139.53516,34.12397],[139.53529,34.12393],[139.53548,34.12402],[139.53566,34.12403],[139.53586,34.12398],[139.53601,34.12387],[139.53604,34.12375],[139.53596,34.12341],[139.5361,34.12334],[139.53661,34.12337],[139.53674,34.12334],[139.53701,34.12344],[139.53733,34.12334],[139.53741,34.12335],[139.53772,34.12345],[139.53802,34.12346],[139.5382,34.12355],[139.53842,34.1236],[139.53882,34.12363],[139.53898,34.12375],[139.53907,34.12377],[139.53926,34.12375],[139.53937,34.12382],[139.53942,34.12395],[139.53933,34.12403],[139.53935,34.12411],[139.53956,34.12428],[139.5397,34.1243],[139.53979,34.12423],[139.53982,34.12412],[139.53983,34.12387],[139.5398,34.1237],[139.54,34.12358],[139.54015,34.12339],[139.54019,34.12347],[139.54051,34.12344],[139.54057,34.12351],[139.54066,34.1235],[139.54068,34.12346],[139.54064,34.12325],[139.54069,34.12316],[139.54067,34.1231],[139.54074,34.12296],[139.54086,34.12286],[139.54091,34.1227],[139.54108,34.12262],[139.54126,34.12249],[139.54137,34.12246],[139.54143,34.12236],[139.54152,34.12231],[139.54176,34.12234],[139.54209,34.12226],[139.54221,34.12228],[139.54236,34.12237],[139.54245,34.12237],[139.54247,34.12232],[139.5423,34.12211],[139.54235,34.12203],[139.54246,34.122],[139.54262,34.12184],[139.54282,34.12191],[139.54293,34.12177],[139.54302,34.12175],[139.54316,34.12179],[139.54325,34.12178],[139.54361,34.12165],[139.5437,34.12157],[139.54399,34.12144],[139.54415,34.12142],[139.54424,34.12137],[139.54434,34.12136],[139.5444,34.1213],[139.54439,34.12125],[139.54448,34.12118],[139.5446,34.12117],[139.54466,34.12106],[139.5448,34.12111],[139.54479,34.12097],[139.54481,34.12088],[139.54507,34.12084],[139.54519,34.12075],[139.54527,34.12064],[139.54555,34.1206],[139.54563,34.12052],[139.54564,34.12044],[139.54567,34.12042],[139.54574,34.12047],[139.54577,34.12045],[139.5458,34.12034],[139.54586,34.12029],[139.54609,34.12017],[139.54621,34.12019],[139.54624,34.12007],[139.54639,34.12003],[139.54646,34.11996],[139.54671,34.11991],[139.5468,34.11979],[139.54679,34.11937],[139.54692,34.11929],[139.54698,34.11921],[139.54705,34.1192],[139.54709,34.1191],[139.54716,34.11907],[139.54722,34.11911],[139.54724,34.11907],[139.54721,34.11902],[139.54715,34.119],[139.54711,34.11883],[139.54718,34.11879],[139.54723,34.11871],[139.54719,34.11851],[139.54724,34.11839],[139.54731,34.11834],[139.54731,34.11826],[139.54716,34.11809],[139.54709,34.11809],[139.54707,34.11799],[139.54709,34.11795],[139.54718,34.11794],[139.54716,34.11787],[139.54721,34.11779],[139.54725,34.11758],[139.54723,34.11753],[139.54716,34.1175],[139.54712,34.1174],[139.54715,34.11724],[139.54737,34.11697],[139.54776,34.11676],[139.54817,34.11665],[139.54821,34.11668],[139.54827,34.11665],[139.54835,34.11668],[139.54844,34.11667],[139.54857,34.11674],[139.54862,34.11673],[139.54869,34.11666],[139.54884,34.11678],[139.54898,34.11674],[139.54912,34.11682],[139.54979,34.11682],[139.55043,34.11665],[139.55063,34.11655],[139.5507,34.11647],[139.55079,34.11643],[139.55095,34.11639],[139.55107,34.11648],[139.55114,34.11648],[139.55116,34.11639],[139.55129,34.11637],[139.55135,34.11631],[139.55128,34.11604],[139.55124,34.11596],[139.55143,34.1157],[139.55145,34.11561],[139.55156,34.11556],[139.55162,34.11547],[139.55178,34.11542],[139.55202,34.11545],[139.55213,34.11522],[139.55238,34.11502],[139.55265,34.11491],[139.55288,34.11495],[139.55299,34.11485],[139.55305,34.11485],[139.55324,34.11496],[139.55361,34.11503],[139.55388,34.11523],[139.55406,34.11532],[139.55437,34.11529],[139.55454,34.11523],[139.55462,34.11509],[139.55459,34.11496],[139.55454,34.11489],[139.55434,34.11485],[139.55417,34.11471],[139.55383,34.11458],[139.55369,34.11438],[139.55362,34.11432],[139.55353,34.11431],[139.55353,34.11426],[139.55387,34.11393],[139.55436,34.11357],[139.55464,34.11325],[139.55496,34.11305],[139.55525,34.11276],[139.55532,34.11274],[139.55536,34.11263],[139.55541,34.11258],[139.55572,34.1127],[139.55575,34.11268],[139.55575,34.11263],[139.55561,34.11251],[139.55563,34.11247],[139.55581,34.1125],[139.55586,34.11245],[139.55597,34.11245],[139.55603,34.11241],[139.55634,34.11244],[139.55639,34.11237],[139.5563,34.11221],[139.55637,34.11219],[139.55647,34.11226],[139.55657,34.11224],[139.55666,34.112],[139.55687,34.11181],[139.55692,34.1118],[139.55732,34.11193],[139.55741,34.11192],[139.55752,34.11186],[139.55775,34.11188],[139.55784,34.11185],[139.55792,34.11167],[139.55802,34.1117],[139.55811,34.11169],[139.55819,34.11162],[139.55823,34.11152],[139.55828,34.11148],[139.55843,34.11148],[139.55865,34.11154],[139.55872,34.11152],[139.55892,34.11167],[139.55945,34.11173],[139.5597,34.1119],[139.5597,34.11182],[139.55966,34.11176],[139.55947,34.11165],[139.55914,34.11157],[139.55914,34.11146],[139.55908,34.11141],[139.55899,34.11143],[139.55901,34.11137],[139.55919,34.1112],[139.55936,34.1114],[139.5594,34.1114],[139.55942,34.11134],[139.55946,34.11133],[139.55964,34.11144],[139.55968,34.11143],[139.5597,34.11137],[139.55996,34.11147],[139.56001,34.11146],[139.56001,34.11142],[139.55993,34.11136],[139.55958,34.11123],[139.55947,34.11122],[139.55923,34.11103],[139.55912,34.11106],[139.55912,34.111],[139.55906,34.11097],[139.55916,34.11096],[139.55912,34.11091],[139.55906,34.1109],[139.55915,34.11095],[139.55904,34.11097],[139.55882,34.11089],[139.55919,34.11028],[139.55948,34.10998],[139.55962,34.10977],[139.55986,34.1096],[139.56029,34.10911],[139.56034,34.10908],[139.56045,34.10915],[139.56054,34.10915],[139.56073,34.10897],[139.56075,34.10884],[139.56087,34.10884],[139.56087,34.10898],[139.56093,34.10902],[139.56116,34.10881],[139.56133,34.10874],[139.56154,34.1087],[139.56169,34.10858],[139.56176,34.10838],[139.56178,34.10802],[139.56183,34.10799],[139.56193,34.10798],[139.56197,34.10795],[139.56198,34.10762],[139.56204,34.10753],[139.56209,34.1073],[139.56218,34.10722],[139.56222,34.10707],[139.56232,34.10694],[139.56255,34.10682],[139.56275,34.10692],[139.5627,34.10669],[139.56279,34.10635],[139.56306,34.10595],[139.54789,34.09591],[139.54733,34.0957],[139.54739,34.09588],[139.54737,34.09597],[139.54729,34.09608],[139.547,34.09622],[139.5467,34.09631],[139.54642,34.09632],[139.54618,34.0964],[139.5459,34.09664],[139.54581,34.09677],[139.54582,34.09688],[139.54592,34.09716],[139.546,34.09733],[139.54624,34.09766],[139.54625,34.0978],[139.54615,34.09805],[139.54587,34.09853],[139.54544,34.09873],[139.5454,34.09881],[139.54544,34.09895],[139.54572,34.09924],[139.54565,34.09965],[139.54567,34.09977],[139.54575,34.09992],[139.54595,34.10007],[139.54606,34.10018],[139.54607,34.10027],[139.54602,34.10032],[139.54545,34.10057],[139.54541,34.10063],[139.54538,34.10106],[139.54545,34.10116],[139.54572,34.10138],[139.5459,34.1017],[139.54606,34.10177],[139.54653,34.10184],[139.5467,34.10191],[139.54666,34.10206],[139.5465,34.10235],[139.54652,34.10241],[139.54656,34.10244],[139.54685,34.10247],[139.54691,34.10252],[139.5471,34.10319],[139.54712,34.10367],[139.54712,34.10384],[139.54708,34.10391],[139.54662,34.10426],[139.54635,34.10434],[139.54627,34.10444],[139.54629,34.10484],[139.54636,34.10494],[139.54665,34.10511],[139.54668,34.1052],[139.54665,34.1053],[139.5465,34.10547],[139.54628,34.10542],[139.54609,34.10543],[139.54594,34.10548],[139.54567,34.10566],[139.54544,34.10576],[139.54527,34.10582],[139.54499,34.10585],[139.54487,34.10585],[139.54472,34.10578],[139.54457,34.1055],[139.54444,34.10539],[139.54433,34.10536],[139.54403,34.10539],[139.54384,34.10587],[139.54371,34.10595],[139.54331,34.10605],[139.54319,34.10614],[139.54282,34.10685],[139.54278,34.1069],[139.54266,34.10694],[139.54255,34.10694],[139.54243,34.1069],[139.54191,34.10653],[139.54174,34.10646],[139.54148,34.10644],[139.54128,34.10649],[139.53904,34.1074],[139.53776,34.10808],[139.53758,34.10814],[139.53666,34.10814],[139.53599,34.1083],[139.53488,34.10879],[139.53452,34.10901],[139.53424,34.10909],[139.53379,34.1089],[139.53365,34.10869],[139.53341,34.10821],[139.53334,34.1078],[139.53329,34.10773],[139.53322,34.10769],[139.53227,34.10748],[139.53203,34.10739],[139.53191,34.10729],[139.53172,34.10687],[139.53159,34.10669],[139.53133,34.10656],[139.53101,34.10654],[139.53093,34.10651],[139.53027,34.10599],[139.52996,34.1058],[139.52961,34.10577],[139.52893,34.10589],[139.52842,34.10566],[139.52818,34.10565],[139.52777,34.10569],[139.5271,34.10556],[139.52698,34.10559],[139.52614,34.10599],[139.52596,34.106],[139.52588,34.10597],[139.52581,34.10576],[139.52576,34.10572],[139.52526,34.10579],[139.52514,34.10578],[139.52478,34.10539],[139.52425,34.10545],[139.52404,34.10566],[139.52385,34.10571],[139.52349,34.10566],[139.52287,34.10567],[139.52219,34.10546],[139.52182,34.10537],[139.52139,34.10534],[139.52056,34.10546],[139.52037,34.1057],[139.52027,34.10571],[139.52019,34.10569],[139.51992,34.10551],[139.51972,34.10547],[139.51875,34.1056],[139.51881,34.10583],[139.51891,34.10802],[139.51888,34.1084],[139.51891,34.10949],[139.51887,34.11293],[139.51861,34.11816],[139.51876,34.11849],[139.51898,34.1187],[139.51917,34.11906],[139.51926,34.11931],[139.51923,34.11972],[139.51926,34.12014],[139.51962,34.12101],[139.51965,34.12134],[139.51968,34.12202],[139.51951,34.1225],[139.51863,34.12197],[139.51604,34.12017],[139.5153,34.11948],[139.51489,34.11904],[139.5147,34.1187],[139.51456,34.11836],[139.51403,34.11857],[139.51362,34.11853],[139.51319,34.11844],[139.51284,34.11844],[139.51261,34.11849],[139.51215,34.11873],[139.51201,34.11875],[139.51201,34.12024],[139.51342,34.12037],[139.51417,34.12055],[139.51468,34.12073],[139.51547,34.12109],[139.51638,34.12162],[139.5168,34.1218],[139.51683,34.12186],[139.51678,34.12199],[139.51683,34.122],[139.51689,34.12196],[139.51703,34.12194],[139.5171,34.12184],[139.51727,34.12186],[139.51732,34.1219],[139.51743,34.12209],[139.51773,34.12235],[139.51791,34.12248],[139.51829,34.12269],[139.51891,34.1232],[139.51902,34.12331],[139.51922,34.12362],[139.51958,34.12382],[139.51977,34.12397],[139.52039,34.12435],[139.52043,34.12441],[139.52043,34.12451],[139.52135,34.12473],[139.5215,34.12481],[139.52278,34.12489],[139.52317,34.12474],[139.52317,34.1247],[139.52323,34.12464],[139.52366,34.12453],[139.52419,34.12421],[139.52466,34.12402],[139.52482,34.12401],[139.52527,34.12386],[139.52537,34.12391],[139.52556,34.1239],[139.52566,34.12404],[139.5259,34.12406],[139.52627,34.12416],[139.52631,34.12419],[139.5262,34.12422],[139.5262,34.12428],[139.52644,34.12448],[139.52643,34.12453],[139.52647,34.1246],[139.52668,34.12464],[139.52677,34.12476],[139.52691,34.12487],[139.52696,34.12486],[139.52698,34.12482],[139.52692,34.12472],[139.52716,34.12481],[139.5274,34.12497],[139.52766,34.12501],[139.52796,34.12492],[139.5281,34.12495],[139.5285,34.12489],[139.52885,34.12489],[139.52913,34.12497],[139.5294,34.12498],[139.52942,34.12505],[139.52959,34.12519],[139.52962,34.12517],[139.52961,34.12511],[139.52969,34.12511],[139.5298,34.12505],[139.52985,34.12499],[139.53016,34.12498],[139.53045,34.12491],[139.53083,34.12476],[139.53135,34.12462],[139.53149,34.12514],[139.53155,34.12513],[139.53142,34.12465],[139.53144,34.12466],[139.5315,34.12459],[139.53152,34.1245],[139.53168,34.12442],[139.53186,34.12437],[139.53193,34.12427],[139.53202,34.12443],[139.53205,34.12442],[139.53203,34.12435],[139.53211,34.12425],[139.53214,34.1241],[139.53207,34.12405],[139.53122,34.12417],[139.53126,34.12442],[139.52981,34.12465],[139.52976,34.12443],[139.52999,34.1244],[139.52992,34.12409],[139.53231,34.12372],[139.53238,34.12415],[139.53234,34.12443],[139.53203,34.1253],[139.53189,34.1254],[139.53203,34.12554],[139.53224,34.12541],[139.53246,34.12484],[139.53244,34.12482],[139.53246,34.12475],[139.53238,34.12473],[139.53241,34.12463],[139.53247,34.12463]]]}},{"type":"Feature","properties":{"id":"area-133810060","name":"雄山"},"geometry":{"type":"Polygon","coordinates":[[[139.53776,34.10808],[139.53904,34.1074],[139.54128,34.10649],[139.54148,34.10644],[139.54174,34.10646],[139.54191,34.10653],[139.54243,34.1069],[139.54255,34.10694],[139.54266,34.10694],[139.54278,34.1069],[139.54319,34.10614],[139.54331,34.10605],[139.54371,34.10595],[139.54384,34.10587],[139.54403,34.10539],[139.54433,34.10536],[139.54444,34.10539],[139.54457,34.1055],[139.54472,34.10578],[139.54487,34.10585],[139.54499,34.10585],[139.54527,34.10582],[139.54544,34.10576],[139.54567,34.10566],[139.54594,34.10548],[139.54609,34.10543],[139.54628,34.10542],[139.5465,34.10547],[139.54654,34.10545],[139.54665,34.1053],[139.54668,34.1052],[139.54665,34.10511],[139.54636,34.10494],[139.54629,34.10484],[139.54628,34.10439],[139.54635,34.10434],[139.54662,34.10426],[139.54701,34.10397],[139.54712,34.10384],[139.5471,34.10319],[139.54691,34.10252],[139.54685,34.10247],[139.54656,34.10244],[139.5465,34.10235],[139.54666,34.10206],[139.5467,34.10191],[139.54653,34.10184],[139.54606,34.10177],[139.5459,34.1017],[139.54572,34.10138],[139.54545,34.10116],[139.54538,34.10106],[139.54541,34.10063],[139.54545,34.10057],[139.54602,34.10032],[139.54607,34.10027],[139.54606,34.10018],[139.54595,34.10007],[139.54575,34.09992],[139.54567,34.09977],[139.54565,34.09965],[139.54572,34.09924],[139.54544,34.09895],[139.5454,34.09881],[139.54544,34.09873],[139.54587,34.09853],[139.54615,34.09805],[139.54625,34.0978],[139.54624,34.09766],[139.546,34.09733],[139.54592,34.09716],[139.54582,34.09688],[139.54581,34.09677],[139.5459,34.09664],[139.54618,34.0964],[139.54642,34.09632],[139.5467,34.09631],[139.547,34.09622],[139.54729,34.09608],[139.54737,34.09597],[139.54739,34.09588],[139.54733,34.0957],[139.5472,34.09551],[139.54685,34.09515],[139.54623,34.09485],[139.54605,34.09471],[139.5459,34.09442],[139.54542,34.09402],[139.54536,34.09386],[139.54548,34.09312],[139.54556,34.09301],[139.54567,34.09293],[139.54581,34.0929],[139.54601,34.09292],[139.5466,34.09323],[139.54674,34.09323],[139.54689,34.09314],[139.54752,34.09257],[139.54728,34.0919],[139.54641,34.0917],[139.54629,34.09164],[139.54625,34.09156],[139.54628,34.09145],[139.54647,34.09126],[139.54655,34.09111],[139.54663,34.09081],[139.54673,34.09064],[139.54683,34.09032],[139.54689,34.09025],[139.54732,34.09012],[139.5474,34.09005],[139.54742,34.08997],[139.5474,34.08989],[139.54718,34.08954],[139.54723,34.08942],[139.54739,34.08928],[139.54739,34.08913],[139.54704,34.08886],[139.5467,34.08874],[139.54651,34.08835],[139.54616,34.08815],[139.54616,34.08802],[139.54623,34.08793],[139.5468,34.08783],[139.54687,34.08777],[139.54691,34.08767],[139.5469,34.08754],[139.54668,34.08736],[139.54667,34.08727],[139.54673,34.08718],[139.54687,34.08709],[139.54711,34.08699],[139.54779,34.08701],[139.5479,34.08697],[139.54794,34.08686],[139.54789,34.08667],[139.54778,34.08655],[139.54711,34.08646],[139.54699,34.08635],[139.54679,34.08605],[139.54643,34.08589],[139.54563,34.08578],[139.54494,34.08543],[139.54467,34.08518],[139.54461,34.08507],[139.54464,34.08498],[139.54494,34.08479],[139.54498,34.08473],[139.54499,34.08461],[139.54494,34.08456],[139.54474,34.08447],[139.54416,34.08439],[139.54393,34.08439],[139.54372,34.08451],[139.54331,34.08434],[139.5433,34.08426],[139.54341,34.08416],[139.54449,34.08364],[139.54477,34.08348],[139.54484,34.08322],[139.5452,34.08289],[139.54495,34.0827],[139.54353,34.08202],[139.543,34.08144],[139.54289,34.08123],[139.54292,34.08107],[139.54328,34.08022],[139.54347,34.07944],[139.54357,34.07914],[139.54382,34.07893],[139.54404,34.07881],[139.54411,34.07867],[139.54404,34.07859],[139.54339,34.07855],[139.54299,34.07799],[139.54296,34.07788],[139.54356,34.07729],[139.54393,34.07681],[139.54387,34.0765],[139.54397,34.07578],[139.54398,34.07551],[139.54394,34.07521],[139.54373,34.07507],[139.54313,34.07482],[139.5429,34.07481],[139.54244,34.07471],[139.54231,34.07461],[139.54176,34.07408],[139.54153,34.07382],[139.54133,34.07377],[139.54122,34.07391],[139.54121,34.07433],[139.54108,34.0745],[139.54093,34.07449],[139.53981,34.07381],[139.53953,34.0736],[139.53936,34.07341],[139.53932,34.07319],[139.53933,34.07307],[139.53925,34.07286],[139.5393,34.0727],[139.53958,34.07245],[139.53961,34.07233],[139.53946,34.07216],[139.53838,34.07201],[139.53776,34.07187],[139.53777,34.07164],[139.53788,34.07154],[139.53775,34.0713],[139.53752,34.0711],[139.53732,34.07103],[139.53709,34.07101],[139.53666,34.07108],[139.53649,34.07105],[139.53629,34.07094],[139.53614,34.0709],[139.53583,34.07093],[139.5357,34.07072],[139.53537,34.07059],[139.53514,34.07058],[139.53511,34.07054],[139.53513,34.07041],[139.5353,34.07003],[139.53522,34.06992],[139.53482,34.06958],[139.53467,34.0693],[139.53428,34.06924],[139.53406,34.06906],[139.53387,34.06905],[139.53338,34.06917],[139.53332,34.06914],[139.53329,34.06908],[139.53325,34.06887],[139.53315,34.06887],[139.53292,34.06899],[139.53284,34.06896],[139.53282,34.0689],[139.53284,34.06879],[139.53294,34.06852],[139.53288,34.06839],[139.5326,34.06813],[139.53245,34.0679],[139.53205,34.0677],[139.532,34.0676],[139.53207,34.0675],[139.53244,34.06751],[139.53272,34.06757],[139.53288,34.06756],[139.53289,34.06741],[139.53278,34.06717],[139.53273,34.06691],[139.53254,34.06678],[139.53251,34.06672],[139.53255,34.06668],[139.53278,34.06667],[139.5331,34.06677],[139.53316,34.06675],[139.53317,34.06668],[139.53278,34.06638],[139.53241,34.06633],[139.53228,34.0662],[139.53209,34.06611],[139.53192,34.06618],[139.53164,34.06647],[139.53147,34.06659],[139.53137,34.06655],[139.53135,34.06646],[139.53139,34.06619],[139.53127,34.06612],[139.53077,34.06607],[139.5307,34.06603],[139.53069,34.06592],[139.53089,34.06578],[139.53092,34.06568],[139.53108,34.06552],[139.53113,34.0654],[139.53119,34.06512],[139.53115,34.06494],[139.53101,34.06481],[139.531,34.06475],[139.53086,34.06481],[139.53082,34.06487],[139.5309,34.0651],[139.53085,34.06535],[139.53074,34.06562],[139.53065,34.06568],[139.53055,34.06566],[139.53039,34.06511],[139.53023,34.06498],[139.53013,34.065],[139.5301,34.06539],[139.53006,34.06544],[139.52996,34.06539],[139.52991,34.06525],[139.5298,34.06515],[139.52936,34.06505],[139.52923,34.06506],[139.529,34.06532],[139.52869,34.06546],[139.52862,34.06562],[139.52862,34.06578],[139.52851,34.0659],[139.52831,34.06591],[139.528,34.06577],[139.52738,34.06536],[139.52689,34.0655],[139.52642,34.06529],[139.52619,34.06532],[139.52598,34.06546],[139.5258,34.06547],[139.52569,34.06556],[139.52558,34.06587],[139.52536,34.06602],[139.52496,34.06608],[139.52476,34.06597],[139.52453,34.06574],[139.52425,34.06539],[139.52404,34.06489],[139.52389,34.06493],[139.52382,34.06522],[139.52361,34.06538],[139.52357,34.06551],[139.52351,34.06599],[139.52343,34.06605],[139.52323,34.06605],[139.52293,34.06595],[139.5224,34.06589],[139.52217,34.06597],[139.52163,34.06638],[139.52031,34.06711],[139.51987,34.0678],[139.5198,34.06827],[139.51964,34.06843],[139.51947,34.06849],[139.51911,34.06826],[139.51897,34.0682],[139.51891,34.06822],[139.51887,34.06842],[139.51907,34.0691],[139.51916,34.0693],[139.51913,34.06959],[139.51901,34.06975],[139.51863,34.07001],[139.51835,34.07037],[139.51801,34.07089],[139.51807,34.07166],[139.51823,34.07181],[139.51805,34.07237],[139.51741,34.07202],[139.51625,34.07158],[139.51588,34.07147],[139.51306,34.0714],[139.51227,34.07152],[139.51093,34.07208],[139.51063,34.07235],[139.50975,34.0736],[139.50815,34.07565],[139.50789,34.07592],[139.50757,34.07607],[139.50707,34.07667],[139.50711,34.07683],[139.50701,34.07698],[139.50701,34.07723],[139.50689,34.07746],[139.50664,34.07764],[139.5063,34.07798],[139.50622,34.07817],[139.50572,34.07863],[139.50563,34.07883],[139.50566,34.07909],[139.50538,34.07952],[139.50495,34.07967],[139.50446,34.0799],[139.50433,34.0801],[139.50435,34.08022],[139.50444,34.08036],[139.50448,34.08055],[139.50426,34.0812],[139.50417,34.08163],[139.50407,34.08181],[139.50393,34.08223],[139.50381,34.08241],[139.50375,34.08266],[139.50388,34.083],[139.50389,34.08341],[139.50402,34.08374],[139.50407,34.0842],[139.50407,34.08477],[139.50401,34.085],[139.50399,34.08549],[139.50366,34.08618],[139.50355,34.08658],[139.50354,34.08685],[139.50342,34.08739],[139.50344,34.08789],[139.50341,34.08821],[139.50305,34.0887],[139.50277,34.08923],[139.50281,34.08954],[139.50275,34.08967],[139.50229,34.09005],[139.50226,34.09021],[139.50213,34.09044],[139.50216,34.09067],[139.50212,34.09089],[139.50216,34.09109],[139.50195,34.09123],[139.50185,34.09143],[139.50183,34.09159],[139.50171,34.09172],[139.50159,34.09192],[139.5018,34.09224],[139.50188,34.0923],[139.50243,34.09247],[139.50299,34.09235],[139.50311,34.09237],[139.50316,34.0925],[139.50333,34.09266],[139.50348,34.09301],[139.50361,34.09306],[139.50389,34.093],[139.50419,34.09301],[139.50452,34.09306],[139.50468,34.09317],[139.50468,34.09333],[139.50457,34.09349],[139.5042,34.09384],[139.50414,34.09411],[139.50416,34.0943],[139.50423,34.09443],[139.50439,34.09448],[139.50468,34.09444],[139.50492,34.09447],[139.50501,34.09451],[139.50506,34.09471],[139.50506,34.09487],[139.50516,34.09509],[139.50533,34.09523],[139.50579,34.09587],[139.50592,34.09596],[139.50632,34.09613],[139.50649,34.09628],[139.50661,34.09663],[139.50674,34.09676],[139.50708,34.09695],[139.5071,34.0972],[139.50736,34.09763],[139.50741,34.09806],[139.50751,34.09823],[139.50801,34.09864],[139.50857,34.09892],[139.50868,34.09908],[139.5091,34.10016],[139.50915,34.10025],[139.50943,34.10038],[139.50946,34.10071],[139.50994,34.10121],[139.51038,34.10155],[139.51055,34.1018],[139.511,34.10185],[139.51115,34.10191],[139.51137,34.10206],[139.51158,34.10233],[139.512,34.10242],[139.51202,34.10263],[139.51235,34.10307],[139.51281,34.10307],[139.51302,34.10331],[139.51324,34.1033],[139.51366,34.10322],[139.51375,34.10329],[139.51383,34.1034],[139.51385,34.10359],[139.51398,34.10368],[139.5141,34.10369],[139.51427,34.10364],[139.51442,34.10351],[139.51458,34.10342],[139.5147,34.10347],[139.51473,34.10358],[139.51458,34.10376],[139.51467,34.10432],[139.51473,34.1044],[139.51495,34.10448],[139.51514,34.10446],[139.51527,34.10438],[139.51536,34.10418],[139.51558,34.10414],[139.51634,34.10429],[139.51641,34.1044],[139.51631,34.1047],[139.51636,34.1048],[139.51664,34.10483],[139.51674,34.10489],[139.51705,34.10519],[139.51756,34.10546],[139.51814,34.10544],[139.51861,34.10561],[139.51972,34.10547],[139.51992,34.10551],[139.52019,34.10569],[139.52027,34.10571],[139.52037,34.1057],[139.52056,34.10546],[139.52139,34.10534],[139.52182,34.10537],[139.52219,34.10546],[139.52287,34.10567],[139.52349,34.10566],[139.52385,34.10571],[139.52404,34.10566],[139.52425,34.10545],[139.52478,34.10539],[139.52514,34.10578],[139.52526,34.10579],[139.52576,34.10572],[139.52581,34.10576],[139.52588,34.10597],[139.52596,34.106],[139.52614,34.10599],[139.52698,34.10559],[139.5271,34.10556],[139.52777,34.10569],[139.52818,34.10565],[139.52842,34.10566],[139.52893,34.10589],[139.52961,34.10577],[139.52996,34.1058],[139.53027,34.10599],[139.53093,34.10651],[139.53101,34.10654],[139.53133,34.10656],[139.53159,34.10669],[139.53172,34.10687],[139.53191,34.10729],[139.53203,34.10739],[139.53227,34.10748],[139.53322,34.10769],[139.53329,34.10773],[139.53334,34.1078],[139.53341,34.10821],[139.53365,34.10869],[139.53379,34.1089],[139.53424,34.10909],[139.53452,34.10901],[139.53488,34.10879],[139.53587,34.10833],[139.53666,34.10814],[139.53758,34.10814],[139.53776,34.10808]]]}}]}