{"type":"FeatureCollection","features":[{"type":"Feature","properties":{"id":"area-13","name":"青ヶ島村"},"geometry":{"type":"MultiPolygon","coordinates":[[[[140.34105,29.79402],[140.34164,29.7946],[140.34264,29.79454],[140.34267,29.79404],[140.34225,29.79356],[140.34149,29.79356],[140.34105,29.79402]]],[[[140.04898,31.44021],[140.05039,31.44279],[140.05132,31.44249],[140.05089,31.44057],[140.05225,31.43899],[140.05417,31.43895],[140.05475,31.438],[140.05132,31.43678],[140.04915,31.43673],[140.04898,31.44021]]],[[[139.91486,31.88651],[139.91693,31.88909],[139.91941,31.88941],[139.91974,31.88762],[139.91695,31.88533],[139.91486,31.88651]]],[[[139.81362,35.58979],[139.827,35.59704],[139.82704,35.59698],[139.827,35.59696],[139.82962,35.59309],[139.8322,35.58884],[139.82714,35.58608],[139.81304,35.57847],[139.8092,35.58336],[139.80574,35.58549],[139.81157,35.58866],[139.8043,35.59761],[139.80633,35.59866],[139.81362,35.58979]]]]}},{"type":"Feature","properties":{"id":"area-134020010","name":"青ケ島村"},"geometry":{"type":"Polygon","coordinates":[[[139.76947,32.46911],[139.7696,32.46905],[139.76977,32.46916],[139.76984,32.46905],[139.76984,32.4689],[139.76999,32.4684],[139.77037,32.468],[139.7706,32.46789],[139.7707,32.46776],[139.7709,32.46732],[139.77101,32.46723],[139.77119,32.46694],[139.7713,32.46655],[139.77197,32.46553],[139.77215,32.46551],[139.77231,32.46545],[139.77254,32.46524],[139.77261,32.4651],[139.77261,32.465],[139.77276,32.46472],[139.77359,32.4638],[139.7742,32.46335],[139.77441,32.46327],[139.77464,32.46327],[139.77486,32.46296],[139.77517,32.46285],[139.77596,32.46213],[139.77631,32.462],[139.7767,32.46193],[139.77699,32.46165],[139.77712,32.46165],[139.77724,32.46172],[139.77729,32.462],[139.77742,32.46206],[139.7775,32.462],[139.77745,32.46163],[139.7779,32.46102],[139.7779,32.46095],[139.77794,32.46099],[139.77796,32.46072],[139.77806,32.46062],[139.77844,32.46037],[139.77849,32.46044],[139.77856,32.46041],[139.77862,32.46031],[139.7793,32.45961],[139.7797,32.45889],[139.77989,32.45867],[139.78022,32.45855],[139.78017,32.45845],[139.78016,32.45813],[139.78026,32.45776],[139.78047,32.45758],[139.78062,32.45757],[139.78065,32.45739],[139.78095,32.45752],[139.78107,32.45749],[139.78122,32.45735],[139.78112,32.45717],[139.78069,32.45706],[139.78061,32.45661],[139.78037,32.45649],[139.7803,32.45622],[139.78031,32.45592],[139.78019,32.45546],[139.78024,32.45515],[139.78011,32.45495],[139.78011,32.4547],[139.78024,32.45391],[139.78037,32.4535],[139.78045,32.45341],[139.7807,32.45334],[139.78076,32.45328],[139.78076,32.45315],[139.7808,32.45308],[139.78102,32.45296],[139.7812,32.45265],[139.78121,32.45242],[139.7813,32.45226],[139.78139,32.45218],[139.78117,32.45175],[139.78116,32.45151],[139.78096,32.45128],[139.78099,32.45113],[139.78096,32.45093],[139.78104,32.4508],[139.78109,32.4505],[139.78106,32.45035],[139.78096,32.45016],[139.78096,32.45005],[139.7808,32.45004],[139.78056,32.44981],[139.78052,32.44967],[139.78061,32.44941],[139.78069,32.44929],[139.78065,32.44916],[139.78051,32.44892],[139.78027,32.44868],[139.78017,32.44849],[139.78012,32.44831],[139.77995,32.44827],[139.77944,32.44776],[139.77939,32.44747],[139.77934,32.44746],[139.77915,32.44731],[139.77849,32.44697],[139.77801,32.44688],[139.7776,32.44652],[139.77716,32.44626],[139.77645,32.44595],[139.77586,32.44577],[139.77506,32.44546],[139.77466,32.44537],[139.77317,32.44481],[139.7726,32.44448],[139.77222,32.44408],[139.77181,32.44381],[139.77039,32.44329],[139.76889,32.44294],[139.76848,32.44288],[139.76745,32.44296],[139.76713,32.44311],[139.76675,32.44348],[139.76661,32.44351],[139.76649,32.4435],[139.76643,32.44377],[139.76623,32.44421],[139.7654,32.44498],[139.76451,32.44558],[139.76396,32.44578],[139.76338,32.44579],[139.76308,32.44569],[139.76293,32.44568],[139.76259,32.44571],[139.76251,32.44594],[139.76223,32.44588],[139.76199,32.44606],[139.76185,32.44604],[139.76169,32.44613],[139.76154,32.44611],[139.76146,32.44606],[139.76099,32.44606],[139.76073,32.44618],[139.7606,32.44616],[139.76049,32.44619],[139.76039,32.44628],[139.76023,32.44626],[139.76005,32.44608],[139.75996,32.44606],[139.75973,32.44611],[139.75965,32.44621],[139.7597,32.44627],[139.75999,32.44637],[139.7601,32.44651],[139.76004,32.44672],[139.75979,32.4467],[139.75978,32.44677],[139.75989,32.44691],[139.75999,32.44695],[139.75994,32.44705],[139.75953,32.44751],[139.75838,32.44837],[139.75773,32.44891],[139.75714,32.44931],[139.75688,32.4493],[139.75645,32.44949],[139.7563,32.44949],[139.75598,32.44961],[139.75579,32.44961],[139.7556,32.44966],[139.75539,32.44986],[139.75503,32.45044],[139.75453,32.4514],[139.75464,32.45152],[139.7547,32.4517],[139.75469,32.45189],[139.75463,32.45209],[139.7547,32.45236],[139.75466,32.4525],[139.75455,32.45266],[139.75449,32.45313],[139.75435,32.45349],[139.75435,32.45359],[139.75448,32.4537],[139.75451,32.4539],[139.75445,32.45417],[139.75475,32.45467],[139.7548,32.45491],[139.75481,32.45565],[139.75461,32.4567],[139.75468,32.4583],[139.7548,32.45991],[139.75471,32.46043],[139.7548,32.46113],[139.75476,32.46141],[139.75479,32.4622],[139.75475,32.46296],[139.75449,32.46375],[139.75449,32.4642],[139.75463,32.46501],[139.75461,32.46599],[139.75433,32.4672],[139.75436,32.46748],[139.75476,32.46848],[139.75483,32.46903],[139.75471,32.47003],[139.75473,32.47032],[139.75493,32.47099],[139.75489,32.47111],[139.75496,32.4715],[139.75508,32.47172],[139.75528,32.47185],[139.75615,32.47278],[139.75684,32.47286],[139.75721,32.47299],[139.75779,32.47341],[139.75819,32.47354],[139.75846,32.47354],[139.75944,32.47338],[139.7604,32.4726],[139.76217,32.47154],[139.76307,32.47114],[139.76331,32.47107],[139.76374,32.47101],[139.76452,32.47099],[139.76474,32.47095],[139.76555,32.47068],[139.76621,32.47056],[139.76712,32.47033],[139.76837,32.46981],[139.76896,32.4695],[139.76947,32.46911]]]}},{"type":"Feature","properties":{"id":"area-134020020","name":"青ヶ島村"},"geometry":{"type":"Polygon","coordinates":[[[140.28642,30.48351],[140.28699,30.48337],[140.28708,30.4837],[140.28693,30.48402],[140.28694,30.48451],[140.28742,30.4848],[140.28806,30.48538],[140.28833,30.48603],[140.28846,30.48715],[140.28944,30.48777],[140.29008,30.48839],[140.29046,30.48904],[140.29085,30.49013],[140.29145,30.49116],[140.29226,30.4921],[140.2929,30.49274],[140.29414,30.49325],[140.29536,30.49366],[140.29651,30.49381],[140.29759,30.49402],[140.29822,30.49408],[140.29839,30.49455],[140.29866,30.49506],[140.29908,30.49535],[140.29989,30.49528],[140.3016,30.49562],[140.30234,30.49583],[140.30302,30.49581],[140.30373,30.49573],[140.30392,30.49593],[140.30423,30.49573],[140.30443,30.4957],[140.30462,30.49586],[140.30556,30.49546],[140.30617,30.49496],[140.30649,30.49498],[140.30706,30.49495],[140.30756,30.49468],[140.30778,30.49427],[140.30812,30.49416],[140.30814,30.49389],[140.30845,30.49355],[140.30917,30.49311],[140.30992,30.49257],[140.31081,30.49145],[140.31135,30.49109],[140.3122,30.49032],[140.31403,30.48778],[140.31467,30.48697],[140.31444,30.48593],[140.31418,30.48502],[140.31388,30.48419],[140.31391,30.4834],[140.31385,30.48279],[140.31389,30.48214],[140.31364,30.48154],[140.31288,30.48036],[140.31241,30.47935],[140.31174,30.47839],[140.31127,30.47756],[140.31105,30.47696],[140.31099,30.47651],[140.31018,30.47546],[140.30892,30.47503],[140.3076,30.47466],[140.30642,30.47447],[140.30505,30.47439],[140.30377,30.47418],[140.30271,30.47392],[140.30078,30.47296],[140.29991,30.47281],[140.29942,30.47297],[140.29911,30.47299],[140.29832,30.47287],[140.29772,30.47314],[140.29747,30.47346],[140.29581,30.47433],[140.29307,30.4773],[140.29191,30.47828],[140.29093,30.4789],[140.29018,30.47951],[140.28976,30.48042],[140.28931,30.48154],[140.28867,30.48229],[140.28758,30.48275],[140.2869,30.48289],[140.28654,30.48326],[140.28642,30.48351]]]}}]}