{"type":"FeatureCollection","features":[{"type":"Feature","properties":{"id":"area-134010010","name":"三根"},"geometry":{"type":"MultiPolygon","coordinates":[[[[139.75959,33.15928],[139.75984,33.15926],[139.75996,33.15916],[139.76003,33.15902],[139.76032,33.15895],[139.7605,33.15897],[139.76058,33.15906],[139.76064,33.15924],[139.7607,33.15924],[139.76079,33.15916],[139.76102,33.15925],[139.76108,33.15931],[139.7612,33.15927],[139.76203,33.15915],[139.76238,33.15915],[139.76243,33.15909],[139.76267,33.15905],[139.76277,33.15891],[139.76278,33.15871],[139.76297,33.15883],[139.76308,33.15884],[139.76334,33.15875],[139.76349,33.15881],[139.764,33.15867],[139.76473,33.15831],[139.76476,33.15826],[139.76477,33.15805],[139.76499,33.1582],[139.76505,33.15821],[139.76514,33.1581],[139.76518,33.15795],[139.76537,33.15808],[139.76558,33.15815],[139.7658,33.1581],[139.76616,33.15809],[139.76646,33.158],[139.7667,33.15825],[139.76677,33.15844],[139.76686,33.15848],[139.76697,33.15847],[139.76698,33.15836],[139.76694,33.1582],[139.76704,33.15812],[139.76712,33.15817],[139.76718,33.15827],[139.76729,33.15848],[139.76732,33.15865],[139.7674,33.15866],[139.76742,33.1586],[139.7674,33.15847],[139.76751,33.15837],[139.76751,33.15832],[139.76764,33.15833],[139.76772,33.15823],[139.76769,33.15803],[139.76764,33.15797],[139.76764,33.15779],[139.76802,33.15762],[139.76822,33.15758],[139.76857,33.15767],[139.76914,33.15791],[139.76919,33.15799],[139.76934,33.15796],[139.7695,33.15803],[139.76955,33.15802],[139.76964,33.15776],[139.76999,33.15813],[139.77013,33.15813],[139.7702,33.15822],[139.77034,33.15818],[139.77067,33.15817],[139.77081,33.15819],[139.77098,33.15826],[139.7714,33.15829],[139.77137,33.15852],[139.77148,33.15854],[139.77171,33.15866],[139.77184,33.15869],[139.77219,33.15857],[139.77218,33.15848],[139.77204,33.15834],[139.7721,33.15825],[139.77199,33.15801],[139.77213,33.15772],[139.7722,33.15768],[139.77221,33.15752],[139.77226,33.15748],[139.77251,33.15738],[139.77277,33.15733],[139.77295,33.15747],[139.77314,33.1575],[139.77327,33.1575],[139.77354,33.15741],[139.77363,33.15749],[139.77368,33.1575],[139.7738,33.1574],[139.77396,33.15754],[139.77397,33.15765],[139.77401,33.15771],[139.77423,33.1577],[139.77429,33.1576],[139.77427,33.15741],[139.77432,33.1574],[139.77422,33.15723],[139.77422,33.15717],[139.77434,33.15708],[139.77438,33.157],[139.77449,33.15697],[139.77448,33.15685],[139.77463,33.15671],[139.77477,33.15665],[139.77489,33.15666],[139.77488,33.15651],[139.77503,33.15638],[139.775,33.15614],[139.77505,33.15612],[139.77514,33.15616],[139.77517,33.15604],[139.77521,33.15601],[139.77526,33.15605],[139.77527,33.15616],[139.77533,33.15623],[139.77548,33.15625],[139.77565,33.15616],[139.77572,33.15618],[139.77582,33.1561],[139.77599,33.15612],[139.7762,33.15603],[139.77618,33.15598],[139.77608,33.15593],[139.77611,33.15576],[139.77597,33.15578],[139.77593,33.15572],[139.77619,33.15554],[139.77611,33.15542],[139.77626,33.15522],[139.77633,33.15498],[139.77629,33.15487],[139.7765,33.1549],[139.77673,33.15473],[139.77682,33.15475],[139.77685,33.15467],[139.77693,33.15468],[139.77695,33.15456],[139.77699,33.15452],[139.77715,33.15448],[139.77721,33.15443],[139.77734,33.15445],[139.77749,33.15469],[139.77758,33.15453],[139.77762,33.15452],[139.77758,33.15472],[139.77768,33.15472],[139.77785,33.15465],[139.77789,33.15459],[139.77786,33.15448],[139.77791,33.15443],[139.77795,33.15429],[139.77793,33.15422],[139.77801,33.15409],[139.778,33.15404],[139.77794,33.15397],[139.778,33.15385],[139.77805,33.15383],[139.77817,33.15386],[139.77823,33.15367],[139.77838,33.15369],[139.77865,33.15348],[139.77886,33.15339],[139.77905,33.15323],[139.77908,33.15311],[139.77919,33.15306],[139.77926,33.15295],[139.77941,33.15285],[139.77951,33.15272],[139.77951,33.15265],[139.77966,33.15251],[139.77976,33.15251],[139.77979,33.15241],[139.78004,33.15231],[139.78009,33.15224],[139.78021,33.1522],[139.78045,33.15204],[139.78051,33.15197],[139.78054,33.1518],[139.78064,33.15174],[139.78071,33.15175],[139.78076,33.1517],[139.78079,33.15156],[139.78076,33.15149],[139.78082,33.15132],[139.78089,33.15125],[139.78095,33.15124],[139.78128,33.15138],[139.78142,33.15138],[139.78151,33.15134],[139.78156,33.15124],[139.78156,33.15098],[139.78189,33.15068],[139.78193,33.1506],[139.78198,33.15056],[139.782,33.15049],[139.78196,33.15039],[139.78216,33.15029],[139.7823,33.15014],[139.78237,33.14992],[139.78247,33.14979],[139.78301,33.14939],[139.78312,33.14923],[139.78312,33.14911],[139.78323,33.14903],[139.78323,33.14895],[139.7833,33.1489],[139.78334,33.14877],[139.78359,33.14873],[139.7837,33.14861],[139.78388,33.14857],[139.78405,33.14867],[139.7842,33.14864],[139.78422,33.14862],[139.78421,33.14846],[139.78424,33.14842],[139.78491,33.14818],[139.78541,33.14776],[139.78578,33.14769],[139.78583,33.14771],[139.78595,33.1479],[139.78602,33.14791],[139.7862,33.14787],[139.78632,33.14771],[139.78633,33.14755],[139.78639,33.14742],[139.78654,33.14726],[139.78657,33.14739],[139.78651,33.14781],[139.78656,33.14785],[139.78673,33.14785],[139.78679,33.14775],[139.7868,33.14765],[139.78694,33.14727],[139.78694,33.14697],[139.78701,33.1468],[139.78703,33.14687],[139.78703,33.14707],[139.78706,33.14711],[139.78715,33.1471],[139.78726,33.14699],[139.78729,33.14691],[139.78742,33.14703],[139.78756,33.14707],[139.78767,33.14691],[139.78761,33.14681],[139.78766,33.14662],[139.7878,33.14663],[139.78785,33.14657],[139.78782,33.14642],[139.78776,33.14634],[139.78786,33.14641],[139.78798,33.14642],[139.788,33.14638],[139.78792,33.1463],[139.78794,33.14625],[139.78801,33.14633],[139.78807,33.14637],[139.7881,33.14635],[139.78801,33.14622],[139.78803,33.14614],[139.78808,33.14624],[139.78823,33.14614],[139.78839,33.14619],[139.78843,33.1461],[139.78842,33.14586],[139.78848,33.14571],[139.78852,33.14573],[139.78858,33.1459],[139.78862,33.14588],[139.78856,33.14569],[139.78858,33.14565],[139.78885,33.14568],[139.78911,33.14597],[139.78919,33.14599],[139.7892,33.14591],[139.78907,33.14556],[139.78891,33.14527],[139.78919,33.14535],[139.78929,33.14529],[139.78932,33.1454],[139.78937,33.14542],[139.78945,33.14538],[139.7895,33.14524],[139.79009,33.1452],[139.79024,33.14512],[139.79034,33.14522],[139.79052,33.14547],[139.79067,33.1455],[139.79073,33.14536],[139.79083,33.14532],[139.79082,33.14529],[139.79058,33.14507],[139.79056,33.14495],[139.7905,33.14487],[139.79062,33.1448],[139.79063,33.14474],[139.79081,33.14459],[139.79113,33.14448],[139.79119,33.14436],[139.7912,33.14425],[139.79131,33.14419],[139.79143,33.14423],[139.79185,33.14416],[139.79189,33.14421],[139.79194,33.1442],[139.792,33.14415],[139.79199,33.14405],[139.79209,33.144],[139.79212,33.14394],[139.79228,33.14389],[139.79255,33.14385],[139.79268,33.14377],[139.79279,33.14384],[139.79282,33.14397],[139.79297,33.14384],[139.79303,33.14371],[139.79306,33.14373],[139.79305,33.14388],[139.79319,33.14391],[139.79317,33.1437],[139.79324,33.14356],[139.79324,33.14338],[139.79335,33.14331],[139.79339,33.14317],[139.79343,33.14315],[139.79352,33.14319],[139.79369,33.14306],[139.79387,33.14312],[139.79396,33.143],[139.79395,33.14288],[139.79404,33.14289],[139.79414,33.14283],[139.79418,33.14277],[139.79418,33.1427],[139.79436,33.14261],[139.79456,33.14244],[139.79471,33.14238],[139.79481,33.14222],[139.79492,33.14215],[139.7952,33.14232],[139.79525,33.14241],[139.79549,33.14257],[139.79576,33.14249],[139.79597,33.1425],[139.79604,33.14248],[139.79605,33.14235],[139.79581,33.14209],[139.79599,33.14216],[139.79605,33.14213],[139.79607,33.142],[139.79616,33.14205],[139.79621,33.14197],[139.79614,33.14174],[139.79595,33.14163],[139.79626,33.14151],[139.79638,33.14158],[139.79648,33.14154],[139.79666,33.14164],[139.79672,33.14158],[139.79671,33.14154],[139.79651,33.14146],[139.79608,33.14112],[139.79614,33.14101],[139.79629,33.14093],[139.79632,33.14088],[139.7962,33.14067],[139.79609,33.14058],[139.79613,33.14055],[139.7964,33.14052],[139.79646,33.14045],[139.79633,33.14032],[139.79619,33.14027],[139.79616,33.1402],[139.79638,33.14015],[139.79641,33.14012],[139.7964,33.14008],[139.79604,33.13985],[139.79613,33.13961],[139.7962,33.13958],[139.79613,33.13928],[139.79606,33.13914],[139.79613,33.13911],[139.79615,33.13906],[139.7961,33.13896],[139.79615,33.13894],[139.79628,33.13869],[139.79653,33.13847],[139.79657,33.13821],[139.79672,33.13791],[139.79673,33.13779],[139.79689,33.13763],[139.79697,33.13747],[139.79692,33.13706],[139.79695,33.13683],[139.79701,33.13672],[139.79693,33.1366],[139.79692,33.13636],[139.79674,33.13632],[139.7968,33.13613],[139.79682,33.13581],[139.79717,33.13544],[139.79759,33.13566],[139.79769,33.13566],[139.79769,33.13559],[139.79746,33.13542],[139.79744,33.13526],[139.79762,33.13528],[139.79759,33.1352],[139.79761,33.13515],[139.79764,33.13514],[139.79767,33.1352],[139.79782,33.13524],[139.7979,33.13534],[139.7979,33.13524],[139.79795,33.1352],[139.79791,33.13513],[139.79794,33.13509],[139.79823,33.13505],[139.79827,33.13506],[139.79825,33.13508],[139.79806,33.13529],[139.79824,33.13533],[139.79825,33.13537],[139.7983,33.13539],[139.79838,33.13532],[139.79863,33.13532],[139.79863,33.13525],[139.79883,33.13494],[139.79881,33.13481],[139.79894,33.1347],[139.79892,33.13462],[139.79884,33.13461],[139.79865,33.13468],[139.7986,33.13457],[139.79857,33.13457],[139.79855,33.13461],[139.7986,33.13471],[139.79858,33.13473],[139.79846,33.1346],[139.79837,33.13464],[139.79832,33.13472],[139.7982,33.13465],[139.79809,33.13446],[139.79794,33.13444],[139.79788,33.13434],[139.79789,33.13422],[139.79777,33.13407],[139.79786,33.13402],[139.79788,33.13381],[139.7981,33.13352],[139.79835,33.13356],[139.79842,33.13352],[139.7985,33.13354],[139.79874,33.1335],[139.79882,33.13338],[139.79896,33.13336],[139.79908,33.13325],[139.79916,33.13337],[139.79932,33.13335],[139.79936,33.13331],[139.79937,33.13319],[139.79935,33.13308],[139.79939,33.13304],[139.79948,33.13304],[139.79952,33.13326],[139.79958,33.13329],[139.79966,33.1332],[139.79962,33.13299],[139.79969,33.13289],[139.79979,33.13284],[139.79992,33.13294],[139.79996,33.13294],[139.80003,33.13284],[139.8003,33.13279],[139.80046,33.13268],[139.80056,33.13269],[139.8006,33.13263],[139.8007,33.13256],[139.80078,33.13256],[139.80081,33.13251],[139.80105,33.13257],[139.80104,33.13247],[139.80112,33.13245],[139.80126,33.1325],[139.80137,33.13247],[139.80166,33.13252],[139.80196,33.1325],[139.80226,33.13287],[139.80249,33.13293],[139.80259,33.13289],[139.80263,33.13291],[139.80269,33.13284],[139.80282,33.13289],[139.80284,33.13281],[139.80314,33.13274],[139.80316,33.13268],[139.80313,33.13262],[139.80338,33.1325],[139.80357,33.13253],[139.80355,33.13261],[139.80367,33.13266],[139.80383,33.13267],[139.8042,33.13259],[139.80437,33.13248],[139.80451,33.13227],[139.80459,33.13234],[139.80464,33.13233],[139.80466,33.1323],[139.80461,33.13222],[139.80469,33.13219],[139.80472,33.13213],[139.80485,33.13214],[139.8049,33.13219],[139.80495,33.13216],[139.80577,33.13229],[139.80582,33.13203],[139.80512,33.13192],[139.80485,33.13192],[139.80526,33.13102],[139.80522,33.13099],[139.80522,33.1309],[139.80518,33.13087],[139.8051,33.13059],[139.80518,33.1305],[139.80566,33.13065],[139.80571,33.13055],[139.80546,33.13049],[139.80544,33.13029],[139.805,33.13033],[139.80482,33.13051],[139.80481,33.1307],[139.80504,33.13086],[139.80508,33.13107],[139.80484,33.13158],[139.80447,33.13147],[139.8044,33.13164],[139.80388,33.1315],[139.80391,33.13147],[139.80389,33.13145],[139.80339,33.13188],[139.80346,33.13205],[139.80234,33.13244],[139.80199,33.13169],[139.80308,33.13132],[139.80319,33.13157],[139.8035,33.13148],[139.80382,33.13121],[139.80414,33.13112],[139.80442,33.13044],[139.80475,33.13008],[139.80466,33.13002],[139.80468,33.1299],[139.80481,33.12989],[139.80509,33.12966],[139.80503,33.12932],[139.80509,33.12939],[139.80513,33.12955],[139.80528,33.12959],[139.80519,33.12981],[139.80536,33.12982],[139.8054,33.12975],[139.80559,33.12976],[139.80563,33.12989],[139.80559,33.12997],[139.80561,33.13001],[139.80571,33.13001],[139.8058,33.12992],[139.80572,33.12983],[139.80566,33.1298],[139.80567,33.12977],[139.80561,33.12966],[139.80563,33.12953],[139.8056,33.12947],[139.80573,33.1294],[139.80581,33.12949],[139.80597,33.12951],[139.80597,33.12962],[139.80588,33.12964],[139.80592,33.12982],[139.80599,33.1298],[139.80599,33.12966],[139.80645,33.12973],[139.80665,33.12973],[139.80674,33.12983],[139.80673,33.12994],[139.80675,33.12999],[139.80715,33.13016],[139.80672,33.13109],[139.80631,33.13095],[139.80626,33.13105],[139.80639,33.13109],[139.80641,33.13106],[139.80681,33.1312],[139.8068,33.13153],[139.80674,33.13169],[139.80659,33.13179],[139.80611,33.13283],[139.80638,33.13292],[139.80712,33.13134],[139.80713,33.13121],[139.80758,33.1303],[139.80761,33.13032],[139.80767,33.13021],[139.80811,33.13016],[139.8081,33.13012],[139.80874,33.13001],[139.80883,33.13021],[139.80894,33.13027],[139.80905,33.13025],[139.80912,33.13016],[139.80934,33.13025],[139.80937,33.13021],[139.80935,33.13012],[139.80943,33.13016],[139.80954,33.13031],[139.80975,33.13016],[139.80971,33.13011],[139.81005,33.13021],[139.81006,33.13016],[139.80999,33.13004],[139.81,33.12998],[139.81014,33.12987],[139.81024,33.12998],[139.81031,33.13],[139.81039,33.12994],[139.81039,33.12987],[139.81043,33.12981],[139.81036,33.12975],[139.81019,33.12973],[139.81009,33.12968],[139.81019,33.12966],[139.81022,33.12955],[139.81032,33.12948],[139.81036,33.12933],[139.81043,33.12937],[139.81046,33.12927],[139.81056,33.12925],[139.81055,33.12907],[139.81038,33.129],[139.81068,33.12902],[139.81081,33.12884],[139.81084,33.12888],[139.81082,33.12895],[139.81096,33.12892],[139.81096,33.12888],[139.81085,33.12879],[139.81083,33.1287],[139.81098,33.12866],[139.81111,33.12867],[139.81113,33.12864],[139.81093,33.12847],[139.81097,33.12842],[139.81099,33.12841],[139.81107,33.12851],[139.81119,33.12854],[139.81127,33.12851],[139.81138,33.12837],[139.8116,33.1284],[139.81168,33.12836],[139.81177,33.12839],[139.81193,33.1283],[139.81189,33.12818],[139.81196,33.12805],[139.81192,33.12818],[139.812,33.12841],[139.81199,33.12845],[139.81179,33.12846],[139.81174,33.1285],[139.81169,33.1284],[139.81153,33.12856],[139.81162,33.12871],[139.81177,33.12869],[139.8118,33.12864],[139.81191,33.12865],[139.81198,33.12853],[139.81217,33.1285],[139.81218,33.12842],[139.81217,33.12839],[139.81214,33.12841],[139.81214,33.12837],[139.81226,33.12823],[139.81235,33.12825],[139.81244,33.12821],[139.81252,33.12829],[139.81257,33.12821],[139.81255,33.12815],[139.81263,33.12812],[139.81281,33.12813],[139.81279,33.12825],[139.81305,33.12824],[139.81308,33.12828],[139.81314,33.12828],[139.81323,33.12837],[139.81357,33.12836],[139.81379,33.12821],[139.81395,33.12814],[139.81399,33.12804],[139.8141,33.12797],[139.81455,33.12768],[139.81468,33.12761],[139.81472,33.12762],[139.81478,33.12752],[139.81486,33.12752],[139.81488,33.12756],[139.81493,33.12756],[139.81488,33.12744],[139.81491,33.12729],[139.81497,33.12721],[139.81506,33.12724],[139.81502,33.12716],[139.8151,33.12691],[139.81517,33.12687],[139.81544,33.12695],[139.81548,33.12691],[139.81521,33.1267],[139.81518,33.12661],[139.8152,33.12652],[139.81536,33.12631],[139.81576,33.12597],[139.81588,33.12593],[139.81625,33.12612],[139.81627,33.12607],[139.81602,33.12592],[139.81615,33.12579],[139.81653,33.12596],[139.81648,33.12614],[139.81659,33.12617],[139.8166,33.12607],[139.81668,33.12592],[139.81695,33.12575],[139.81704,33.12563],[139.81696,33.12559],[139.81687,33.12571],[139.81661,33.12584],[139.81649,33.12585],[139.81635,33.12579],[139.81618,33.12532],[139.81615,33.12511],[139.81621,33.1248],[139.81632,33.12456],[139.81649,33.12443],[139.81678,33.12403],[139.81679,33.12398],[139.81693,33.12394],[139.81745,33.12408],[139.81744,33.12412],[139.81758,33.12417],[139.8176,33.12416],[139.81801,33.12447],[139.81807,33.12443],[139.81811,33.12445],[139.81821,33.12428],[139.81803,33.12434],[139.81797,33.12433],[139.81772,33.12415],[139.81773,33.12413],[139.81766,33.124],[139.81763,33.12403],[139.81757,33.12401],[139.81755,33.12403],[139.81716,33.1239],[139.81735,33.12365],[139.81732,33.12356],[139.81728,33.12356],[139.81703,33.12383],[139.8168,33.12378],[139.81683,33.12355],[139.81689,33.12338],[139.81694,33.12335],[139.81702,33.12339],[139.81711,33.12334],[139.81725,33.1232],[139.8173,33.12321],[139.81729,33.12316],[139.81717,33.12312],[139.81725,33.12309],[139.81727,33.12305],[139.81714,33.12307],[139.81706,33.12305],[139.81715,33.12306],[139.81742,33.12292],[139.81939,33.12369],[139.81973,33.12309],[139.81991,33.12316],[139.81999,33.12303],[139.81712,33.1219],[139.81709,33.12195],[139.81677,33.1219],[139.81692,33.12175],[139.81692,33.12167],[139.817,33.12163],[139.81705,33.12152],[139.817,33.12139],[139.81668,33.12128],[139.8167,33.12113],[139.81683,33.12106],[139.81675,33.121],[139.81672,33.12093],[139.81692,33.12095],[139.81715,33.12107],[139.81728,33.12108],[139.81729,33.12102],[139.81713,33.121],[139.81716,33.12079],[139.81743,33.12082],[139.81736,33.12126],[139.81756,33.12128],[139.81758,33.12111],[139.81749,33.1211],[139.81755,33.12075],[139.81723,33.1207],[139.81692,33.12056],[139.81693,33.12052],[139.81704,33.12055],[139.81706,33.12049],[139.81716,33.12053],[139.81722,33.12051],[139.81709,33.12041],[139.8168,33.12044],[139.81698,33.12037],[139.8171,33.1202],[139.81748,33.12008],[139.81753,33.12009],[139.81765,33.12003],[139.81773,33.12019],[139.81784,33.12021],[139.81787,33.12017],[139.81785,33.12005],[139.81774,33.12002],[139.81771,33.11997],[139.81774,33.11992],[139.81786,33.11987],[139.81823,33.11989],[139.81837,33.11993],[139.8189,33.11987],[139.81907,33.11992],[139.81912,33.11997],[139.81918,33.11995],[139.81935,33.11999],[139.81953,33.11999],[139.8196,33.12003],[139.81968,33.12001],[139.81968,33.12006],[139.81977,33.12016],[139.81988,33.12017],[139.82001,33.12024],[139.82001,33.12032],[139.82008,33.12024],[139.82022,33.12021],[139.8203,33.12014],[139.82038,33.12014],[139.82044,33.12021],[139.82049,33.1202],[139.82067,33.11999],[139.82088,33.11997],[139.82151,33.11976],[139.82169,33.11973],[139.82188,33.11981],[139.82193,33.11977],[139.82206,33.11978],[139.82214,33.11974],[139.82218,33.11978],[139.82232,33.11976],[139.82237,33.11981],[139.82244,33.11977],[139.82263,33.11978],[139.82267,33.1197],[139.82295,33.11949],[139.82324,33.11941],[139.82338,33.11946],[139.82374,33.11932],[139.82417,33.11885],[139.82477,33.11861],[139.82491,33.11849],[139.82502,33.11827],[139.82533,33.11806],[139.8257,33.1179],[139.82599,33.11784],[139.82629,33.11765],[139.82669,33.11754],[139.82708,33.1175],[139.82764,33.11733],[139.82804,33.11727],[139.8281,33.11733],[139.82823,33.11733],[139.82841,33.11725],[139.82849,33.11727],[139.82855,33.11722],[139.82875,33.11719],[139.82898,33.11718],[139.82905,33.11725],[139.82913,33.11719],[139.82982,33.11713],[139.8302,33.11717],[139.83062,33.11709],[139.83098,33.11711],[139.83146,33.11721],[139.83167,33.1172],[139.83171,33.11726],[139.83181,33.11725],[139.83188,33.11733],[139.832,33.11729],[139.83252,33.11732],[139.83271,33.11747],[139.83307,33.11753],[139.83311,33.1175],[139.83333,33.11762],[139.83342,33.1176],[139.83359,33.11766],[139.83384,33.11754],[139.83414,33.1175],[139.83454,33.11685],[139.83478,33.11677],[139.83576,33.11685],[139.8364,33.11701],[139.83677,33.117],[139.83757,33.11674],[139.83768,33.11648],[139.83771,33.11616],[139.83767,33.11582],[139.83774,33.1157],[139.83739,33.11521],[139.83797,33.11433],[139.83753,33.11394],[139.83791,33.11343],[139.83814,33.11293],[139.83816,33.11239],[139.83806,33.11163],[139.83793,33.11119],[139.83798,33.11104],[139.83793,33.11023],[139.83695,33.10968],[139.83671,33.1091],[139.83601,33.10795],[139.83542,33.10709],[139.83526,33.10681],[139.83531,33.10586],[139.83514,33.10585],[139.83491,33.10573],[139.83403,33.10541],[139.83369,33.10497],[139.83295,33.10491],[139.83287,33.1045],[139.83249,33.10429],[139.83224,33.10362],[139.83196,33.10323],[139.8314,33.10271],[139.83113,33.10253],[139.83114,33.10246],[139.8309,33.10222],[139.83116,33.10208],[139.83106,33.10141],[139.83042,33.10112],[139.83015,33.10108],[139.82976,33.10055],[139.82906,33.10031],[139.82864,33.10028],[139.82827,33.1002],[139.82816,33.10005],[139.82798,33.09998],[139.8277,33.09941],[139.82715,33.09907],[139.8263,33.09879],[139.82601,33.0985],[139.82569,33.09788],[139.82597,33.09763],[139.82628,33.09676],[139.82652,33.09557],[139.82597,33.0951],[139.82624,33.09437],[139.82668,33.09376],[139.82629,33.09333],[139.82614,33.09283],[139.82651,33.09278],[139.82638,33.09237],[139.82622,33.09148],[139.82581,33.09064],[139.82521,33.09025],[139.82455,33.08973],[139.82385,33.0894],[139.82348,33.08928],[139.82271,33.08948],[139.82238,33.0898],[139.82216,33.08982],[139.8218,33.08974],[139.82152,33.0898],[139.82127,33.08995],[139.82142,33.09001],[139.82123,33.09018],[139.82082,33.09072],[139.82029,33.09125],[139.81966,33.09244],[139.81955,33.09275],[139.8193,33.09287],[139.81925,33.09294],[139.81878,33.09316],[139.8184,33.09316],[139.8175,33.09274],[139.81725,33.09258],[139.81641,33.09249],[139.81613,33.0925],[139.81591,33.09256],[139.81559,33.09253],[139.81528,33.09245],[139.81482,33.09226],[139.81428,33.09197],[139.81413,33.09186],[139.81365,33.09178],[139.81308,33.09177],[139.81239,33.09186],[139.8119,33.09201],[139.81202,33.09365],[139.81094,33.09474],[139.8104,33.09516],[139.8094,33.09551],[139.80819,33.09607],[139.80731,33.09642],[139.80665,33.09677],[139.80612,33.09714],[139.80566,33.09731],[139.8044,33.0981],[139.80373,33.09901],[139.80361,33.09957],[139.80377,33.10092],[139.80322,33.10225],[139.80254,33.10338],[139.80118,33.10457],[139.80018,33.10485],[139.79962,33.10563],[139.79875,33.10635],[139.79814,33.10668],[139.7978,33.10709],[139.79745,33.1076],[139.79712,33.10817],[139.79674,33.10859],[139.79592,33.10902],[139.79528,33.10943],[139.79514,33.11012],[139.79472,33.11024],[139.79457,33.11057],[139.79411,33.1108],[139.79336,33.11169],[139.79333,33.11183],[139.79312,33.11211],[139.79238,33.11227],[139.79144,33.11216],[139.78782,33.11448],[139.78764,33.11647],[139.788,33.11716],[139.78829,33.1179],[139.78867,33.11853],[139.78819,33.11905],[139.78789,33.11899],[139.787,33.1187],[139.78595,33.1197],[139.78491,33.12093],[139.78399,33.12217],[139.7834,33.12303],[139.78258,33.12393],[139.78255,33.12494],[139.78227,33.1252],[139.78158,33.12488],[139.78018,33.12578],[139.77913,33.1254],[139.76858,33.13458],[139.76654,33.1364],[139.76405,33.1402],[139.7626,33.14076],[139.76053,33.1429],[139.76013,33.14317],[139.75926,33.14386],[139.75738,33.14592],[139.75446,33.14858],[139.75347,33.14943],[139.74787,33.15458],[139.74631,33.1557],[139.74645,33.15575],[139.74673,33.15563],[139.747,33.15563],[139.74709,33.15567],[139.74709,33.1557],[139.74692,33.15573],[139.74688,33.1558],[139.74699,33.15586],[139.74717,33.15589],[139.74721,33.15598],[139.7472,33.15606],[139.74718,33.15607],[139.74714,33.15599],[139.74711,33.15599],[139.74705,33.15602],[139.74668,33.15606],[139.74662,33.15614],[139.74669,33.15624],[139.74683,33.15628],[139.74691,33.15637],[139.74725,33.15633],[139.74728,33.1562],[139.74734,33.15614],[139.74739,33.15615],[139.74748,33.15629],[139.74769,33.15639],[139.74777,33.15651],[139.748,33.15665],[139.74828,33.15667],[139.7484,33.15673],[139.74895,33.15686],[139.74915,33.15696],[139.74931,33.15697],[139.74954,33.15691],[139.75005,33.15715],[139.7501,33.15722],[139.75023,33.15724],[139.75021,33.15719],[139.75036,33.15717],[139.75047,33.15723],[139.75061,33.15717],[139.75083,33.15714],[139.75119,33.15719],[139.75166,33.15716],[139.75201,33.1573],[139.75203,33.1575],[139.75207,33.15754],[139.75229,33.15756],[139.75226,33.15762],[139.75214,33.15763],[139.75218,33.15767],[139.75234,33.15766],[139.75245,33.15759],[139.75247,33.15753],[139.75268,33.15746],[139.75274,33.15754],[139.75282,33.15759],[139.75295,33.15783],[139.75308,33.15789],[139.75324,33.15791],[139.75379,33.15791],[139.75395,33.15796],[139.75413,33.15796],[139.75428,33.15789],[139.75437,33.15772],[139.75445,33.15765],[139.75461,33.15761],[139.75481,33.15763],[139.75533,33.15809],[139.75547,33.15811],[139.75556,33.15801],[139.75565,33.15806],[139.75579,33.15804],[139.75609,33.1581],[139.75611,33.15818],[139.7561,33.15837],[139.7562,33.15852],[139.75656,33.15845],[139.7567,33.15829],[139.75676,33.15815],[139.75686,33.15817],[139.75687,33.15853],[139.75707,33.15859],[139.75723,33.15873],[139.75726,33.15881],[139.75722,33.15893],[139.75736,33.15907],[139.75739,33.15916],[139.75796,33.15942],[139.75811,33.15945],[139.75825,33.15954],[139.7591,33.15964],[139.75926,33.15962],[139.75949,33.15951],[139.75959,33.15928]]],[[[139.81884,33.12516],[139.81854,33.12523],[139.8183,33.12518],[139.81825,33.1252],[139.81833,33.12539],[139.81854,33.12554],[139.81873,33.12559],[139.81884,33.12556],[139.81894,33.12536],[139.81884,33.12516]]]]}},{"type":"Feature","properties":{"id":"area-134010020","name":"大賀郷"},"geometry":{"type":"Polygon","coordinates":[[[139.74596,33.15584],[139.74621,33.15568],[139.74631,33.1557],[139.74787,33.15458],[139.75347,33.14943],[139.75446,33.14858],[139.75738,33.14592],[139.75926,33.14386],[139.76013,33.14317],[139.76053,33.1429],[139.7626,33.14076],[139.76405,33.1402],[139.76654,33.1364],[139.76858,33.13458],[139.77913,33.1254],[139.78018,33.12578],[139.78158,33.12488],[139.78227,33.1252],[139.78255,33.12494],[139.78258,33.12393],[139.7834,33.12303],[139.78399,33.12217],[139.78491,33.12093],[139.78595,33.1197],[139.787,33.1187],[139.78789,33.11899],[139.78819,33.11905],[139.78867,33.11853],[139.78829,33.1179],[139.788,33.11716],[139.78764,33.11647],[139.78782,33.11448],[139.79144,33.11216],[139.79238,33.11227],[139.79312,33.11211],[139.79333,33.11183],[139.79336,33.11169],[139.79411,33.1108],[139.79457,33.11057],[139.79472,33.11024],[139.79514,33.11012],[139.79528,33.10943],[139.79592,33.10902],[139.79674,33.10859],[139.79712,33.10817],[139.79745,33.1076],[139.7978,33.10709],[139.79814,33.10668],[139.79875,33.10635],[139.79962,33.10563],[139.80018,33.10485],[139.80118,33.10457],[139.80254,33.10338],[139.80322,33.10225],[139.80377,33.10092],[139.80361,33.09957],[139.80373,33.09901],[139.8044,33.0981],[139.80566,33.09731],[139.80612,33.09714],[139.80665,33.09677],[139.80731,33.09642],[139.80819,33.09607],[139.8094,33.09551],[139.8104,33.09516],[139.81094,33.09474],[139.81202,33.09365],[139.8119,33.09201],[139.8114,33.09183],[139.81092,33.09148],[139.80985,33.09082],[139.80911,33.09001],[139.80877,33.08943],[139.80845,33.08908],[139.80722,33.0893],[139.80718,33.08973],[139.80705,33.09005],[139.80661,33.09029],[139.80625,33.09023],[139.80598,33.09033],[139.8059,33.09044],[139.8056,33.09048],[139.80522,33.09106],[139.80472,33.09139],[139.80443,33.09177],[139.80394,33.09228],[139.80373,33.09227],[139.80339,33.09248],[139.80281,33.09311],[139.80217,33.09333],[139.80137,33.09402],[139.80089,33.09477],[139.80071,33.09531],[139.80002,33.09557],[139.79972,33.09589],[139.79839,33.09633],[139.79726,33.09692],[139.79681,33.0975],[139.79618,33.0977],[139.79533,33.0976],[139.79419,33.09688],[139.79339,33.09607],[139.79231,33.09551],[139.79195,33.09511],[139.79176,33.09468],[139.79172,33.09436],[139.79129,33.09398],[139.79044,33.09305],[139.79012,33.09287],[139.78986,33.09256],[139.78957,33.09243],[139.78946,33.0923],[139.78837,33.09169],[139.78835,33.09124],[139.78806,33.09078],[139.78769,33.08979],[139.78766,33.0888],[139.78747,33.08866],[139.787,33.08771],[139.78693,33.08749],[139.78692,33.08694],[139.78685,33.08679],[139.78675,33.08631],[139.7865,33.08586],[139.78622,33.08547],[139.78587,33.08532],[139.78568,33.08517],[139.78553,33.08482],[139.78524,33.08461],[139.78503,33.08432],[139.7848,33.08424],[139.78438,33.08427],[139.78398,33.08421],[139.78363,33.08405],[139.78346,33.08406],[139.78312,33.08418],[139.78282,33.08418],[139.78253,33.08408],[139.78228,33.08406],[139.78196,33.08412],[139.78167,33.08475],[139.78115,33.08509],[139.7808,33.08565],[139.78024,33.086],[139.78002,33.08628],[139.77961,33.08659],[139.77962,33.08662],[139.77965,33.08659],[139.77973,33.0866],[139.77974,33.08663],[139.77968,33.08666],[139.7797,33.0867],[139.77976,33.08672],[139.7797,33.08676],[139.77974,33.08685],[139.77982,33.0868],[139.77978,33.08694],[139.77981,33.08709],[139.77978,33.08724],[139.77981,33.08731],[139.77988,33.08734],[139.7799,33.08801],[139.78012,33.08888],[139.78023,33.08951],[139.7803,33.0897],[139.78027,33.08983],[139.78014,33.08988],[139.78009,33.08999],[139.7801,33.09012],[139.78004,33.09028],[139.78006,33.09037],[139.78014,33.09043],[139.78015,33.09048],[139.78005,33.0906],[139.77999,33.09087],[139.78005,33.09092],[139.78013,33.09087],[139.78012,33.09064],[139.78021,33.09057],[139.78029,33.09065],[139.78032,33.09084],[139.78022,33.0912],[139.7801,33.0913],[139.77995,33.0913],[139.77983,33.09156],[139.77981,33.09166],[139.77989,33.09174],[139.77993,33.09189],[139.7798,33.09227],[139.77972,33.09266],[139.77969,33.09268],[139.77963,33.09264],[139.77961,33.09266],[139.7796,33.09272],[139.77966,33.09275],[139.77964,33.09284],[139.77956,33.09292],[139.77943,33.09294],[139.77941,33.09301],[139.77945,33.09305],[139.77951,33.09303],[139.7795,33.09309],[139.77948,33.09312],[139.77938,33.09315],[139.77934,33.09323],[139.77937,33.09338],[139.77944,33.0934],[139.77951,33.09324],[139.77955,33.09323],[139.77952,33.09331],[139.77954,33.09343],[139.77959,33.09344],[139.77959,33.09358],[139.77957,33.09376],[139.77944,33.09379],[139.77943,33.09383],[139.77936,33.09387],[139.77939,33.09391],[139.77934,33.09398],[139.77937,33.09406],[139.77932,33.09406],[139.77933,33.09403],[139.77931,33.09399],[139.77916,33.09402],[139.7793,33.09415],[139.77929,33.09418],[139.77923,33.09418],[139.77922,33.09424],[139.77933,33.09424],[139.77924,33.09428],[139.77927,33.09436],[139.77923,33.09435],[139.7792,33.09439],[139.77928,33.09442],[139.77925,33.09458],[139.77917,33.09474],[139.77912,33.09479],[139.77908,33.09478],[139.77905,33.09481],[139.77895,33.09477],[139.77889,33.09485],[139.779,33.09488],[139.77888,33.0949],[139.77892,33.09496],[139.77905,33.09498],[139.77903,33.0951],[139.77896,33.09515],[139.77885,33.09511],[139.7787,33.09514],[139.77875,33.09522],[139.77885,33.09524],[139.77883,33.09533],[139.77874,33.09539],[139.77877,33.09545],[139.77884,33.09548],[139.77883,33.09556],[139.77856,33.09614],[139.7783,33.09648],[139.77819,33.09682],[139.77685,33.09806],[139.77658,33.09805],[139.7765,33.09799],[139.7764,33.09797],[139.77634,33.09798],[139.77632,33.09801],[139.77638,33.09822],[139.77628,33.09849],[139.77635,33.0985],[139.77648,33.09864],[139.77676,33.09869],[139.77713,33.09915],[139.77661,33.09938],[139.77627,33.09937],[139.77621,33.0993],[139.77614,33.09933],[139.77612,33.09938],[139.77618,33.09946],[139.77674,33.09949],[139.77722,33.09926],[139.77742,33.09951],[139.77733,33.09956],[139.7774,33.09964],[139.77749,33.09959],[139.77841,33.10004],[139.77869,33.09992],[139.77964,33.10007],[139.77947,33.10086],[139.77858,33.10073],[139.77866,33.10038],[139.77851,33.10035],[139.7779,33.10001],[139.77766,33.09991],[139.77764,33.09993],[139.77781,33.10001],[139.77749,33.10044],[139.77736,33.10036],[139.77657,33.10026],[139.77651,33.09979],[139.77592,33.09974],[139.77557,33.0999],[139.77528,33.09942],[139.77596,33.09912],[139.77604,33.09923],[139.77615,33.09919],[139.77613,33.09916],[139.7762,33.09911],[139.77617,33.09907],[139.77608,33.09905],[139.77595,33.09888],[139.77585,33.09887],[139.77578,33.09894],[139.77576,33.09879],[139.77556,33.09854],[139.77556,33.0984],[139.7757,33.0982],[139.77567,33.09815],[139.7758,33.09772],[139.77582,33.09773],[139.77586,33.09762],[139.77568,33.09759],[139.77565,33.09769],[139.77562,33.09768],[139.77541,33.09842],[139.77538,33.09835],[139.77532,33.09835],[139.7753,33.09826],[139.77526,33.09832],[139.77525,33.09848],[139.77519,33.09861],[139.77507,33.09863],[139.77517,33.099],[139.77515,33.09905],[139.77506,33.0989],[139.77503,33.09891],[139.77497,33.09904],[139.77486,33.09895],[139.77486,33.09888],[139.77479,33.09882],[139.77471,33.09883],[139.77467,33.0989],[139.77454,33.09871],[139.77446,33.09875],[139.77453,33.09885],[139.77445,33.09891],[139.77435,33.09886],[139.77426,33.09894],[139.77421,33.09887],[139.77417,33.09885],[139.7741,33.09888],[139.77402,33.09898],[139.77406,33.09881],[139.77416,33.09867],[139.77394,33.0987],[139.77384,33.09883],[139.77376,33.09883],[139.77376,33.0987],[139.77373,33.09869],[139.77365,33.0987],[139.77365,33.09876],[139.77361,33.09876],[139.77359,33.09869],[139.77351,33.09871],[139.77345,33.09869],[139.77343,33.09861],[139.77351,33.09858],[139.77351,33.09846],[139.77346,33.09837],[139.77328,33.09836],[139.7733,33.09829],[139.77322,33.09827],[139.77321,33.09816],[139.77304,33.09812],[139.773,33.09806],[139.77278,33.09814],[139.77276,33.09827],[139.77282,33.09832],[139.77277,33.09835],[139.7727,33.09835],[139.77259,33.09826],[139.77257,33.09809],[139.77271,33.09805],[139.77279,33.09785],[139.77288,33.09781],[139.77283,33.09778],[139.77282,33.0977],[139.77262,33.09761],[139.7723,33.09767],[139.77225,33.09771],[139.77224,33.09777],[139.77228,33.09782],[139.77224,33.09787],[139.77224,33.09796],[139.77228,33.09801],[139.77232,33.09802],[139.77233,33.09807],[139.77214,33.09821],[139.77181,33.09834],[139.77171,33.09829],[139.77178,33.09825],[139.77175,33.09819],[139.77162,33.0982],[139.77156,33.09818],[139.77153,33.09819],[139.7715,33.09828],[139.77152,33.09833],[139.77142,33.0983],[139.77134,33.09833],[139.77135,33.09841],[139.77149,33.09842],[139.77171,33.09861],[139.77162,33.0987],[139.77161,33.09882],[139.77128,33.09888],[139.7712,33.09883],[139.77104,33.09887],[139.77096,33.09883],[139.77102,33.09882],[139.77102,33.09878],[139.77082,33.09881],[139.77076,33.09875],[139.77078,33.09859],[139.77089,33.09841],[139.77087,33.09837],[139.77095,33.09833],[139.77096,33.09824],[139.77091,33.09821],[139.77096,33.09815],[139.7709,33.0981],[139.77086,33.09796],[139.77078,33.09744],[139.77056,33.09746],[139.77052,33.09718],[139.77016,33.09722],[139.77041,33.0987],[139.77044,33.09871],[139.77046,33.09898],[139.77066,33.09896],[139.77071,33.09901],[139.77068,33.09905],[139.77078,33.09938],[139.771,33.0996],[139.77129,33.1001],[139.77137,33.10015],[139.7713,33.10025],[139.7712,33.10024],[139.7711,33.10009],[139.77061,33.0997],[139.77062,33.09965],[139.77043,33.09957],[139.77031,33.09945],[139.77032,33.09942],[139.7702,33.09926],[139.76994,33.09915],[139.76968,33.09916],[139.76954,33.0991],[139.76947,33.0991],[139.76926,33.09929],[139.76902,33.09938],[139.76903,33.09948],[139.76897,33.09951],[139.7692,33.09961],[139.76934,33.09971],[139.76951,33.09969],[139.76956,33.09975],[139.76965,33.09973],[139.76966,33.09967],[139.76974,33.0997],[139.76976,33.0998],[139.76969,33.09991],[139.76975,33.10012],[139.7697,33.10022],[139.76959,33.10026],[139.76954,33.1002],[139.76948,33.1002],[139.76942,33.10026],[139.76946,33.10041],[139.7696,33.10053],[139.76962,33.10064],[139.76958,33.10065],[139.76944,33.1005],[139.76934,33.10046],[139.76932,33.10047],[139.7694,33.10061],[139.76937,33.10064],[139.76931,33.10063],[139.7691,33.10041],[139.76906,33.10032],[139.76893,33.1003],[139.76891,33.10034],[139.76897,33.10037],[139.76898,33.10043],[139.76895,33.10066],[139.76882,33.10077],[139.76872,33.1007],[139.76855,33.1007],[139.76829,33.10054],[139.76822,33.10053],[139.76795,33.10064],[139.76792,33.10068],[139.76794,33.10075],[139.76785,33.10084],[139.76791,33.10084],[139.7679,33.10106],[139.76785,33.10107],[139.76785,33.10114],[139.76792,33.10129],[139.76797,33.1013],[139.76797,33.10142],[139.76802,33.10149],[139.76793,33.10157],[139.76759,33.10123],[139.76757,33.10128],[139.7676,33.10142],[139.76751,33.10144],[139.76745,33.10154],[139.76748,33.10159],[139.76733,33.10156],[139.76718,33.10167],[139.76722,33.10176],[139.76687,33.10161],[139.76679,33.10153],[139.76658,33.10151],[139.76651,33.10155],[139.76642,33.1017],[139.76622,33.10178],[139.76611,33.10171],[139.76604,33.10178],[139.76598,33.10168],[139.76587,33.10171],[139.76589,33.10158],[139.76584,33.10157],[139.7657,33.10165],[139.7657,33.10151],[139.76558,33.10153],[139.76553,33.1015],[139.76552,33.1014],[139.76538,33.10131],[139.76526,33.10104],[139.7652,33.10102],[139.76517,33.10113],[139.76519,33.10123],[139.7654,33.10162],[139.76533,33.10175],[139.76519,33.10181],[139.76519,33.10186],[139.76527,33.1019],[139.76521,33.1019],[139.76526,33.10199],[139.7652,33.10204],[139.76508,33.10203],[139.76501,33.10209],[139.76469,33.10215],[139.76458,33.10211],[139.76416,33.10217],[139.76413,33.10216],[139.76411,33.10209],[139.76406,33.10206],[139.76402,33.10208],[139.76396,33.10225],[139.76392,33.10225],[139.76388,33.1022],[139.76385,33.1021],[139.76381,33.10208],[139.76377,33.10211],[139.76374,33.10195],[139.76368,33.10183],[139.76369,33.10176],[139.76362,33.10166],[139.76347,33.10161],[139.76337,33.10166],[139.76323,33.10162],[139.76319,33.1017],[139.76307,33.10176],[139.76302,33.10186],[139.76293,33.10183],[139.7629,33.10186],[139.76291,33.10194],[139.76301,33.10211],[139.76301,33.10217],[139.76276,33.10204],[139.76257,33.1021],[139.76218,33.10213],[139.76216,33.10216],[139.76219,33.1022],[139.76215,33.10222],[139.76197,33.10214],[139.76184,33.10215],[139.76164,33.10209],[139.76162,33.10213],[139.76174,33.10225],[139.76153,33.10245],[139.76163,33.10256],[139.76162,33.1027],[139.7611,33.10274],[139.76103,33.10278],[139.76093,33.10272],[139.76085,33.10281],[139.76072,33.10276],[139.76066,33.10283],[139.7606,33.10285],[139.76053,33.10278],[139.76044,33.10283],[139.7601,33.10286],[139.75956,33.10297],[139.75946,33.10305],[139.75942,33.10299],[139.75928,33.10294],[139.75914,33.10296],[139.75917,33.10284],[139.7589,33.1027],[139.75878,33.10275],[139.75874,33.10282],[139.75865,33.1028],[139.75857,33.10284],[139.75834,33.10277],[139.75819,33.10278],[139.75794,33.10295],[139.7579,33.10307],[139.75791,33.10293],[139.75766,33.10304],[139.75767,33.10298],[139.75762,33.10296],[139.75757,33.10299],[139.75757,33.10296],[139.75748,33.10293],[139.75744,33.10299],[139.75748,33.10307],[139.75738,33.10305],[139.75732,33.10313],[139.75732,33.10317],[139.75737,33.10322],[139.75725,33.10317],[139.7571,33.10329],[139.75709,33.10334],[139.75691,33.10328],[139.75678,33.10329],[139.75681,33.10335],[139.75672,33.10338],[139.75671,33.10341],[139.75674,33.10351],[139.75664,33.10352],[139.75661,33.10358],[139.75648,33.10365],[139.75637,33.10365],[139.75632,33.10368],[139.75627,33.10377],[139.75644,33.10402],[139.75634,33.10397],[139.75625,33.10382],[139.75606,33.10379],[139.75588,33.10362],[139.75572,33.10357],[139.75566,33.10352],[139.7556,33.10353],[139.7557,33.10375],[139.75551,33.10383],[139.7554,33.10378],[139.75534,33.10379],[139.75539,33.10387],[139.75528,33.10383],[139.75516,33.10395],[139.75509,33.10412],[139.75518,33.10426],[139.75508,33.10429],[139.75514,33.10439],[139.75529,33.10444],[139.75529,33.10434],[139.75532,33.10434],[139.75537,33.10445],[139.75545,33.10451],[139.75537,33.10455],[139.75535,33.10462],[139.75546,33.10479],[139.75545,33.10483],[139.75533,33.10483],[139.75528,33.10487],[139.75531,33.10508],[139.75522,33.10512],[139.7552,33.10519],[139.75512,33.1052],[139.75505,33.10505],[139.75495,33.10502],[139.75488,33.10495],[139.75477,33.10494],[139.75484,33.10491],[139.75485,33.10487],[139.75468,33.10475],[139.75457,33.10482],[139.75448,33.1048],[139.75448,33.10487],[139.75456,33.10496],[139.75445,33.105],[139.75433,33.10525],[139.75434,33.10516],[139.75425,33.10512],[139.75423,33.10507],[139.75414,33.10505],[139.75407,33.10507],[139.75403,33.10516],[139.75403,33.10544],[139.75408,33.10553],[139.75391,33.10573],[139.75396,33.10583],[139.75392,33.1059],[139.75386,33.10588],[139.75379,33.10604],[139.75371,33.10608],[139.75367,33.10605],[139.75364,33.1061],[139.75357,33.10612],[139.75358,33.10623],[139.75341,33.10631],[139.75337,33.10636],[139.75342,33.10649],[139.75339,33.10653],[139.75341,33.10658],[139.75334,33.10666],[139.75341,33.10682],[139.75304,33.10679],[139.75298,33.10681],[139.75293,33.10687],[139.753,33.10696],[139.75318,33.10696],[139.7533,33.10705],[139.75342,33.10706],[139.75334,33.10716],[139.7532,33.10714],[139.75314,33.10718],[139.75316,33.10725],[139.75326,33.10731],[139.7532,33.1074],[139.75297,33.10724],[139.75293,33.10726],[139.75293,33.10732],[139.75282,33.10736],[139.75285,33.10747],[139.75291,33.1075],[139.75307,33.10757],[139.75321,33.10756],[139.75323,33.10763],[139.75315,33.10762],[139.75308,33.10776],[139.75298,33.10776],[139.75294,33.1078],[139.75298,33.10785],[139.75308,33.10785],[139.7531,33.10788],[139.75318,33.10783],[139.75321,33.10786],[139.75321,33.10804],[139.75303,33.10792],[139.75296,33.10793],[139.75296,33.10802],[139.75306,33.10811],[139.75296,33.10831],[139.75298,33.10836],[139.75294,33.10845],[139.75289,33.10849],[139.75299,33.10852],[139.75294,33.10865],[139.75288,33.10869],[139.75291,33.10874],[139.75283,33.10891],[139.75278,33.10892],[139.75268,33.10889],[139.7526,33.10897],[139.7526,33.1091],[139.75274,33.10917],[139.75269,33.10924],[139.75273,33.1093],[139.75267,33.1093],[139.75264,33.10934],[139.75239,33.10935],[139.75228,33.10942],[139.75232,33.10948],[139.75222,33.10952],[139.75222,33.10958],[139.75229,33.10956],[139.75231,33.1096],[139.75219,33.10975],[139.75222,33.10999],[139.7521,33.11028],[139.75216,33.11041],[139.75207,33.11046],[139.75211,33.11053],[139.75222,33.11052],[139.75217,33.11061],[139.75223,33.11068],[139.75215,33.11073],[139.75216,33.11078],[139.7522,33.11079],[139.75223,33.11076],[139.75233,33.11084],[139.75227,33.11107],[139.75236,33.1112],[139.75239,33.11138],[139.75236,33.11148],[139.75238,33.11157],[139.75237,33.11165],[139.75257,33.11179],[139.75247,33.11194],[139.7524,33.1122],[139.75236,33.11245],[139.75241,33.11249],[139.7521,33.11261],[139.75212,33.11268],[139.75225,33.11268],[139.75213,33.11272],[139.75214,33.11276],[139.75219,33.11273],[139.75222,33.11277],[139.75211,33.11295],[139.75213,33.1131],[139.75209,33.11314],[139.75185,33.11365],[139.75183,33.11404],[139.75176,33.1143],[139.75168,33.11442],[139.75158,33.11443],[139.75156,33.11453],[139.7515,33.1146],[139.75148,33.11476],[139.75143,33.1149],[139.75134,33.11487],[139.75135,33.11502],[139.75128,33.11515],[139.75136,33.11518],[139.75127,33.11539],[139.75112,33.11547],[139.75089,33.11588],[139.75064,33.11591],[139.75035,33.11615],[139.75018,33.11622],[139.75018,33.1163],[139.75004,33.11646],[139.74946,33.11709],[139.74932,33.11739],[139.74909,33.11772],[139.74889,33.11786],[139.74876,33.11776],[139.74869,33.11811],[139.74842,33.11824],[139.74818,33.11855],[139.74809,33.11854],[139.74804,33.11861],[139.74788,33.11855],[139.74787,33.11861],[139.748,33.11873],[139.74801,33.11877],[139.74783,33.11887],[139.74784,33.11904],[139.74769,33.11914],[139.74747,33.11917],[139.74744,33.11922],[139.74735,33.11919],[139.74691,33.11952],[139.74674,33.11974],[139.74665,33.11978],[139.74656,33.11976],[139.7465,33.11985],[139.74656,33.11996],[139.74645,33.12026],[139.74632,33.12042],[139.74616,33.12055],[139.74591,33.12058],[139.74583,33.12063],[139.7458,33.12089],[139.74567,33.12103],[139.74554,33.12124],[139.74515,33.1212],[139.74485,33.12111],[139.74482,33.12112],[139.74477,33.1212],[139.74463,33.12117],[139.74453,33.1212],[139.74468,33.12137],[139.74467,33.12141],[139.74457,33.12149],[139.74456,33.12156],[139.74446,33.1217],[139.74447,33.12175],[139.74461,33.12213],[139.74473,33.12226],[139.74474,33.12232],[139.74439,33.12289],[139.74423,33.12291],[139.74422,33.12298],[139.74426,33.123],[139.74425,33.12308],[139.74416,33.12316],[139.74422,33.12322],[139.74422,33.12327],[139.74432,33.1233],[139.7444,33.1234],[139.74436,33.12354],[139.74426,33.12356],[139.74437,33.1237],[139.74428,33.12388],[139.74426,33.12397],[139.74415,33.12407],[139.74416,33.12425],[139.74408,33.12428],[139.74419,33.12434],[139.74416,33.12441],[139.74416,33.12464],[139.74398,33.12482],[139.74396,33.12492],[139.74387,33.12499],[139.74379,33.12513],[139.74374,33.12525],[139.74378,33.12536],[139.74368,33.12545],[139.74362,33.1257],[139.74357,33.12576],[139.7434,33.12622],[139.74327,33.12639],[139.74316,33.12643],[139.74306,33.12643],[139.74259,33.12625],[139.74245,33.12628],[139.74246,33.12633],[139.74257,33.12642],[139.74283,33.12651],[139.74296,33.12664],[139.74296,33.12668],[139.74283,33.12687],[139.74269,33.12689],[139.74245,33.12678],[139.74223,33.12679],[139.74212,33.12672],[139.74202,33.12675],[139.74194,33.12681],[139.74195,33.12701],[139.74206,33.12719],[139.74218,33.12722],[139.7424,33.12717],[139.74248,33.1272],[139.74237,33.12739],[139.74239,33.12755],[139.74224,33.1276],[139.74232,33.12778],[139.74233,33.12789],[139.74218,33.12784],[139.74209,33.12786],[139.74201,33.12804],[139.74186,33.12813],[139.74189,33.1282],[139.74163,33.12832],[139.74161,33.12839],[139.74167,33.12847],[139.74167,33.12855],[139.74154,33.12859],[139.74152,33.12872],[139.74141,33.12886],[139.74131,33.12895],[139.74124,33.12896],[139.74127,33.12908],[139.74085,33.12992],[139.7407,33.13012],[139.74056,33.1302],[139.74051,33.13033],[139.74037,33.13049],[139.74031,33.13074],[139.74021,33.1309],[139.74011,33.13103],[139.7399,33.13119],[139.73992,33.1314],[139.73983,33.13152],[139.73992,33.13163],[139.73988,33.1318],[139.73994,33.13206],[139.73992,33.13216],[139.74,33.13248],[139.73998,33.13261],[139.73987,33.13299],[139.73981,33.13306],[139.73982,33.13315],[139.73974,33.1333],[139.73966,33.13332],[139.73963,33.13337],[139.73959,33.1333],[139.73944,33.13327],[139.73948,33.13334],[139.73932,33.1334],[139.73929,33.13356],[139.73936,33.1337],[139.73977,33.13371],[139.7398,33.13386],[139.73992,33.13395],[139.73989,33.13408],[139.73992,33.13429],[139.73977,33.13452],[139.73976,33.13463],[139.73967,33.13475],[139.73958,33.13508],[139.73946,33.13527],[139.73933,33.13539],[139.73925,33.13572],[139.73928,33.13591],[139.73922,33.13597],[139.73891,33.13678],[139.73863,33.13724],[139.73867,33.13739],[139.73849,33.13761],[139.73856,33.13775],[139.73852,33.13808],[139.73845,33.13816],[139.73842,33.13844],[139.73832,33.13856],[139.73831,33.1387],[139.73841,33.13903],[139.73847,33.13908],[139.73843,33.13952],[139.73858,33.13959],[139.7387,33.13958],[139.73875,33.13962],[139.73867,33.13975],[139.73871,33.14024],[139.73879,33.14029],[139.73875,33.14035],[139.73863,33.14042],[139.73871,33.1405],[139.7386,33.1407],[139.73861,33.14078],[139.7387,33.14093],[139.73851,33.14148],[139.73843,33.14154],[139.7385,33.14169],[139.73855,33.14175],[139.7385,33.14192],[139.7386,33.14194],[139.73866,33.14187],[139.73873,33.14184],[139.73881,33.14195],[139.73882,33.14224],[139.73898,33.14244],[139.73897,33.14249],[139.73884,33.14264],[139.73882,33.14271],[139.73887,33.14277],[139.73909,33.14289],[139.73892,33.143],[139.73898,33.14316],[139.73905,33.14318],[139.73956,33.14313],[139.73954,33.14329],[139.73967,33.14375],[139.73953,33.14409],[139.73947,33.14439],[139.7393,33.14473],[139.73934,33.14494],[139.73929,33.14513],[139.73953,33.14526],[139.73957,33.14539],[139.73924,33.1455],[139.73902,33.14549],[139.73891,33.14552],[139.73867,33.14567],[139.73854,33.14586],[139.73857,33.1459],[139.73877,33.1459],[139.73935,33.1458],[139.73941,33.14584],[139.73945,33.14598],[139.73956,33.14605],[139.73964,33.14624],[139.73989,33.14632],[139.73997,33.14645],[139.74024,33.14636],[139.7403,33.14637],[139.7404,33.14647],[139.74049,33.1465],[139.74063,33.14668],[139.74058,33.14684],[139.74041,33.14692],[139.74042,33.14695],[139.74053,33.14697],[139.7407,33.1469],[139.7409,33.14687],[139.74102,33.1469],[139.74104,33.14705],[139.74096,33.14718],[139.74096,33.1473],[139.74106,33.14737],[139.74117,33.14732],[139.74131,33.14731],[139.74131,33.14747],[139.74152,33.1478],[139.74148,33.14804],[139.74163,33.14812],[139.7417,33.14811],[139.7417,33.14819],[139.74174,33.1482],[139.74187,33.14806],[139.74197,33.14804],[139.7419,33.14823],[139.74171,33.14849],[139.74156,33.14859],[139.74158,33.14876],[139.74169,33.14884],[139.74199,33.14888],[139.742,33.14892],[139.74197,33.14894],[139.74179,33.14899],[139.74177,33.14903],[139.74181,33.14908],[139.74206,33.14914],[139.74228,33.14925],[139.74249,33.14946],[139.7425,33.14975],[139.74261,33.15002],[139.74254,33.15011],[139.74261,33.15018],[139.74271,33.15021],[139.74271,33.15029],[139.74263,33.15039],[139.74268,33.15051],[139.74279,33.15056],[139.74304,33.15055],[139.74307,33.15057],[139.74305,33.15067],[139.74291,33.1508],[139.74288,33.15088],[139.74295,33.15096],[139.74309,33.15095],[139.7431,33.15102],[139.74296,33.15102],[139.74273,33.15114],[139.74258,33.15114],[139.74247,33.15126],[139.74247,33.15131],[139.74264,33.15136],[139.74273,33.15133],[139.74289,33.15119],[139.74314,33.15113],[139.74322,33.15116],[139.74325,33.15136],[139.74338,33.15148],[139.74345,33.15163],[139.74349,33.15181],[139.74346,33.15203],[139.74351,33.15215],[139.7436,33.15222],[139.74357,33.15227],[139.74358,33.15238],[139.74365,33.15249],[139.74378,33.15259],[139.74383,33.15279],[139.74377,33.15299],[139.74374,33.15336],[139.74355,33.15357],[139.74336,33.15356],[139.7433,33.1536],[139.7433,33.15376],[139.74327,33.15381],[139.74333,33.15385],[139.74339,33.15382],[139.74345,33.15384],[139.74352,33.15393],[139.74357,33.15392],[139.74368,33.15389],[139.7437,33.15379],[139.74374,33.15378],[139.74376,33.15383],[139.74374,33.15395],[139.74377,33.154],[139.74399,33.15389],[139.74409,33.15395],[139.74421,33.15391],[139.74428,33.1538],[139.74436,33.15383],[139.74451,33.15418],[139.74465,33.15422],[139.74471,33.15429],[139.74471,33.15444],[139.74474,33.15449],[139.74522,33.15498],[139.74549,33.15514],[139.74584,33.15549],[139.74586,33.15558],[139.74574,33.15568],[139.74577,33.15583],[139.74581,33.15583],[139.74591,33.15575],[139.74594,33.15584],[139.74596,33.15584]]]}},{"type":"Feature","properties":{"id":"area-134010030","name":"樫立"},"geometry":{"type":"Polygon","coordinates":[[[139.80339,33.09248],[139.80373,33.09227],[139.80394,33.09228],[139.80443,33.09177],[139.80472,33.09139],[139.80522,33.09106],[139.8056,33.09048],[139.8059,33.09044],[139.80598,33.09033],[139.80625,33.09023],[139.80661,33.09029],[139.80705,33.09005],[139.80718,33.08973],[139.80722,33.0893],[139.80845,33.08908],[139.80877,33.08943],[139.80911,33.09001],[139.80985,33.09082],[139.81092,33.09148],[139.8114,33.09183],[139.8119,33.09201],[139.81239,33.09186],[139.81308,33.09177],[139.81365,33.09178],[139.81384,33.09089],[139.81392,33.09031],[139.81394,33.08877],[139.81379,33.08839],[139.81321,33.08768],[139.813,33.08694],[139.81279,33.08647],[139.81302,33.08601],[139.81325,33.08586],[139.81335,33.08535],[139.81111,33.08507],[139.81123,33.08384],[139.81111,33.08335],[139.81111,33.08279],[139.81117,33.08165],[139.81078,33.08023],[139.81062,33.07942],[139.81032,33.07891],[139.80996,33.07839],[139.80931,33.07756],[139.809,33.07707],[139.80864,33.07628],[139.80838,33.07537],[139.80845,33.07494],[139.80842,33.07438],[139.80809,33.07387],[139.80674,33.07259],[139.80651,33.07243],[139.80637,33.07248],[139.8057,33.07221],[139.80587,33.07199],[139.8059,33.07142],[139.80576,33.07098],[139.80558,33.071],[139.80542,33.07085],[139.80531,33.07064],[139.80507,33.07041],[139.805,33.07015],[139.80497,33.06992],[139.80528,33.06973],[139.80528,33.06969],[139.80478,33.06987],[139.80468,33.06966],[139.80456,33.06954],[139.80426,33.06955],[139.80307,33.06871],[139.80233,33.06829],[139.80197,33.06766],[139.80208,33.06677],[139.80195,33.06637],[139.80164,33.06614],[139.80154,33.06596],[139.80157,33.06558],[139.80167,33.06528],[139.80164,33.06491],[139.80143,33.06462],[139.80132,33.064],[139.80102,33.06395],[139.80098,33.06388],[139.8009,33.06385],[139.80078,33.06382],[139.80067,33.06384],[139.80022,33.06371],[139.79982,33.0635],[139.79974,33.06339],[139.79967,33.06337],[139.7996,33.06327],[139.79931,33.06304],[139.79914,33.06297],[139.79892,33.06295],[139.79874,33.06286],[139.79827,33.06287],[139.79797,33.06272],[139.79787,33.06278],[139.79776,33.06278],[139.79767,33.06262],[139.79761,33.06269],[139.79756,33.06284],[139.79752,33.06287],[139.79749,33.06283],[139.79746,33.06252],[139.79714,33.06269],[139.79716,33.06276],[139.79724,33.0628],[139.79714,33.06284],[139.79712,33.0629],[139.79706,33.06295],[139.79679,33.06281],[139.79669,33.06283],[139.79669,33.06288],[139.79691,33.0631],[139.7968,33.06307],[139.79652,33.0631],[139.79644,33.06306],[139.79654,33.06288],[139.79648,33.06288],[139.79647,33.06291],[139.79639,33.06282],[139.79643,33.06277],[139.79641,33.06269],[139.79604,33.06251],[139.79602,33.06256],[139.7961,33.06262],[139.79596,33.06264],[139.7959,33.06269],[139.79587,33.06283],[139.79568,33.06278],[139.79552,33.06265],[139.79546,33.0627],[139.79547,33.06274],[139.79573,33.06289],[139.79582,33.06298],[139.79582,33.06301],[139.79575,33.06306],[139.79542,33.06307],[139.79515,33.06316],[139.79514,33.06318],[139.79518,33.0632],[139.79524,33.06331],[139.7953,33.06335],[139.79513,33.06349],[139.79512,33.06371],[139.79504,33.0638],[139.79503,33.06393],[139.79496,33.06398],[139.79488,33.06422],[139.79478,33.06431],[139.79475,33.06427],[139.79472,33.06433],[139.79476,33.06441],[139.7946,33.0647],[139.79454,33.06474],[139.79445,33.0649],[139.79388,33.06551],[139.7936,33.06564],[139.79353,33.06564],[139.79352,33.06569],[139.79337,33.0658],[139.79301,33.06596],[139.79277,33.06595],[139.79254,33.06601],[139.79216,33.06604],[139.79157,33.06628],[139.79142,33.06631],[139.79123,33.0664],[139.79121,33.06645],[139.79116,33.06642],[139.79107,33.06643],[139.79093,33.06655],[139.79087,33.06653],[139.79069,33.06625],[139.79056,33.06624],[139.79053,33.06631],[139.79046,33.06632],[139.79051,33.06647],[139.79049,33.06654],[139.79041,33.06657],[139.79037,33.06655],[139.79037,33.0666],[139.79032,33.06663],[139.7902,33.06661],[139.79015,33.06668],[139.78996,33.06669],[139.78998,33.06673],[139.78985,33.06677],[139.78981,33.06682],[139.78974,33.06682],[139.78968,33.06689],[139.78965,33.06685],[139.78965,33.06677],[139.7896,33.06682],[139.78961,33.06691],[139.78954,33.06695],[139.78944,33.06689],[139.78941,33.0669],[139.78941,33.06695],[139.78948,33.06698],[139.78938,33.06703],[139.78919,33.06723],[139.78898,33.06732],[139.78899,33.06746],[139.78891,33.0674],[139.78888,33.06743],[139.78892,33.06747],[139.78886,33.06752],[139.78866,33.06746],[139.78849,33.06749],[139.78837,33.0676],[139.78828,33.06763],[139.78821,33.06762],[139.78819,33.06765],[139.78821,33.06774],[139.78815,33.06779],[139.78813,33.06784],[139.78806,33.06782],[139.78801,33.06788],[139.78797,33.06788],[139.78789,33.06797],[139.78786,33.06809],[139.78781,33.06808],[139.78767,33.06822],[139.78763,33.06821],[139.78759,33.06824],[139.78763,33.06832],[139.78756,33.06836],[139.78752,33.06844],[139.78743,33.06846],[139.78736,33.06862],[139.78724,33.06867],[139.78724,33.0687],[139.78699,33.06892],[139.78656,33.06908],[139.78645,33.06908],[139.78626,33.06922],[139.78579,33.06937],[139.7857,33.06935],[139.78564,33.06944],[139.78553,33.06948],[139.78548,33.06947],[139.78547,33.06941],[139.7853,33.0694],[139.7848,33.06962],[139.78455,33.06967],[139.78443,33.06961],[139.78432,33.06941],[139.78421,33.06933],[139.78416,33.06932],[139.78414,33.06934],[139.78421,33.06942],[139.78422,33.06953],[139.7843,33.0697],[139.78391,33.06979],[139.78389,33.06988],[139.78351,33.07022],[139.78334,33.0705],[139.78327,33.07055],[139.78323,33.07063],[139.78306,33.07083],[139.78296,33.07088],[139.78288,33.07103],[139.78275,33.07114],[139.78271,33.07123],[139.78261,33.07127],[139.78255,33.07143],[139.7825,33.07146],[139.78239,33.07147],[139.78238,33.0715],[139.7825,33.07153],[139.78241,33.07167],[139.78229,33.07173],[139.78216,33.07186],[139.78203,33.07183],[139.78199,33.07192],[139.78186,33.07188],[139.78187,33.07197],[139.78175,33.07206],[139.78175,33.07214],[139.78158,33.07225],[139.78153,33.07239],[139.7814,33.07245],[139.78136,33.07252],[139.78138,33.07272],[139.78132,33.07274],[139.78131,33.07282],[139.78119,33.07295],[139.7812,33.07304],[139.7811,33.07314],[139.78109,33.07323],[139.781,33.07336],[139.78105,33.07343],[139.78104,33.07347],[139.7807,33.07404],[139.78074,33.07414],[139.78069,33.0742],[139.78058,33.07416],[139.7806,33.07421],[139.78069,33.07429],[139.7807,33.07447],[139.78062,33.0746],[139.78056,33.07484],[139.78041,33.07496],[139.78028,33.0752],[139.78027,33.07529],[139.78013,33.07537],[139.7801,33.07531],[139.77994,33.07531],[139.7799,33.07532],[139.77986,33.07544],[139.77979,33.07538],[139.77977,33.07531],[139.77972,33.07528],[139.77963,33.07526],[139.77953,33.07533],[139.77954,33.0754],[139.77964,33.07547],[139.77955,33.0755],[139.77964,33.07562],[139.77977,33.0755],[139.77986,33.07556],[139.78005,33.0755],[139.78014,33.0755],[139.78015,33.07554],[139.78032,33.07564],[139.78032,33.0757],[139.78043,33.07577],[139.78023,33.07582],[139.78018,33.07588],[139.7804,33.07583],[139.78046,33.07588],[139.78046,33.07595],[139.78042,33.07609],[139.78026,33.07624],[139.78036,33.07633],[139.78036,33.07645],[139.78031,33.0765],[139.78041,33.07652],[139.78041,33.07668],[139.78038,33.07689],[139.78031,33.07691],[139.78027,33.07698],[139.78034,33.07717],[139.78031,33.07726],[139.78035,33.07738],[139.78033,33.07751],[139.78026,33.07756],[139.78025,33.07765],[139.78031,33.07803],[139.78036,33.07815],[139.78032,33.07836],[139.78038,33.07861],[139.78032,33.0788],[139.78034,33.07902],[139.78041,33.07918],[139.78045,33.07948],[139.78041,33.07968],[139.78044,33.08018],[139.78039,33.08045],[139.7804,33.08087],[139.78037,33.08113],[139.7804,33.08133],[139.78045,33.08142],[139.78033,33.08223],[139.78028,33.08238],[139.78031,33.08261],[139.78027,33.08269],[139.78029,33.0828],[139.78026,33.08303],[139.78022,33.08311],[139.78023,33.08324],[139.7802,33.08333],[139.78006,33.08336],[139.78023,33.08345],[139.7801,33.08354],[139.78022,33.08363],[139.78023,33.08373],[139.78006,33.08431],[139.77991,33.08462],[139.77982,33.08496],[139.77983,33.08505],[139.77977,33.0852],[139.7797,33.08565],[139.77973,33.08569],[139.77967,33.08574],[139.77973,33.08577],[139.77963,33.0859],[139.77964,33.08595],[139.77972,33.08598],[139.77971,33.08607],[139.77966,33.08614],[139.77969,33.08624],[139.77966,33.08628],[139.77969,33.0863],[139.7797,33.08646],[139.77962,33.08644],[139.77963,33.08657],[139.78002,33.08628],[139.78024,33.086],[139.7808,33.08565],[139.78115,33.08509],[139.78167,33.08475],[139.78196,33.08412],[139.78228,33.08406],[139.78253,33.08408],[139.78282,33.08418],[139.78312,33.08418],[139.78346,33.08406],[139.78363,33.08405],[139.78398,33.08421],[139.78438,33.08427],[139.7848,33.08424],[139.78503,33.08432],[139.78524,33.08461],[139.78553,33.08482],[139.78568,33.08517],[139.78587,33.08532],[139.78622,33.08547],[139.7865,33.08586],[139.78675,33.08631],[139.78685,33.08679],[139.78692,33.08694],[139.78693,33.08749],[139.787,33.08771],[139.78747,33.08866],[139.78766,33.0888],[139.78769,33.08979],[139.78806,33.09078],[139.78835,33.09124],[139.78837,33.09169],[139.78946,33.0923],[139.78957,33.09243],[139.78986,33.09256],[139.79012,33.09287],[139.79044,33.09305],[139.79129,33.09398],[139.79172,33.09436],[139.79176,33.09468],[139.79195,33.09511],[139.79231,33.09551],[139.79339,33.09607],[139.79419,33.09688],[139.79533,33.0976],[139.79618,33.0977],[139.79681,33.0975],[139.79726,33.09692],[139.79839,33.09633],[139.79972,33.09589],[139.80002,33.09557],[139.80071,33.09531],[139.80089,33.09477],[139.80137,33.09402],[139.80217,33.09333],[139.80281,33.09311],[139.80339,33.09248]]]}},{"type":"Feature","properties":{"id":"area-134010040","name":"中之郷"},"geometry":{"type":"Polygon","coordinates":[[[139.8184,33.09316],[139.81878,33.09316],[139.81925,33.09294],[139.8193,33.09287],[139.81955,33.09275],[139.81966,33.09244],[139.82029,33.09125],[139.82082,33.09072],[139.82123,33.09018],[139.82142,33.09001],[139.82127,33.08995],[139.82152,33.0898],[139.8218,33.08974],[139.82216,33.08982],[139.82238,33.0898],[139.82271,33.08948],[139.82348,33.08928],[139.82315,33.08912],[139.82318,33.0889],[139.82292,33.08823],[139.82282,33.08759],[139.82283,33.08727],[139.82249,33.08679],[139.82222,33.08666],[139.82164,33.08628],[139.8213,33.08601],[139.82138,33.0857],[139.82115,33.08563],[139.82109,33.08535],[139.82157,33.08518],[139.82169,33.08487],[139.82253,33.0848],[139.82309,33.08469],[139.82369,33.08417],[139.82391,33.08393],[139.82402,33.08374],[139.82532,33.08257],[139.82621,33.08164],[139.82699,33.08017],[139.82705,33.07995],[139.82748,33.07931],[139.82772,33.07888],[139.82793,33.07868],[139.82819,33.07836],[139.82907,33.07797],[139.8297,33.07709],[139.8303,33.07667],[139.83054,33.07597],[139.83052,33.07558],[139.83069,33.075],[139.83105,33.07435],[139.8311,33.07405],[139.83137,33.07334],[139.83078,33.07292],[139.83075,33.07261],[139.83112,33.07166],[139.8314,33.0714],[139.83204,33.07134],[139.83255,33.07085],[139.83337,33.07089],[139.83355,33.07085],[139.83392,33.07092],[139.83467,33.07083],[139.83477,33.07074],[139.83482,33.07053],[139.83582,33.06971],[139.83579,33.06945],[139.83634,33.06897],[139.83627,33.06887],[139.83621,33.06883],[139.83589,33.06881],[139.83562,33.06868],[139.8355,33.06867],[139.83518,33.06848],[139.83453,33.06802],[139.83439,33.06787],[139.83427,33.06785],[139.83413,33.06778],[139.83392,33.06756],[139.83363,33.06716],[139.83362,33.06709],[139.83352,33.06699],[139.83347,33.06676],[139.83339,33.06661],[139.83338,33.0665],[139.83334,33.06645],[139.8333,33.06606],[139.83332,33.06577],[139.83326,33.06546],[139.83328,33.06524],[139.83351,33.06493],[139.83353,33.06479],[139.83348,33.06455],[139.83355,33.06447],[139.83367,33.06421],[139.83366,33.06416],[139.83376,33.06407],[139.83385,33.06352],[139.83384,33.06298],[139.83373,33.06276],[139.83373,33.06253],[139.83385,33.06165],[139.83382,33.06148],[139.83386,33.06112],[139.83376,33.06025],[139.83354,33.05918],[139.83363,33.05865],[139.83368,33.05797],[139.83358,33.05703],[139.83349,33.05675],[139.83344,33.05593],[139.83341,33.05583],[139.83344,33.05568],[139.83338,33.05551],[139.83338,33.05535],[139.83337,33.05527],[139.83343,33.05513],[139.83336,33.0549],[139.83346,33.05468],[139.83357,33.05467],[139.8337,33.05455],[139.83386,33.05433],[139.83402,33.05397],[139.83435,33.05369],[139.83439,33.05366],[139.83447,33.05366],[139.83461,33.05354],[139.83479,33.05331],[139.83505,33.05308],[139.83523,33.05283],[139.83584,33.05224],[139.83634,33.05166],[139.83637,33.05126],[139.83643,33.05112],[139.83654,33.05103],[139.83657,33.05096],[139.83673,33.05089],[139.83675,33.0508],[139.83689,33.05064],[139.83681,33.05039],[139.83669,33.05027],[139.83665,33.05009],[139.83696,33.04978],[139.83702,33.04958],[139.83673,33.04946],[139.83665,33.04935],[139.8367,33.04927],[139.83665,33.04923],[139.83653,33.04926],[139.83638,33.0494],[139.83626,33.04936],[139.83605,33.04921],[139.83589,33.04901],[139.8356,33.0484],[139.83527,33.04816],[139.8346,33.04753],[139.83439,33.04727],[139.83425,33.04696],[139.83416,33.04695],[139.83416,33.0469],[139.83411,33.04691],[139.83408,33.04682],[139.83399,33.04682],[139.83393,33.04673],[139.83381,33.0467],[139.83379,33.04665],[139.83333,33.0465],[139.83313,33.04653],[139.8329,33.04648],[139.83301,33.0463],[139.83297,33.04629],[139.83293,33.04633],[139.83286,33.04625],[139.83283,33.04627],[139.83284,33.04632],[139.8328,33.0463],[139.83277,33.04635],[139.83274,33.04631],[139.8327,33.04634],[139.83262,33.04627],[139.83253,33.04624],[139.83223,33.04642],[139.83207,33.04644],[139.8317,33.04673],[139.8316,33.04673],[139.83158,33.04669],[139.83174,33.04646],[139.83195,33.04629],[139.83218,33.04613],[139.83245,33.04602],[139.83257,33.0459],[139.83287,33.04575],[139.83286,33.04571],[139.83266,33.04561],[139.83271,33.04543],[139.83257,33.04532],[139.83245,33.04532],[139.83226,33.04539],[139.83223,33.04546],[139.83224,33.04566],[139.8322,33.04571],[139.83212,33.04571],[139.83206,33.04574],[139.83209,33.04579],[139.83221,33.0458],[139.83212,33.04583],[139.83209,33.0459],[139.83199,33.04591],[139.8319,33.04586],[139.83182,33.04594],[139.83166,33.04598],[139.83141,33.04631],[139.83118,33.04643],[139.8311,33.04669],[139.83084,33.04678],[139.83072,33.04686],[139.83068,33.04696],[139.83063,33.04693],[139.83063,33.04682],[139.83058,33.04681],[139.83054,33.0469],[139.83047,33.04694],[139.83043,33.04702],[139.83033,33.04708],[139.83028,33.04703],[139.83024,33.04705],[139.83023,33.04715],[139.83034,33.0473],[139.83029,33.04759],[139.83012,33.04785],[139.82983,33.0481],[139.82975,33.04826],[139.82966,33.04832],[139.82965,33.0484],[139.82941,33.0486],[139.82933,33.04861],[139.82879,33.04889],[139.82861,33.04906],[139.82859,33.04915],[139.82845,33.04919],[139.82842,33.04933],[139.82837,33.04931],[139.82824,33.04948],[139.82792,33.04973],[139.82756,33.04992],[139.8274,33.04995],[139.82729,33.05008],[139.82717,33.05011],[139.82661,33.05084],[139.82639,33.051],[139.8263,33.05101],[139.82629,33.05107],[139.82615,33.05118],[139.82609,33.05119],[139.82601,33.05132],[139.82599,33.0515],[139.82588,33.05162],[139.82576,33.05181],[139.82572,33.05181],[139.8257,33.0519],[139.82553,33.05212],[139.82539,33.05223],[139.82517,33.05233],[139.82516,33.05242],[139.82502,33.05247],[139.82467,33.05296],[139.82459,33.05299],[139.82454,33.05296],[139.82453,33.05305],[139.82448,33.05303],[139.82446,33.05295],[139.8244,33.05293],[139.82436,33.05296],[139.82442,33.05305],[139.82447,33.05321],[139.82406,33.05361],[139.8239,33.05383],[139.82349,33.0542],[139.82344,33.05428],[139.82304,33.05467],[139.82245,33.05515],[139.82232,33.05518],[139.8223,33.05526],[139.82203,33.05544],[139.82192,33.05557],[139.82186,33.05581],[139.82181,33.05581],[139.82178,33.05597],[139.82168,33.05604],[139.82165,33.05609],[139.8216,33.0561],[139.82159,33.05616],[139.82154,33.05617],[139.82151,33.05625],[139.82137,33.0564],[139.82125,33.05652],[139.82118,33.05655],[139.82119,33.05661],[139.82112,33.05664],[139.82101,33.05677],[139.82092,33.05681],[139.82084,33.0569],[139.82085,33.05701],[139.82056,33.05724],[139.82043,33.05746],[139.82034,33.05749],[139.82003,33.05783],[139.81935,33.05843],[139.81864,33.0588],[139.81834,33.05892],[139.81816,33.05904],[139.81744,33.05924],[139.81721,33.05935],[139.81698,33.05935],[139.81663,33.05941],[139.81634,33.05939],[139.81618,33.05945],[139.81614,33.05944],[139.81613,33.0593],[139.81597,33.05928],[139.81599,33.05952],[139.8159,33.05952],[139.81588,33.05931],[139.81535,33.05858],[139.81527,33.05863],[139.81579,33.05937],[139.81504,33.05942],[139.81437,33.05894],[139.81435,33.05875],[139.8143,33.05866],[139.8143,33.05862],[139.81439,33.0586],[139.81439,33.05855],[139.81506,33.05832],[139.81508,33.05834],[139.81554,33.05834],[139.81554,33.0581],[139.81513,33.05811],[139.8151,33.05805],[139.81503,33.05802],[139.8149,33.05811],[139.81481,33.05823],[139.8146,33.05829],[139.81458,33.05824],[139.81452,33.05822],[139.81446,33.05833],[139.81434,33.05831],[139.81427,33.05824],[139.81415,33.05829],[139.81403,33.05828],[139.81396,33.05843],[139.81398,33.05866],[139.81395,33.05879],[139.81401,33.05908],[139.81399,33.05912],[139.81407,33.05921],[139.81405,33.05927],[139.81398,33.05929],[139.81392,33.05942],[139.81386,33.05945],[139.81378,33.05942],[139.81377,33.05926],[139.81366,33.05941],[139.81367,33.05951],[139.81356,33.05943],[139.81353,33.05951],[139.81348,33.05948],[139.81344,33.0595],[139.81338,33.05961],[139.81334,33.05958],[139.81324,33.05966],[139.81307,33.05972],[139.81286,33.05974],[139.8126,33.05973],[139.81234,33.05966],[139.81223,33.05956],[139.81213,33.05959],[139.81207,33.05947],[139.81189,33.05946],[139.81181,33.05939],[139.81173,33.05939],[139.81171,33.05932],[139.81166,33.05929],[139.8115,33.05929],[139.81136,33.05912],[139.81121,33.05916],[139.81117,33.0591],[139.8112,33.05901],[139.81117,33.05897],[139.81109,33.05899],[139.81105,33.05904],[139.81099,33.05903],[139.81099,33.05897],[139.81094,33.059],[139.81089,33.05897],[139.81089,33.0589],[139.81072,33.05887],[139.81071,33.0588],[139.81063,33.05881],[139.81059,33.05876],[139.81055,33.05877],[139.81042,33.05871],[139.81029,33.05876],[139.81023,33.05875],[139.81018,33.05865],[139.81025,33.0585],[139.81022,33.05846],[139.8103,33.05834],[139.81025,33.05833],[139.81017,33.05842],[139.81004,33.05872],[139.80992,33.0587],[139.80981,33.05877],[139.80967,33.05878],[139.80958,33.05888],[139.80943,33.0589],[139.80936,33.05895],[139.80926,33.05892],[139.8092,33.059],[139.80893,33.05905],[139.80881,33.05915],[139.80872,33.05915],[139.80866,33.0592],[139.80848,33.05927],[139.80848,33.05919],[139.80842,33.05916],[139.80837,33.05928],[139.80821,33.05931],[139.8081,33.05927],[139.80789,33.05938],[139.80759,33.05937],[139.80741,33.05954],[139.80731,33.05957],[139.80727,33.05962],[139.80725,33.0596],[139.80717,33.05961],[139.80708,33.0597],[139.8069,33.05979],[139.80672,33.05994],[139.80663,33.05989],[139.80655,33.06002],[139.80638,33.06005],[139.80633,33.06015],[139.80633,33.06027],[139.80628,33.06027],[139.80621,33.06019],[139.80621,33.06008],[139.80617,33.06006],[139.80605,33.06001],[139.80581,33.06001],[139.80579,33.06005],[139.80583,33.06014],[139.80567,33.06018],[139.80557,33.06028],[139.80556,33.06033],[139.80587,33.06031],[139.80621,33.06039],[139.80627,33.06041],[139.80626,33.06053],[139.80623,33.06062],[139.80614,33.0607],[139.80616,33.0608],[139.80603,33.06123],[139.80594,33.06137],[139.80586,33.06142],[139.80585,33.06148],[139.80573,33.06163],[139.80558,33.06174],[139.80557,33.06186],[139.80548,33.0619],[139.80534,33.06187],[139.80513,33.06222],[139.80502,33.06221],[139.80484,33.06239],[139.80464,33.06247],[139.80464,33.06257],[139.80456,33.06256],[139.80439,33.06281],[139.80406,33.06304],[139.80394,33.06308],[139.80341,33.06337],[139.80335,33.06336],[139.80279,33.06364],[139.80239,33.06377],[139.80231,33.06383],[139.80212,33.06381],[139.80209,33.06386],[139.80202,33.06389],[139.80188,33.06389],[139.80176,33.06393],[139.80132,33.064],[139.80143,33.06462],[139.80164,33.06491],[139.80167,33.06528],[139.80157,33.06558],[139.80154,33.06596],[139.80164,33.06614],[139.80195,33.06637],[139.80208,33.06677],[139.80197,33.06766],[139.80233,33.06829],[139.80307,33.06871],[139.80426,33.06955],[139.80456,33.06954],[139.80468,33.06966],[139.80478,33.06987],[139.80528,33.06969],[139.80528,33.06973],[139.80497,33.06992],[139.805,33.07015],[139.80507,33.07041],[139.80531,33.07064],[139.80542,33.07085],[139.80558,33.071],[139.80576,33.07098],[139.8059,33.07142],[139.80587,33.07199],[139.8057,33.07221],[139.80637,33.07248],[139.80651,33.07243],[139.80674,33.07259],[139.80809,33.07387],[139.80842,33.07438],[139.80845,33.07494],[139.80838,33.07537],[139.80864,33.07628],[139.809,33.07707],[139.80931,33.07756],[139.80996,33.07839],[139.81032,33.07891],[139.81062,33.07942],[139.81078,33.08023],[139.81117,33.08165],[139.81111,33.08279],[139.81111,33.08335],[139.81123,33.08384],[139.81111,33.08507],[139.81335,33.08535],[139.81325,33.08586],[139.81302,33.08601],[139.81279,33.08647],[139.813,33.08694],[139.81321,33.08768],[139.81379,33.08839],[139.81394,33.08877],[139.81392,33.09031],[139.81384,33.09089],[139.81365,33.09178],[139.81413,33.09186],[139.81428,33.09197],[139.81482,33.09226],[139.81528,33.09245],[139.81559,33.09253],[139.81591,33.09256],[139.81613,33.0925],[139.81641,33.09249],[139.81725,33.09258],[139.8175,33.09274],[139.8184,33.09316]]]}},{"type":"Feature","properties":{"id":"area-134010050","name":"末吉"},"geometry":{"type":"MultiPolygon","coordinates":[[[[139.835,33.11774],[139.83543,33.11775],[139.83586,33.11783],[139.83598,33.11776],[139.83615,33.11781],[139.83623,33.11789],[139.83644,33.11782],[139.83645,33.11789],[139.83652,33.11793],[139.83669,33.11793],[139.83715,33.11782],[139.83732,33.11784],[139.83749,33.11772],[139.83762,33.11774],[139.83762,33.1177],[139.83778,33.11764],[139.83788,33.11766],[139.83826,33.11746],[139.83841,33.11743],[139.83877,33.11729],[139.83894,33.11727],[139.83928,33.11711],[139.83959,33.11709],[139.83969,33.11704],[139.8398,33.11705],[139.8402,33.11689],[139.84048,33.11682],[139.8407,33.11678],[139.84098,33.11679],[139.84128,33.11671],[139.84139,33.11671],[139.8417,33.11651],[139.84179,33.1165],[139.84189,33.11658],[139.84195,33.11649],[139.84209,33.11641],[139.84249,33.11626],[139.84261,33.11633],[139.84291,33.11636],[139.84299,33.11641],[139.84311,33.11637],[139.84319,33.11643],[139.84358,33.11634],[139.84373,33.11635],[139.84379,33.11639],[139.84391,33.11635],[139.84453,33.11646],[139.84462,33.11652],[139.84465,33.11652],[139.84474,33.11638],[139.84482,33.11636],[139.84488,33.11644],[139.84493,33.1166],[139.84502,33.11661],[139.84521,33.11657],[139.8453,33.11652],[139.84533,33.11639],[139.84527,33.11629],[139.84529,33.11621],[139.84534,33.11609],[139.84547,33.11596],[139.84558,33.1159],[139.84582,33.11606],[139.84585,33.11605],[139.84588,33.11601],[139.84585,33.11553],[139.84587,33.11549],[139.84601,33.11546],[139.84605,33.11546],[139.84624,33.11567],[139.84635,33.11573],[139.8464,33.11608],[139.84649,33.11611],[139.84661,33.116],[139.84666,33.11571],[139.84662,33.11556],[139.8463,33.11538],[139.84619,33.11523],[139.84612,33.11501],[139.84598,33.11483],[139.84643,33.11446],[139.84653,33.11432],[139.84682,33.11404],[139.84697,33.11392],[139.84721,33.11385],[139.8473,33.11371],[139.84777,33.11331],[139.84794,33.113],[139.84799,33.11281],[139.84803,33.11278],[139.848,33.11253],[139.84804,33.11247],[139.84806,33.11227],[139.84817,33.11227],[139.84815,33.11214],[139.84811,33.11213],[139.84811,33.11207],[139.84818,33.11194],[139.84824,33.11192],[139.84833,33.11182],[139.84829,33.11168],[139.84873,33.11153],[139.84891,33.1114],[139.84907,33.11133],[139.84923,33.11107],[139.84927,33.11094],[139.84925,33.11071],[139.84928,33.11061],[139.84933,33.11055],[139.84926,33.11048],[139.84924,33.11041],[139.84928,33.11015],[139.84922,33.11009],[139.84921,33.11001],[139.84933,33.10969],[139.84954,33.10949],[139.84952,33.10943],[139.84959,33.10914],[139.84965,33.10908],[139.84964,33.10901],[139.84974,33.1087],[139.84974,33.10841],[139.84988,33.10826],[139.84991,33.10804],[139.84984,33.1079],[139.84996,33.10753],[139.85003,33.10739],[139.85013,33.10708],[139.85035,33.10657],[139.85075,33.10576],[139.8511,33.10519],[139.85117,33.10513],[139.85124,33.10495],[139.85138,33.1048],[139.85143,33.1046],[139.85158,33.10439],[139.85169,33.10433],[139.8517,33.10427],[139.8518,33.10418],[139.85196,33.10395],[139.85222,33.10371],[139.85228,33.1036],[139.85255,33.10344],[139.85256,33.10338],[139.85265,33.10332],[139.85269,33.10319],[139.85291,33.10291],[139.85305,33.10288],[139.8532,33.10302],[139.85331,33.10304],[139.85339,33.10301],[139.85343,33.10294],[139.85341,33.10284],[139.85323,33.10269],[139.85335,33.10254],[139.85346,33.10253],[139.85365,33.10263],[139.85366,33.1026],[139.85359,33.10251],[139.85373,33.10239],[139.85382,33.10236],[139.85386,33.10225],[139.85398,33.1022],[139.85397,33.10208],[139.8541,33.10201],[139.85414,33.10194],[139.85442,33.10185],[139.85451,33.10188],[139.85476,33.10189],[139.85505,33.10172],[139.85514,33.10158],[139.85501,33.10152],[139.855,33.10148],[139.85525,33.10121],[139.85529,33.10105],[139.85554,33.10061],[139.85561,33.10061],[139.85568,33.10052],[139.85568,33.10048],[139.85575,33.10046],[139.85583,33.10032],[139.85595,33.10024],[139.856,33.10018],[139.856,33.10009],[139.85605,33.10007],[139.85606,33.10003],[139.85633,33.0998],[139.85648,33.09983],[139.85671,33.0998],[139.85671,33.09973],[139.85677,33.09966],[139.85683,33.09945],[139.85711,33.09946],[139.85714,33.09936],[139.8571,33.09931],[139.85726,33.09918],[139.85743,33.09914],[139.85743,33.09911],[139.85735,33.09903],[139.85741,33.09897],[139.85742,33.09889],[139.85733,33.09887],[139.85742,33.09868],[139.85734,33.09864],[139.85739,33.09858],[139.85734,33.09852],[139.85741,33.09841],[139.85735,33.09833],[139.85729,33.09832],[139.85723,33.09816],[139.85726,33.0981],[139.85723,33.09808],[139.85715,33.09812],[139.85715,33.09807],[139.8572,33.09807],[139.85719,33.09803],[139.85705,33.09806],[139.85699,33.098],[139.85698,33.09793],[139.85692,33.09785],[139.85694,33.0978],[139.85691,33.09767],[139.85693,33.09759],[139.85683,33.0975],[139.8568,33.09736],[139.85682,33.0973],[139.85674,33.09726],[139.85671,33.09716],[139.85665,33.09715],[139.85669,33.09711],[139.85654,33.0971],[139.85647,33.09707],[139.85633,33.09695],[139.85636,33.09693],[139.8563,33.0969],[139.85636,33.09686],[139.85623,33.0968],[139.8562,33.09673],[139.85592,33.09666],[139.85576,33.0964],[139.85579,33.09634],[139.85578,33.09628],[139.8556,33.09617],[139.85557,33.0961],[139.85549,33.09606],[139.85528,33.09586],[139.85505,33.09547],[139.85502,33.09536],[139.85514,33.09527],[139.8552,33.09515],[139.85518,33.09507],[139.85515,33.09508],[139.85509,33.09519],[139.85501,33.09523],[139.85503,33.09516],[139.85495,33.09499],[139.85497,33.09493],[139.85518,33.09475],[139.85509,33.09474],[139.85494,33.09479],[139.85493,33.09466],[139.85487,33.09459],[139.85492,33.0945],[139.85481,33.09445],[139.85481,33.09438],[139.85488,33.09429],[139.85484,33.09427],[139.85481,33.09433],[139.85476,33.09431],[139.8547,33.09413],[139.85473,33.09409],[139.85457,33.09398],[139.85455,33.09394],[139.85459,33.09389],[139.85453,33.09388],[139.85447,33.09371],[139.85444,33.09348],[139.85448,33.09344],[139.85443,33.0934],[139.8544,33.09329],[139.85437,33.09296],[139.8544,33.09292],[139.85434,33.09287],[139.85437,33.09279],[139.85443,33.09277],[139.85446,33.09269],[139.85463,33.09262],[139.8547,33.09251],[139.85463,33.09248],[139.85467,33.0924],[139.85461,33.09228],[139.85465,33.09221],[139.85457,33.09219],[139.85463,33.09204],[139.85454,33.09205],[139.85445,33.0919],[139.85447,33.09184],[139.85445,33.09182],[139.85452,33.09179],[139.85454,33.09176],[139.85443,33.09157],[139.85448,33.09148],[139.85446,33.0914],[139.85442,33.09134],[139.85447,33.09124],[139.85443,33.09119],[139.85445,33.09107],[139.85455,33.09099],[139.85469,33.09075],[139.85483,33.09068],[139.8549,33.09073],[139.85489,33.09063],[139.85494,33.09054],[139.85508,33.09042],[139.85504,33.09032],[139.85519,33.09019],[139.85515,33.09012],[139.85527,33.09002],[139.85531,33.09007],[139.85534,33.09006],[139.85544,33.08986],[139.8555,33.08992],[139.85557,33.08993],[139.85569,33.08981],[139.85576,33.0898],[139.85578,33.08975],[139.85574,33.08972],[139.85578,33.08967],[139.8558,33.08955],[139.85579,33.0894],[139.85583,33.08934],[139.85577,33.08925],[139.85585,33.08924],[139.85588,33.08908],[139.856,33.08894],[139.85603,33.08882],[139.85617,33.08882],[139.85625,33.08877],[139.85621,33.08873],[139.85625,33.08861],[139.8563,33.08859],[139.85627,33.08846],[139.85629,33.08842],[139.85625,33.08843],[139.85625,33.08835],[139.8563,33.08832],[139.85623,33.08829],[139.85622,33.08823],[139.85643,33.08807],[139.8564,33.08798],[139.85647,33.08792],[139.85654,33.08792],[139.85668,33.08771],[139.85681,33.08771],[139.85681,33.0876],[139.85691,33.0876],[139.85696,33.08748],[139.85709,33.08734],[139.85726,33.08706],[139.85737,33.08698],[139.85748,33.08699],[139.85752,33.08685],[139.8576,33.08683],[139.85769,33.08687],[139.8577,33.08679],[139.85789,33.08662],[139.85791,33.0865],[139.85797,33.08639],[139.85813,33.08625],[139.8582,33.08629],[139.85822,33.08622],[139.85827,33.08618],[139.85828,33.08621],[139.85831,33.0862],[139.85833,33.08603],[139.85849,33.08592],[139.85853,33.08584],[139.85861,33.08584],[139.85865,33.08578],[139.85861,33.08567],[139.85861,33.08548],[139.8585,33.08535],[139.85839,33.08532],[139.85859,33.08514],[139.85854,33.08512],[139.8585,33.08504],[139.85855,33.08488],[139.85848,33.08475],[139.85852,33.08471],[139.85859,33.08471],[139.85855,33.08468],[139.85865,33.08457],[139.85869,33.08438],[139.85875,33.0843],[139.85882,33.08428],[139.85883,33.08423],[139.85889,33.08422],[139.85892,33.08414],[139.859,33.08416],[139.85907,33.08405],[139.85927,33.08407],[139.85931,33.08401],[139.85939,33.08403],[139.85944,33.08394],[139.85938,33.08392],[139.85932,33.08394],[139.85928,33.08391],[139.85924,33.08378],[139.85926,33.08369],[139.85906,33.08351],[139.85905,33.08337],[139.85897,33.08332],[139.85897,33.08338],[139.8589,33.08333],[139.85885,33.08322],[139.85878,33.08323],[139.85864,33.08305],[139.85863,33.08297],[139.8585,33.08278],[139.85858,33.08269],[139.85845,33.08262],[139.85837,33.0825],[139.85842,33.08244],[139.85837,33.08241],[139.85838,33.0823],[139.85829,33.08231],[139.85827,33.08228],[139.85826,33.08223],[139.85836,33.08204],[139.85831,33.08186],[139.85834,33.08179],[139.85827,33.08176],[139.85832,33.08169],[139.85844,33.08171],[139.85845,33.08165],[139.8583,33.08154],[139.85823,33.08153],[139.85827,33.08145],[139.85819,33.08128],[139.85792,33.08107],[139.85778,33.08089],[139.85768,33.0807],[139.85742,33.08045],[139.85738,33.08034],[139.85739,33.08017],[139.85759,33.07984],[139.85765,33.07981],[139.85774,33.07981],[139.85805,33.07998],[139.85838,33.08004],[139.85844,33.08002],[139.85848,33.07983],[139.85859,33.07966],[139.85845,33.0795],[139.85856,33.07939],[139.85846,33.07906],[139.8581,33.07903],[139.85803,33.07883],[139.85797,33.0788],[139.85778,33.07887],[139.85758,33.07886],[139.85743,33.07856],[139.857,33.07855],[139.85686,33.07844],[139.85678,33.07843],[139.85653,33.07827],[139.85649,33.07815],[139.85637,33.07822],[139.85627,33.07808],[139.85613,33.07809],[139.85602,33.07802],[139.85599,33.07793],[139.85589,33.07798],[139.85581,33.07796],[139.85574,33.07787],[139.85557,33.07789],[139.8555,33.07777],[139.85532,33.07778],[139.85526,33.07766],[139.85511,33.07767],[139.85505,33.07762],[139.85503,33.07755],[139.85495,33.07753],[139.85483,33.07744],[139.85475,33.07743],[139.85465,33.0775],[139.8545,33.07753],[139.85434,33.07745],[139.85418,33.07745],[139.8541,33.07751],[139.85402,33.07748],[139.85387,33.07755],[139.85371,33.07752],[139.85366,33.07745],[139.85361,33.07752],[139.85353,33.07746],[139.85347,33.07753],[139.85324,33.07759],[139.85319,33.07755],[139.85253,33.07758],[139.85237,33.07749],[139.85225,33.07755],[139.85217,33.07746],[139.85195,33.07748],[139.85183,33.0774],[139.85177,33.07745],[139.85161,33.07746],[139.8515,33.07752],[139.8514,33.07746],[139.85098,33.07752],[139.85092,33.07763],[139.85079,33.07773],[139.85045,33.07774],[139.85028,33.07792],[139.85015,33.07789],[139.85006,33.07799],[139.84976,33.07801],[139.84961,33.07797],[139.84947,33.078],[139.84902,33.07791],[139.84854,33.07788],[139.84848,33.07786],[139.84841,33.07773],[139.84835,33.07773],[139.84833,33.0778],[139.84828,33.07781],[139.84819,33.07777],[139.84812,33.07767],[139.84802,33.0777],[139.84785,33.07761],[139.84742,33.07737],[139.8474,33.0773],[139.84733,33.07731],[139.84732,33.07722],[139.84721,33.07724],[139.84718,33.07714],[139.84696,33.07715],[139.84693,33.07709],[139.84682,33.0771],[139.84654,33.07694],[139.84615,33.07658],[139.84592,33.07632],[139.84579,33.07627],[139.84577,33.07619],[139.84567,33.07614],[139.84565,33.07609],[139.84571,33.07602],[139.8457,33.07597],[139.84562,33.07595],[139.84558,33.07598],[139.84557,33.07593],[139.84553,33.07591],[139.84543,33.07596],[139.84542,33.07588],[139.84537,33.07584],[139.84536,33.07577],[139.84532,33.07575],[139.84519,33.0758],[139.84523,33.07597],[139.84519,33.0761],[139.84514,33.07617],[139.84502,33.07621],[139.84493,33.07617],[139.84485,33.07608],[139.84474,33.07604],[139.8447,33.07599],[139.84438,33.07586],[139.84433,33.07581],[139.84434,33.07575],[139.84428,33.07571],[139.84411,33.07576],[139.84405,33.07583],[139.84382,33.07584],[139.84369,33.07589],[139.84361,33.07582],[139.84358,33.07587],[139.8435,33.07588],[139.84351,33.07593],[139.84339,33.07597],[139.84325,33.07612],[139.84293,33.07621],[139.84288,33.07627],[139.84288,33.07639],[139.84255,33.07652],[139.84169,33.07609],[139.84142,33.076],[139.84134,33.07604],[139.84087,33.07594],[139.84047,33.07577],[139.84042,33.0757],[139.84043,33.07556],[139.84081,33.0751],[139.84078,33.07473],[139.84069,33.07474],[139.84073,33.07512],[139.8404,33.07553],[139.84033,33.07552],[139.84031,33.0758],[139.84007,33.07593],[139.84008,33.07602],[139.84001,33.07603],[139.83997,33.07603],[139.83988,33.07593],[139.83973,33.07589],[139.83955,33.07576],[139.83967,33.07565],[139.83891,33.075],[139.83914,33.07441],[139.84019,33.07469],[139.8402,33.07464],[139.83905,33.0743],[139.83901,33.07416],[139.83905,33.07403],[139.83894,33.07371],[139.83883,33.07358],[139.83874,33.07321],[139.83854,33.07285],[139.83842,33.07255],[139.83818,33.0722],[139.83781,33.07157],[139.83735,33.07022],[139.83725,33.07004],[139.83695,33.06977],[139.83647,33.06902],[139.83634,33.06897],[139.83579,33.06945],[139.83582,33.06971],[139.83482,33.07053],[139.83477,33.07074],[139.83467,33.07083],[139.83392,33.07092],[139.83355,33.07085],[139.83337,33.07089],[139.83255,33.07085],[139.83204,33.07134],[139.8314,33.0714],[139.83112,33.07166],[139.83075,33.07261],[139.83078,33.07292],[139.83137,33.07334],[139.8311,33.07405],[139.83105,33.07435],[139.83069,33.075],[139.83052,33.07558],[139.83054,33.07597],[139.8303,33.07667],[139.8297,33.07709],[139.82907,33.07797],[139.82819,33.07836],[139.82793,33.07868],[139.82772,33.07888],[139.82748,33.07931],[139.82705,33.07995],[139.82699,33.08017],[139.82621,33.08164],[139.82532,33.08257],[139.82402,33.08374],[139.82391,33.08393],[139.82369,33.08417],[139.82309,33.08469],[139.82253,33.0848],[139.82169,33.08487],[139.82157,33.08518],[139.82109,33.08535],[139.82115,33.08563],[139.82138,33.0857],[139.8213,33.08601],[139.82164,33.08628],[139.82222,33.08666],[139.82249,33.08679],[139.82283,33.08727],[139.82282,33.08759],[139.82292,33.08823],[139.82318,33.0889],[139.82315,33.08912],[139.82348,33.08928],[139.82385,33.0894],[139.82455,33.08973],[139.82521,33.09025],[139.82581,33.09064],[139.82622,33.09148],[139.82638,33.09237],[139.82651,33.09278],[139.82614,33.09283],[139.82629,33.09333],[139.82668,33.09376],[139.82624,33.09437],[139.82597,33.0951],[139.82652,33.09557],[139.82628,33.09676],[139.82597,33.09763],[139.82569,33.09788],[139.82601,33.0985],[139.8263,33.09879],[139.82715,33.09907],[139.8277,33.09941],[139.82798,33.09998],[139.82816,33.10005],[139.82827,33.1002],[139.82864,33.10028],[139.82906,33.10031],[139.82976,33.10055],[139.83015,33.10108],[139.83042,33.10112],[139.83106,33.10141],[139.83116,33.10208],[139.8309,33.10222],[139.83114,33.10246],[139.83113,33.10253],[139.8314,33.10271],[139.83196,33.10323],[139.83224,33.10362],[139.83249,33.10429],[139.83287,33.1045],[139.83295,33.10491],[139.83369,33.10497],[139.83403,33.10541],[139.83491,33.10573],[139.83514,33.10585],[139.83531,33.10586],[139.83526,33.10681],[139.83542,33.10709],[139.83601,33.10795],[139.83671,33.1091],[139.83695,33.10968],[139.83793,33.11023],[139.83798,33.11104],[139.83793,33.11119],[139.83806,33.11163],[139.83816,33.11239],[139.83814,33.11293],[139.83791,33.11343],[139.83753,33.11394],[139.83797,33.11433],[139.83739,33.11521],[139.83774,33.1157],[139.83767,33.11582],[139.83771,33.11616],[139.83768,33.11648],[139.83757,33.11674],[139.83677,33.117],[139.8364,33.11701],[139.83576,33.11685],[139.83478,33.11677],[139.83454,33.11685],[139.83414,33.1175],[139.83421,33.11753],[139.83426,33.1176],[139.8343,33.11789],[139.83442,33.11798],[139.83451,33.11797],[139.83468,33.11789],[139.83482,33.11778],[139.835,33.11774]]],[[[139.84662,33.11695],[139.84662,33.11689],[139.8464,33.11672],[139.84626,33.11667],[139.84613,33.11666],[139.84604,33.11659],[139.8457,33.1165],[139.84563,33.11651],[139.84553,33.11659],[139.84533,33.11659],[139.84522,33.11678],[139.84553,33.11699],[139.84579,33.1169],[139.84592,33.1169],[139.84596,33.11695],[139.84608,33.1169],[139.84615,33.11692],[139.84633,33.11689],[139.84649,33.117],[139.84662,33.11695]]],[[[139.83826,33.11852],[139.83819,33.11867],[139.83804,33.11889],[139.83798,33.11904],[139.83806,33.11912],[139.83822,33.11921],[139.83821,33.11928],[139.83812,33.11933],[139.83819,33.11936],[139.83827,33.11935],[139.83842,33.11923],[139.83842,33.11916],[139.83834,33.1191],[139.83842,33.11906],[139.83834,33.11897],[139.83836,33.11893],[139.83843,33.1189],[139.83842,33.11887],[139.83833,33.11879],[139.83832,33.1186],[139.83826,33.11852]]]]}},{"type":"Feature","properties":{"id":"area-134010060","name":"八丈小島"},"geometry":{"type":"MultiPolygon","coordinates":[[[[139.6887,33.11407],[139.68854,33.11397],[139.68835,33.11395],[139.6883,33.11402],[139.68835,33.1142],[139.68827,33.11425],[139.68817,33.11422],[139.68822,33.11438],[139.68819,33.11458],[139.6883,33.11469],[139.68843,33.11467],[139.68873,33.11445],[139.6888,33.11427],[139.68878,33.11416],[139.6887,33.11407]]],[[[139.68305,33.11591],[139.68319,33.11621],[139.68349,33.1163],[139.68362,33.11627],[139.68375,33.1161],[139.68373,33.11601],[139.68359,33.11591],[139.68354,33.11591],[139.68349,33.11582],[139.68338,33.11576],[139.68314,33.11581],[139.68305,33.11591]]],[[[139.70119,33.11771],[139.70129,33.11775],[139.70124,33.11797],[139.70135,33.11825],[139.70138,33.11845],[139.70156,33.11838],[139.70161,33.11829],[139.70161,33.118],[139.70166,33.11782],[139.70164,33.11777],[139.70143,33.11773],[139.70129,33.11755],[139.70108,33.11742],[139.70089,33.11739],[139.70094,33.11748],[139.70119,33.11771]]],[[[139.68669,33.1361],[139.68695,33.13614],[139.68718,33.13609],[139.68733,33.13602],[139.68747,33.13589],[139.68728,33.13562],[139.68742,33.13537],[139.68762,33.13447],[139.68759,33.13427],[139.68754,33.13415],[139.68802,33.13355],[139.68839,33.13315],[139.68867,33.13279],[139.68877,33.13258],[139.68985,33.13141],[139.69072,33.13098],[139.69125,33.13049],[139.69175,33.13022],[139.69237,33.12995],[139.6932,33.12981],[139.69398,33.12961],[139.69492,33.12921],[139.69518,33.12918],[139.69558,33.12909],[139.69606,33.12886],[139.69708,33.12791],[139.69731,33.12749],[139.69788,33.12671],[139.69816,33.12614],[139.69859,33.12504],[139.69885,33.12475],[139.69896,33.12454],[139.69906,33.12382],[139.69914,33.12272],[139.69912,33.12156],[139.69922,33.12045],[139.69943,33.11946],[139.69983,33.11867],[139.69985,33.11854],[139.70007,33.11845],[139.70028,33.11847],[139.7006,33.11861],[139.70082,33.11852],[139.70084,33.11845],[139.70095,33.11854],[139.701,33.11854],[139.70114,33.11836],[139.70117,33.11789],[139.701,33.1176],[139.70063,33.11737],[139.69995,33.11717],[139.69979,33.11697],[139.70003,33.11657],[139.70005,33.11641],[139.69982,33.11645],[139.69979,33.11625],[139.6996,33.11612],[139.69955,33.11616],[139.69947,33.11616],[139.6993,33.11609],[139.69912,33.11607],[139.69909,33.11612],[139.6988,33.11601],[139.69869,33.11598],[139.69864,33.11601],[139.69848,33.11589],[139.6985,33.11578],[139.69869,33.11578],[139.69895,33.11587],[139.69907,33.11582],[139.69909,33.11576],[139.69893,33.11564],[139.69869,33.11557],[139.6985,33.1156],[139.69832,33.11569],[139.69813,33.11612],[139.69834,33.1165],[139.69837,33.11661],[139.69818,33.11672],[139.6977,33.11692],[139.69735,33.11697],[139.69698,33.11711],[139.69564,33.11747],[139.69439,33.11765],[139.69383,33.11767],[139.69369,33.11761],[139.69287,33.11754],[139.69235,33.11754],[139.69184,33.11747],[139.69142,33.11734],[139.6909,33.11725],[139.69043,33.11721],[139.68973,33.11687],[139.68954,33.11674],[139.68927,33.11667],[139.68892,33.11633],[139.68887,33.11624],[139.68873,33.11617],[139.68809,33.11625],[139.68774,33.11633],[139.6875,33.11676],[139.68713,33.11671],[139.68699,33.11676],[139.68703,33.11687],[139.68692,33.11696],[139.68684,33.11695],[139.68635,33.11706],[139.68609,33.11717],[139.68569,33.11728],[139.68489,33.11769],[139.68454,33.11791],[139.68384,33.11852],[139.68372,33.11877],[139.6835,33.11996],[139.68324,33.12059],[139.68249,33.12162],[139.68238,33.12183],[139.6823,33.12221],[139.68202,33.12296],[139.6818,33.12329],[139.68148,33.12392],[139.681,33.12513],[139.68072,33.12561],[139.67999,33.12644],[139.67983,33.12666],[139.67957,33.12689],[139.67933,33.12716],[139.67865,33.12775],[139.67785,33.12858],[139.67687,33.12968],[139.67677,33.12973],[139.67665,33.1297],[139.67658,33.12957],[139.67628,33.12957],[139.6762,33.1295],[139.67602,33.1296],[139.6759,33.1297],[139.67583,33.13002],[139.67543,33.13067],[139.6751,33.13092],[139.67517,33.13108],[139.67522,33.1311],[139.67543,33.13101],[139.67545,33.13116],[139.67567,33.13137],[139.67629,33.13168],[139.67655,33.13189],[139.67664,33.13251],[139.67658,33.13276],[139.67599,33.13287],[139.6757,33.13287],[139.67554,33.13295],[139.67547,33.13315],[139.6753,33.13321],[139.67528,33.13346],[139.67552,33.13361],[139.67582,33.13353],[139.67594,33.13353],[139.676,33.1336],[139.67573,33.1337],[139.67565,33.13382],[139.67587,33.134],[139.67582,33.13429],[139.67592,33.13438],[139.67605,33.13435],[139.67627,33.1344],[139.6761,33.13463],[139.67614,33.13472],[139.67643,33.13463],[139.67652,33.13479],[139.67635,33.13492],[139.67612,33.13521],[139.67598,33.13521],[139.67595,33.13546],[139.67614,33.13546],[139.67605,33.13582],[139.67619,33.13602],[139.67638,33.13613],[139.67657,33.13618],[139.6767,33.13647],[139.67675,33.13651],[139.67692,33.13647],[139.67705,33.13649],[139.67727,33.1364],[139.67753,33.13615],[139.67774,33.13577],[139.67772,33.13565],[139.67778,33.13555],[139.67788,33.13548],[139.67804,33.13548],[139.67837,33.13527],[139.67842,33.13519],[139.67839,33.13487],[139.67863,33.13442],[139.67875,33.13433],[139.67908,33.13426],[139.67938,33.1343],[139.67962,33.13485],[139.67973,33.13498],[139.67985,33.13503],[139.6801,33.13494],[139.68064,33.13486],[139.68154,33.13527],[139.68189,33.1355],[139.68208,33.1357],[139.68227,33.13601],[139.68238,33.13635],[139.68247,33.13644],[139.68287,33.13661],[139.68308,33.13664],[139.68345,33.1366],[139.68388,33.13648],[139.68418,33.13645],[139.68449,33.13657],[139.68463,33.13648],[139.68484,33.13643],[139.68522,33.13645],[139.68549,33.13664],[139.68568,33.13668],[139.68589,33.13661],[139.68605,33.13634],[139.68669,33.1361]]],[[[139.6986,33.12958],[139.69834,33.12971],[139.69796,33.1301],[139.69794,33.1303],[139.69799,33.13056],[139.69805,33.13068],[139.6981,33.13071],[139.69845,33.13059],[139.69855,33.13052],[139.69861,33.13041],[139.69895,33.13021],[139.69923,33.1296],[139.69911,33.12949],[139.6989,33.12951],[139.6986,33.12958]]],[[[139.67499,33.13011],[139.67497,33.13045],[139.67503,33.1306],[139.6751,33.13067],[139.67522,33.13067],[139.67545,33.1304],[139.67548,33.1302],[139.6754,33.13005],[139.6752,33.12995],[139.67499,33.13011]]]]}}]}